{
  "type": "FeatureCollection",
  "features": [
    {
      "type": "Feature",
      "geometry": {
        "type": "Point",
        "coordinates": [
          23.0091437,
          62.9707334
        ]
      },
      "properties": {
        "id": 194539517,
        "osm_type": "node",
        "name": "Hotelli Lapuahovi",
        "tourism": "hotel",
        "phone": "+3586 433 7300",
        "website": "https://www.lapuahovi.fi/"
      }
    },
    {
      "type": "Feature",
      "geometry": {
        "type": "Point",
        "coordinates": [
          21.9889457,
          62.6626829
        ]
      },
      "properties": {
        "id": 307793899,
        "osm_type": "node",
        "tourism": "caravan_site"
      }
    },
    {
      "type": "Feature",
      "geometry": {
        "type": "Point",
        "coordinates": [
          22.4156123,
          62.5876048
        ]
      },
      "properties": {
        "id": 466091986,
        "osm_type": "node",
        "name": "Pitkämönranta",
        "tourism": "camp_site"
      }
    },
    {
      "type": "Feature",
      "geometry": {
        "type": "Point",
        "coordinates": [
          22.838948,
          62.7881409
        ]
      },
      "properties": {
        "id": 536785199,
        "osm_type": "node",
        "name": "Original Sokos Hotel Vaakuna, Seinäjoki",
        "tourism": "hotel",
        "phone": "+358 10 764 7000",
        "website": "https://www.sokoshotels.fi/hotellit/seinajoki/original-sokos-hotel-vaakuna"
      }
    },
    {
      "type": "Feature",
      "geometry": {
        "type": "Point",
        "coordinates": [
          22.8473955,
          62.7884721
        ]
      },
      "properties": {
        "id": 536785215,
        "osm_type": "node",
        "name": "Original Sokos Hotel Lakeus",
        "tourism": "hotel",
        "phone": "+358 10 764 8000",
        "website": "https://www.sokoshotels.fi/hotellit/seinajoki/original-sokos-hotel-lakeus"
      }
    },
    {
      "type": "Feature",
      "geometry": {
        "type": "Point",
        "coordinates": [
          22.3859513,
          62.8828839
        ]
      },
      "properties": {
        "id": 540237488,
        "osm_type": "node",
        "name": "Orisbergin kristillinen leirintäalue",
        "tourism": "camp_site"
      }
    },
    {
      "type": "Feature",
      "geometry": {
        "type": "Point",
        "coordinates": [
          22.1778952,
          62.4243158
        ]
      },
      "properties": {
        "id": 833738721,
        "osm_type": "node",
        "name": "Kauhajoen Krouvi",
        "tourism": "hotel"
      }
    },
    {
      "type": "Feature",
      "geometry": {
        "type": "Point",
        "coordinates": [
          22.2198915,
          62.726661
        ]
      },
      "properties": {
        "id": 840005072,
        "osm_type": "node",
        "name": "Kalajaisjärven leiri- ja kurssikeskus",
        "tourism": "guest_house"
      }
    },
    {
      "type": "Feature",
      "geometry": {
        "type": "Point",
        "coordinates": [
          22.8829205,
          62.8072286
        ]
      },
      "properties": {
        "id": 1226612680,
        "osm_type": "node",
        "name": "Hotelli Fooninki",
        "tourism": "hotel",
        "phone": "+358 06 421 7700",
        "website": "http://www.hotellifooninki.com/"
      }
    },
    {
      "type": "Feature",
      "geometry": {
        "type": "Point",
        "coordinates": [
          22.8425957,
          62.7893754
        ]
      },
      "properties": {
        "id": 1226612706,
        "osm_type": "node",
        "name": "Scandic Seinäjoki",
        "tourism": "hotel",
        "phone": "+358 6 2413 0019",
        "website": "https://www.scandichotels.com/fi/hotellit/scandic-seinajoki"
      }
    },
    {
      "type": "Feature",
      "geometry": {
        "type": "Point",
        "coordinates": [
          22.8415717,
          62.757982
        ]
      },
      "properties": {
        "id": 1226612741,
        "osm_type": "node",
        "name": "Hotel Sorsanpesä",
        "tourism": "hotel",
        "phone": "+358 20 741 8181",
        "website": "https://www.sorsanpesa.fi/",
        "check_date": "2024-05-08"
      }
    },
    {
      "type": "Feature",
      "geometry": {
        "type": "Point",
        "coordinates": [
          23.1052354,
          62.4501951
        ]
      },
      "properties": {
        "id": 1257022394,
        "osm_type": "node",
        "name": "Maatilamatkailu Välimaa",
        "tourism": "guest_house"
      }
    },
    {
      "type": "Feature",
      "geometry": {
        "type": "Point",
        "coordinates": [
          23.8450286,
          62.6485409
        ]
      },
      "properties": {
        "id": 1378780283,
        "osm_type": "node",
        "name": "Sepänniemen leirintäalue",
        "tourism": "camp_site"
      }
    },
    {
      "type": "Feature",
      "geometry": {
        "type": "Point",
        "coordinates": [
          23.722458,
          62.603233
        ]
      },
      "properties": {
        "id": 1390777023,
        "osm_type": "node",
        "name": "Hotelli OnnenTähti",
        "tourism": "hotel",
        "phone": "010 770 7001"
      }
    },
    {
      "type": "Feature",
      "geometry": {
        "type": "Point",
        "coordinates": [
          22.8259561,
          63.1419541
        ]
      },
      "properties": {
        "id": 1401198093,
        "osm_type": "node",
        "name": "Härmän Kylpylä",
        "tourism": "hotel",
        "website": "https://harmankylpyla.fi/",
        "check_date": "2024-07-29"
      }
    },
    {
      "type": "Feature",
      "geometry": {
        "type": "Point",
        "coordinates": [
          23.4996465,
          62.8199614
        ]
      },
      "properties": {
        "id": 1472102840,
        "osm_type": "node",
        "name": "Liikuntahotelli",
        "tourism": "hotel",
        "phone": "+35865166111"
      }
    },
    {
      "type": "Feature",
      "geometry": {
        "type": "Point",
        "coordinates": [
          23.2894694,
          63.0873484
        ]
      },
      "properties": {
        "id": 1497197046,
        "osm_type": "node",
        "name": "Lakiamäen Maatilamatkailu",
        "tourism": "guest_house"
      }
    },
    {
      "type": "Feature",
      "geometry": {
        "type": "Point",
        "coordinates": [
          24.3710391,
          62.8893937
        ]
      },
      "properties": {
        "id": 1757442440,
        "osm_type": "node",
        "name": "Hankajärven leirintäalue",
        "tourism": "camp_site"
      }
    },
    {
      "type": "Feature",
      "geometry": {
        "type": "Point",
        "coordinates": [
          22.7444572,
          62.4982733
        ]
      },
      "properties": {
        "id": 1784727725,
        "osm_type": "node",
        "name": "Hotelli valtatie 3",
        "tourism": "hotel"
      }
    },
    {
      "type": "Feature",
      "geometry": {
        "type": "Point",
        "coordinates": [
          23.8060009,
          62.5950519
        ]
      },
      "properties": {
        "id": 2921983303,
        "osm_type": "node",
        "name": "Tuuri resorts teltta-alue",
        "tourism": "camp_site"
      }
    },
    {
      "type": "Feature",
      "geometry": {
        "type": "Point",
        "coordinates": [
          23.8063431,
          62.5951215
        ]
      },
      "properties": {
        "id": 2921983311,
        "osm_type": "node",
        "name": "Tuuri resorts karavaani-alue",
        "tourism": "caravan_site"
      }
    },
    {
      "type": "Feature",
      "geometry": {
        "type": "Point",
        "coordinates": [
          23.814014,
          63.0012433
        ]
      },
      "properties": {
        "id": 2992011002,
        "osm_type": "node",
        "name": "Alvariini",
        "tourism": "hotel",
        "phone": "+35865576688",
        "website": "https://www.alvariini.fi/"
      }
    },
    {
      "type": "Feature",
      "geometry": {
        "type": "Point",
        "coordinates": [
          22.9474132,
          62.9587132
        ]
      },
      "properties": {
        "id": 3182619596,
        "osm_type": "node",
        "name": "Simpsiönkullas",
        "tourism": "hotel",
        "website": "https://www.simpsionkullas.fi/"
      }
    },
    {
      "type": "Feature",
      "geometry": {
        "type": "Point",
        "coordinates": [
          23.6185922,
          62.585617
        ]
      },
      "properties": {
        "id": 4124440866,
        "osm_type": "node",
        "name": "Hotelli Alavus",
        "tourism": "hotel",
        "phone": "010 770 7003",
        "website": "https://hotellialavus.fi/"
      }
    },
    {
      "type": "Feature",
      "geometry": {
        "type": "Point",
        "coordinates": [
          23.9983452,
          62.7749339
        ]
      },
      "properties": {
        "id": 4365631989,
        "osm_type": "node",
        "name": "Divers bed & breakfast Rannankylä",
        "tourism": "hostel",
        "opening_hours": "24/7",
        "phone": "+358405914997"
      }
    },
    {
      "type": "Feature",
      "geometry": {
        "type": "Point",
        "coordinates": [
          23.8650907,
          62.682371
        ]
      },
      "properties": {
        "id": 4579198571,
        "osm_type": "node",
        "name": "Kalliorinteen mökit",
        "tourism": "chalet",
        "phone": "040 0669616",
        "website": "https://kalliorinteenmokit.fi/"
      }
    },
    {
      "type": "Feature",
      "geometry": {
        "type": "Point",
        "coordinates": [
          22.4018889,
          62.6210091
        ]
      },
      "properties": {
        "id": 5098209352,
        "osm_type": "node",
        "name": "Aamiaishotelli HiljaHelena",
        "tourism": "hotel"
      }
    },
    {
      "type": "Feature",
      "geometry": {
        "type": "Point",
        "coordinates": [
          23.7983394,
          62.7045152
        ]
      },
      "properties": {
        "id": 5734522347,
        "osm_type": "node",
        "name": "Tohninmäen Talo",
        "tourism": "guest_house"
      }
    },
    {
      "type": "Feature",
      "geometry": {
        "type": "Point",
        "coordinates": [
          22.000715,
          62.1679698
        ]
      },
      "properties": {
        "id": 5781235478,
        "osm_type": "node",
        "name": "Kangasjärven leirintäalue",
        "tourism": "guest_house"
      }
    },
    {
      "type": "Feature",
      "geometry": {
        "type": "Point",
        "coordinates": [
          22.1372507,
          62.1633717
        ]
      },
      "properties": {
        "id": 5833521037,
        "osm_type": "node",
        "tourism": "camp_site"
      }
    },
    {
      "type": "Feature",
      "geometry": {
        "type": "Point",
        "coordinates": [
          22.8528695,
          63.2430058
        ]
      },
      "properties": {
        "id": 6630110659,
        "osm_type": "node",
        "name": "Jääskän Loma Huoneistohotelli Härmä",
        "tourism": "hotel",
        "website": "https://www.jaaskanloma.fi/kauhava-alaharma/huoneistohotelli"
      }
    },
    {
      "type": "Feature",
      "geometry": {
        "type": "Point",
        "coordinates": [
          22.8572944,
          63.226896
        ]
      },
      "properties": {
        "id": 6780714030,
        "osm_type": "node",
        "name": "Park Hotel Härmä",
        "tourism": "hotel"
      }
    },
    {
      "type": "Feature",
      "geometry": {
        "type": "Point",
        "coordinates": [
          23.7361852,
          62.6028724
        ]
      },
      "properties": {
        "id": 7100248875,
        "osm_type": "node",
        "name": "Tuurin Yösäilö",
        "tourism": "apartment",
        "website": "https://tuurinyosailo.fi/"
      }
    },
    {
      "type": "Feature",
      "geometry": {
        "type": "Point",
        "coordinates": [
          23.9119156,
          62.72098
        ]
      },
      "properties": {
        "id": 7100260671,
        "osm_type": "node",
        "name": "Suutalan Mansikkatalo",
        "tourism": "apartment",
        "phone": "0445858016",
        "website": "https://www.mansikkatalo.fi"
      }
    },
    {
      "type": "Feature",
      "geometry": {
        "type": "Point",
        "coordinates": [
          22.9643275,
          63.2763025
        ]
      },
      "properties": {
        "id": 7261211669,
        "osm_type": "node",
        "name": "Ruskorannan leirintä",
        "tourism": "camp_site",
        "opening_hours": "Jun-Aug"
      }
    },
    {
      "type": "Feature",
      "geometry": {
        "type": "Point",
        "coordinates": [
          22.9625855,
          63.2764722
        ]
      },
      "properties": {
        "id": 7261211674,
        "osm_type": "node",
        "name": "Ruskorannan leirintä",
        "tourism": "caravan_site"
      }
    },
    {
      "type": "Feature",
      "geometry": {
        "type": "Point",
        "coordinates": [
          22.9642212,
          63.2763397
        ]
      },
      "properties": {
        "id": 7261231214,
        "osm_type": "node",
        "name": "Ruskorannan leirintä",
        "tourism": "motel"
      }
    },
    {
      "type": "Feature",
      "geometry": {
        "type": "Point",
        "coordinates": [
          23.040574,
          63.1144659
        ]
      },
      "properties": {
        "id": 7618691805,
        "osm_type": "node",
        "name": "Lentohotelli",
        "tourism": "hotel",
        "phone": "+358 50 463 7515",
        "website": "https://lentohotelli.fi/"
      }
    },
    {
      "type": "Feature",
      "geometry": {
        "type": "Point",
        "coordinates": [
          23.8512772,
          62.5195474
        ]
      },
      "properties": {
        "id": 8278932727,
        "osm_type": "node",
        "name": "Niemen maatila",
        "tourism": "guest_house",
        "phone": "040 412 0953"
      }
    },
    {
      "type": "Feature",
      "geometry": {
        "type": "Point",
        "coordinates": [
          24.0680322,
          62.5493619
        ]
      },
      "properties": {
        "id": 9866454776,
        "osm_type": "node",
        "name": "Vanha pappila Hetki",
        "tourism": "guest_house",
        "phone": "045 6301399",
        "website": "https://www.vanhapappilahetki.fi/"
      }
    },
    {
      "type": "Feature",
      "geometry": {
        "type": "Point",
        "coordinates": [
          23.640901,
          63.2500318
        ]
      },
      "properties": {
        "id": 9888053334,
        "osm_type": "node",
        "name": "Matkaparkki Kivitippu",
        "tourism": "caravan_site"
      }
    },
    {
      "type": "Feature",
      "geometry": {
        "type": "Point",
        "coordinates": [
          22.830435,
          62.7707168
        ]
      },
      "properties": {
        "id": 9916824216,
        "osm_type": "node",
        "name": "Hostel Björkenheim",
        "tourism": "hostel",
        "phone": "+358 50 3138 737",
        "website": "http://www.hostelbjörkenheim.fi/"
      }
    },
    {
      "type": "Feature",
      "geometry": {
        "type": "Point",
        "coordinates": [
          22.1770332,
          62.427841
        ]
      },
      "properties": {
        "id": 11608670411,
        "osm_type": "node",
        "name": "Hostel Eduskunta",
        "tourism": "hostel",
        "phone": "+358 50 330 6320",
        "website": "https://www.ukmajoitus.fi/hosteleduskunta/"
      }
    },
    {
      "type": "Feature",
      "geometry": {
        "type": "Point",
        "coordinates": [
          22.176968,
          62.4248877
        ]
      },
      "properties": {
        "id": 11610595102,
        "osm_type": "node",
        "name": "Helmin Kortteeri",
        "tourism": "guest_house",
        "phone": "+358 6 231 1010",
        "website": "http://www.helminkortteeri.fi"
      }
    },
    {
      "type": "Feature",
      "geometry": {
        "type": "Point",
        "coordinates": [
          22.7313085,
          62.5027515
        ]
      },
      "properties": {
        "id": 11951829709,
        "osm_type": "node",
        "name": "Hotelli Jalasjärvi",
        "tourism": "hotel",
        "website": "https://www.hotellijalasjarvi.com/"
      }
    },
    {
      "type": "Feature",
      "geometry": {
        "type": "Point",
        "coordinates": [
          22.8589606,
          63.2260844
        ]
      },
      "properties": {
        "id": 11993566832,
        "osm_type": "node",
        "tourism": "caravan_site"
      }
    },
    {
      "type": "Feature",
      "geometry": {
        "type": "Point",
        "coordinates": [
          21.7453854,
          62.4857503
        ]
      },
      "properties": {
        "id": 12114343377,
        "osm_type": "node",
        "name": "Majoitus Hermanni",
        "tourism": "guest_house",
        "phone": "+358 50 328 1910",
        "website": "https://www.majoitushermanni.fi/"
      }
    },
    {
      "type": "Feature",
      "geometry": {
        "type": "Point",
        "coordinates": [
          21.7539812,
          62.6592581
        ]
      },
      "properties": {
        "id": 12692505344,
        "osm_type": "node",
        "name": "Närvijoen vapaa-ajan alue",
        "tourism": "caravan_site"
      }
    },
    {
      "type": "Feature",
      "geometry": {
        "type": "Point",
        "coordinates": [
          21.7595293,
          62.3137366
        ]
      },
      "properties": {
        "id": 12872784881,
        "osm_type": "node",
        "name": "Peuramaja",
        "tourism": "chalet"
      }
    },
    {
      "type": "Feature",
      "geometry": {
        "type": "Point",
        "coordinates": [
          23.7364443,
          62.6029202
        ]
      },
      "properties": {
        "id": 12985399643,
        "osm_type": "node",
        "name": "Tuurin Kukkis",
        "tourism": "apartment",
        "website": "https://tuurinkukkis.fi/"
      }
    },
    {
      "type": "Feature",
      "geometry": {
        "type": "Point",
        "coordinates": [
          23.9082356,
          62.6058663
        ]
      },
      "properties": {
        "id": 12987508268,
        "osm_type": "node",
        "name": "Hakojärven Matkaparkki",
        "tourism": "caravan_site",
        "website": "https://matkaparkki.com/matkaparkit/hakojarven-matkaparkki/"
      }
    },
    {
      "type": "Feature",
      "geometry": {
        "type": "Point",
        "coordinates": [
          23.9064786,
          62.605108
        ]
      },
      "properties": {
        "id": 12987508269,
        "osm_type": "node",
        "name": "Hakojärven Matkaparkki",
        "tourism": "caravan_site",
        "website": "https://matkaparkki.com/matkaparkit/hakojarven-matkaparkki/"
      }
    },
    {
      "type": "Feature",
      "geometry": {
        "type": "Point",
        "coordinates": [
          22.9566348,
          63.089649
        ]
      },
      "properties": {
        "id": 12989470754,
        "osm_type": "node",
        "tourism": "guest_house"
      }
    },
    {
      "type": "Feature",
      "geometry": {
        "type": "Point",
        "coordinates": [
          23.5681465,
          62.600628
        ]
      },
      "properties": {
        "id": 13434462293,
        "osm_type": "node",
        "name": "Ouran Mummola",
        "tourism": "apartment"
      }
    },
    {
      "type": "Feature",
      "geometry": {
        "type": "Point",
        "coordinates": [
          23.636086,
          63.2518067
        ]
      },
      "properties": {
        "id": 13725897227,
        "osm_type": "node",
        "name": "Kraatteri Resort",
        "tourism": "hotel",
        "phone": "06 46040682",
        "website": "https://kraatteriresort.fi"
      }
    },
    {
      "type": "Feature",
      "geometry": {
        "type": "Point",
        "coordinates": [
          23.6604066,
          63.243586
        ]
      },
      "properties": {
        "id": 13742035016,
        "osm_type": "node",
        "name": "Nurkkalan leirintä",
        "tourism": "camp_site"
      }
    },
    {
      "type": "Feature",
      "geometry": {
        "type": "Point",
        "coordinates": [
          23.1095837,
          62.574594
        ]
      },
      "properties": {
        "id": 108931436,
        "osm_type": "way",
        "name": "Caravan-Kalajärvi",
        "tourism": "caravan_site"
      }
    },
    {
      "type": "Feature",
      "geometry": {
        "type": "Point",
        "coordinates": [
          23.8462135,
          62.6482773
        ]
      },
      "properties": {
        "id": 123723584,
        "osm_type": "way",
        "tourism": "chalet"
      }
    },
    {
      "type": "Feature",
      "geometry": {
        "type": "Point",
        "coordinates": [
          23.8450305,
          62.6487002
        ]
      },
      "properties": {
        "id": 123723585,
        "osm_type": "way",
        "name": "Sepänniemi karavaanialue",
        "tourism": "caravan_site"
      }
    },
    {
      "type": "Feature",
      "geometry": {
        "type": "Point",
        "coordinates": [
          23.8461956,
          62.6481673
        ]
      },
      "properties": {
        "id": 123723586,
        "osm_type": "way",
        "tourism": "chalet"
      }
    },
    {
      "type": "Feature",
      "geometry": {
        "type": "Point",
        "coordinates": [
          23.8461999,
          62.6483972
        ]
      },
      "properties": {
        "id": 123723587,
        "osm_type": "way",
        "tourism": "chalet"
      }
    },
    {
      "type": "Feature",
      "geometry": {
        "type": "Point",
        "coordinates": [
          23.8445988,
          62.6481794
        ]
      },
      "properties": {
        "id": 123724130,
        "osm_type": "way",
        "tourism": "chalet"
      }
    },
    {
      "type": "Feature",
      "geometry": {
        "type": "Point",
        "coordinates": [
          23.8445255,
          62.648065
        ]
      },
      "properties": {
        "id": 123724131,
        "osm_type": "way",
        "tourism": "chalet"
      }
    },
    {
      "type": "Feature",
      "geometry": {
        "type": "Point",
        "coordinates": [
          23.8449117,
          62.6482584
        ]
      },
      "properties": {
        "id": 123724136,
        "osm_type": "way",
        "tourism": "chalet"
      }
    },
    {
      "type": "Feature",
      "geometry": {
        "type": "Point",
        "coordinates": [
          23.8981425,
          62.7123785
        ]
      },
      "properties": {
        "id": 123860972,
        "osm_type": "way",
        "name": "Maatilamajoitus Heikin Tupa",
        "tourism": "hostel"
      }
    },
    {
      "type": "Feature",
      "geometry": {
        "type": "Point",
        "coordinates": [
          21.9843218,
          62.6863699
        ]
      },
      "properties": {
        "id": 149464180,
        "osm_type": "way",
        "name": "Hotelli Ravintola Jurva",
        "tourism": "hotel",
        "website": "https://www.hotelliravintolajurva.fi/"
      }
    },
    {
      "type": "Feature",
      "geometry": {
        "type": "Point",
        "coordinates": [
          22.8466003,
          62.7899245
        ]
      },
      "properties": {
        "id": 151238200,
        "osm_type": "way",
        "name": "Hotelli Alma",
        "tourism": "hotel",
        "phone": "+358 6 421 5200",
        "website": "https://www.hotelalma.fi/"
      }
    },
    {
      "type": "Feature",
      "geometry": {
        "type": "Point",
        "coordinates": [
          23.8445328,
          62.6476248
        ]
      },
      "properties": {
        "id": 159521573,
        "osm_type": "way",
        "tourism": "chalet"
      }
    },
    {
      "type": "Feature",
      "geometry": {
        "type": "Point",
        "coordinates": [
          23.8446324,
          62.6477746
        ]
      },
      "properties": {
        "id": 159521575,
        "osm_type": "way",
        "tourism": "chalet"
      }
    },
    {
      "type": "Feature",
      "geometry": {
        "type": "Point",
        "coordinates": [
          23.8444923,
          62.647462
        ]
      },
      "properties": {
        "id": 159521577,
        "osm_type": "way",
        "tourism": "chalet"
      }
    },
    {
      "type": "Feature",
      "geometry": {
        "type": "Point",
        "coordinates": [
          23.8455709,
          62.648078
        ]
      },
      "properties": {
        "id": 164046730,
        "osm_type": "way",
        "tourism": "chalet"
      }
    },
    {
      "type": "Feature",
      "geometry": {
        "type": "Point",
        "coordinates": [
          23.5180563,
          62.7611117
        ]
      },
      "properties": {
        "id": 190906601,
        "osm_type": "way",
        "tourism": "guest_house"
      }
    },
    {
      "type": "Feature",
      "geometry": {
        "type": "Point",
        "coordinates": [
          23.8654478,
          62.7763832
        ]
      },
      "properties": {
        "id": 192087934,
        "osm_type": "way",
        "name": "Valkialammen matkailukeskus",
        "tourism": "hostel"
      }
    },
    {
      "type": "Feature",
      "geometry": {
        "type": "Point",
        "coordinates": [
          23.7508241,
          62.597254
        ]
      },
      "properties": {
        "id": 199507570,
        "osm_type": "way",
        "name": "Koski-Tuurin Kammarit",
        "tourism": "hostel",
        "phone": "040-8497914;06 - 5125107",
        "website": "http://www.maatilamajoitus.tk/"
      }
    },
    {
      "type": "Feature",
      "geometry": {
        "type": "Point",
        "coordinates": [
          23.7073118,
          62.7522066
        ]
      },
      "properties": {
        "id": 199831143,
        "osm_type": "way",
        "name": "Finnhostel Virtaniemi",
        "tourism": "hostel"
      }
    },
    {
      "type": "Feature",
      "geometry": {
        "type": "Point",
        "coordinates": [
          22.8592752,
          63.2254945
        ]
      },
      "properties": {
        "id": 211093548,
        "osm_type": "way",
        "name": "Rio Grande Camping",
        "tourism": "camp_site"
      }
    },
    {
      "type": "Feature",
      "geometry": {
        "type": "Point",
        "coordinates": [
          22.4108348,
          62.6190688
        ]
      },
      "properties": {
        "id": 223861291,
        "osm_type": "way",
        "name": "Hotel Kurikka",
        "tourism": "hotel",
        "opening_hours": "24/7",
        "phone": "06 451 0500",
        "website": "https://www.hotelkurikka.fi/hotelli"
      }
    },
    {
      "type": "Feature",
      "geometry": {
        "type": "Point",
        "coordinates": [
          24.1415873,
          62.5446131
        ]
      },
      "properties": {
        "id": 228143636,
        "osm_type": "way",
        "name": "Tuomarniemen lomatupa",
        "tourism": "chalet",
        "website": "https://sedu.fi/palvelut-ja-asiakastyot/majoituspalvelut-ahtarin-kampuksella/"
      }
    },
    {
      "type": "Feature",
      "geometry": {
        "type": "Point",
        "coordinates": [
          23.8096933,
          62.5954131
        ]
      },
      "properties": {
        "id": 287903980,
        "osm_type": "way",
        "name": "Tuuri Resorts",
        "tourism": "hostel",
        "phone": "040 66 333 71"
      }
    },
    {
      "type": "Feature",
      "geometry": {
        "type": "Point",
        "coordinates": [
          23.8094654,
          62.5957932
        ]
      },
      "properties": {
        "id": 287903982,
        "osm_type": "way",
        "name": "Riiho-mökki",
        "tourism": "chalet"
      }
    },
    {
      "type": "Feature",
      "geometry": {
        "type": "Point",
        "coordinates": [
          23.8070782,
          62.5948804
        ]
      },
      "properties": {
        "id": 288643654,
        "osm_type": "way",
        "name": "Toivo-mökki",
        "tourism": "chalet"
      }
    },
    {
      "type": "Feature",
      "geometry": {
        "type": "Point",
        "coordinates": [
          23.8086426,
          62.5939038
        ]
      },
      "properties": {
        "id": 288645012,
        "osm_type": "way",
        "name": "Rakkaus-mökki",
        "tourism": "chalet"
      }
    },
    {
      "type": "Feature",
      "geometry": {
        "type": "Point",
        "coordinates": [
          23.8071185,
          62.5962211
        ]
      },
      "properties": {
        "id": 288645736,
        "osm_type": "way",
        "name": "Alppitalo",
        "tourism": "chalet"
      }
    },
    {
      "type": "Feature",
      "geometry": {
        "type": "Point",
        "coordinates": [
          24.1029356,
          62.4392436
        ]
      },
      "properties": {
        "id": 320252292,
        "osm_type": "way",
        "name": "Isomäen Kota",
        "tourism": "alpine_hut"
      }
    },
    {
      "type": "Feature",
      "geometry": {
        "type": "Point",
        "coordinates": [
          21.9871856,
          62.6631891
        ]
      },
      "properties": {
        "id": 338007125,
        "osm_type": "way",
        "name": "Camping Jurva",
        "tourism": "camp_site"
      }
    },
    {
      "type": "Feature",
      "geometry": {
        "type": "Point",
        "coordinates": [
          22.3785669,
          62.9600415
        ]
      },
      "properties": {
        "id": 414784230,
        "osm_type": "way",
        "name": "Kalliojärvi",
        "tourism": "camp_site"
      }
    },
    {
      "type": "Feature",
      "geometry": {
        "type": "Point",
        "coordinates": [
          24.1735348,
          62.5401955
        ]
      },
      "properties": {
        "id": 508226294,
        "osm_type": "way",
        "name": "Ähtäri Zoo Camping Mekkoranta",
        "tourism": "camp_site",
        "tents": "yes",
        "phone": "+35865393555",
        "website": "https://www.ahtarizoo.fi/"
      }
    },
    {
      "type": "Feature",
      "geometry": {
        "type": "Point",
        "coordinates": [
          22.8427855,
          63.2341332
        ]
      },
      "properties": {
        "id": 705738974,
        "osm_type": "way",
        "name": "Laiskan Kartano",
        "tourism": "caravan_site",
        "website": "https://www.laiskankartano.fi/"
      }
    },
    {
      "type": "Feature",
      "geometry": {
        "type": "Point",
        "coordinates": [
          22.8311432,
          63.1593034
        ]
      },
      "properties": {
        "id": 708324886,
        "osm_type": "way",
        "name": "Hotelli Mäntylinna",
        "tourism": "hotel",
        "phone": "+358 44 510 6161",
        "website": "https://www.mantylinna.fi/"
      }
    },
    {
      "type": "Feature",
      "geometry": {
        "type": "Point",
        "coordinates": [
          22.187137,
          62.7263734
        ]
      },
      "properties": {
        "id": 727491727,
        "osm_type": "way",
        "name": "Heikin laavu",
        "tourism": "camp_site"
      }
    },
    {
      "type": "Feature",
      "geometry": {
        "type": "Point",
        "coordinates": [
          23.6231583,
          63.2192811
        ]
      },
      "properties": {
        "id": 755822508,
        "osm_type": "way",
        "name": "Koskikievari",
        "tourism": "motel",
        "opening_hours": "Mo-Fr 08:00-17:00; Sa 10:00-15:00",
        "phone": "+358451562947",
        "website": "https://www.koskikievari.com"
      }
    },
    {
      "type": "Feature",
      "geometry": {
        "type": "Point",
        "coordinates": [
          23.9160636,
          62.6082329
        ]
      },
      "properties": {
        "id": 760067658,
        "osm_type": "way",
        "name": "Jouttilammen Huvila",
        "tourism": "chalet",
        "phone": "0405622123",
        "website": "https://hakojarvi.com/jouttila.html"
      }
    },
    {
      "type": "Feature",
      "geometry": {
        "type": "Point",
        "coordinates": [
          23.7342955,
          62.6039454
        ]
      },
      "properties": {
        "id": 760186082,
        "osm_type": "way",
        "name": "Junamajoitus Tuurin Asema",
        "tourism": "hostel",
        "phone": "+358 (0) 405 440 240",
        "website": "https://www.tuuristation.fi/"
      }
    },
    {
      "type": "Feature",
      "geometry": {
        "type": "Point",
        "coordinates": [
          23.844414,
          62.6474033
        ]
      },
      "properties": {
        "id": 760190370,
        "osm_type": "way",
        "tourism": "chalet"
      }
    },
    {
      "type": "Feature",
      "geometry": {
        "type": "Point",
        "coordinates": [
          23.8086827,
          62.5953544
        ]
      },
      "properties": {
        "id": 913998516,
        "osm_type": "way",
        "tourism": "chalet"
      }
    },
    {
      "type": "Feature",
      "geometry": {
        "type": "Point",
        "coordinates": [
          23.8051399,
          62.5954597
        ]
      },
      "properties": {
        "id": 913998517,
        "osm_type": "way",
        "tourism": "chalet"
      }
    },
    {
      "type": "Feature",
      "geometry": {
        "type": "Point",
        "coordinates": [
          22.8739992,
          63.2291981
        ]
      },
      "properties": {
        "id": 965208577,
        "osm_type": "way",
        "name": "Green Field Camping",
        "tourism": "camp_site",
        "tents": "yes"
      }
    },
    {
      "type": "Feature",
      "geometry": {
        "type": "Point",
        "coordinates": [
          23.4264099,
          63.3262353
        ]
      },
      "properties": {
        "id": 981530127,
        "osm_type": "way",
        "tourism": "chalet"
      }
    },
    {
      "type": "Feature",
      "geometry": {
        "type": "Point",
        "coordinates": [
          23.6722369,
          63.0754712
        ]
      },
      "properties": {
        "id": 993232453,
        "osm_type": "way",
        "name": "SFC Koivulehto",
        "tourism": "camp_site",
        "tents": "yes",
        "phone": "+358 40 518 7205",
        "website": "https://www.sfcjarviseutu-koivulehto.net/"
      }
    },
    {
      "type": "Feature",
      "geometry": {
        "type": "Point",
        "coordinates": [
          22.7353495,
          63.2761552
        ]
      },
      "properties": {
        "id": 1035337170,
        "osm_type": "way",
        "name": "Huvimäen Mökki",
        "tourism": "chalet",
        "phone": "+358 50 564 2456",
        "website": "https://www.rantatienlomamokit.fi/"
      }
    },
    {
      "type": "Feature",
      "geometry": {
        "type": "Point",
        "coordinates": [
          22.4679161,
          62.2069553
        ]
      },
      "properties": {
        "id": 1087420430,
        "osm_type": "way",
        "tourism": "chalet"
      }
    },
    {
      "type": "Feature",
      "geometry": {
        "type": "Point",
        "coordinates": [
          22.4684843,
          62.2062033
        ]
      },
      "properties": {
        "id": 1087420432,
        "osm_type": "way",
        "tourism": "chalet"
      }
    },
    {
      "type": "Feature",
      "geometry": {
        "type": "Point",
        "coordinates": [
          23.6435229,
          63.2489932
        ]
      },
      "properties": {
        "id": 1089713731,
        "osm_type": "way",
        "name": "Hotelli Kivitippu",
        "tourism": "hotel",
        "opening_hours": "Mo-Fr 08:00-20:00",
        "phone": "+35865615000",
        "website": "https://hotellikivitippu.com"
      }
    },
    {
      "type": "Feature",
      "geometry": {
        "type": "Point",
        "coordinates": [
          23.8163365,
          63.1619537
        ]
      },
      "properties": {
        "id": 1095452607,
        "osm_type": "way",
        "name": "Villa Jokiunelma",
        "tourism": "chalet",
        "phone": "+358505306510"
      }
    },
    {
      "type": "Feature",
      "geometry": {
        "type": "Point",
        "coordinates": [
          23.75588,
          63.2051845
        ]
      },
      "properties": {
        "id": 1095452608,
        "osm_type": "way",
        "name": "Vieresniemen karavaanarialue",
        "tourism": "caravan_site",
        "website": "https://www.vimpeli.fi/matkailu/vieresniemi"
      }
    },
    {
      "type": "Feature",
      "geometry": {
        "type": "Point",
        "coordinates": [
          22.9641765,
          63.2765305
        ]
      },
      "properties": {
        "id": 1106133315,
        "osm_type": "way",
        "name": "Ruskorannan leirintä",
        "tourism": "camp_site"
      }
    },
    {
      "type": "Feature",
      "geometry": {
        "type": "Point",
        "coordinates": [
          23.8068948,
          62.5974825
        ]
      },
      "properties": {
        "id": 1117440080,
        "osm_type": "way",
        "tourism": "chalet"
      }
    },
    {
      "type": "Feature",
      "geometry": {
        "type": "Point",
        "coordinates": [
          22.0312099,
          62.6250773
        ]
      },
      "properties": {
        "id": 1167617791,
        "osm_type": "way",
        "name": "Villa APR",
        "tourism": "chalet",
        "phone": "+358504353571",
        "website": "https://www.villaapr.fi/"
      }
    },
    {
      "type": "Feature",
      "geometry": {
        "type": "Point",
        "coordinates": [
          22.4345704,
          62.2779424
        ]
      },
      "properties": {
        "id": 1167760539,
        "osm_type": "way",
        "name": "Nummijärvi Camping",
        "tourism": "camp_site",
        "phone": "+358400987373",
        "website": "https://www.nummijarvicamping.fi/"
      }
    },
    {
      "type": "Feature",
      "geometry": {
        "type": "Point",
        "coordinates": [
          22.4365134,
          62.2784416
        ]
      },
      "properties": {
        "id": 1167760543,
        "osm_type": "way",
        "tourism": "chalet"
      }
    },
    {
      "type": "Feature",
      "geometry": {
        "type": "Point",
        "coordinates": [
          22.4362969,
          62.2782858
        ]
      },
      "properties": {
        "id": 1167760544,
        "osm_type": "way",
        "tourism": "chalet"
      }
    },
    {
      "type": "Feature",
      "geometry": {
        "type": "Point",
        "coordinates": [
          22.436056,
          62.2781796
        ]
      },
      "properties": {
        "id": 1167760545,
        "osm_type": "way",
        "tourism": "chalet"
      }
    },
    {
      "type": "Feature",
      "geometry": {
        "type": "Point",
        "coordinates": [
          22.4359612,
          62.277915
        ]
      },
      "properties": {
        "id": 1167760546,
        "osm_type": "way",
        "tourism": "chalet"
      }
    },
    {
      "type": "Feature",
      "geometry": {
        "type": "Point",
        "coordinates": [
          22.4351587,
          62.2770531
        ]
      },
      "properties": {
        "id": 1167760547,
        "osm_type": "way",
        "tourism": "chalet"
      }
    },
    {
      "type": "Feature",
      "geometry": {
        "type": "Point",
        "coordinates": [
          22.4347497,
          62.2771034
        ]
      },
      "properties": {
        "id": 1167760548,
        "osm_type": "way",
        "tourism": "chalet"
      }
    },
    {
      "type": "Feature",
      "geometry": {
        "type": "Point",
        "coordinates": [
          22.4343369,
          62.2771311
        ]
      },
      "properties": {
        "id": 1167760549,
        "osm_type": "way",
        "tourism": "chalet"
      }
    },
    {
      "type": "Feature",
      "geometry": {
        "type": "Point",
        "coordinates": [
          22.4339319,
          62.2771569
        ]
      },
      "properties": {
        "id": 1167760550,
        "osm_type": "way",
        "tourism": "chalet"
      }
    },
    {
      "type": "Feature",
      "geometry": {
        "type": "Point",
        "coordinates": [
          22.4329554,
          62.2772025
        ]
      },
      "properties": {
        "id": 1167760553,
        "osm_type": "way",
        "tourism": "chalet"
      }
    },
    {
      "type": "Feature",
      "geometry": {
        "type": "Point",
        "coordinates": [
          22.1030839,
          62.4359772
        ]
      },
      "properties": {
        "id": 1173141861,
        "osm_type": "way",
        "name": "Kantorannan lomatuvat / Rantatorppa",
        "tourism": "chalet",
        "phone": "+35862335135",
        "website": "https://www.kantoranta.com/"
      }
    },
    {
      "type": "Feature",
      "geometry": {
        "type": "Point",
        "coordinates": [
          23.4910244,
          62.8076494
        ]
      },
      "properties": {
        "id": 1201511136,
        "osm_type": "way",
        "name": "Hiekkaranta B&B",
        "tourism": "guest_house",
        "website": "https://www.hiekkaranta.info/"
      }
    },
    {
      "type": "Feature",
      "geometry": {
        "type": "Point",
        "coordinates": [
          22.4395061,
          62.2969774
        ]
      },
      "properties": {
        "id": 1202970866,
        "osm_type": "way",
        "name": "Nummirock Metsäleirintä",
        "tourism": "camp_site"
      }
    },
    {
      "type": "Feature",
      "geometry": {
        "type": "Point",
        "coordinates": [
          24.1845863,
          62.5339791
        ]
      },
      "properties": {
        "id": 1227690255,
        "osm_type": "way",
        "name": "Naava Chalet",
        "tourism": "chalet",
        "phone": "+358 (0)40 560 8455",
        "website": "https://naavaresort.fi/huoneistot/"
      }
    },
    {
      "type": "Feature",
      "geometry": {
        "type": "Point",
        "coordinates": [
          24.1846521,
          62.5328918
        ]
      },
      "properties": {
        "id": 1227690259,
        "osm_type": "way",
        "name": "Laikka",
        "tourism": "chalet",
        "phone": "+358 (0)40 560 8455",
        "website": "https://naavaresort.fi/huvilat/"
      }
    },
    {
      "type": "Feature",
      "geometry": {
        "type": "Point",
        "coordinates": [
          24.1842514,
          62.5327339
        ]
      },
      "properties": {
        "id": 1227690260,
        "osm_type": "way",
        "name": "Tiera",
        "tourism": "chalet",
        "phone": "+358 (0)40 560 8455",
        "website": "https://naavaresort.fi/huvilat/"
      }
    },
    {
      "type": "Feature",
      "geometry": {
        "type": "Point",
        "coordinates": [
          24.1844721,
          62.532497
        ]
      },
      "properties": {
        "id": 1227690261,
        "osm_type": "way",
        "name": "Laaka",
        "tourism": "chalet",
        "phone": "+358 (0)40 560 8455",
        "website": "https://naavaresort.fi/huvilat/"
      }
    },
    {
      "type": "Feature",
      "geometry": {
        "type": "Point",
        "coordinates": [
          24.1850532,
          62.5327241
        ]
      },
      "properties": {
        "id": 1227690262,
        "osm_type": "way",
        "name": "Luppo",
        "tourism": "chalet",
        "phone": "+358 (0)40 560 8455",
        "website": "https://naavaresort.fi/huvilat/"
      }
    },
    {
      "type": "Feature",
      "geometry": {
        "type": "Point",
        "coordinates": [
          24.1866349,
          62.531972
        ]
      },
      "properties": {
        "id": 1227690267,
        "osm_type": "way",
        "name": "Loiste",
        "tourism": "chalet",
        "phone": "+358 (0)40 560 8455",
        "website": "https://naavaresort.fi/huvilat/"
      }
    },
    {
      "type": "Feature",
      "geometry": {
        "type": "Point",
        "coordinates": [
          23.5619869,
          62.6741252
        ]
      },
      "properties": {
        "id": 1230006054,
        "osm_type": "way",
        "tourism": "chalet"
      }
    },
    {
      "type": "Feature",
      "geometry": {
        "type": "Point",
        "coordinates": [
          23.5609982,
          62.6737615
        ]
      },
      "properties": {
        "id": 1230006055,
        "osm_type": "way",
        "tourism": "chalet"
      }
    },
    {
      "type": "Feature",
      "geometry": {
        "type": "Point",
        "coordinates": [
          23.5608169,
          62.6739395
        ]
      },
      "properties": {
        "id": 1230006056,
        "osm_type": "way",
        "tourism": "chalet"
      }
    },
    {
      "type": "Feature",
      "geometry": {
        "type": "Point",
        "coordinates": [
          23.5617026,
          62.6742377
        ]
      },
      "properties": {
        "id": 1230006057,
        "osm_type": "way",
        "tourism": "chalet"
      }
    },
    {
      "type": "Feature",
      "geometry": {
        "type": "Point",
        "coordinates": [
          22.2308729,
          62.4557772
        ]
      },
      "properties": {
        "id": 1230200040,
        "osm_type": "way",
        "name": "Aronkeidas",
        "tourism": "hotel",
        "website": "http://www.aronkeidas.fi/fi/etusivu.html"
      }
    },
    {
      "type": "Feature",
      "geometry": {
        "type": "Point",
        "coordinates": [
          24.1505836,
          62.5346924
        ]
      },
      "properties": {
        "id": 1236410589,
        "osm_type": "way",
        "name": "Hankaniemen Tila",
        "tourism": "guest_house",
        "phone": "+358 400 217 731",
        "website": "https://hankaniementila.wixsite.com/hankaniemi"
      }
    },
    {
      "type": "Feature",
      "geometry": {
        "type": "Point",
        "coordinates": [
          24.1923931,
          62.5296441
        ]
      },
      "properties": {
        "id": 1237052792,
        "osm_type": "way",
        "name": "Moksula",
        "tourism": "chalet",
        "website": "https://www.nettimokki.com/ahtari/moksula/51363/"
      }
    },
    {
      "type": "Feature",
      "geometry": {
        "type": "Point",
        "coordinates": [
          22.1083048,
          62.3624057
        ]
      },
      "properties": {
        "id": 1249300555,
        "osm_type": "way",
        "name": "Mimosan Maja",
        "tourism": "chalet",
        "phone": "+358 50 330 6320",
        "website": "https://www.ukmajoitus.fi/"
      }
    },
    {
      "type": "Feature",
      "geometry": {
        "type": "Point",
        "coordinates": [
          22.1101656,
          62.363588
        ]
      },
      "properties": {
        "id": 1249300570,
        "osm_type": "way",
        "name": "Akselin Lomatupa",
        "tourism": "chalet",
        "phone": "+358 50 330 6320",
        "website": "https://www.ukmajoitus.fi/"
      }
    },
    {
      "type": "Feature",
      "geometry": {
        "type": "Point",
        "coordinates": [
          23.8634829,
          62.7758
        ]
      },
      "properties": {
        "id": 1304148012,
        "osm_type": "way",
        "tourism": "camp_site",
        "tents": "yes",
        "phone": "+358 44 9869841",
        "website": "https://www.ravintolavalkealampi.fi/"
      }
    },
    {
      "type": "Feature",
      "geometry": {
        "type": "Point",
        "coordinates": [
          23.8667784,
          62.7766682
        ]
      },
      "properties": {
        "id": 1304148260,
        "osm_type": "way",
        "tourism": "camp_site",
        "tents": "yes"
      }
    },
    {
      "type": "Feature",
      "geometry": {
        "type": "Point",
        "coordinates": [
          21.8229044,
          62.4272528
        ]
      },
      "properties": {
        "id": 1316470823,
        "osm_type": "way",
        "name": "Rivitalo",
        "tourism": "chalet",
        "website": "https://majoituparrassa.com/"
      }
    },
    {
      "type": "Feature",
      "geometry": {
        "type": "Point",
        "coordinates": [
          21.8272218,
          62.4272279
        ]
      },
      "properties": {
        "id": 1316470935,
        "osm_type": "way",
        "name": "Parran Matkaparkki",
        "tourism": "caravan_site",
        "website": "https://parrakeskus.fi/fi/camping-caravan-matkaparkki-majoitus/"
      }
    },
    {
      "type": "Feature",
      "geometry": {
        "type": "Point",
        "coordinates": [
          21.828093,
          62.4262624
        ]
      },
      "properties": {
        "id": 1316470965,
        "osm_type": "way",
        "name": "Länsimetsä",
        "tourism": "chalet",
        "website": "https://majoituparrassa.com/"
      }
    },
    {
      "type": "Feature",
      "geometry": {
        "type": "Point",
        "coordinates": [
          21.8203986,
          62.4271933
        ]
      },
      "properties": {
        "id": 1316496025,
        "osm_type": "way",
        "name": "Karhula",
        "tourism": "chalet",
        "website": "https://majoituparrassa.com/"
      }
    },
    {
      "type": "Feature",
      "geometry": {
        "type": "Point",
        "coordinates": [
          21.8228242,
          62.4267044
        ]
      },
      "properties": {
        "id": 1316496034,
        "osm_type": "way",
        "name": "Marjamaa",
        "tourism": "chalet",
        "website": "https://majoituparrassa.com/"
      }
    },
    {
      "type": "Feature",
      "geometry": {
        "type": "Point",
        "coordinates": [
          21.8306068,
          62.4271748
        ]
      },
      "properties": {
        "id": 1316725405,
        "osm_type": "way",
        "name": "Yrittäjien mökki",
        "tourism": "chalet",
        "website": "https://majoituparrassa.com/"
      }
    },
    {
      "type": "Feature",
      "geometry": {
        "type": "Point",
        "coordinates": [
          21.8319024,
          62.4267428
        ]
      },
      "properties": {
        "id": 1316725408,
        "osm_type": "way",
        "name": "Palopaikka",
        "tourism": "chalet",
        "website": "https://majoituparrassa.com/"
      }
    },
    {
      "type": "Feature",
      "geometry": {
        "type": "Point",
        "coordinates": [
          21.8315669,
          62.4265827
        ]
      },
      "properties": {
        "id": 1316725409,
        "osm_type": "way",
        "name": "Toukola",
        "tourism": "chalet",
        "website": "https://majoituparrassa.com/"
      }
    },
    {
      "type": "Feature",
      "geometry": {
        "type": "Point",
        "coordinates": [
          23.100968,
          63.0801749
        ]
      },
      "properties": {
        "id": 1377596355,
        "osm_type": "way",
        "tourism": "apartment"
      }
    },
    {
      "type": "Feature",
      "geometry": {
        "type": "Point",
        "coordinates": [
          23.4634405,
          63.3868755
        ]
      },
      "properties": {
        "id": 1391339282,
        "osm_type": "way",
        "name": "Sillankorvan leirintäalue",
        "tourism": "camp_site",
        "phone": "+358 41 317 9343",
        "website": "https://www.sillankorva-camping.fi/"
      }
    },
    {
      "type": "Feature",
      "geometry": {
        "type": "Point",
        "coordinates": [
          23.4940905,
          62.8100073
        ]
      },
      "properties": {
        "id": 1409834570,
        "osm_type": "way",
        "name": "Kuortaneen Helmi",
        "tourism": "chalet"
      }
    },
    {
      "type": "Feature",
      "geometry": {
        "type": "Point",
        "coordinates": [
          23.4990139,
          62.8169371
        ]
      },
      "properties": {
        "id": 1410104991,
        "osm_type": "way",
        "name": "Minivilla 1",
        "tourism": "chalet"
      }
    },
    {
      "type": "Feature",
      "geometry": {
        "type": "Point",
        "coordinates": [
          23.4990064,
          62.8168323
        ]
      },
      "properties": {
        "id": 1410104992,
        "osm_type": "way",
        "name": "Minivilla 2",
        "tourism": "chalet"
      }
    },
    {
      "type": "Feature",
      "geometry": {
        "type": "Point",
        "coordinates": [
          23.4989857,
          62.8167454
        ]
      },
      "properties": {
        "id": 1410104993,
        "osm_type": "way",
        "name": "Minivilla 3",
        "tourism": "chalet"
      }
    },
    {
      "type": "Feature",
      "geometry": {
        "type": "Point",
        "coordinates": [
          23.4989552,
          62.8166386
        ]
      },
      "properties": {
        "id": 1410104994,
        "osm_type": "way",
        "name": "Minivilla 4",
        "tourism": "chalet"
      }
    },
    {
      "type": "Feature",
      "geometry": {
        "type": "Point",
        "coordinates": [
          23.4989613,
          62.8165467
        ]
      },
      "properties": {
        "id": 1410104995,
        "osm_type": "way",
        "name": "Minivilla 5",
        "tourism": "chalet"
      }
    },
    {
      "type": "Feature",
      "geometry": {
        "type": "Point",
        "coordinates": [
          23.4989429,
          62.8164483
        ]
      },
      "properties": {
        "id": 1410104996,
        "osm_type": "way",
        "name": "Minivilla 6",
        "tourism": "chalet"
      }
    },
    {
      "type": "Feature",
      "geometry": {
        "type": "Point",
        "coordinates": [
          23.4989206,
          62.8163498
        ]
      },
      "properties": {
        "id": 1410104997,
        "osm_type": "way",
        "name": "Minivilla 7",
        "tourism": "chalet"
      }
    },
    {
      "type": "Feature",
      "geometry": {
        "type": "Point",
        "coordinates": [
          23.4989023,
          62.8162403
        ]
      },
      "properties": {
        "id": 1410104998,
        "osm_type": "way",
        "name": "Minivilla 8",
        "tourism": "chalet"
      }
    },
    {
      "type": "Feature",
      "geometry": {
        "type": "Point",
        "coordinates": [
          23.4989002,
          62.8161446
        ]
      },
      "properties": {
        "id": 1410104999,
        "osm_type": "way",
        "name": "Minivilla 9",
        "tourism": "chalet"
      }
    },
    {
      "type": "Feature",
      "geometry": {
        "type": "Point",
        "coordinates": [
          23.4988717,
          62.816062
        ]
      },
      "properties": {
        "id": 1410105000,
        "osm_type": "way",
        "name": "Minivilla 10",
        "tourism": "chalet"
      }
    },
    {
      "type": "Feature",
      "geometry": {
        "type": "Point",
        "coordinates": [
          24.0477891,
          62.5537764
        ]
      },
      "properties": {
        "id": 1430016563,
        "osm_type": "way",
        "name": "Mustikkavuoren saunamökki",
        "tourism": "chalet",
        "website": "https://visitahtari.fi/kohde/#!/mustikkavuoren-saunamokki-(6+2),-lemmikit-sallittu/MUSTMO/2025-09-15/2025-09-25/2/0/0"
      }
    },
    {
      "type": "Feature",
      "geometry": {
        "type": "Point",
        "coordinates": [
          23.41596,
          63.409955
        ]
      },
      "properties": {
        "id": 1454241293,
        "osm_type": "way",
        "name": "Kokkolahden leirikeskus",
        "tourism": "camp_site",
        "phone": "0400 991 640",
        "website": "https://www.evijarvenhelluntaiseurakunta.fi/8",
        "check_date": "2025-11-27"
      }
    },
    {
      "type": "Feature",
      "geometry": {
        "type": "Point",
        "coordinates": [
          24.0183393,
          62.7959641
        ]
      },
      "properties": {
        "id": 1456529118,
        "osm_type": "way",
        "name": "Villa Mustaniemi",
        "tourism": "chalet",
        "website": "https://www.huvila.net/576"
      }
    },
    {
      "type": "Feature",
      "geometry": {
        "type": "Point",
        "coordinates": [
          23.9919299,
          62.8089443
        ]
      },
      "properties": {
        "id": 1457561411,
        "osm_type": "way",
        "name": "Villa Soukka",
        "tourism": "chalet",
        "website": "https://www.nettimokki.com/lehtimaki/villa-soukka/59669/"
      }
    },
    {
      "type": "Feature",
      "geometry": {
        "type": "Point",
        "coordinates": [
          23.7088339,
          62.6044074
        ]
      },
      "properties": {
        "id": 1481604971,
        "osm_type": "way",
        "name": "Telttailualue",
        "tourism": "camp_site",
        "tents": "yes"
      }
    },
    {
      "type": "Feature",
      "geometry": {
        "type": "Point",
        "coordinates": [
          23.7085032,
          62.6046612
        ]
      },
      "properties": {
        "id": 1481604972,
        "osm_type": "way",
        "name": "Telttailualue",
        "tourism": "camp_site",
        "tents": "yes"
      }
    },
    {
      "type": "Feature",
      "geometry": {
        "type": "Point",
        "coordinates": [
          23.715091,
          62.6058733
        ]
      },
      "properties": {
        "id": 1483697491,
        "osm_type": "way",
        "name": "Karavaanarialue Onnela",
        "tourism": "camp_site"
      }
    },
    {
      "type": "Feature",
      "geometry": {
        "type": "Point",
        "coordinates": [
          22.8440548,
          62.7551932
        ]
      },
      "properties": {
        "id": 2362390,
        "osm_type": "relation",
        "name": "Seinäjoen Leirintäalue",
        "tourism": "camp_site",
        "tents": "yes",
        "phone": "+358 50 440 9008"
      }
    },
    {
      "type": "Feature",
      "geometry": {
        "type": "Point",
        "coordinates": [
          22.8577033,
          63.2443549
        ]
      },
      "properties": {
        "id": 12931901,
        "osm_type": "relation",
        "name": "Liisankoti",
        "tourism": "apartment",
        "phone": "+358 400 940 981"
      }
    }
  ]
}