{
  "type": "FeatureCollection",
  "features": [
    {
      "type": "Feature",
      "geometry": {
        "type": "Point",
        "coordinates": [
          20.4961003,
          44.1397275
        ]
      },
      "properties": {
        "id": 362852460,
        "osm_type": "node",
        "name": "Неда",
        "tourism": "hotel"
      }
    },
    {
      "type": "Feature",
      "geometry": {
        "type": "Point",
        "coordinates": [
          20.4563456,
          44.0253804
        ]
      },
      "properties": {
        "id": 610242047,
        "osm_type": "node",
        "name": "Гата Дона",
        "tourism": "hotel",
        "website": "https://www.cbdonna.com/"
      }
    },
    {
      "type": "Feature",
      "geometry": {
        "type": "Point",
        "coordinates": [
          20.5218855,
          44.0261369
        ]
      },
      "properties": {
        "id": 1414355381,
        "osm_type": "node",
        "name": "Вила Мелодија",
        "tourism": "hotel",
        "website": "http://www.vilamelodija.com"
      }
    },
    {
      "type": "Feature",
      "geometry": {
        "type": "Point",
        "coordinates": [
          20.6221105,
          44.0387155
        ]
      },
      "properties": {
        "id": 1422996610,
        "osm_type": "node",
        "tourism": "hotel"
      }
    },
    {
      "type": "Feature",
      "geometry": {
        "type": "Point",
        "coordinates": [
          20.347534,
          44.0724317
        ]
      },
      "properties": {
        "id": 1436152854,
        "osm_type": "node",
        "tourism": "guest_house"
      }
    },
    {
      "type": "Feature",
      "geometry": {
        "type": "Point",
        "coordinates": [
          20.2860486,
          43.8344884
        ]
      },
      "properties": {
        "id": 2427953132,
        "osm_type": "node",
        "name": "Велики Грабовски",
        "tourism": "chalet",
        "contact:phone": "+381642087174",
        "contact:website": "velikigrabovski.com"
      }
    },
    {
      "type": "Feature",
      "geometry": {
        "type": "Point",
        "coordinates": [
          20.2271627,
          43.7776293
        ]
      },
      "properties": {
        "id": 2525198793,
        "osm_type": "node",
        "name": "Zlatna truba",
        "tourism": "hotel"
      }
    },
    {
      "type": "Feature",
      "geometry": {
        "type": "Point",
        "coordinates": [
          20.1033633,
          43.5017078
        ]
      },
      "properties": {
        "id": 3421817455,
        "osm_type": "node",
        "name": "Јавор",
        "tourism": "hotel"
      }
    },
    {
      "type": "Feature",
      "geometry": {
        "type": "Point",
        "coordinates": [
          20.4095588,
          43.9137652
        ]
      },
      "properties": {
        "id": 3613005957,
        "osm_type": "node",
        "name": "Ливаде",
        "tourism": "hotel",
        "website": "https://www.hotellivade.com/"
      }
    },
    {
      "type": "Feature",
      "geometry": {
        "type": "Point",
        "coordinates": [
          20.4852664,
          43.9527375
        ]
      },
      "properties": {
        "id": 3946593477,
        "osm_type": "node",
        "name": "Вујан",
        "tourism": "hotel"
      }
    },
    {
      "type": "Feature",
      "geometry": {
        "type": "Point",
        "coordinates": [
          20.4852658,
          43.949213
        ]
      },
      "properties": {
        "id": 3946593478,
        "osm_type": "node",
        "name": "Vila Biciklisti",
        "tourism": "guest_house",
        "phone": "+381 32 822361"
      }
    },
    {
      "type": "Feature",
      "geometry": {
        "type": "Point",
        "coordinates": [
          20.1354644,
          43.8609419
        ]
      },
      "properties": {
        "id": 4950319969,
        "osm_type": "node",
        "name": "Лучани",
        "tourism": "hotel",
        "phone": "+381 32 817458",
        "website": "https://hotel-lucani.rs/"
      }
    },
    {
      "type": "Feature",
      "geometry": {
        "type": "Point",
        "coordinates": [
          20.5003311,
          44.1354431
        ]
      },
      "properties": {
        "id": 5007046398,
        "osm_type": "node",
        "name": "Центар дечијих летовалишта и опоравилишта Града Београда Одмаралиште Рудник",
        "tourism": "guest_house"
      }
    },
    {
      "type": "Feature",
      "geometry": {
        "type": "Point",
        "coordinates": [
          20.4584865,
          44.0209942
        ]
      },
      "properties": {
        "id": 5152764354,
        "osm_type": "node",
        "name": "ИГ хотел",
        "tourism": "hotel"
      }
    },
    {
      "type": "Feature",
      "geometry": {
        "type": "Point",
        "coordinates": [
          20.4614996,
          44.0235594
        ]
      },
      "properties": {
        "id": 5166483357,
        "osm_type": "node",
        "name": "Преноћиште „Парк”",
        "tourism": "hostel"
      }
    },
    {
      "type": "Feature",
      "geometry": {
        "type": "Point",
        "coordinates": [
          20.1867976,
          43.8983989
        ]
      },
      "properties": {
        "id": 6580428085,
        "osm_type": "node",
        "name": "Kablar Wellness Centar",
        "tourism": "hotel",
        "phone": "+381 66 5596106",
        "website": "https://www.wellnesscentar-kablar.com/"
      }
    },
    {
      "type": "Feature",
      "geometry": {
        "type": "Point",
        "coordinates": [
          20.399144,
          43.3270997
        ]
      },
      "properties": {
        "id": 8122114983,
        "osm_type": "node",
        "name": "Дуги лаз",
        "tourism": "camp_site"
      }
    },
    {
      "type": "Feature",
      "geometry": {
        "type": "Point",
        "coordinates": [
          20.5124059,
          44.1435621
        ]
      },
      "properties": {
        "id": 9211845151,
        "osm_type": "node",
        "name": "Šumski kutak",
        "tourism": "apartment"
      }
    },
    {
      "type": "Feature",
      "geometry": {
        "type": "Point",
        "coordinates": [
          20.3314765,
          43.8830648
        ]
      },
      "properties": {
        "id": 9805582272,
        "osm_type": "node",
        "name": "Aveny",
        "tourism": "hotel"
      }
    },
    {
      "type": "Feature",
      "geometry": {
        "type": "Point",
        "coordinates": [
          20.3977642,
          43.903166
        ]
      },
      "properties": {
        "id": 9805582273,
        "osm_type": "node",
        "name": "Kole",
        "tourism": "hotel"
      }
    },
    {
      "type": "Feature",
      "geometry": {
        "type": "Point",
        "coordinates": [
          20.1318767,
          43.8621044
        ]
      },
      "properties": {
        "id": 9855877757,
        "osm_type": "node",
        "name": "Хедонист Лукс",
        "tourism": "hostel",
        "phone": "+38163610550"
      }
    },
    {
      "type": "Feature",
      "geometry": {
        "type": "Point",
        "coordinates": [
          20.2478648,
          43.6173629
        ]
      },
      "properties": {
        "id": 9907631201,
        "osm_type": "node",
        "name": "Ivanjički konaci",
        "tourism": "hotel",
        "phone": "+381 60 61 30776",
        "website": "https://ivanjickikonaci.rs/"
      }
    },
    {
      "type": "Feature",
      "geometry": {
        "type": "Point",
        "coordinates": [
          20.5004854,
          44.1411432
        ]
      },
      "properties": {
        "id": 10088797038,
        "osm_type": "node",
        "name": "Стефанов Конак",
        "tourism": "guest_house"
      }
    },
    {
      "type": "Feature",
      "geometry": {
        "type": "Point",
        "coordinates": [
          20.3768571,
          43.9848704
        ]
      },
      "properties": {
        "id": 10796696505,
        "osm_type": "node",
        "name": "Ловачки дом",
        "tourism": "alpine_hut"
      }
    },
    {
      "type": "Feature",
      "geometry": {
        "type": "Point",
        "coordinates": [
          20.4277423,
          44.2047523
        ]
      },
      "properties": {
        "id": 11660619312,
        "osm_type": "node",
        "name": "Етно село Мој завичај",
        "tourism": "guest_house",
        "phone": "+381 63 1063599",
        "website": "https://mojzavicaj.rs"
      }
    },
    {
      "type": "Feature",
      "geometry": {
        "type": "Point",
        "coordinates": [
          20.2261311,
          43.5837532
        ]
      },
      "properties": {
        "id": 13069351501,
        "osm_type": "node",
        "name": "NBN Apartmani",
        "tourism": "apartment"
      }
    },
    {
      "type": "Feature",
      "geometry": {
        "type": "Point",
        "coordinates": [
          20.3545875,
          43.8798251
        ]
      },
      "properties": {
        "id": 13075989301,
        "osm_type": "node",
        "name": "President",
        "tourism": "hotel"
      }
    },
    {
      "type": "Feature",
      "geometry": {
        "type": "Point",
        "coordinates": [
          20.3487571,
          43.8914597
        ]
      },
      "properties": {
        "id": 194136609,
        "osm_type": "way",
        "name": "Београд",
        "tourism": "hotel",
        "phone": "+38132224594",
        "website": "http://www.hotel-beograd.rs/"
      }
    },
    {
      "type": "Feature",
      "geometry": {
        "type": "Point",
        "coordinates": [
          20.3420597,
          43.8878843
        ]
      },
      "properties": {
        "id": 196602961,
        "osm_type": "way",
        "name": "Морава",
        "tourism": "hotel",
        "phone": "+381 63 1126713;+381 63 1126066;+381 32 333988",
        "website": "https://www.hotelmoravacacak.com"
      }
    },
    {
      "type": "Feature",
      "geometry": {
        "type": "Point",
        "coordinates": [
          20.2310991,
          43.5805672
        ]
      },
      "properties": {
        "id": 421727924,
        "osm_type": "way",
        "name": "Парк",
        "tourism": "hotel",
        "phone": "+381 32 661397",
        "website": "https://parkivanjica.rs/"
      }
    },
    {
      "type": "Feature",
      "geometry": {
        "type": "Point",
        "coordinates": [
          20.3425359,
          43.8975218
        ]
      },
      "properties": {
        "id": 447476910,
        "osm_type": "way",
        "name": "Мотел „Ловачки дом”",
        "tourism": "hotel"
      }
    },
    {
      "type": "Feature",
      "geometry": {
        "type": "Point",
        "coordinates": [
          20.4987397,
          44.1404082
        ]
      },
      "properties": {
        "id": 540842492,
        "osm_type": "way",
        "name": "Краљица",
        "tourism": "hotel",
        "phone": "+381 69 3977779"
      }
    },
    {
      "type": "Feature",
      "geometry": {
        "type": "Point",
        "coordinates": [
          20.5016156,
          44.1421716
        ]
      },
      "properties": {
        "id": 540865661,
        "osm_type": "way",
        "name": "Мали рај",
        "tourism": "apartment"
      }
    },
    {
      "type": "Feature",
      "geometry": {
        "type": "Point",
        "coordinates": [
          20.1032508,
          43.502268
        ]
      },
      "properties": {
        "id": 638611084,
        "osm_type": "way",
        "name": "Вила Ангелина",
        "tourism": "hotel",
        "phone": "+381658368888",
        "website": "https://vilaangelina.com/"
      }
    },
    {
      "type": "Feature",
      "geometry": {
        "type": "Point",
        "coordinates": [
          20.2073871,
          43.9121458
        ]
      },
      "properties": {
        "id": 690352198,
        "osm_type": "way",
        "name": "Планинарски дом ПД „Каблар”",
        "tourism": "alpine_hut",
        "phone": "+381 62 514-390",
        "website": "http://kablar.org.rs/index.php/planinarski-dom"
      }
    },
    {
      "type": "Feature",
      "geometry": {
        "type": "Point",
        "coordinates": [
          20.1918228,
          44.1353572
        ]
      },
      "properties": {
        "id": 701356208,
        "osm_type": "way",
        "name": "Планинарска кућа „Добра Вода”",
        "tourism": "alpine_hut",
        "phone": "+381 63 7234-684"
      }
    },
    {
      "type": "Feature",
      "geometry": {
        "type": "Point",
        "coordinates": [
          20.5017464,
          44.1370887
        ]
      },
      "properties": {
        "id": 701356213,
        "osm_type": "way",
        "name": "Планинарска кућа „Ратко Курузовић”",
        "tourism": "alpine_hut",
        "phone": "+381 64 1213-678",
        "website": "https://www.pdptt.rs/"
      }
    },
    {
      "type": "Feature",
      "geometry": {
        "type": "Point",
        "coordinates": [
          20.4063618,
          44.2237578
        ]
      },
      "properties": {
        "id": 721037964,
        "osm_type": "way",
        "name": "Вила Милица",
        "tourism": "guest_house",
        "phone": "+381655577690",
        "website": "http://www.vilamilica.com/"
      }
    },
    {
      "type": "Feature",
      "geometry": {
        "type": "Point",
        "coordinates": [
          20.1945821,
          43.9053466
        ]
      },
      "properties": {
        "id": 764191121,
        "osm_type": "way",
        "name": "Планинарски дом „Богољуб Ћурић”",
        "tourism": "alpine_hut",
        "website": "https://pss.rs/objektipp/planinarski-dom-bogoljub-curic/"
      }
    },
    {
      "type": "Feature",
      "geometry": {
        "type": "Point",
        "coordinates": [
          20.2148902,
          43.6000957
        ]
      },
      "properties": {
        "id": 835766406,
        "osm_type": "way",
        "name": "Президент",
        "tourism": "hotel",
        "phone": "+381 32 660 660;+381 66 877 00 24",
        "website": "https://www.prezidentivanjica.com"
      }
    },
    {
      "type": "Feature",
      "geometry": {
        "type": "Point",
        "coordinates": [
          20.2255412,
          43.8987785
        ]
      },
      "properties": {
        "id": 838192404,
        "osm_type": "way",
        "tourism": "chalet"
      }
    },
    {
      "type": "Feature",
      "geometry": {
        "type": "Point",
        "coordinates": [
          20.4822511,
          44.0603426
        ]
      },
      "properties": {
        "id": 984042686,
        "osm_type": "way",
        "name": "Brvnara za dvoje Glišović",
        "tourism": "chalet",
        "phone": "+381 611350984",
        "website": "https://brvnaraglisovic.weebly.com/"
      }
    },
    {
      "type": "Feature",
      "geometry": {
        "type": "Point",
        "coordinates": [
          20.5072825,
          44.1396936
        ]
      },
      "properties": {
        "id": 1005305273,
        "osm_type": "way",
        "name": "Шумска кућа Србијашуме",
        "tourism": "guest_house"
      }
    },
    {
      "type": "Feature",
      "geometry": {
        "type": "Point",
        "coordinates": [
          20.5037959,
          44.1436717
        ]
      },
      "properties": {
        "id": 1102826690,
        "osm_type": "way",
        "tourism": "apartment"
      }
    },
    {
      "type": "Feature",
      "geometry": {
        "type": "Point",
        "coordinates": [
          20.2377558,
          44.0265347
        ]
      },
      "properties": {
        "id": 1331474515,
        "osm_type": "way",
        "name": "Etno selo Rajski konaci",
        "tourism": "chalet",
        "website": "https://www.booking.com/Share-s3hPg0",
        "contact:website": "https://rajskikonaci.com"
      }
    },
    {
      "type": "Feature",
      "geometry": {
        "type": "Point",
        "coordinates": [
          20.2458122,
          43.5784166
        ]
      },
      "properties": {
        "id": 1494448960,
        "osm_type": "way",
        "name": "Етно село и ресторан „Наше брдо”",
        "tourism": "hostel"
      }
    }
  ]
}