{
  "type": "FeatureCollection",
  "features": [
    {
      "type": "Feature",
      "geometry": {
        "type": "Point",
        "coordinates": [
          25.5847232,
          42.0610947
        ]
      },
      "properties": {
        "id": 1896065535,
        "osm_type": "node",
        "name": "Славяни",
        "tourism": "hotel",
        "opening_hours": "24/7"
      }
    },
    {
      "type": "Feature",
      "geometry": {
        "type": "Point",
        "coordinates": [
          25.9175597,
          41.9237947
        ]
      },
      "properties": {
        "id": 1957902562,
        "osm_type": "node",
        "name": "Prima",
        "tourism": "hotel",
        "opening_hours": "24/7",
        "phone": "+359 373 82 216"
      }
    },
    {
      "type": "Feature",
      "geometry": {
        "type": "Point",
        "coordinates": [
          25.6568591,
          41.7765417
        ]
      },
      "properties": {
        "id": 2370521703,
        "osm_type": "node",
        "name": "Гледка",
        "tourism": "hotel"
      }
    },
    {
      "type": "Feature",
      "geometry": {
        "type": "Point",
        "coordinates": [
          26.2117191,
          41.7629408
        ]
      },
      "properties": {
        "id": 2985113354,
        "osm_type": "node",
        "name": "Hotel Parish Svilengrad",
        "tourism": "hotel",
        "phone": "+359 379 90 000",
        "website": "http://www.hotelparish.bg/"
      }
    },
    {
      "type": "Feature",
      "geometry": {
        "type": "Point",
        "coordinates": [
          25.9100444,
          41.9286657
        ]
      },
      "properties": {
        "id": 3129820962,
        "osm_type": "node",
        "tourism": "camp_site"
      }
    },
    {
      "type": "Feature",
      "geometry": {
        "type": "Point",
        "coordinates": [
          25.3203354,
          41.9253957
        ]
      },
      "properties": {
        "id": 3212171811,
        "osm_type": "node",
        "name": "Бай Стайковия Конак",
        "tourism": "guest_house"
      }
    },
    {
      "type": "Feature",
      "geometry": {
        "type": "Point",
        "coordinates": [
          25.7211849,
          41.6140787
        ]
      },
      "properties": {
        "id": 3687390314,
        "osm_type": "node",
        "name": "Арда",
        "tourism": "hotel"
      }
    },
    {
      "type": "Feature",
      "geometry": {
        "type": "Point",
        "coordinates": [
          25.7196295,
          41.6148829
        ]
      },
      "properties": {
        "id": 3687393028,
        "osm_type": "node",
        "name": "Перпера",
        "tourism": "hotel"
      }
    },
    {
      "type": "Feature",
      "geometry": {
        "type": "Point",
        "coordinates": [
          25.8719824,
          41.6435761
        ]
      },
      "properties": {
        "id": 3811562164,
        "osm_type": "node",
        "name": "BSPB Vulture Centre",
        "tourism": "hostel"
      }
    },
    {
      "type": "Feature",
      "geometry": {
        "type": "Point",
        "coordinates": [
          25.623342,
          42.0928139
        ]
      },
      "properties": {
        "id": 4264650394,
        "osm_type": "node",
        "name": "Спа комплекс Райски кът",
        "tourism": "motel",
        "phone": "+359878200506",
        "website": "https://rayskikat.com"
      }
    },
    {
      "type": "Feature",
      "geometry": {
        "type": "Point",
        "coordinates": [
          25.5784865,
          42.0449861
        ]
      },
      "properties": {
        "id": 4264650700,
        "osm_type": "node",
        "name": "Afrodita",
        "tourism": "hotel",
        "opening_hours": "24/7",
        "phone": "+359 87 884 3159",
        "website": "https://hotelafrodita.bg",
        "check_date": "2023-02-26"
      }
    },
    {
      "type": "Feature",
      "geometry": {
        "type": "Point",
        "coordinates": [
          26.2014529,
          41.767856
        ]
      },
      "properties": {
        "id": 4402331400,
        "osm_type": "node",
        "name": "Ради Инн",
        "tourism": "hotel"
      }
    },
    {
      "type": "Feature",
      "geometry": {
        "type": "Point",
        "coordinates": [
          25.9248807,
          41.6623713
        ]
      },
      "properties": {
        "id": 4417320096,
        "osm_type": "node",
        "name": "Къща за гости \"Чолакови\"",
        "tourism": "guest_house"
      }
    },
    {
      "type": "Feature",
      "geometry": {
        "type": "Point",
        "coordinates": [
          25.5555806,
          41.93429
        ]
      },
      "properties": {
        "id": 4458682491,
        "osm_type": "node",
        "name": "Оазис",
        "tourism": "hotel",
        "phone": "+359 38 663 248"
      }
    },
    {
      "type": "Feature",
      "geometry": {
        "type": "Point",
        "coordinates": [
          25.5523986,
          41.9468458
        ]
      },
      "properties": {
        "id": 4477965291,
        "osm_type": "node",
        "tourism": "hostel"
      }
    },
    {
      "type": "Feature",
      "geometry": {
        "type": "Point",
        "coordinates": [
          25.5452717,
          41.9346944
        ]
      },
      "properties": {
        "id": 5300682022,
        "osm_type": "node",
        "tourism": "apartment"
      }
    },
    {
      "type": "Feature",
      "geometry": {
        "type": "Point",
        "coordinates": [
          25.4166995,
          42.019093
        ]
      },
      "properties": {
        "id": 5953040264,
        "osm_type": "node",
        "name": "Motel Restaurant San Marino",
        "tourism": "hotel"
      }
    },
    {
      "type": "Feature",
      "geometry": {
        "type": "Point",
        "coordinates": [
          25.9185611,
          41.9233114
        ]
      },
      "properties": {
        "id": 5983072585,
        "osm_type": "node",
        "name": "Хотел - механа 19 век",
        "tourism": "hotel",
        "phone": "+359 88 842 1827",
        "website": "http://www.hotel-19vek-strelcha.com/"
      }
    },
    {
      "type": "Feature",
      "geometry": {
        "type": "Point",
        "coordinates": [
          25.7609553,
          41.7283652
        ]
      },
      "properties": {
        "id": 6348170978,
        "osm_type": "node",
        "name": "Тънково",
        "tourism": "alpine_hut"
      }
    },
    {
      "type": "Feature",
      "geometry": {
        "type": "Point",
        "coordinates": [
          25.5567262,
          41.9318159
        ]
      },
      "properties": {
        "id": 6407678268,
        "osm_type": "node",
        "name": "Hotel central",
        "tourism": "hotel"
      }
    },
    {
      "type": "Feature",
      "geometry": {
        "type": "Point",
        "coordinates": [
          25.9915104,
          41.8704134
        ]
      },
      "properties": {
        "id": 6797255395,
        "osm_type": "node",
        "name": "Sakar Hills",
        "tourism": "camp_site",
        "phone": "+359892034554",
        "website": "https://www.sakar-hills.com/"
      }
    },
    {
      "type": "Feature",
      "geometry": {
        "type": "Point",
        "coordinates": [
          26.0550685,
          41.7771184
        ]
      },
      "properties": {
        "id": 7691050698,
        "osm_type": "node",
        "name": "Camping spot",
        "tourism": "camp_site"
      }
    },
    {
      "type": "Feature",
      "geometry": {
        "type": "Point",
        "coordinates": [
          25.3487883,
          41.9349936
        ]
      },
      "properties": {
        "id": 7705574985,
        "osm_type": "node",
        "name": "Семеен хотел \"Национал\"",
        "tourism": "hotel",
        "phone": "+359 88 871 1887"
      }
    },
    {
      "type": "Feature",
      "geometry": {
        "type": "Point",
        "coordinates": [
          25.2866429,
          41.8801217
        ]
      },
      "properties": {
        "id": 8235200828,
        "osm_type": "node",
        "name": "Кирилов Камък",
        "tourism": "camp_site"
      }
    },
    {
      "type": "Feature",
      "geometry": {
        "type": "Point",
        "coordinates": [
          26.0861693,
          41.7397678
        ]
      },
      "properties": {
        "id": 8267339332,
        "osm_type": "node",
        "name": "Райски кът",
        "tourism": "guest_house"
      }
    },
    {
      "type": "Feature",
      "geometry": {
        "type": "Point",
        "coordinates": [
          25.9038885,
          41.9261351
        ]
      },
      "properties": {
        "id": 8700088259,
        "osm_type": "node",
        "name": "Авангард",
        "tourism": "hotel"
      }
    },
    {
      "type": "Feature",
      "geometry": {
        "type": "Point",
        "coordinates": [
          25.9162986,
          41.9222567
        ]
      },
      "properties": {
        "id": 8735450180,
        "osm_type": "node",
        "name": "Олимпия",
        "tourism": "hotel"
      }
    },
    {
      "type": "Feature",
      "geometry": {
        "type": "Point",
        "coordinates": [
          25.5120946,
          41.956855
        ]
      },
      "properties": {
        "id": 9206442015,
        "osm_type": "node",
        "name": "Дружба",
        "tourism": "hotel"
      }
    },
    {
      "type": "Feature",
      "geometry": {
        "type": "Point",
        "coordinates": [
          26.1996037,
          41.7667077
        ]
      },
      "properties": {
        "id": 9804307229,
        "osm_type": "node",
        "name": "Altunhan Hotel",
        "tourism": "hotel"
      }
    },
    {
      "type": "Feature",
      "geometry": {
        "type": "Point",
        "coordinates": [
          26.1993271,
          41.7665064
        ]
      },
      "properties": {
        "id": 9804335372,
        "osm_type": "node",
        "name": "Hotel Central",
        "tourism": "hotel"
      }
    },
    {
      "type": "Feature",
      "geometry": {
        "type": "Point",
        "coordinates": [
          26.2037585,
          41.7699497
        ]
      },
      "properties": {
        "id": 10013202924,
        "osm_type": "node",
        "tourism": "hotel"
      }
    },
    {
      "type": "Feature",
      "geometry": {
        "type": "Point",
        "coordinates": [
          25.5572854,
          41.9337612
        ]
      },
      "properties": {
        "id": 10128411550,
        "osm_type": "node",
        "name": "Визия",
        "tourism": "hotel"
      }
    },
    {
      "type": "Feature",
      "geometry": {
        "type": "Point",
        "coordinates": [
          26.0823681,
          41.8445521
        ]
      },
      "properties": {
        "id": 10682700995,
        "osm_type": "node",
        "name": "Fantazia",
        "tourism": "hotel"
      }
    },
    {
      "type": "Feature",
      "geometry": {
        "type": "Point",
        "coordinates": [
          26.0896405,
          41.7389094
        ]
      },
      "properties": {
        "id": 10687905433,
        "osm_type": "node",
        "name": "Villa Anika",
        "tourism": "guest_house",
        "website": "https://villa-anika-mezek.hotelmix.bg"
      }
    },
    {
      "type": "Feature",
      "geometry": {
        "type": "Point",
        "coordinates": [
          25.6789587,
          41.7790087
        ]
      },
      "properties": {
        "id": 11070950005,
        "osm_type": "node",
        "name": "Воеводски хан",
        "tourism": "guest_house",
        "phone": "+359889573334"
      }
    },
    {
      "type": "Feature",
      "geometry": {
        "type": "Point",
        "coordinates": [
          25.6944717,
          41.7914128
        ]
      },
      "properties": {
        "id": 11077405308,
        "osm_type": "node",
        "name": "Семеен хотел Хефес",
        "tourism": "hotel",
        "phone": "+359886516307"
      }
    },
    {
      "type": "Feature",
      "geometry": {
        "type": "Point",
        "coordinates": [
          25.5783979,
          41.8286596
        ]
      },
      "properties": {
        "id": 11282760614,
        "osm_type": "node",
        "name": "хижа Книжовник",
        "tourism": "alpine_hut"
      }
    },
    {
      "type": "Feature",
      "geometry": {
        "type": "Point",
        "coordinates": [
          25.5394538,
          41.9454138
        ]
      },
      "properties": {
        "id": 11455053058,
        "osm_type": "node",
        "name": "Бохеми",
        "tourism": "hotel"
      }
    },
    {
      "type": "Feature",
      "geometry": {
        "type": "Point",
        "coordinates": [
          25.5587062,
          41.930489
        ]
      },
      "properties": {
        "id": 11465395263,
        "osm_type": "node",
        "name": "Аврора",
        "tourism": "hotel"
      }
    },
    {
      "type": "Feature",
      "geometry": {
        "type": "Point",
        "coordinates": [
          26.2145121,
          41.7631214
        ]
      },
      "properties": {
        "id": 12141677529,
        "osm_type": "node",
        "name": "Сахара",
        "tourism": "hotel"
      }
    },
    {
      "type": "Feature",
      "geometry": {
        "type": "Point",
        "coordinates": [
          26.2135586,
          41.7631515
        ]
      },
      "properties": {
        "id": 12141706315,
        "osm_type": "node",
        "name": "Хестея",
        "tourism": "hotel",
        "contact:phone": "+359 37 993 666",
        "contact:website": "https://hesteya.bg/"
      }
    },
    {
      "type": "Feature",
      "geometry": {
        "type": "Point",
        "coordinates": [
          25.5841483,
          42.0618242
        ]
      },
      "properties": {
        "id": 13265569079,
        "osm_type": "node",
        "name": "Хотел Ди ен Ди",
        "tourism": "hotel",
        "phone": "088 831 2252",
        "website": "https://www.hoteldiendi.com/"
      }
    },
    {
      "type": "Feature",
      "geometry": {
        "type": "Point",
        "coordinates": [
          25.588396,
          42.0592246
        ]
      },
      "properties": {
        "id": 13382603291,
        "osm_type": "node",
        "name": "Estilo",
        "tourism": "hotel"
      }
    },
    {
      "type": "Feature",
      "geometry": {
        "type": "Point",
        "coordinates": [
          25.5552085,
          41.9325188
        ]
      },
      "properties": {
        "id": 103690672,
        "osm_type": "way",
        "name": "Аида",
        "tourism": "hotel"
      }
    },
    {
      "type": "Feature",
      "geometry": {
        "type": "Point",
        "coordinates": [
          25.5576365,
          41.9337189
        ]
      },
      "properties": {
        "id": 103690961,
        "osm_type": "way",
        "name": "Тракия",
        "tourism": "hotel",
        "opening_hours": "24/7",
        "phone": "+359 38 602 560",
        "website": "http://hoteltrakia.com"
      }
    },
    {
      "type": "Feature",
      "geometry": {
        "type": "Point",
        "coordinates": [
          25.5547984,
          41.9328373
        ]
      },
      "properties": {
        "id": 103691003,
        "osm_type": "way",
        "name": "Хасково",
        "tourism": "hotel",
        "phone": "+359 38 602 525;+359 88 260 2525",
        "website": "https://hotel-haskovo.com"
      }
    },
    {
      "type": "Feature",
      "geometry": {
        "type": "Point",
        "coordinates": [
          25.6161243,
          42.054069
        ]
      },
      "properties": {
        "id": 179106656,
        "osm_type": "way",
        "name": "Marista",
        "tourism": "motel"
      }
    },
    {
      "type": "Feature",
      "geometry": {
        "type": "Point",
        "coordinates": [
          25.570165,
          41.929692
        ]
      },
      "properties": {
        "id": 183403732,
        "osm_type": "way",
        "name": "Вигор",
        "tourism": "hotel",
        "phone": "+359 892 666 444",
        "website": "https://vigorhotel.bg/"
      }
    },
    {
      "type": "Feature",
      "geometry": {
        "type": "Point",
        "coordinates": [
          25.8603623,
          41.6332242
        ]
      },
      "properties": {
        "id": 204706539,
        "osm_type": "way",
        "tourism": "hotel"
      }
    },
    {
      "type": "Feature",
      "geometry": {
        "type": "Point",
        "coordinates": [
          26.0882944,
          41.7387775
        ]
      },
      "properties": {
        "id": 252181588,
        "osm_type": "way",
        "name": "Теохара",
        "tourism": "guest_house",
        "website": "https://mezek-bg.hotelmix.bg"
      }
    },
    {
      "type": "Feature",
      "geometry": {
        "type": "Point",
        "coordinates": [
          26.0892333,
          41.7383751
        ]
      },
      "properties": {
        "id": 252181597,
        "osm_type": "way",
        "name": "Вила Мезек",
        "tourism": "guest_house",
        "website": "https://villa-mezek.com"
      }
    },
    {
      "type": "Feature",
      "geometry": {
        "type": "Point",
        "coordinates": [
          26.1191693,
          41.5210226
        ]
      },
      "properties": {
        "id": 252201580,
        "osm_type": "way",
        "name": "Луксор",
        "tourism": "hotel"
      }
    },
    {
      "type": "Feature",
      "geometry": {
        "type": "Point",
        "coordinates": [
          25.7268147,
          41.9868832
        ]
      },
      "properties": {
        "id": 255297706,
        "osm_type": "way",
        "name": "Къмпинг с.Александрово",
        "tourism": "camp_site",
        "tents": "yes",
        "phone": "+359 88 864 8384",
        "website": "https://www.alexandrovocamping.com/"
      }
    },
    {
      "type": "Feature",
      "geometry": {
        "type": "Point",
        "coordinates": [
          25.5721858,
          41.9280775
        ]
      },
      "properties": {
        "id": 292881227,
        "osm_type": "way",
        "name": "Цар Симеон",
        "tourism": "hotel"
      }
    },
    {
      "type": "Feature",
      "geometry": {
        "type": "Point",
        "coordinates": [
          25.5583651,
          41.9280354
        ]
      },
      "properties": {
        "id": 293706059,
        "osm_type": "way",
        "name": "Ретро",
        "tourism": "hotel",
        "website": "http://hotelretro.bg/"
      }
    },
    {
      "type": "Feature",
      "geometry": {
        "type": "Point",
        "coordinates": [
          25.5584632,
          41.9338817
        ]
      },
      "properties": {
        "id": 297371113,
        "osm_type": "way",
        "name": "aSa Boutique Hotel",
        "tourism": "hotel"
      }
    },
    {
      "type": "Feature",
      "geometry": {
        "type": "Point",
        "coordinates": [
          25.5542546,
          41.9356804
        ]
      },
      "properties": {
        "id": 297491399,
        "osm_type": "way",
        "name": "ОСО",
        "tourism": "hotel"
      }
    },
    {
      "type": "Feature",
      "geometry": {
        "type": "Point",
        "coordinates": [
          25.5504533,
          41.9344796
        ]
      },
      "properties": {
        "id": 297725991,
        "osm_type": "way",
        "name": "Родопи",
        "tourism": "hotel"
      }
    },
    {
      "type": "Feature",
      "geometry": {
        "type": "Point",
        "coordinates": [
          25.5496006,
          41.9465484
        ]
      },
      "properties": {
        "id": 310937761,
        "osm_type": "way",
        "name": "Дикрас",
        "tourism": "guest_house",
        "phone": "+359 89 795 3634"
      }
    },
    {
      "type": "Feature",
      "geometry": {
        "type": "Point",
        "coordinates": [
          25.5728145,
          41.9282609
        ]
      },
      "properties": {
        "id": 328749558,
        "osm_type": "way",
        "name": "Вертикал Плюс",
        "tourism": "hotel",
        "phone": "+359 87 924 0004;+359 88 987 5135",
        "website": "https://www.hotelverticalplus.bg/"
      }
    },
    {
      "type": "Feature",
      "geometry": {
        "type": "Point",
        "coordinates": [
          25.5552711,
          41.9340159
        ]
      },
      "properties": {
        "id": 334849057,
        "osm_type": "way",
        "name": "Водно Строителство АД",
        "tourism": "hotel"
      }
    },
    {
      "type": "Feature",
      "geometry": {
        "type": "Point",
        "coordinates": [
          25.5588984,
          41.9315533
        ]
      },
      "properties": {
        "id": 335027156,
        "osm_type": "way",
        "name": "Магура",
        "tourism": "hotel"
      }
    },
    {
      "type": "Feature",
      "geometry": {
        "type": "Point",
        "coordinates": [
          26.0842787,
          41.7353634
        ]
      },
      "properties": {
        "id": 339705310,
        "osm_type": "way",
        "name": "Guest House \"Villa Kaleto\"",
        "tourism": "chalet"
      }
    },
    {
      "type": "Feature",
      "geometry": {
        "type": "Point",
        "coordinates": [
          25.5404018,
          41.9444407
        ]
      },
      "properties": {
        "id": 345301745,
        "osm_type": "way",
        "name": "History",
        "tourism": "hotel"
      }
    },
    {
      "type": "Feature",
      "geometry": {
        "type": "Point",
        "coordinates": [
          26.1325384,
          41.3920099
        ]
      },
      "properties": {
        "id": 346770322,
        "osm_type": "way",
        "name": "Букор щепи",
        "tourism": "hotel",
        "website": "https://bukorshtepi.com/"
      }
    },
    {
      "type": "Feature",
      "geometry": {
        "type": "Point",
        "coordinates": [
          25.8849437,
          41.9167314
        ]
      },
      "properties": {
        "id": 355035517,
        "osm_type": "way",
        "name": "Приказките",
        "tourism": "hotel"
      }
    },
    {
      "type": "Feature",
      "geometry": {
        "type": "Point",
        "coordinates": [
          25.5425043,
          41.9457534
        ]
      },
      "properties": {
        "id": 367618577,
        "osm_type": "way",
        "name": "Европа",
        "tourism": "hotel"
      }
    },
    {
      "type": "Feature",
      "geometry": {
        "type": "Point",
        "coordinates": [
          25.543376,
          41.9438194
        ]
      },
      "properties": {
        "id": 367618582,
        "osm_type": "way",
        "name": "Фантазия",
        "tourism": "hotel"
      }
    },
    {
      "type": "Feature",
      "geometry": {
        "type": "Point",
        "coordinates": [
          25.8508736,
          41.6599212
        ]
      },
      "properties": {
        "id": 370345700,
        "osm_type": "way",
        "name": "The Wild Farm",
        "tourism": "guest_house",
        "phone": "+359 88 696 3512",
        "website": "http://bedandbirding-rhodopes.bg/"
      }
    },
    {
      "type": "Feature",
      "geometry": {
        "type": "Point",
        "coordinates": [
          25.5822513,
          42.0464607
        ]
      },
      "properties": {
        "id": 406910375,
        "osm_type": "way",
        "name": "Частен пансион \"Калина\"",
        "tourism": "hostel"
      }
    },
    {
      "type": "Feature",
      "geometry": {
        "type": "Point",
        "coordinates": [
          25.4426432,
          42.0719888
        ]
      },
      "properties": {
        "id": 493746165,
        "osm_type": "way",
        "name": "Хотел \"Ябълково",
        "tourism": "hotel"
      }
    },
    {
      "type": "Feature",
      "geometry": {
        "type": "Point",
        "coordinates": [
          25.3462205,
          41.9426801
        ]
      },
      "properties": {
        "id": 533867230,
        "osm_type": "way",
        "name": "Замъкът - Джамура",
        "tourism": "hotel"
      }
    },
    {
      "type": "Feature",
      "geometry": {
        "type": "Point",
        "coordinates": [
          25.3457516,
          41.9408594
        ]
      },
      "properties": {
        "id": 533867234,
        "osm_type": "way",
        "name": "Божур",
        "tourism": "hotel"
      }
    },
    {
      "type": "Feature",
      "geometry": {
        "type": "Point",
        "coordinates": [
          25.3463973,
          41.942358
        ]
      },
      "properties": {
        "id": 533867309,
        "osm_type": "way",
        "name": "Бялата Къща",
        "tourism": "hotel"
      }
    },
    {
      "type": "Feature",
      "geometry": {
        "type": "Point",
        "coordinates": [
          25.5317765,
          41.9511425
        ]
      },
      "properties": {
        "id": 536823534,
        "osm_type": "way",
        "name": "Калуа",
        "tourism": "hotel",
        "phone": "+359 89 881 6621",
        "website": "http://calua.eu/"
      }
    },
    {
      "type": "Feature",
      "geometry": {
        "type": "Point",
        "coordinates": [
          25.299079,
          41.904264
        ]
      },
      "properties": {
        "id": 587419981,
        "osm_type": "way",
        "name": "Аида",
        "tourism": "alpine_hut"
      }
    },
    {
      "type": "Feature",
      "geometry": {
        "type": "Point",
        "coordinates": [
          25.5920274,
          42.0481222
        ]
      },
      "properties": {
        "id": 645066895,
        "osm_type": "way",
        "name": "Хижа \"Габера\"",
        "tourism": "hostel"
      }
    },
    {
      "type": "Feature",
      "geometry": {
        "type": "Point",
        "coordinates": [
          26.1211505,
          41.52807
        ]
      },
      "properties": {
        "id": 702890323,
        "osm_type": "way",
        "name": "Армира",
        "tourism": "hotel"
      }
    },
    {
      "type": "Feature",
      "geometry": {
        "type": "Point",
        "coordinates": [
          25.5205514,
          41.9565321
        ]
      },
      "properties": {
        "id": 743933173,
        "osm_type": "way",
        "name": "Романтика",
        "tourism": "hotel"
      }
    },
    {
      "type": "Feature",
      "geometry": {
        "type": "Point",
        "coordinates": [
          25.4824154,
          41.9640852
        ]
      },
      "properties": {
        "id": 830761164,
        "osm_type": "way",
        "tourism": "hotel"
      }
    },
    {
      "type": "Feature",
      "geometry": {
        "type": "Point",
        "coordinates": [
          25.3503955,
          41.9362425
        ]
      },
      "properties": {
        "id": 840411021,
        "osm_type": "way",
        "name": "Его",
        "tourism": "hotel"
      }
    },
    {
      "type": "Feature",
      "geometry": {
        "type": "Point",
        "coordinates": [
          25.3508527,
          41.9361463
        ]
      },
      "properties": {
        "id": 840411041,
        "osm_type": "way",
        "name": "къща за гости Бялков",
        "tourism": "hotel"
      }
    },
    {
      "type": "Feature",
      "geometry": {
        "type": "Point",
        "coordinates": [
          26.1212121,
          41.5282639
        ]
      },
      "properties": {
        "id": 852191047,
        "osm_type": "way",
        "name": "Бор",
        "tourism": "hotel"
      }
    },
    {
      "type": "Feature",
      "geometry": {
        "type": "Point",
        "coordinates": [
          26.0862044,
          41.736445
        ]
      },
      "properties": {
        "id": 880561865,
        "osm_type": "way",
        "tourism": "chalet"
      }
    },
    {
      "type": "Feature",
      "geometry": {
        "type": "Point",
        "coordinates": [
          25.3468089,
          41.9373896
        ]
      },
      "properties": {
        "id": 931419397,
        "osm_type": "way",
        "name": "Айлин",
        "tourism": "hotel"
      }
    },
    {
      "type": "Feature",
      "geometry": {
        "type": "Point",
        "coordinates": [
          25.3445254,
          41.9423472
        ]
      },
      "properties": {
        "id": 931419398,
        "osm_type": "way",
        "name": "Йонико Термал",
        "tourism": "hotel"
      }
    },
    {
      "type": "Feature",
      "geometry": {
        "type": "Point",
        "coordinates": [
          25.3442819,
          41.9427791
        ]
      },
      "properties": {
        "id": 931419399,
        "osm_type": "way",
        "name": "Олимпия - Роксана",
        "tourism": "hotel"
      }
    },
    {
      "type": "Feature",
      "geometry": {
        "type": "Point",
        "coordinates": [
          25.3438779,
          41.9429361
        ]
      },
      "properties": {
        "id": 931419400,
        "osm_type": "way",
        "name": "Балджъ",
        "tourism": "hotel"
      }
    },
    {
      "type": "Feature",
      "geometry": {
        "type": "Point",
        "coordinates": [
          25.347063,
          41.9385179
        ]
      },
      "properties": {
        "id": 931440866,
        "osm_type": "way",
        "name": "Яман",
        "tourism": "hotel"
      }
    },
    {
      "type": "Feature",
      "geometry": {
        "type": "Point",
        "coordinates": [
          25.3542853,
          41.9342952
        ]
      },
      "properties": {
        "id": 932492872,
        "osm_type": "way",
        "name": "Mineral Village",
        "tourism": "hotel"
      }
    },
    {
      "type": "Feature",
      "geometry": {
        "type": "Point",
        "coordinates": [
          25.3258737,
          41.9156614
        ]
      },
      "properties": {
        "id": 982279607,
        "osm_type": "way",
        "name": "Вила Белисима",
        "tourism": "hotel",
        "website": "https://www.vilabellissima.com/"
      }
    },
    {
      "type": "Feature",
      "geometry": {
        "type": "Point",
        "coordinates": [
          26.1983439,
          41.7683256
        ]
      },
      "properties": {
        "id": 991473336,
        "osm_type": "way",
        "name": "Свилена",
        "tourism": "hotel",
        "opening_hours": "09:00-17:00",
        "contact:phone": "+359 37 971 689",
        "contact:website": "http://hotelsvilena.com/"
      }
    },
    {
      "type": "Feature",
      "geometry": {
        "type": "Point",
        "coordinates": [
          26.2106726,
          41.7640667
        ]
      },
      "properties": {
        "id": 991629552,
        "osm_type": "way",
        "name": "Romantica",
        "tourism": "hotel",
        "phone": "+359 379 77 777"
      }
    },
    {
      "type": "Feature",
      "geometry": {
        "type": "Point",
        "coordinates": [
          26.2104551,
          41.7587006
        ]
      },
      "properties": {
        "id": 991660973,
        "osm_type": "way",
        "tourism": "hotel"
      }
    },
    {
      "type": "Feature",
      "geometry": {
        "type": "Point",
        "coordinates": [
          26.1910669,
          41.7703023
        ]
      },
      "properties": {
        "id": 1054240568,
        "osm_type": "way",
        "tourism": "hotel"
      }
    },
    {
      "type": "Feature",
      "geometry": {
        "type": "Point",
        "coordinates": [
          26.1998539,
          41.7665473
        ]
      },
      "properties": {
        "id": 1080992324,
        "osm_type": "way",
        "name": "George Family Hotel",
        "tourism": "hotel"
      }
    },
    {
      "type": "Feature",
      "geometry": {
        "type": "Point",
        "coordinates": [
          26.0815679,
          41.8442741
        ]
      },
      "properties": {
        "id": 1148229760,
        "osm_type": "way",
        "name": "Hotel Maritsa",
        "tourism": "hotel"
      }
    },
    {
      "type": "Feature",
      "geometry": {
        "type": "Point",
        "coordinates": [
          26.0881589,
          41.7369753
        ]
      },
      "properties": {
        "id": 1148776528,
        "osm_type": "way",
        "name": "Калайджиевата къща",
        "tourism": "guest_house",
        "website": "https://kalaydjievhouse.com"
      }
    },
    {
      "type": "Feature",
      "geometry": {
        "type": "Point",
        "coordinates": [
          26.0863618,
          41.7397187
        ]
      },
      "properties": {
        "id": 1148776531,
        "osm_type": "way",
        "tourism": "guest_house"
      }
    },
    {
      "type": "Feature",
      "geometry": {
        "type": "Point",
        "coordinates": [
          26.0871237,
          41.7405164
        ]
      },
      "properties": {
        "id": 1148776533,
        "osm_type": "way",
        "name": "Родопската къща",
        "tourism": "guest_house",
        "website": "http://www.rodopskatakashta.bg"
      }
    },
    {
      "type": "Feature",
      "geometry": {
        "type": "Point",
        "coordinates": [
          26.0881555,
          41.740906
        ]
      },
      "properties": {
        "id": 1148776534,
        "osm_type": "way",
        "name": "Тони",
        "tourism": "guest_house",
        "website": "https://www.guesthousetoni.net"
      }
    },
    {
      "type": "Feature",
      "geometry": {
        "type": "Point",
        "coordinates": [
          26.5040286,
          42.0645714
        ]
      },
      "properties": {
        "id": 1288384666,
        "osm_type": "way",
        "tourism": "hotel"
      }
    },
    {
      "type": "Feature",
      "geometry": {
        "type": "Point",
        "coordinates": [
          26.0549728,
          41.5981526
        ]
      },
      "properties": {
        "id": 1370324532,
        "osm_type": "way",
        "name": "Намасте",
        "tourism": "guest_house"
      }
    },
    {
      "type": "Feature",
      "geometry": {
        "type": "Point",
        "coordinates": [
          26.0545196,
          41.5982008
        ]
      },
      "properties": {
        "id": 1370324533,
        "osm_type": "way",
        "name": "Бялата къща",
        "tourism": "guest_house"
      }
    }
  ]
}