{
  "type": "FeatureCollection",
  "features": [
    {
      "type": "Feature",
      "geometry": {
        "type": "Point",
        "coordinates": [
          44.266692,
          39.6798297
        ]
      },
      "properties": {
        "id": 841907550,
        "osm_type": "node",
        "name": "Basecamp",
        "tourism": "camp_site"
      }
    },
    {
      "type": "Feature",
      "geometry": {
        "type": "Point",
        "coordinates": [
          44.1372283,
          39.5567489
        ]
      },
      "properties": {
        "id": 2993910409,
        "osm_type": "node",
        "name": "Sim-er Hotel",
        "tourism": "hotel"
      }
    },
    {
      "type": "Feature",
      "geometry": {
        "type": "Point",
        "coordinates": [
          43.0510371,
          39.7219843
        ]
      },
      "properties": {
        "id": 3026986400,
        "osm_type": "node",
        "name": "Şahin Otel",
        "tourism": "hotel"
      }
    },
    {
      "type": "Feature",
      "geometry": {
        "type": "Point",
        "coordinates": [
          44.0811502,
          39.5459952
        ]
      },
      "properties": {
        "id": 3767403514,
        "osm_type": "node",
        "name": "Tehran Boutique",
        "tourism": "hotel"
      }
    },
    {
      "type": "Feature",
      "geometry": {
        "type": "Point",
        "coordinates": [
          44.1261351,
          39.5206608
        ]
      },
      "properties": {
        "id": 3784821016,
        "osm_type": "node",
        "name": "Noah camping",
        "tourism": "caravan_site"
      }
    },
    {
      "type": "Feature",
      "geometry": {
        "type": "Point",
        "coordinates": [
          43.0514374,
          39.7192016
        ]
      },
      "properties": {
        "id": 3800957226,
        "osm_type": "node",
        "name": "Büyük Ağrı Oteli",
        "tourism": "hotel"
      }
    },
    {
      "type": "Feature",
      "geometry": {
        "type": "Point",
        "coordinates": [
          43.0509822,
          39.7192542
        ]
      },
      "properties": {
        "id": 4179579789,
        "osm_type": "node",
        "name": "Hotel Acar",
        "tourism": "hotel"
      }
    },
    {
      "type": "Feature",
      "geometry": {
        "type": "Point",
        "coordinates": [
          44.0822951,
          39.5465256
        ]
      },
      "properties": {
        "id": 4349336589,
        "osm_type": "node",
        "name": "Yayla Palas",
        "tourism": "hotel",
        "check_date": "2024-09-01"
      }
    },
    {
      "type": "Feature",
      "geometry": {
        "type": "Point",
        "coordinates": [
          44.0800814,
          39.5473468
        ]
      },
      "properties": {
        "id": 4359713299,
        "osm_type": "node",
        "name": "derya",
        "tourism": "hotel"
      }
    },
    {
      "type": "Feature",
      "geometry": {
        "type": "Point",
        "coordinates": [
          42.6803552,
          39.7987509
        ]
      },
      "properties": {
        "id": 4590664089,
        "osm_type": "node",
        "name": "Öğretmen evi",
        "tourism": "hotel"
      }
    },
    {
      "type": "Feature",
      "geometry": {
        "type": "Point",
        "coordinates": [
          44.108478,
          39.5298196
        ]
      },
      "properties": {
        "id": 4882933299,
        "osm_type": "node",
        "name": "Lalezar Camping",
        "tourism": "camp_site"
      }
    },
    {
      "type": "Feature",
      "geometry": {
        "type": "Point",
        "coordinates": [
          44.0811722,
          39.5470219
        ]
      },
      "properties": {
        "id": 4990212921,
        "osm_type": "node",
        "name": "Ishak Paşa hotel",
        "tourism": "hotel",
        "phone": "+90 472 312 70 36"
      }
    },
    {
      "type": "Feature",
      "geometry": {
        "type": "Point",
        "coordinates": [
          43.6729372,
          39.5397916
        ]
      },
      "properties": {
        "id": 5217716423,
        "osm_type": "node",
        "name": "Otel Dogan",
        "tourism": "hotel"
      }
    },
    {
      "type": "Feature",
      "geometry": {
        "type": "Point",
        "coordinates": [
          44.084046,
          39.5445868
        ]
      },
      "properties": {
        "id": 6067987388,
        "osm_type": "node",
        "name": "Hotel Ararat",
        "tourism": "hotel"
      }
    },
    {
      "type": "Feature",
      "geometry": {
        "type": "Point",
        "coordinates": [
          44.0769807,
          39.5571581
        ]
      },
      "properties": {
        "id": 6510689611,
        "osm_type": "node",
        "tourism": "hotel"
      }
    },
    {
      "type": "Feature",
      "geometry": {
        "type": "Point",
        "coordinates": [
          42.7718714,
          39.5389012
        ]
      },
      "properties": {
        "id": 6620968341,
        "osm_type": "node",
        "name": "Ogretmengvi",
        "tourism": "hotel"
      }
    },
    {
      "type": "Feature",
      "geometry": {
        "type": "Point",
        "coordinates": [
          44.0608984,
          39.5519733
        ]
      },
      "properties": {
        "id": 6634963857,
        "osm_type": "node",
        "name": "Ertur Hotel",
        "tourism": "hotel"
      }
    },
    {
      "type": "Feature",
      "geometry": {
        "type": "Point",
        "coordinates": [
          43.0505293,
          39.7195885
        ]
      },
      "properties": {
        "id": 7010470507,
        "osm_type": "node",
        "name": "Ağrı Öğretmenevi",
        "tourism": "hotel"
      }
    },
    {
      "type": "Feature",
      "geometry": {
        "type": "Point",
        "coordinates": [
          43.0131987,
          39.7139334
        ]
      },
      "properties": {
        "id": 7794424408,
        "osm_type": "node",
        "name": "Ağrı Polis evi",
        "tourism": "guest_house",
        "website": "https://www.polisevi.com/agripolisevi/"
      }
    },
    {
      "type": "Feature",
      "geometry": {
        "type": "Point",
        "coordinates": [
          44.2601201,
          39.679797
        ]
      },
      "properties": {
        "id": 8329475744,
        "osm_type": "node",
        "name": "Hüseyin Kampı",
        "tourism": "camp_site"
      }
    },
    {
      "type": "Feature",
      "geometry": {
        "type": "Point",
        "coordinates": [
          44.1249104,
          39.5165031
        ]
      },
      "properties": {
        "id": 9537095529,
        "osm_type": "node",
        "name": "Murat Camping & Restaurant",
        "tourism": "camp_site"
      }
    },
    {
      "type": "Feature",
      "geometry": {
        "type": "Point",
        "coordinates": [
          44.0991695,
          39.5379059
        ]
      },
      "properties": {
        "id": 9923879718,
        "osm_type": "node",
        "name": "ARK hostel",
        "tourism": "hostel"
      }
    },
    {
      "type": "Feature",
      "geometry": {
        "type": "Point",
        "coordinates": [
          42.766072,
          39.5412159
        ]
      },
      "properties": {
        "id": 10233385709,
        "osm_type": "node",
        "name": "Tutak Kıvılcım Apart & Otel",
        "tourism": "apartment"
      }
    },
    {
      "type": "Feature",
      "geometry": {
        "type": "Point",
        "coordinates": [
          42.7673806,
          39.5410393
        ]
      },
      "properties": {
        "id": 10233385712,
        "osm_type": "node",
        "name": "Sadıkoğlu apart otel",
        "tourism": "apartment"
      }
    },
    {
      "type": "Feature",
      "geometry": {
        "type": "Point",
        "coordinates": [
          44.0807674,
          39.5465015
        ]
      },
      "properties": {
        "id": 11950767069,
        "osm_type": "node",
        "tourism": "hotel",
        "opening_hours": "24/7",
        "phone": "+90 472 312 78 69"
      }
    },
    {
      "type": "Feature",
      "geometry": {
        "type": "Point",
        "coordinates": [
          44.2641739,
          39.6758967
        ]
      },
      "properties": {
        "id": 12153187301,
        "osm_type": "node",
        "tourism": "camp_site"
      }
    },
    {
      "type": "Feature",
      "geometry": {
        "type": "Point",
        "coordinates": [
          44.137551,
          39.520583
        ]
      },
      "properties": {
        "id": 13098703201,
        "osm_type": "node",
        "tourism": "camp_site"
      }
    },
    {
      "type": "Feature",
      "geometry": {
        "type": "Point",
        "coordinates": [
          44.2772253,
          39.6762191
        ]
      },
      "properties": {
        "id": 1191309628,
        "osm_type": "way",
        "name": "Zeki Guide's Camp 1",
        "tourism": "camp_site"
      }
    }
  ]
}