{
  "type": "FeatureCollection",
  "features": [
    {
      "type": "Feature",
      "geometry": {
        "type": "Point",
        "coordinates": [
          39.1754105,
          38.67412
        ]
      },
      "properties": {
        "id": 392880923,
        "osm_type": "node",
        "name": "Akgün Elazığ",
        "tourism": "hotel"
      }
    },
    {
      "type": "Feature",
      "geometry": {
        "type": "Point",
        "coordinates": [
          39.2179673,
          38.6742517
        ]
      },
      "properties": {
        "id": 4836982325,
        "osm_type": "node",
        "name": "DoubleTree by Hilton Hotel Elazig",
        "tourism": "hotel",
        "phone": "+90 424 2345000",
        "website": "https://doubletree3.hilton.com/en/hotels/turkey/doubletree-by-hilton-hotel-elazig-EZSDTDI/index.html"
      }
    },
    {
      "type": "Feature",
      "geometry": {
        "type": "Point",
        "coordinates": [
          40.038159,
          38.9534298
        ]
      },
      "properties": {
        "id": 6034074846,
        "osm_type": "node",
        "name": "Karakoçan Öğretmenevi Fiyatları",
        "tourism": "hotel",
        "phone": "+90 424 711 26 89",
        "website": "https://ogretmenevine.com/karakocan-ogretmenevi.html"
      }
    },
    {
      "type": "Feature",
      "geometry": {
        "type": "Point",
        "coordinates": [
          38.8151272,
          38.4495589
        ]
      },
      "properties": {
        "id": 10137409318,
        "osm_type": "node",
        "tourism": "caravan_site"
      }
    },
    {
      "type": "Feature",
      "geometry": {
        "type": "Point",
        "coordinates": [
          38.8351345,
          38.4478702
        ]
      },
      "properties": {
        "id": 10137412218,
        "osm_type": "node",
        "tourism": "caravan_site"
      }
    },
    {
      "type": "Feature",
      "geometry": {
        "type": "Point",
        "coordinates": [
          38.8360697,
          38.448904
        ]
      },
      "properties": {
        "id": 10137416117,
        "osm_type": "node",
        "tourism": "caravan_site"
      }
    },
    {
      "type": "Feature",
      "geometry": {
        "type": "Point",
        "coordinates": [
          38.8147696,
          38.4508263
        ]
      },
      "properties": {
        "id": 10137416617,
        "osm_type": "node",
        "tourism": "caravan_site"
      }
    },
    {
      "type": "Feature",
      "geometry": {
        "type": "Point",
        "coordinates": [
          39.3485437,
          38.491515
        ]
      },
      "properties": {
        "id": 10137982317,
        "osm_type": "node",
        "tourism": "caravan_site"
      }
    },
    {
      "type": "Feature",
      "geometry": {
        "type": "Point",
        "coordinates": [
          38.7197981,
          38.9137425
        ]
      },
      "properties": {
        "id": 12143804905,
        "osm_type": "node",
        "tourism": "camp_site"
      }
    },
    {
      "type": "Feature",
      "geometry": {
        "type": "Point",
        "coordinates": [
          39.1895142,
          38.6701548
        ]
      },
      "properties": {
        "id": 13482431501,
        "osm_type": "node",
        "name": "City Blue Pansiyon",
        "tourism": "hotel"
      }
    },
    {
      "type": "Feature",
      "geometry": {
        "type": "Point",
        "coordinates": [
          39.1752858,
          38.6740262
        ]
      },
      "properties": {
        "id": 574813892,
        "osm_type": "way",
        "tourism": "hotel"
      }
    },
    {
      "type": "Feature",
      "geometry": {
        "type": "Point",
        "coordinates": [
          39.1599899,
          38.6578734
        ]
      },
      "properties": {
        "id": 702700534,
        "osm_type": "way",
        "tourism": "hotel"
      }
    },
    {
      "type": "Feature",
      "geometry": {
        "type": "Point",
        "coordinates": [
          39.3375431,
          38.4423209
        ]
      },
      "properties": {
        "id": 766356251,
        "osm_type": "way",
        "name": "Sivrice Geçici Barınma Alanı",
        "tourism": "camp_site"
      }
    },
    {
      "type": "Feature",
      "geometry": {
        "type": "Point",
        "coordinates": [
          39.3115147,
          38.4817303
        ]
      },
      "properties": {
        "id": 768732699,
        "osm_type": "way",
        "name": "Turpol Otel",
        "tourism": "hotel",
        "phone": "+90 424 425 1100"
      }
    },
    {
      "type": "Feature",
      "geometry": {
        "type": "Point",
        "coordinates": [
          39.2681922,
          38.6020146
        ]
      },
      "properties": {
        "id": 770034975,
        "osm_type": "way",
        "name": "DHMİ Misafirhanesi",
        "tourism": "guest_house"
      }
    },
    {
      "type": "Feature",
      "geometry": {
        "type": "Point",
        "coordinates": [
          39.1567819,
          38.6533579
        ]
      },
      "properties": {
        "id": 771511956,
        "osm_type": "way",
        "name": "Elazığ Polis evi",
        "tourism": "guest_house",
        "website": "https://www.polisevi.com/elazig-polisevi/"
      }
    },
    {
      "type": "Feature",
      "geometry": {
        "type": "Point",
        "coordinates": [
          39.2156661,
          38.7009491
        ]
      },
      "properties": {
        "id": 816219707,
        "osm_type": "way",
        "tourism": "hotel"
      }
    },
    {
      "type": "Feature",
      "geometry": {
        "type": "Point",
        "coordinates": [
          39.3513016,
          38.4940218
        ]
      },
      "properties": {
        "id": 1275500260,
        "osm_type": "way",
        "name": "Mavigöl Otel",
        "tourism": "hotel"
      }
    }
  ]
}