{
  "type": "FeatureCollection",
  "features": [
    {
      "type": "Feature",
      "geometry": {
        "type": "Point",
        "coordinates": [
          26.5555606,
          45.951374
        ]
      },
      "properties": {
        "id": 447661823,
        "osm_type": "node",
        "name": "Damatis",
        "tourism": "hotel"
      }
    },
    {
      "type": "Feature",
      "geometry": {
        "type": "Point",
        "coordinates": [
          26.9559234,
          46.0504982
        ]
      },
      "properties": {
        "id": 781267892,
        "osm_type": "node",
        "name": "Cabana Alexandru",
        "tourism": "alpine_hut"
      }
    },
    {
      "type": "Feature",
      "geometry": {
        "type": "Point",
        "coordinates": [
          27.1880337,
          45.6973099
        ]
      },
      "properties": {
        "id": 1307212389,
        "osm_type": "node",
        "name": "Hotel Vrancea",
        "tourism": "hotel"
      }
    },
    {
      "type": "Feature",
      "geometry": {
        "type": "Point",
        "coordinates": [
          26.9606946,
          46.0682825
        ]
      },
      "properties": {
        "id": 1503600863,
        "osm_type": "node",
        "name": "Ocolul Silvic",
        "tourism": "alpine_hut"
      }
    },
    {
      "type": "Feature",
      "geometry": {
        "type": "Point",
        "coordinates": [
          26.6435422,
          45.9988011
        ]
      },
      "properties": {
        "id": 2189469469,
        "osm_type": "node",
        "name": "Pensiunea Elena",
        "tourism": "guest_house"
      }
    },
    {
      "type": "Feature",
      "geometry": {
        "type": "Point",
        "coordinates": [
          27.1864833,
          46.0964518
        ]
      },
      "properties": {
        "id": 2479929622,
        "osm_type": "node",
        "name": "Motel Adjud",
        "tourism": "motel"
      }
    },
    {
      "type": "Feature",
      "geometry": {
        "type": "Point",
        "coordinates": [
          27.2057252,
          45.6807349
        ]
      },
      "properties": {
        "id": 2624388862,
        "osm_type": "node",
        "name": "Pensiunea Sara",
        "tourism": "guest_house",
        "opening_hours": "24/7",
        "phone": "+40 337 100 206",
        "website": "http://www.pensiuneasara.eu"
      }
    },
    {
      "type": "Feature",
      "geometry": {
        "type": "Point",
        "coordinates": [
          27.2105101,
          45.8694627
        ]
      },
      "properties": {
        "id": 3583336718,
        "osm_type": "node",
        "name": "La Rusu",
        "tourism": "motel",
        "opening_hours": "24/7"
      }
    },
    {
      "type": "Feature",
      "geometry": {
        "type": "Point",
        "coordinates": [
          27.1015527,
          45.5759424
        ]
      },
      "properties": {
        "id": 3737793629,
        "osm_type": "node",
        "name": "Hotel Bachus",
        "tourism": "hotel"
      }
    },
    {
      "type": "Feature",
      "geometry": {
        "type": "Point",
        "coordinates": [
          27.1007089,
          45.576144
        ]
      },
      "properties": {
        "id": 3737793733,
        "osm_type": "node",
        "name": "Motel Popasul dintre vii",
        "tourism": "motel"
      }
    },
    {
      "type": "Feature",
      "geometry": {
        "type": "Point",
        "coordinates": [
          27.1059117,
          45.6029557
        ]
      },
      "properties": {
        "id": 3811149819,
        "osm_type": "node",
        "name": "Hanul lui Ureche",
        "tourism": "guest_house"
      }
    },
    {
      "type": "Feature",
      "geometry": {
        "type": "Point",
        "coordinates": [
          26.4687163,
          45.8364469
        ]
      },
      "properties": {
        "id": 4331502855,
        "osm_type": "node",
        "tourism": "camp_site"
      }
    },
    {
      "type": "Feature",
      "geometry": {
        "type": "Point",
        "coordinates": [
          26.6017738,
          45.92967
        ]
      },
      "properties": {
        "id": 4362121155,
        "osm_type": "node",
        "tourism": "camp_site"
      }
    },
    {
      "type": "Feature",
      "geometry": {
        "type": "Point",
        "coordinates": [
          26.6019083,
          45.9294078
        ]
      },
      "properties": {
        "id": 4362121156,
        "osm_type": "node",
        "tourism": "camp_site"
      }
    },
    {
      "type": "Feature",
      "geometry": {
        "type": "Point",
        "coordinates": [
          26.5972384,
          45.9357764
        ]
      },
      "properties": {
        "id": 4384356990,
        "osm_type": "node",
        "tourism": "guest_house",
        "phone": "+40 0744213003"
      }
    },
    {
      "type": "Feature",
      "geometry": {
        "type": "Point",
        "coordinates": [
          26.5786169,
          45.9482442
        ]
      },
      "properties": {
        "id": 4408333490,
        "osm_type": "node",
        "name": "Villa Gabriela",
        "tourism": "guest_house"
      }
    },
    {
      "type": "Feature",
      "geometry": {
        "type": "Point",
        "coordinates": [
          26.580095,
          45.9486805
        ]
      },
      "properties": {
        "id": 5118794817,
        "osm_type": "node",
        "name": "Vila Potcoava",
        "tourism": "guest_house"
      }
    },
    {
      "type": "Feature",
      "geometry": {
        "type": "Point",
        "coordinates": [
          26.5823616,
          45.946434
        ]
      },
      "properties": {
        "id": 5118873719,
        "osm_type": "node",
        "name": "Hotel Tresor",
        "tourism": "hotel"
      }
    },
    {
      "type": "Feature",
      "geometry": {
        "type": "Point",
        "coordinates": [
          27.1896952,
          46.0889879
        ]
      },
      "properties": {
        "id": 5213170306,
        "osm_type": "node",
        "name": "Motel Adial",
        "tourism": "motel",
        "phone": "+40237645305"
      }
    },
    {
      "type": "Feature",
      "geometry": {
        "type": "Point",
        "coordinates": [
          26.9984462,
          45.8921602
        ]
      },
      "properties": {
        "id": 6759259608,
        "osm_type": "node",
        "name": "Pensiunea Leonardo",
        "tourism": "guest_house"
      }
    },
    {
      "type": "Feature",
      "geometry": {
        "type": "Point",
        "coordinates": [
          27.1611743,
          45.6562822
        ]
      },
      "properties": {
        "id": 6910401172,
        "osm_type": "node",
        "name": "Casa Budișteanu",
        "tourism": "motel"
      }
    },
    {
      "type": "Feature",
      "geometry": {
        "type": "Point",
        "coordinates": [
          27.2783994,
          45.6625727
        ]
      },
      "properties": {
        "id": 8589113991,
        "osm_type": "node",
        "name": "Hanul Lui Mihai",
        "tourism": "motel",
        "phone": "0724486691"
      }
    },
    {
      "type": "Feature",
      "geometry": {
        "type": "Point",
        "coordinates": [
          27.1294446,
          45.6341056
        ]
      },
      "properties": {
        "id": 8754914561,
        "osm_type": "node",
        "name": "Hotel Cerdac Cotești",
        "tourism": "hotel"
      }
    },
    {
      "type": "Feature",
      "geometry": {
        "type": "Point",
        "coordinates": [
          27.1640458,
          45.6658243
        ]
      },
      "properties": {
        "id": 8754914564,
        "osm_type": "node",
        "name": "Hotel Diniță",
        "tourism": "hotel"
      }
    },
    {
      "type": "Feature",
      "geometry": {
        "type": "Point",
        "coordinates": [
          26.5734077,
          45.9522576
        ]
      },
      "properties": {
        "id": 9824976046,
        "osm_type": "node",
        "name": "Vila Norocel",
        "tourism": "guest_house"
      }
    },
    {
      "type": "Feature",
      "geometry": {
        "type": "Point",
        "coordinates": [
          26.574781,
          45.9529282
        ]
      },
      "properties": {
        "id": 9824976048,
        "osm_type": "node",
        "name": "Pensiunea Estera",
        "tourism": "guest_house"
      }
    },
    {
      "type": "Feature",
      "geometry": {
        "type": "Point",
        "coordinates": [
          26.5773195,
          45.9501155
        ]
      },
      "properties": {
        "id": 9824976083,
        "osm_type": "node",
        "name": "Casa Santa Maria",
        "tourism": "guest_house"
      }
    },
    {
      "type": "Feature",
      "geometry": {
        "type": "Point",
        "coordinates": [
          26.5788167,
          45.9491075
        ]
      },
      "properties": {
        "id": 9824976108,
        "osm_type": "node",
        "name": "Vila Bravo",
        "tourism": "guest_house"
      }
    },
    {
      "type": "Feature",
      "geometry": {
        "type": "Point",
        "coordinates": [
          26.5798772,
          45.9494981
        ]
      },
      "properties": {
        "id": 9824976109,
        "osm_type": "node",
        "name": "Casa Daniela",
        "tourism": "guest_house"
      }
    },
    {
      "type": "Feature",
      "geometry": {
        "type": "Point",
        "coordinates": [
          27.1339906,
          45.7095908
        ]
      },
      "properties": {
        "id": 10132869808,
        "osm_type": "node",
        "name": "Casa Rustică",
        "tourism": "hostel"
      }
    },
    {
      "type": "Feature",
      "geometry": {
        "type": "Point",
        "coordinates": [
          26.9601756,
          45.9736801
        ]
      },
      "properties": {
        "id": 11385606277,
        "osm_type": "node",
        "name": "Casa Vulpoiu",
        "tourism": "guest_house"
      }
    },
    {
      "type": "Feature",
      "geometry": {
        "type": "Point",
        "coordinates": [
          27.1819149,
          45.7103153
        ]
      },
      "properties": {
        "id": 11459510235,
        "osm_type": "node",
        "name": "Res Home",
        "tourism": "hotel"
      }
    },
    {
      "type": "Feature",
      "geometry": {
        "type": "Point",
        "coordinates": [
          26.5243567,
          45.9562882
        ]
      },
      "properties": {
        "id": 12748931591,
        "osm_type": "node",
        "name": "Casa Potcoava",
        "tourism": "guest_house"
      }
    },
    {
      "type": "Feature",
      "geometry": {
        "type": "Point",
        "coordinates": [
          26.5239427,
          45.9559575
        ]
      },
      "properties": {
        "id": 12748931592,
        "osm_type": "node",
        "name": "Casa Lidia",
        "tourism": "guest_house"
      }
    },
    {
      "type": "Feature",
      "geometry": {
        "type": "Point",
        "coordinates": [
          26.5241891,
          45.9551915
        ]
      },
      "properties": {
        "id": 12748931593,
        "osm_type": "node",
        "name": "Casa Tofoleanu",
        "tourism": "guest_house"
      }
    },
    {
      "type": "Feature",
      "geometry": {
        "type": "Point",
        "coordinates": [
          27.1850747,
          45.6951255
        ]
      },
      "properties": {
        "id": 42574110,
        "osm_type": "way",
        "name": "Hotel Unirea",
        "tourism": "hotel"
      }
    },
    {
      "type": "Feature",
      "geometry": {
        "type": "Point",
        "coordinates": [
          27.1953513,
          45.7087478
        ]
      },
      "properties": {
        "id": 308607496,
        "osm_type": "way",
        "name": "Hotel Solar",
        "tourism": "hotel",
        "check_date": "2025-01-03"
      }
    },
    {
      "type": "Feature",
      "geometry": {
        "type": "Point",
        "coordinates": [
          26.4914659,
          45.9475165
        ]
      },
      "properties": {
        "id": 431362716,
        "osm_type": "way",
        "name": "Motel Flora",
        "tourism": "motel",
        "phone": "+40237266943",
        "website": "http://sporulturism.ro/motel-flora-gresu.html"
      }
    },
    {
      "type": "Feature",
      "geometry": {
        "type": "Point",
        "coordinates": [
          26.5967424,
          45.93002
        ]
      },
      "properties": {
        "id": 435303572,
        "osm_type": "way",
        "name": "Pensiunea Dorina",
        "tourism": "guest_house"
      }
    },
    {
      "type": "Feature",
      "geometry": {
        "type": "Point",
        "coordinates": [
          26.5973786,
          45.9300315
        ]
      },
      "properties": {
        "id": 435303574,
        "osm_type": "way",
        "name": "Cabana Dorina Lepsa",
        "tourism": "camp_site",
        "phone": "+40 0724 025 536",
        "website": "https://cabana-Dorina.business.site"
      }
    },
    {
      "type": "Feature",
      "geometry": {
        "type": "Point",
        "coordinates": [
          26.5653354,
          46.0187947
        ]
      },
      "properties": {
        "id": 435482387,
        "osm_type": "way",
        "tourism": "alpine_hut"
      }
    },
    {
      "type": "Feature",
      "geometry": {
        "type": "Point",
        "coordinates": [
          27.2081365,
          45.7192863
        ]
      },
      "properties": {
        "id": 538836537,
        "osm_type": "way",
        "name": "Hotel Pandora Sport",
        "tourism": "hotel"
      }
    },
    {
      "type": "Feature",
      "geometry": {
        "type": "Point",
        "coordinates": [
          26.5011289,
          45.9508102
        ]
      },
      "properties": {
        "id": 700740177,
        "osm_type": "way",
        "name": "Santa Lucia",
        "tourism": "motel"
      }
    },
    {
      "type": "Feature",
      "geometry": {
        "type": "Point",
        "coordinates": [
          27.1816886,
          45.6990241
        ]
      },
      "properties": {
        "id": 714736590,
        "osm_type": "way",
        "name": "Pensiunea Rix Rooms",
        "tourism": "hotel"
      }
    },
    {
      "type": "Feature",
      "geometry": {
        "type": "Point",
        "coordinates": [
          27.1878404,
          45.6898111
        ]
      },
      "properties": {
        "id": 965989710,
        "osm_type": "way",
        "name": "Ambasador",
        "tourism": "hotel"
      }
    },
    {
      "type": "Feature",
      "geometry": {
        "type": "Point",
        "coordinates": [
          27.1894859,
          45.6946483
        ]
      },
      "properties": {
        "id": 1158031709,
        "osm_type": "way",
        "name": "Romantic Boutique Hotel",
        "tourism": "hotel",
        "website": "https://www.romantic-hotel.ro/"
      }
    },
    {
      "type": "Feature",
      "geometry": {
        "type": "Point",
        "coordinates": [
          27.1768948,
          45.6772359
        ]
      },
      "properties": {
        "id": 1158750769,
        "osm_type": "way",
        "name": "Kristal",
        "tourism": "hotel",
        "website": "https://kristalhotel.ro/"
      }
    },
    {
      "type": "Feature",
      "geometry": {
        "type": "Point",
        "coordinates": [
          27.0810272,
          45.5112625
        ]
      },
      "properties": {
        "id": 1201165308,
        "osm_type": "way",
        "name": "Orion",
        "tourism": "motel"
      }
    },
    {
      "type": "Feature",
      "geometry": {
        "type": "Point",
        "coordinates": [
          27.1005311,
          45.576011
        ]
      },
      "properties": {
        "id": 1355412296,
        "osm_type": "way",
        "tourism": "motel"
      }
    }
  ]
}