{
  "type": "FeatureCollection",
  "features": [
    {
      "type": "Feature",
      "geometry": {
        "type": "Point",
        "coordinates": [
          -7.1660642,
          38.8784019
        ]
      },
      "properties": {
        "id": 304935675,
        "osm_type": "node",
        "name": "Hotel São João de Deus",
        "tourism": "hotel"
      }
    },
    {
      "type": "Feature",
      "geometry": {
        "type": "Point",
        "coordinates": [
          -7.6461307,
          39.3041149
        ]
      },
      "properties": {
        "id": 1308759511,
        "osm_type": "node",
        "name": "Palacete",
        "tourism": "guest_house",
        "website": "https://www.palaceteflordarosa.com/"
      }
    },
    {
      "type": "Feature",
      "geometry": {
        "type": "Point",
        "coordinates": [
          -7.6454387,
          39.3044221
        ]
      },
      "properties": {
        "id": 1308759515,
        "osm_type": "node",
        "name": "Solar",
        "tourism": "guest_house"
      }
    },
    {
      "type": "Feature",
      "geometry": {
        "type": "Point",
        "coordinates": [
          -7.3777536,
          39.3942909
        ]
      },
      "properties": {
        "id": 1334662567,
        "osm_type": "node",
        "name": "Dom Dinis Marvão",
        "tourism": "guest_house",
        "website": "http://domdinis.pt/"
      }
    },
    {
      "type": "Feature",
      "geometry": {
        "type": "Point",
        "coordinates": [
          -7.6860111,
          38.9298874
        ]
      },
      "properties": {
        "id": 1366904276,
        "osm_type": "node",
        "name": "Pousada de São Miguel",
        "tourism": "hotel"
      }
    },
    {
      "type": "Feature",
      "geometry": {
        "type": "Point",
        "coordinates": [
          -8.1441162,
          39.0995223
        ]
      },
      "properties": {
        "id": 1642279094,
        "osm_type": "node",
        "tourism": "caravan_site"
      }
    },
    {
      "type": "Feature",
      "geometry": {
        "type": "Point",
        "coordinates": [
          -8.0108087,
          39.2531224
        ]
      },
      "properties": {
        "id": 1673504928,
        "osm_type": "node",
        "name": "Hotel Ponte de Sor",
        "tourism": "hotel",
        "phone": "+351242203263",
        "website": "https://www.hotelpontesor.pt/"
      }
    },
    {
      "type": "Feature",
      "geometry": {
        "type": "Point",
        "coordinates": [
          -7.0701457,
          39.0138797
        ]
      },
      "properties": {
        "id": 1696124374,
        "osm_type": "node",
        "name": "Hospedaria Jardim",
        "tourism": "motel",
        "phone": "+351967226951"
      }
    },
    {
      "type": "Feature",
      "geometry": {
        "type": "Point",
        "coordinates": [
          -7.0677704,
          39.0145294
        ]
      },
      "properties": {
        "id": 1696126117,
        "osm_type": "node",
        "name": "Pensão Ponto Final",
        "tourism": "motel"
      }
    },
    {
      "type": "Feature",
      "geometry": {
        "type": "Point",
        "coordinates": [
          -7.4864973,
          39.4009719
        ]
      },
      "properties": {
        "id": 1761479037,
        "osm_type": "node",
        "name": "Quinta do Pomarinho",
        "tourism": "camp_site",
        "website": "https://www.pomarinho.com/"
      }
    },
    {
      "type": "Feature",
      "geometry": {
        "type": "Point",
        "coordinates": [
          -7.9567752,
          39.4940517
        ]
      },
      "properties": {
        "id": 1899191708,
        "osm_type": "node",
        "name": "Quinta do Belo-Ver",
        "tourism": "hotel"
      }
    },
    {
      "type": "Feature",
      "geometry": {
        "type": "Point",
        "coordinates": [
          -7.1694664,
          39.0221514
        ]
      },
      "properties": {
        "id": 1973574301,
        "osm_type": "node",
        "name": "Casa da Ermida de Santa Catarina",
        "tourism": "guest_house"
      }
    },
    {
      "type": "Feature",
      "geometry": {
        "type": "Point",
        "coordinates": [
          -7.145472,
          38.8805322
        ]
      },
      "properties": {
        "id": 2000453116,
        "osm_type": "node",
        "name": "Hotel Jardim",
        "tourism": "hotel"
      }
    },
    {
      "type": "Feature",
      "geometry": {
        "type": "Point",
        "coordinates": [
          -7.9098663,
          39.0551589
        ]
      },
      "properties": {
        "id": 2268890584,
        "osm_type": "node",
        "tourism": "caravan_site"
      }
    },
    {
      "type": "Feature",
      "geometry": {
        "type": "Point",
        "coordinates": [
          -7.9108426,
          39.0559545
        ]
      },
      "properties": {
        "id": 2268890662,
        "osm_type": "node",
        "tourism": "hostel"
      }
    },
    {
      "type": "Feature",
      "geometry": {
        "type": "Point",
        "coordinates": [
          -7.4297875,
          39.2952069
        ]
      },
      "properties": {
        "id": 2379477426,
        "osm_type": "node",
        "name": "Rossio Hotel",
        "tourism": "hotel",
        "phone": "+351 245 082 218",
        "website": "http://www.rossiohotel.com/"
      }
    },
    {
      "type": "Feature",
      "geometry": {
        "type": "Point",
        "coordinates": [
          -7.1644523,
          38.8747131
        ]
      },
      "properties": {
        "id": 2384865302,
        "osm_type": "node",
        "name": "SL Hotel Santa Luzia",
        "tourism": "hotel",
        "phone": "+351268637470",
        "website": "https://www.slhotel-elvas.pt/"
      }
    },
    {
      "type": "Feature",
      "geometry": {
        "type": "Point",
        "coordinates": [
          -7.5815066,
          39.1266415
        ]
      },
      "properties": {
        "id": 3041722144,
        "osm_type": "node",
        "name": "Quinta do Cabeçote",
        "tourism": "guest_house"
      }
    },
    {
      "type": "Feature",
      "geometry": {
        "type": "Point",
        "coordinates": [
          -7.3764681,
          39.3942993
        ]
      },
      "properties": {
        "id": 3639383769,
        "osm_type": "node",
        "name": "Estalagem de Marvão - Casa de Campo",
        "tourism": "guest_house"
      }
    },
    {
      "type": "Feature",
      "geometry": {
        "type": "Point",
        "coordinates": [
          -7.3756382,
          39.4136202
        ]
      },
      "properties": {
        "id": 3847134185,
        "osm_type": "node",
        "name": "Quinta do Maral",
        "tourism": "camp_site",
        "phone": "+351 963 46 21 69",
        "website": "https://www.quintadomaral.com/"
      }
    },
    {
      "type": "Feature",
      "geometry": {
        "type": "Point",
        "coordinates": [
          -7.3735678,
          39.3941967
        ]
      },
      "properties": {
        "id": 3882183562,
        "osm_type": "node",
        "tourism": "caravan_site"
      }
    },
    {
      "type": "Feature",
      "geometry": {
        "type": "Point",
        "coordinates": [
          -7.3890239,
          39.3752951
        ]
      },
      "properties": {
        "id": 4231876292,
        "osm_type": "node",
        "tourism": "chalet",
        "opening_hours": "24/7"
      }
    },
    {
      "type": "Feature",
      "geometry": {
        "type": "Point",
        "coordinates": [
          -7.3829787,
          39.3817152
        ]
      },
      "properties": {
        "id": 4265605997,
        "osm_type": "node",
        "name": "Hotel Sever",
        "tourism": "hotel",
        "phone": "+351 919 261 000"
      }
    },
    {
      "type": "Feature",
      "geometry": {
        "type": "Point",
        "coordinates": [
          -7.3686827,
          39.4490485
        ]
      },
      "properties": {
        "id": 4265606190,
        "osm_type": "node",
        "name": "Train Spot",
        "tourism": "guest_house",
        "phone": "+351 963 237 402",
        "website": "https://trainspot.pt/"
      }
    },
    {
      "type": "Feature",
      "geometry": {
        "type": "Point",
        "coordinates": [
          -7.4322031,
          39.2908333
        ]
      },
      "properties": {
        "id": 4894609223,
        "osm_type": "node",
        "name": "Mansão Alto Alentejo",
        "tourism": "guest_house"
      }
    },
    {
      "type": "Feature",
      "geometry": {
        "type": "Point",
        "coordinates": [
          -8.1917988,
          39.108317
        ]
      },
      "properties": {
        "id": 5112820821,
        "osm_type": "node",
        "name": "Casa de Férias",
        "tourism": "chalet"
      }
    },
    {
      "type": "Feature",
      "geometry": {
        "type": "Point",
        "coordinates": [
          -7.3520857,
          39.382107
        ]
      },
      "properties": {
        "id": 5265696319,
        "osm_type": "node",
        "name": "Casa de Carapeta",
        "tourism": "hostel",
        "phone": "+351 960 159 634",
        "website": "http://casadacarapeta-marvao.blogspot.com"
      }
    },
    {
      "type": "Feature",
      "geometry": {
        "type": "Point",
        "coordinates": [
          -7.6538033,
          39.5146723
        ]
      },
      "properties": {
        "id": 5335154147,
        "osm_type": "node",
        "name": "Residencial S. Luís",
        "tourism": "hotel"
      }
    },
    {
      "type": "Feature",
      "geometry": {
        "type": "Point",
        "coordinates": [
          -7.8910471,
          39.0528678
        ]
      },
      "properties": {
        "id": 5351531905,
        "osm_type": "node",
        "name": "Pensão Ordem de Avis",
        "tourism": "guest_house"
      }
    },
    {
      "type": "Feature",
      "geometry": {
        "type": "Point",
        "coordinates": [
          -7.6769917,
          39.1532563
        ]
      },
      "properties": {
        "id": 5360954422,
        "osm_type": "node",
        "tourism": "camp_site"
      }
    },
    {
      "type": "Feature",
      "geometry": {
        "type": "Point",
        "coordinates": [
          -7.428238,
          39.2985015
        ]
      },
      "properties": {
        "id": 5381400723,
        "osm_type": "node",
        "name": "Hotel Dom João III (Encerrado)",
        "tourism": "hotel"
      }
    },
    {
      "type": "Feature",
      "geometry": {
        "type": "Point",
        "coordinates": [
          -7.3771411,
          39.3947927
        ]
      },
      "properties": {
        "id": 5545870823,
        "osm_type": "node",
        "name": "Casa da João",
        "tourism": "hostel"
      }
    },
    {
      "type": "Feature",
      "geometry": {
        "type": "Point",
        "coordinates": [
          -7.3753544,
          39.3939721
        ]
      },
      "properties": {
        "id": 5546183330,
        "osm_type": "node",
        "name": "Casa do Arco",
        "tourism": "hostel"
      }
    },
    {
      "type": "Feature",
      "geometry": {
        "type": "Point",
        "coordinates": [
          -7.1621018,
          38.8530423
        ]
      },
      "properties": {
        "id": 5793262053,
        "osm_type": "node",
        "name": "Quinta Vale de Marmelos",
        "tourism": "guest_house"
      }
    },
    {
      "type": "Feature",
      "geometry": {
        "type": "Point",
        "coordinates": [
          -7.3684361,
          39.4440512
        ]
      },
      "properties": {
        "id": 6128715369,
        "osm_type": "node",
        "name": "Tapada da Beirã",
        "tourism": "guest_house"
      }
    },
    {
      "type": "Feature",
      "geometry": {
        "type": "Point",
        "coordinates": [
          -7.4202338,
          39.3094094
        ]
      },
      "properties": {
        "id": 6427459702,
        "osm_type": "node",
        "tourism": "camp_site"
      }
    },
    {
      "type": "Feature",
      "geometry": {
        "type": "Point",
        "coordinates": [
          -7.3831721,
          39.3837264
        ]
      },
      "properties": {
        "id": 6427468628,
        "osm_type": "node",
        "tourism": "caravan_site",
        "tents": "yes"
      }
    },
    {
      "type": "Feature",
      "geometry": {
        "type": "Point",
        "coordinates": [
          -7.4534523,
          39.4154722
        ]
      },
      "properties": {
        "id": 6427534842,
        "osm_type": "node",
        "name": "Casa de Vila",
        "tourism": "guest_house"
      }
    },
    {
      "type": "Feature",
      "geometry": {
        "type": "Point",
        "coordinates": [
          -7.4299106,
          39.2906565
        ]
      },
      "properties": {
        "id": 6459018075,
        "osm_type": "node",
        "name": "Casadaloga",
        "tourism": "guest_house",
        "phone": "+351 965 894 308"
      }
    },
    {
      "type": "Feature",
      "geometry": {
        "type": "Point",
        "coordinates": [
          -7.4887974,
          39.068615
        ]
      },
      "properties": {
        "id": 7044014778,
        "osm_type": "node",
        "name": "Torre de Palma Wine Hotel",
        "tourism": "hotel",
        "website": "https://www.torredepalma.com/"
      }
    },
    {
      "type": "Feature",
      "geometry": {
        "type": "Point",
        "coordinates": [
          -7.8912758,
          39.0562828
        ]
      },
      "properties": {
        "id": 7418855765,
        "osm_type": "node",
        "name": "Casa Amarela",
        "tourism": "apartment"
      }
    },
    {
      "type": "Feature",
      "geometry": {
        "type": "Point",
        "coordinates": [
          -7.4894814,
          39.4226687
        ]
      },
      "properties": {
        "id": 7724064453,
        "osm_type": "node",
        "name": "Pensão Destino",
        "tourism": "hostel",
        "phone": "+351 966 852 131",
        "check_date": "2024-08-19"
      }
    },
    {
      "type": "Feature",
      "geometry": {
        "type": "Point",
        "coordinates": [
          -7.7857791,
          39.1858761
        ]
      },
      "properties": {
        "id": 7975757039,
        "osm_type": "node",
        "tourism": "guest_house"
      }
    },
    {
      "type": "Feature",
      "geometry": {
        "type": "Point",
        "coordinates": [
          -7.4322693,
          39.2920436
        ]
      },
      "properties": {
        "id": 8319018035,
        "osm_type": "node",
        "name": "Casa do Pátio",
        "tourism": "guest_house"
      }
    },
    {
      "type": "Feature",
      "geometry": {
        "type": "Point",
        "coordinates": [
          -7.4496621,
          39.0023777
        ]
      },
      "properties": {
        "id": 8953561567,
        "osm_type": "node",
        "name": "Rosa estates - the farmhouse and stables",
        "tourism": "guest_house"
      }
    },
    {
      "type": "Feature",
      "geometry": {
        "type": "Point",
        "coordinates": [
          -7.3698404,
          39.4485977
        ]
      },
      "properties": {
        "id": 8958300119,
        "osm_type": "node",
        "name": "Casa dos Corações - Turismo Regenerativo",
        "tourism": "guest_house",
        "website": "https://www.booking.com/hotel/pt/casa-dos-coracoes-turismo-regenerativo.pt-pt.html"
      }
    },
    {
      "type": "Feature",
      "geometry": {
        "type": "Point",
        "coordinates": [
          -7.7980116,
          39.2080072
        ]
      },
      "properties": {
        "id": 9098733267,
        "osm_type": "node",
        "name": "Monte de Vila Formosa",
        "tourism": "guest_house"
      }
    },
    {
      "type": "Feature",
      "geometry": {
        "type": "Point",
        "coordinates": [
          -7.3964848,
          39.315308
        ]
      },
      "properties": {
        "id": 9591701631,
        "osm_type": "node",
        "name": "Quinta da Dourada",
        "tourism": "guest_house",
        "phone": "+351 937 218 654",
        "website": "https://www.quintadadourada.pt"
      }
    },
    {
      "type": "Feature",
      "geometry": {
        "type": "Point",
        "coordinates": [
          -7.8084299,
          38.9471793
        ]
      },
      "properties": {
        "id": 9693045959,
        "osm_type": "node",
        "name": "Az-Zagal",
        "tourism": "guest_house"
      }
    },
    {
      "type": "Feature",
      "geometry": {
        "type": "Point",
        "coordinates": [
          -7.2011251,
          38.8403843
        ]
      },
      "properties": {
        "id": 9722443354,
        "osm_type": "node",
        "name": "Quinta da Sardinha",
        "tourism": "chalet",
        "phone": "+351 927 519 025",
        "website": "https://www.quintadasardinha.pt/"
      }
    },
    {
      "type": "Feature",
      "geometry": {
        "type": "Point",
        "coordinates": [
          -7.894873,
          39.0539975
        ]
      },
      "properties": {
        "id": 9776956874,
        "osm_type": "node",
        "tourism": "hotel"
      }
    },
    {
      "type": "Feature",
      "geometry": {
        "type": "Point",
        "coordinates": [
          -7.3471584,
          38.8424033
        ]
      },
      "properties": {
        "id": 9866316582,
        "osm_type": "node",
        "name": "Casa dos Paquetes - Turismo em espaço rural",
        "tourism": "apartment"
      }
    },
    {
      "type": "Feature",
      "geometry": {
        "type": "Point",
        "coordinates": [
          -7.3276924,
          38.8312206
        ]
      },
      "properties": {
        "id": 9866921800,
        "osm_type": "node",
        "name": "Monte do Vale",
        "tourism": "guest_house",
        "phone": "+351 964 243 749"
      }
    },
    {
      "type": "Feature",
      "geometry": {
        "type": "Point",
        "coordinates": [
          -7.1801894,
          38.8756977
        ]
      },
      "properties": {
        "id": 9883106739,
        "osm_type": "node",
        "name": "Residencial Carrascal",
        "tourism": "guest_house"
      }
    },
    {
      "type": "Feature",
      "geometry": {
        "type": "Point",
        "coordinates": [
          -7.1203407,
          38.8908903
        ]
      },
      "properties": {
        "id": 9896354313,
        "osm_type": "node",
        "name": "Quinta Lagarto Pintado",
        "tourism": "guest_house"
      }
    },
    {
      "type": "Feature",
      "geometry": {
        "type": "Point",
        "coordinates": [
          -7.4551692,
          39.4167587
        ]
      },
      "properties": {
        "id": 9991198017,
        "osm_type": "node",
        "name": "A Burguesa Guesthouse",
        "tourism": "guest_house"
      }
    },
    {
      "type": "Feature",
      "geometry": {
        "type": "Point",
        "coordinates": [
          -7.6497191,
          39.0564687
        ]
      },
      "properties": {
        "id": 10036399367,
        "osm_type": "node",
        "tourism": "apartment"
      }
    },
    {
      "type": "Feature",
      "geometry": {
        "type": "Point",
        "coordinates": [
          -7.0700294,
          39.0134082
        ]
      },
      "properties": {
        "id": 10183185289,
        "osm_type": "node",
        "name": "NatureHouse",
        "tourism": "apartment"
      }
    },
    {
      "type": "Feature",
      "geometry": {
        "type": "Point",
        "coordinates": [
          -7.0699983,
          39.0133753
        ]
      },
      "properties": {
        "id": 10183850299,
        "osm_type": "node",
        "name": "VintageHouse",
        "tourism": "apartment"
      }
    },
    {
      "type": "Feature",
      "geometry": {
        "type": "Point",
        "coordinates": [
          -7.068,
          39.0133228
        ]
      },
      "properties": {
        "id": 10183870433,
        "osm_type": "node",
        "name": "Casa da Muralha",
        "tourism": "apartment"
      }
    },
    {
      "type": "Feature",
      "geometry": {
        "type": "Point",
        "coordinates": [
          -7.0710287,
          39.0128656
        ]
      },
      "properties": {
        "id": 10273870024,
        "osm_type": "node",
        "name": "Flor de Charme",
        "tourism": "apartment"
      }
    },
    {
      "type": "Feature",
      "geometry": {
        "type": "Point",
        "coordinates": [
          -7.3759795,
          39.3940734
        ]
      },
      "properties": {
        "id": 12009358944,
        "osm_type": "node",
        "name": "Varanda do Alentejo",
        "tourism": "guest_house"
      }
    },
    {
      "type": "Feature",
      "geometry": {
        "type": "Point",
        "coordinates": [
          -7.4528407,
          39.4156334
        ]
      },
      "properties": {
        "id": 12099010602,
        "osm_type": "node",
        "name": "Casa Da Muralha",
        "tourism": "apartment",
        "check_date": "2024-08-16"
      }
    },
    {
      "type": "Feature",
      "geometry": {
        "type": "Point",
        "coordinates": [
          -7.4559696,
          39.4151657
        ]
      },
      "properties": {
        "id": 12118532601,
        "osm_type": "node",
        "name": "Burgo da Villa",
        "tourism": "hotel"
      }
    },
    {
      "type": "Feature",
      "geometry": {
        "type": "Point",
        "coordinates": [
          -7.1796166,
          38.874052
        ]
      },
      "properties": {
        "id": 12147975767,
        "osm_type": "node",
        "tourism": "caravan_site"
      }
    },
    {
      "type": "Feature",
      "geometry": {
        "type": "Point",
        "coordinates": [
          -7.6584913,
          39.1972834
        ]
      },
      "properties": {
        "id": 12149449605,
        "osm_type": "node",
        "name": "Convento d'Alter Hotel",
        "tourism": "hotel"
      }
    },
    {
      "type": "Feature",
      "geometry": {
        "type": "Point",
        "coordinates": [
          -7.4338844,
          39.2970363
        ]
      },
      "properties": {
        "id": 12327129282,
        "osm_type": "node",
        "name": "CP Portalegre",
        "tourism": "caravan_site"
      }
    },
    {
      "type": "Feature",
      "geometry": {
        "type": "Point",
        "coordinates": [
          -7.0657376,
          39.0132478
        ]
      },
      "properties": {
        "id": 12371351300,
        "osm_type": "node",
        "name": "hospedaria Alojamento Royal",
        "tourism": "guest_house"
      }
    },
    {
      "type": "Feature",
      "geometry": {
        "type": "Point",
        "coordinates": [
          -7.4327901,
          39.2983242
        ]
      },
      "properties": {
        "id": 12855634658,
        "osm_type": "node",
        "tourism": "caravan_site"
      }
    },
    {
      "type": "Feature",
      "geometry": {
        "type": "Point",
        "coordinates": [
          -7.6870635,
          39.2224306
        ]
      },
      "properties": {
        "id": 12913070388,
        "osm_type": "node",
        "name": "Vila Galé Collection Alter Real",
        "tourism": "hotel"
      }
    },
    {
      "type": "Feature",
      "geometry": {
        "type": "Point",
        "coordinates": [
          -7.6739435,
          38.9559199
        ]
      },
      "properties": {
        "id": 13155276263,
        "osm_type": "node",
        "name": "Hospedaria da Roda",
        "tourism": "guest_house",
        "website": "https://www.hortadaroda.com/hospedaria-da-roda/"
      }
    },
    {
      "type": "Feature",
      "geometry": {
        "type": "Point",
        "coordinates": [
          -7.2077794,
          38.8466386
        ]
      },
      "properties": {
        "id": 13256632001,
        "osm_type": "node",
        "name": "Casa do Forte",
        "tourism": "hotel"
      }
    },
    {
      "type": "Feature",
      "geometry": {
        "type": "Point",
        "coordinates": [
          -7.6751195,
          38.9521821
        ]
      },
      "properties": {
        "id": 13436620634,
        "osm_type": "node",
        "name": "Residencial Sorriso",
        "tourism": "guest_house"
      }
    },
    {
      "type": "Feature",
      "geometry": {
        "type": "Point",
        "coordinates": [
          -7.3408332,
          39.4105457
        ]
      },
      "properties": {
        "id": 35775757,
        "osm_type": "way",
        "name": "Camping Asseiceira",
        "tourism": "camp_site",
        "tents": "yes",
        "contact:website": "https://www.campingasseiceira.com/"
      }
    },
    {
      "type": "Feature",
      "geometry": {
        "type": "Point",
        "coordinates": [
          -7.1454354,
          38.8804667
        ]
      },
      "properties": {
        "id": 104297905,
        "osm_type": "way",
        "tourism": "hotel"
      }
    },
    {
      "type": "Feature",
      "geometry": {
        "type": "Point",
        "coordinates": [
          -8.1080096,
          39.1421023
        ]
      },
      "properties": {
        "id": 157101808,
        "osm_type": "way",
        "name": "Solago",
        "tourism": "hotel"
      }
    },
    {
      "type": "Feature",
      "geometry": {
        "type": "Point",
        "coordinates": [
          -7.5767251,
          39.1358358
        ]
      },
      "properties": {
        "id": 162185933,
        "osm_type": "way",
        "name": "Estalagem Rainha Dona Leonor",
        "tourism": "hotel"
      }
    },
    {
      "type": "Feature",
      "geometry": {
        "type": "Point",
        "coordinates": [
          -7.3744138,
          39.4125253
        ]
      },
      "properties": {
        "id": 165987080,
        "osm_type": "way",
        "name": "Quinta do Maral Naturist Camping",
        "tourism": "camp_site"
      }
    },
    {
      "type": "Feature",
      "geometry": {
        "type": "Point",
        "coordinates": [
          -7.2779907,
          39.1207271
        ]
      },
      "properties": {
        "id": 186806627,
        "osm_type": "way",
        "name": "Hotel Rural Santo António",
        "tourism": "hotel",
        "phone": "+351 245 589 003"
      }
    },
    {
      "type": "Feature",
      "geometry": {
        "type": "Point",
        "coordinates": [
          -7.1884875,
          38.9456479
        ]
      },
      "properties": {
        "id": 187745146,
        "osm_type": "way",
        "name": "Monte da Torre",
        "tourism": "guest_house"
      }
    },
    {
      "type": "Feature",
      "geometry": {
        "type": "Point",
        "coordinates": [
          -7.1230008,
          39.0787014
        ]
      },
      "properties": {
        "id": 191558116,
        "osm_type": "way",
        "name": "Monte Alto Agro Turismo",
        "tourism": "guest_house",
        "phone": "+351 268 688 176",
        "website": "http://montealto.com.pt"
      }
    },
    {
      "type": "Feature",
      "geometry": {
        "type": "Point",
        "coordinates": [
          -7.9099809,
          39.0553756
        ]
      },
      "properties": {
        "id": 217597949,
        "osm_type": "way",
        "name": "Parque de Campismo da Albufeira do Maranhão",
        "tourism": "camp_site"
      }
    },
    {
      "type": "Feature",
      "geometry": {
        "type": "Point",
        "coordinates": [
          -7.320191,
          38.9156506
        ]
      },
      "properties": {
        "id": 228392298,
        "osm_type": "way",
        "name": "Escola do fado",
        "tourism": "hotel",
        "phone": "+351 268 661 107",
        "website": "https://www.escoladofado.com/"
      }
    },
    {
      "type": "Feature",
      "geometry": {
        "type": "Point",
        "coordinates": [
          -7.9569909,
          39.4924722
        ]
      },
      "properties": {
        "id": 230757535,
        "osm_type": "way",
        "name": "Casa Covão da Abitureira",
        "tourism": "hotel"
      }
    },
    {
      "type": "Feature",
      "geometry": {
        "type": "Point",
        "coordinates": [
          -7.5206329,
          39.0980151
        ]
      },
      "properties": {
        "id": 243775330,
        "osm_type": "way",
        "name": "Quinta dos Amarelos - Aldeamento Turístico",
        "tourism": "motel"
      }
    },
    {
      "type": "Feature",
      "geometry": {
        "type": "Point",
        "coordinates": [
          -7.0697781,
          39.0133717
        ]
      },
      "properties": {
        "id": 248765171,
        "osm_type": "way",
        "name": "Palacete Encanto Maior",
        "tourism": "apartment"
      }
    },
    {
      "type": "Feature",
      "geometry": {
        "type": "Point",
        "coordinates": [
          -7.3852199,
          39.4265146
        ]
      },
      "properties": {
        "id": 282783265,
        "osm_type": "way",
        "name": "Campscape Beira Marvao",
        "tourism": "camp_site",
        "contact:website": "https://campscapebeiramarvao.com/"
      }
    },
    {
      "type": "Feature",
      "geometry": {
        "type": "Point",
        "coordinates": [
          -7.588879,
          39.13293
        ]
      },
      "properties": {
        "id": 292872605,
        "osm_type": "way",
        "name": "Hotel Candelária",
        "tourism": "hotel"
      }
    },
    {
      "type": "Feature",
      "geometry": {
        "type": "Point",
        "coordinates": [
          -7.420819,
          39.2699113
        ]
      },
      "properties": {
        "id": 301157406,
        "osm_type": "way",
        "name": "Antigo Hotel",
        "tourism": "hotel"
      }
    },
    {
      "type": "Feature",
      "geometry": {
        "type": "Point",
        "coordinates": [
          -7.6211585,
          39.4129328
        ]
      },
      "properties": {
        "id": 303394197,
        "osm_type": "way",
        "name": "Monte Filipe Hotel e SPA",
        "tourism": "hotel",
        "phone": "+351245745044",
        "website": "https://www.montefilipehotel.com/"
      }
    },
    {
      "type": "Feature",
      "geometry": {
        "type": "Point",
        "coordinates": [
          -7.4016703,
          39.2197487
        ]
      },
      "properties": {
        "id": 311665484,
        "osm_type": "way",
        "name": "Monte dos Apóstolos",
        "tourism": "hostel"
      }
    },
    {
      "type": "Feature",
      "geometry": {
        "type": "Point",
        "coordinates": [
          -7.1313834,
          39.0373676
        ]
      },
      "properties": {
        "id": 344161385,
        "osm_type": "way",
        "name": "Monte da Contenda",
        "tourism": "apartment"
      }
    },
    {
      "type": "Feature",
      "geometry": {
        "type": "Point",
        "coordinates": [
          -7.0237513,
          39.0206355
        ]
      },
      "properties": {
        "id": 344165479,
        "osm_type": "way",
        "name": "Horta do Muro",
        "tourism": "guest_house"
      }
    },
    {
      "type": "Feature",
      "geometry": {
        "type": "Point",
        "coordinates": [
          -8.144708,
          39.0991986
        ]
      },
      "properties": {
        "id": 344610162,
        "osm_type": "way",
        "name": "Montargil",
        "tourism": "camp_site"
      }
    },
    {
      "type": "Feature",
      "geometry": {
        "type": "Point",
        "coordinates": [
          -7.0236621,
          39.0203842
        ]
      },
      "properties": {
        "id": 348041048,
        "osm_type": "way",
        "name": "Horta do Muro",
        "tourism": "guest_house"
      }
    },
    {
      "type": "Feature",
      "geometry": {
        "type": "Point",
        "coordinates": [
          -7.1716653,
          38.9209957
        ]
      },
      "properties": {
        "id": 348427292,
        "osm_type": "way",
        "name": "Eco Hotel Rural Monte da Provença",
        "tourism": "hotel",
        "phone": "+351 912799202",
        "website": "https://www.montedaprovenca.com/"
      }
    },
    {
      "type": "Feature",
      "geometry": {
        "type": "Point",
        "coordinates": [
          -7.4502051,
          39.4121822
        ]
      },
      "properties": {
        "id": 369713438,
        "osm_type": "way",
        "name": "Hotel Castelo de Vide",
        "tourism": "hotel",
        "check_date": "2024-07-06"
      }
    },
    {
      "type": "Feature",
      "geometry": {
        "type": "Point",
        "coordinates": [
          -7.4523904,
          39.4132331
        ]
      },
      "properties": {
        "id": 369713528,
        "osm_type": "way",
        "name": "Hotel Sol e Serra",
        "tourism": "hotel"
      }
    },
    {
      "type": "Feature",
      "geometry": {
        "type": "Point",
        "coordinates": [
          -7.4540896,
          39.4137167
        ]
      },
      "properties": {
        "id": 369718744,
        "osm_type": "way",
        "name": "Inatel Castelo de Vide",
        "tourism": "hotel"
      }
    },
    {
      "type": "Feature",
      "geometry": {
        "type": "Point",
        "coordinates": [
          -7.5471303,
          39.4836728
        ]
      },
      "properties": {
        "id": 370210390,
        "osm_type": "way",
        "name": "Parque de Caravanas",
        "tourism": "caravan_site"
      }
    },
    {
      "type": "Feature",
      "geometry": {
        "type": "Point",
        "coordinates": [
          -7.38501,
          39.4111922
        ]
      },
      "properties": {
        "id": 381519790,
        "osm_type": "way",
        "name": "Refúgio da Maceira",
        "tourism": "guest_house"
      }
    },
    {
      "type": "Feature",
      "geometry": {
        "type": "Point",
        "coordinates": [
          -7.1686552,
          38.8781761
        ]
      },
      "properties": {
        "id": 453794215,
        "osm_type": "way",
        "tourism": "caravan_site"
      }
    },
    {
      "type": "Feature",
      "geometry": {
        "type": "Point",
        "coordinates": [
          -7.9099367,
          39.0508208
        ]
      },
      "properties": {
        "id": 495707524,
        "osm_type": "way",
        "name": "Herdade da Cortesia",
        "tourism": "hotel"
      }
    },
    {
      "type": "Feature",
      "geometry": {
        "type": "Point",
        "coordinates": [
          -8.1670372,
          39.0741108
        ]
      },
      "properties": {
        "id": 496888814,
        "osm_type": "way",
        "name": "Hotel Lago Montargil & Villas",
        "tourism": "hotel"
      }
    },
    {
      "type": "Feature",
      "geometry": {
        "type": "Point",
        "coordinates": [
          -8.1643815,
          39.0745843
        ]
      },
      "properties": {
        "id": 496890135,
        "osm_type": "way",
        "name": "Hotel Lago Montargil & Villas",
        "tourism": "hotel"
      }
    },
    {
      "type": "Feature",
      "geometry": {
        "type": "Point",
        "coordinates": [
          -7.0957207,
          39.0694774
        ]
      },
      "properties": {
        "id": 507020503,
        "osm_type": "way",
        "name": "Monte dos Adães Novos",
        "tourism": "hotel"
      }
    },
    {
      "type": "Feature",
      "geometry": {
        "type": "Point",
        "coordinates": [
          -7.1719461,
          38.8773279
        ]
      },
      "properties": {
        "id": 539174484,
        "osm_type": "way",
        "name": "Dom Luis Hotel",
        "tourism": "hotel",
        "website": "https://www.hoteldluis-elvas.com/"
      }
    },
    {
      "type": "Feature",
      "geometry": {
        "type": "Point",
        "coordinates": [
          -7.3680491,
          39.4493085
        ]
      },
      "properties": {
        "id": 653989669,
        "osm_type": "way",
        "name": "Casas da Estação",
        "tourism": "guest_house",
        "phone": "+351 91 899 88 08",
        "website": "https://www.casasdaestacao.com/"
      }
    },
    {
      "type": "Feature",
      "geometry": {
        "type": "Point",
        "coordinates": [
          -7.3679274,
          39.4511536
        ]
      },
      "properties": {
        "id": 654086793,
        "osm_type": "way",
        "name": "Tapada da Rabela",
        "tourism": "guest_house",
        "phone": "+351 245 992 117",
        "website": "https://www.tapadadarabela.com/"
      }
    },
    {
      "type": "Feature",
      "geometry": {
        "type": "Point",
        "coordinates": [
          -7.7768878,
          39.2835448
        ]
      },
      "properties": {
        "id": 671733987,
        "osm_type": "way",
        "name": "Herdade da Lameira Hotel Rural",
        "tourism": "hotel"
      }
    },
    {
      "type": "Feature",
      "geometry": {
        "type": "Point",
        "coordinates": [
          -7.7763491,
          39.2831489
        ]
      },
      "properties": {
        "id": 672552146,
        "osm_type": "way",
        "name": "Herdade da Lameira Hotel Rural",
        "tourism": "hotel"
      }
    },
    {
      "type": "Feature",
      "geometry": {
        "type": "Point",
        "coordinates": [
          -7.2233556,
          38.902457
        ]
      },
      "properties": {
        "id": 672686194,
        "osm_type": "way",
        "name": "Quinta de Santo António - Hotel Rural",
        "tourism": "hotel"
      }
    },
    {
      "type": "Feature",
      "geometry": {
        "type": "Point",
        "coordinates": [
          -7.4139863,
          39.3693525
        ]
      },
      "properties": {
        "id": 699407466,
        "osm_type": "way",
        "name": "Quinta da Nave do Lobo",
        "tourism": "guest_house"
      }
    },
    {
      "type": "Feature",
      "geometry": {
        "type": "Point",
        "coordinates": [
          -7.4111957,
          39.3635148
        ]
      },
      "properties": {
        "id": 699409814,
        "osm_type": "way",
        "name": "Quinta dos Lagartos",
        "tourism": "guest_house"
      }
    },
    {
      "type": "Feature",
      "geometry": {
        "type": "Point",
        "coordinates": [
          -7.122525,
          38.9891229
        ]
      },
      "properties": {
        "id": 744097469,
        "osm_type": "way",
        "name": "Moinho da Capela",
        "tourism": "guest_house"
      }
    },
    {
      "type": "Feature",
      "geometry": {
        "type": "Point",
        "coordinates": [
          -7.1695062,
          39.1799507
        ]
      },
      "properties": {
        "id": 797994797,
        "osm_type": "way",
        "name": "Casa do Marco - Turismo Raiano Guest House",
        "tourism": "guest_house"
      }
    },
    {
      "type": "Feature",
      "geometry": {
        "type": "Point",
        "coordinates": [
          -8.0130782,
          39.2566815
        ]
      },
      "properties": {
        "id": 823538431,
        "osm_type": "way",
        "tourism": "caravan_site"
      }
    },
    {
      "type": "Feature",
      "geometry": {
        "type": "Point",
        "coordinates": [
          -7.1907315,
          39.162626
        ]
      },
      "properties": {
        "id": 840199883,
        "osm_type": "way",
        "name": "Monte da Esperança",
        "tourism": "guest_house"
      }
    },
    {
      "type": "Feature",
      "geometry": {
        "type": "Point",
        "coordinates": [
          -7.3237122,
          38.9760066
        ]
      },
      "properties": {
        "id": 864835431,
        "osm_type": "way",
        "name": "Camping Puro Alentejo",
        "tourism": "camp_site",
        "phone": "+351 966 828 740",
        "website": "https://campingpuroalentejo.com/"
      }
    },
    {
      "type": "Feature",
      "geometry": {
        "type": "Point",
        "coordinates": [
          -7.3762503,
          39.3937096
        ]
      },
      "properties": {
        "id": 866272916,
        "osm_type": "way",
        "name": "Pousada de Santa Maria de Marvão",
        "tourism": "hotel",
        "phone": "+351 245993201",
        "website": "https://www.pestana.com/"
      }
    },
    {
      "type": "Feature",
      "geometry": {
        "type": "Point",
        "coordinates": [
          -7.3758947,
          39.3935385
        ]
      },
      "properties": {
        "id": 866272917,
        "osm_type": "way",
        "name": "Pousada de Santa Maria de Marvão",
        "tourism": "hotel",
        "phone": "+351 245993201",
        "website": "https://www.pestana.com/"
      }
    },
    {
      "type": "Feature",
      "geometry": {
        "type": "Point",
        "coordinates": [
          -7.9680449,
          39.4877669
        ]
      },
      "properties": {
        "id": 884326309,
        "osm_type": "way",
        "name": "Alamal River Club",
        "tourism": "hotel",
        "phone": "+351 241 638 000",
        "website": "https://www.alamalriverclub.com/"
      }
    },
    {
      "type": "Feature",
      "geometry": {
        "type": "Point",
        "coordinates": [
          -7.3773149,
          39.3946329
        ]
      },
      "properties": {
        "id": 969820689,
        "osm_type": "way",
        "name": "Marvão Hotel e Museu.",
        "tourism": "hotel",
        "phone": "+351 245 240 990",
        "website": "https://www.marvaohotelmuseu.com/"
      }
    },
    {
      "type": "Feature",
      "geometry": {
        "type": "Point",
        "coordinates": [
          -7.2153,
          38.8215509
        ]
      },
      "properties": {
        "id": 1000758605,
        "osm_type": "way",
        "name": "Quinta da Fortaleza",
        "tourism": "guest_house",
        "website": "https://quintadafortaleza.pt/"
      }
    },
    {
      "type": "Feature",
      "geometry": {
        "type": "Point",
        "coordinates": [
          -7.1516541,
          38.8875728
        ]
      },
      "properties": {
        "id": 1029630284,
        "osm_type": "way",
        "name": "Hospedaria Angélica",
        "tourism": "hostel"
      }
    },
    {
      "type": "Feature",
      "geometry": {
        "type": "Point",
        "coordinates": [
          -7.6450133,
          39.2880412
        ]
      },
      "properties": {
        "id": 1036036549,
        "osm_type": "way",
        "name": "Casa do Coreto",
        "tourism": "guest_house",
        "phone": "+351 937 276 504"
      }
    },
    {
      "type": "Feature",
      "geometry": {
        "type": "Point",
        "coordinates": [
          -7.646238,
          39.2878283
        ]
      },
      "properties": {
        "id": 1036054964,
        "osm_type": "way",
        "name": "Casa do Crato",
        "tourism": "guest_house",
        "phone": "+351 245 990 002",
        "website": "https://casadocrato.com"
      }
    },
    {
      "type": "Feature",
      "geometry": {
        "type": "Point",
        "coordinates": [
          -7.9139814,
          39.0637935
        ]
      },
      "properties": {
        "id": 1059936399,
        "osm_type": "way",
        "name": "Monte das Mugueiras",
        "tourism": "apartment",
        "phone": "+351 926 385 845"
      }
    },
    {
      "type": "Feature",
      "geometry": {
        "type": "Point",
        "coordinates": [
          -7.8089308,
          38.9475068
        ]
      },
      "properties": {
        "id": 1064198440,
        "osm_type": "way",
        "name": "Pateo do Morgado",
        "tourism": "guest_house"
      }
    },
    {
      "type": "Feature",
      "geometry": {
        "type": "Point",
        "coordinates": [
          -7.8117329,
          38.9485799
        ]
      },
      "properties": {
        "id": 1064465679,
        "osm_type": "way",
        "name": "Casa Brazão de Mira",
        "tourism": "guest_house"
      }
    },
    {
      "type": "Feature",
      "geometry": {
        "type": "Point",
        "coordinates": [
          -7.5886221,
          39.1330852
        ]
      },
      "properties": {
        "id": 1074804819,
        "osm_type": "way",
        "tourism": "hotel"
      }
    },
    {
      "type": "Feature",
      "geometry": {
        "type": "Point",
        "coordinates": [
          -7.394493,
          39.2895862
        ]
      },
      "properties": {
        "id": 1078067653,
        "osm_type": "way",
        "name": "Cabeças do Reguengo -Turismo Rural",
        "tourism": "guest_house",
        "phone": "+351 245 201 005",
        "website": "https://www.cabecasdoreguengo.com"
      }
    },
    {
      "type": "Feature",
      "geometry": {
        "type": "Point",
        "coordinates": [
          -7.1679784,
          39.154649
        ]
      },
      "properties": {
        "id": 1088478032,
        "osm_type": "way",
        "name": "Parque de Campismo Rural Lapa dos Gaivões",
        "tourism": "camp_site"
      }
    },
    {
      "type": "Feature",
      "geometry": {
        "type": "Point",
        "coordinates": [
          -7.6473834,
          39.0544259
        ]
      },
      "properties": {
        "id": 1088768344,
        "osm_type": "way",
        "name": "Pensão Residencial A Estalagem",
        "tourism": "apartment",
        "phone": "+351 245 604 480"
      }
    },
    {
      "type": "Feature",
      "geometry": {
        "type": "Point",
        "coordinates": [
          -7.415935,
          39.2250658
        ]
      },
      "properties": {
        "id": 1089083764,
        "osm_type": "way",
        "name": "Casa da Urra",
        "tourism": "guest_house"
      }
    },
    {
      "type": "Feature",
      "geometry": {
        "type": "Point",
        "coordinates": [
          -7.6243586,
          39.4076103
        ]
      },
      "properties": {
        "id": 1101477445,
        "osm_type": "way",
        "name": "Quinta dos Ribeiros",
        "tourism": "hotel"
      }
    },
    {
      "type": "Feature",
      "geometry": {
        "type": "Point",
        "coordinates": [
          -7.4437674,
          39.0532005
        ]
      },
      "properties": {
        "id": 1107411958,
        "osm_type": "way",
        "name": "Hotel Palma",
        "tourism": "hotel"
      }
    },
    {
      "type": "Feature",
      "geometry": {
        "type": "Point",
        "coordinates": [
          -7.4231025,
          38.9133726
        ]
      },
      "properties": {
        "id": 1108023519,
        "osm_type": "way",
        "name": "Aleixo's House",
        "tourism": "apartment",
        "phone": "+351 938 347 334",
        "website": "https://aleixoshouse.wixsite.com/aleixoshouse/aleixoshouse"
      }
    },
    {
      "type": "Feature",
      "geometry": {
        "type": "Point",
        "coordinates": [
          -7.0546722,
          38.9849619
        ]
      },
      "properties": {
        "id": 1113045045,
        "osm_type": "way",
        "name": "Olívale - Turismo Rural",
        "tourism": "hotel"
      }
    },
    {
      "type": "Feature",
      "geometry": {
        "type": "Point",
        "coordinates": [
          -7.3488287,
          38.8458436
        ]
      },
      "properties": {
        "id": 1117820596,
        "osm_type": "way",
        "name": "Camping Caravanas",
        "tourism": "caravan_site"
      }
    },
    {
      "type": "Feature",
      "geometry": {
        "type": "Point",
        "coordinates": [
          -7.1665661,
          38.8764324
        ]
      },
      "properties": {
        "id": 1134553686,
        "osm_type": "way",
        "name": "Otelli Elvas",
        "tourism": "guest_house",
        "website": "https://fr.planetofhotels.com/portugal/elvas/otelli"
      }
    },
    {
      "type": "Feature",
      "geometry": {
        "type": "Point",
        "coordinates": [
          -7.1669544,
          38.8849333
        ]
      },
      "properties": {
        "id": 1137797172,
        "osm_type": "way",
        "name": "Residencial Luso Espanhola",
        "tourism": "hostel"
      }
    },
    {
      "type": "Feature",
      "geometry": {
        "type": "Point",
        "coordinates": [
          -7.8903083,
          39.0569179
        ]
      },
      "properties": {
        "id": 1149838119,
        "osm_type": "way",
        "name": "Casa da Moira",
        "tourism": "hotel"
      }
    },
    {
      "type": "Feature",
      "geometry": {
        "type": "Point",
        "coordinates": [
          -7.134564,
          38.8847324
        ]
      },
      "properties": {
        "id": 1157075900,
        "osm_type": "way",
        "name": "Hotel Brasa",
        "tourism": "hotel"
      }
    },
    {
      "type": "Feature",
      "geometry": {
        "type": "Point",
        "coordinates": [
          -7.1796765,
          38.8734485
        ]
      },
      "properties": {
        "id": 1159001987,
        "osm_type": "way",
        "name": "Camping Piedade",
        "tourism": "camp_site",
        "tents": "yes",
        "phone": "+ 351 268 626 040",
        "website": "https://www.campingpiedade.pt/"
      }
    },
    {
      "type": "Feature",
      "geometry": {
        "type": "Point",
        "coordinates": [
          -7.2078119,
          38.8466399
        ]
      },
      "properties": {
        "id": 1187599509,
        "osm_type": "way",
        "name": "Casa do Forte",
        "tourism": "hotel"
      }
    },
    {
      "type": "Feature",
      "geometry": {
        "type": "Point",
        "coordinates": [
          -7.9680613,
          39.487836
        ]
      },
      "properties": {
        "id": 1202551676,
        "osm_type": "way",
        "name": "Alamal River Club",
        "tourism": "hotel",
        "phone": "+351 241 638 000",
        "website": "https://www.alamalriverclub.com/"
      }
    },
    {
      "type": "Feature",
      "geometry": {
        "type": "Point",
        "coordinates": [
          -8.0126613,
          39.267653
        ]
      },
      "properties": {
        "id": 1203969702,
        "osm_type": "way",
        "name": "Three Trees Hostel",
        "tourism": "hostel"
      }
    },
    {
      "type": "Feature",
      "geometry": {
        "type": "Point",
        "coordinates": [
          -7.6602852,
          39.0347472
        ]
      },
      "properties": {
        "id": 1225714562,
        "osm_type": "way",
        "name": "Monte dos Caliços",
        "tourism": "guest_house"
      }
    },
    {
      "type": "Feature",
      "geometry": {
        "type": "Point",
        "coordinates": [
          -7.4520694,
          39.4473583
        ]
      },
      "properties": {
        "id": 1229559172,
        "osm_type": "way",
        "name": "Quinta das Lavandas",
        "tourism": "guest_house"
      }
    },
    {
      "type": "Feature",
      "geometry": {
        "type": "Point",
        "coordinates": [
          -7.9583512,
          39.4952016
        ]
      },
      "properties": {
        "id": 1294821430,
        "osm_type": "way",
        "name": "A Casa do Maltês",
        "tourism": "guest_house",
        "phone": "+351 964 511 107"
      }
    },
    {
      "type": "Feature",
      "geometry": {
        "type": "Point",
        "coordinates": [
          -7.6745648,
          39.1023299
        ]
      },
      "properties": {
        "id": 1303288918,
        "osm_type": "way",
        "name": "Monte do Rochinha",
        "tourism": "guest_house",
        "phone": "+351 928 058 780",
        "website": "https://montedorochinha.pt/"
      }
    },
    {
      "type": "Feature",
      "geometry": {
        "type": "Point",
        "coordinates": [
          -7.3758609,
          39.3943771
        ]
      },
      "properties": {
        "id": 1431001584,
        "osm_type": "way",
        "name": "Hotel El-Rei Dom Manuel",
        "tourism": "hotel",
        "phone": "+351 245 909150"
      }
    },
    {
      "type": "Feature",
      "geometry": {
        "type": "Point",
        "coordinates": [
          -7.3946256,
          39.3719538
        ]
      },
      "properties": {
        "id": 1451334812,
        "osm_type": "way",
        "tourism": "guest_house"
      }
    },
    {
      "type": "Feature",
      "geometry": {
        "type": "Point",
        "coordinates": [
          -7.4030496,
          39.4080841
        ]
      },
      "properties": {
        "id": 1503970375,
        "osm_type": "way",
        "tourism": "guest_house",
        "website": "https://www.saimeira.com/houses"
      }
    },
    {
      "type": "Feature",
      "geometry": {
        "type": "Point",
        "coordinates": [
          -7.0667575,
          39.0133462
        ]
      },
      "properties": {
        "id": 3348016,
        "osm_type": "relation",
        "name": "Hotel Santa Beatriz (Fechado)",
        "tourism": "hotel"
      }
    },
    {
      "type": "Feature",
      "geometry": {
        "type": "Point",
        "coordinates": [
          -7.2779163,
          39.1207797
        ]
      },
      "properties": {
        "id": 10294375,
        "osm_type": "relation",
        "tourism": "hotel"
      }
    },
    {
      "type": "Feature",
      "geometry": {
        "type": "Point",
        "coordinates": [
          -7.6485831,
          39.3068516
        ]
      },
      "properties": {
        "id": 11842901,
        "osm_type": "relation",
        "name": "Pousada do Crato",
        "tourism": "hotel",
        "website": "https://www.pousadas.pt/historic-hotels-portugal/en/pousadas/alentejo-hotels/pousada-do-crato/flor-da-rosa/pages/home.aspx"
      }
    },
    {
      "type": "Feature",
      "geometry": {
        "type": "Point",
        "coordinates": [
          -7.167313,
          38.8803136
        ]
      },
      "properties": {
        "id": 15655949,
        "osm_type": "relation",
        "name": "Vila Galé Collection Elvas",
        "tourism": "hotel",
        "phone": "+351 268 244 000",
        "website": "https://www.vilagale.com/pt/hoteis/alentejo/vila-gale-collection-elvas"
      }
    },
    {
      "type": "Feature",
      "geometry": {
        "type": "Point",
        "coordinates": [
          -7.2167112,
          38.8666238
        ]
      },
      "properties": {
        "id": 18878877,
        "osm_type": "relation",
        "name": "VarcheHotel",
        "tourism": "hotel"
      }
    }
  ]
}