{
  "type": "FeatureCollection",
  "features": [
    {
      "type": "Feature",
      "geometry": {
        "type": "Point",
        "coordinates": [
          29.0193462,
          40.2015601
        ]
      },
      "properties": {
        "id": 369686822,
        "osm_type": "node",
        "name": "Anemon Bursa Otel",
        "tourism": "hotel",
        "opening_hours": "24/7",
        "phone": "+90 224 270 35 35",
        "website": "https://www.anemonhotels.com/hotel/anemon-bursa/"
      }
    },
    {
      "type": "Feature",
      "geometry": {
        "type": "Point",
        "coordinates": [
          28.8910854,
          40.3724925
        ]
      },
      "properties": {
        "id": 1468350897,
        "osm_type": "node",
        "name": "Montania Special Class Hotel",
        "tourism": "hotel",
        "contact:website": "http://www.montania.com.tr"
      }
    },
    {
      "type": "Feature",
      "geometry": {
        "type": "Point",
        "coordinates": [
          29.3082294,
          40.4893968
        ]
      },
      "properties": {
        "id": 1826889787,
        "osm_type": "node",
        "name": "Eşref Otel",
        "tourism": "hotel"
      }
    },
    {
      "type": "Feature",
      "geometry": {
        "type": "Point",
        "coordinates": [
          29.0593931,
          40.1835517
        ]
      },
      "properties": {
        "id": 2281546944,
        "osm_type": "node",
        "name": "Bursa Palas Hotel",
        "tourism": "hotel"
      }
    },
    {
      "type": "Feature",
      "geometry": {
        "type": "Point",
        "coordinates": [
          29.0389523,
          40.1959762
        ]
      },
      "properties": {
        "id": 2794515659,
        "osm_type": "node",
        "name": "Çelik Palas Thermal Spa Hotel",
        "tourism": "hotel"
      }
    },
    {
      "type": "Feature",
      "geometry": {
        "type": "Point",
        "coordinates": [
          29.0605951,
          40.1871556
        ]
      },
      "properties": {
        "id": 2892179677,
        "osm_type": "node",
        "name": "City Hotel",
        "tourism": "hotel"
      }
    },
    {
      "type": "Feature",
      "geometry": {
        "type": "Point",
        "coordinates": [
          29.0741546,
          40.1838145
        ]
      },
      "properties": {
        "id": 3294065367,
        "osm_type": "node",
        "name": "Onuncu Köy Hotel",
        "tourism": "hotel"
      }
    },
    {
      "type": "Feature",
      "geometry": {
        "type": "Point",
        "coordinates": [
          29.1406084,
          40.118982
        ]
      },
      "properties": {
        "id": 3469061558,
        "osm_type": "node",
        "name": "Kızılay Bursa Şubesi Çobankaya Aile Kampı",
        "tourism": "camp_site"
      }
    },
    {
      "type": "Feature",
      "geometry": {
        "type": "Point",
        "coordinates": [
          28.3585722,
          40.2161882
        ]
      },
      "properties": {
        "id": 3826438940,
        "osm_type": "node",
        "name": "Şehir Otel",
        "tourism": "hotel"
      }
    },
    {
      "type": "Feature",
      "geometry": {
        "type": "Point",
        "coordinates": [
          29.3087158,
          40.4911013
        ]
      },
      "properties": {
        "id": 4361087081,
        "osm_type": "node",
        "name": "Orhangazi Öğretmenevi",
        "tourism": "hotel",
        "phone": "+90 224 573 3712"
      }
    },
    {
      "type": "Feature",
      "geometry": {
        "type": "Point",
        "coordinates": [
          28.8420765,
          40.2197157
        ]
      },
      "properties": {
        "id": 4431361190,
        "osm_type": "node",
        "name": "Özel Dolunay Yükseköğrenim Öğrenci Yurdu",
        "tourism": "guest_house",
        "phone": "02244832847",
        "website": "https://ilkokuldolunay.meb.k12.tr/"
      }
    },
    {
      "type": "Feature",
      "geometry": {
        "type": "Point",
        "coordinates": [
          28.849557,
          40.2295392
        ]
      },
      "properties": {
        "id": 4551521592,
        "osm_type": "node",
        "name": "GÜL APART",
        "tourism": "guest_house",
        "opening_hours": "24/7",
        "phone": "+90 535 685 9575"
      }
    },
    {
      "type": "Feature",
      "geometry": {
        "type": "Point",
        "coordinates": [
          29.2586202,
          40.1202403
        ]
      },
      "properties": {
        "id": 4804377321,
        "osm_type": "node",
        "name": "Yedi Göller 2. Kamp Alanı",
        "tourism": "camp_site"
      }
    },
    {
      "type": "Feature",
      "geometry": {
        "type": "Point",
        "coordinates": [
          29.3350971,
          40.4607983
        ]
      },
      "properties": {
        "id": 5001081323,
        "osm_type": "node",
        "name": "Orhan Gazi Göl İskelesi",
        "tourism": "camp_site"
      }
    },
    {
      "type": "Feature",
      "geometry": {
        "type": "Point",
        "coordinates": [
          29.0435027,
          40.1927058
        ]
      },
      "properties": {
        "id": 5079608829,
        "osm_type": "node",
        "tourism": "guest_house"
      }
    },
    {
      "type": "Feature",
      "geometry": {
        "type": "Point",
        "coordinates": [
          29.72145,
          40.4287601
        ]
      },
      "properties": {
        "id": 5108727925,
        "osm_type": "node",
        "name": "Istanbul Otel",
        "tourism": "hotel"
      }
    },
    {
      "type": "Feature",
      "geometry": {
        "type": "Point",
        "coordinates": [
          28.8522492,
          40.2278813
        ]
      },
      "properties": {
        "id": 5186561721,
        "osm_type": "node",
        "name": "Hiltoon Apart 3",
        "tourism": "guest_house"
      }
    },
    {
      "type": "Feature",
      "geometry": {
        "type": "Point",
        "coordinates": [
          29.7157154,
          40.4336186
        ]
      },
      "properties": {
        "id": 5310382821,
        "osm_type": "node",
        "name": "Cem Otel",
        "tourism": "hotel",
        "phone": "02247571362",
        "website": "https://www.cemotel.com/"
      }
    },
    {
      "type": "Feature",
      "geometry": {
        "type": "Point",
        "coordinates": [
          28.9707919,
          40.1788988
        ]
      },
      "properties": {
        "id": 5382793420,
        "osm_type": "node",
        "tourism": "caravan_site"
      }
    },
    {
      "type": "Feature",
      "geometry": {
        "type": "Point",
        "coordinates": [
          29.0606504,
          40.182862
        ]
      },
      "properties": {
        "id": 5414406022,
        "osm_type": "node",
        "name": "Güneş",
        "tourism": "hotel"
      }
    },
    {
      "type": "Feature",
      "geometry": {
        "type": "Point",
        "coordinates": [
          28.348908,
          40.4001222
        ]
      },
      "properties": {
        "id": 5793619154,
        "osm_type": "node",
        "tourism": "camp_site"
      }
    },
    {
      "type": "Feature",
      "geometry": {
        "type": "Point",
        "coordinates": [
          29.2160634,
          39.9506537
        ]
      },
      "properties": {
        "id": 5822380453,
        "osm_type": "node",
        "tourism": "camp_site"
      }
    },
    {
      "type": "Feature",
      "geometry": {
        "type": "Point",
        "coordinates": [
          28.8304951,
          40.2267888
        ]
      },
      "properties": {
        "id": 6105878391,
        "osm_type": "node",
        "name": "Nurhayat",
        "tourism": "apartment"
      }
    },
    {
      "type": "Feature",
      "geometry": {
        "type": "Point",
        "coordinates": [
          29.1415217,
          40.1189946
        ]
      },
      "properties": {
        "id": 6134956396,
        "osm_type": "node",
        "name": "Çobankaya Camping",
        "tourism": "camp_site"
      }
    },
    {
      "type": "Feature",
      "geometry": {
        "type": "Point",
        "coordinates": [
          29.0629946,
          40.1964593
        ]
      },
      "properties": {
        "id": 6171135485,
        "osm_type": "node",
        "tourism": "hotel"
      }
    },
    {
      "type": "Feature",
      "geometry": {
        "type": "Point",
        "coordinates": [
          28.8497382,
          40.2208175
        ]
      },
      "properties": {
        "id": 6397260685,
        "osm_type": "node",
        "name": "Inci evleri",
        "tourism": "apartment"
      }
    },
    {
      "type": "Feature",
      "geometry": {
        "type": "Point",
        "coordinates": [
          29.06651,
          40.1806913
        ]
      },
      "properties": {
        "id": 6498271948,
        "osm_type": "node",
        "name": "bursa comfprt apart",
        "tourism": "motel"
      }
    },
    {
      "type": "Feature",
      "geometry": {
        "type": "Point",
        "coordinates": [
          28.8909967,
          40.3723192
        ]
      },
      "properties": {
        "id": 6554572451,
        "osm_type": "node",
        "name": "Montania Town Hotel",
        "tourism": "hotel",
        "contact:website": "http://www.montania.com.tr"
      }
    },
    {
      "type": "Feature",
      "geometry": {
        "type": "Point",
        "coordinates": [
          29.0630682,
          40.1781587
        ]
      },
      "properties": {
        "id": 6658218885,
        "osm_type": "node",
        "name": "شقتي في بورصة",
        "tourism": "apartment"
      }
    },
    {
      "type": "Feature",
      "geometry": {
        "type": "Point",
        "coordinates": [
          29.5166797,
          40.4839979
        ]
      },
      "properties": {
        "id": 6991727762,
        "osm_type": "node",
        "name": "Askania Otel",
        "tourism": "hotel"
      }
    },
    {
      "type": "Feature",
      "geometry": {
        "type": "Point",
        "coordinates": [
          28.8480891,
          40.2260894
        ]
      },
      "properties": {
        "id": 7737403687,
        "osm_type": "node",
        "name": "Görükle Yerleşim",
        "tourism": "guest_house"
      }
    },
    {
      "type": "Feature",
      "geometry": {
        "type": "Point",
        "coordinates": [
          29.0157407,
          40.1992921
        ]
      },
      "properties": {
        "id": 7794301844,
        "osm_type": "node",
        "name": "Bursa Polis Evi",
        "tourism": "guest_house",
        "website": "https://www.polisevi.com/bursa-polisevi/"
      }
    },
    {
      "type": "Feature",
      "geometry": {
        "type": "Point",
        "coordinates": [
          28.3859583,
          39.9015619
        ]
      },
      "properties": {
        "id": 8001500285,
        "osm_type": "node",
        "tourism": "camp_site"
      }
    },
    {
      "type": "Feature",
      "geometry": {
        "type": "Point",
        "coordinates": [
          29.6594105,
          40.3944069
        ]
      },
      "properties": {
        "id": 8864698217,
        "osm_type": "node",
        "tourism": "camp_site"
      }
    },
    {
      "type": "Feature",
      "geometry": {
        "type": "Point",
        "coordinates": [
          29.0678811,
          40.1814442
        ]
      },
      "properties": {
        "id": 9179817579,
        "osm_type": "node",
        "name": "Asmaaltı Guesthouse",
        "tourism": "guest_house"
      }
    },
    {
      "type": "Feature",
      "geometry": {
        "type": "Point",
        "coordinates": [
          29.0611019,
          40.181447
        ]
      },
      "properties": {
        "id": 9226083366,
        "osm_type": "node",
        "name": "Tahta Kale Konağı Hotel",
        "tourism": "hotel"
      }
    },
    {
      "type": "Feature",
      "geometry": {
        "type": "Point",
        "coordinates": [
          29.0606042,
          40.1824514
        ]
      },
      "properties": {
        "id": 9226083367,
        "osm_type": "node",
        "name": "Çamlıbel Otel",
        "tourism": "hotel"
      }
    },
    {
      "type": "Feature",
      "geometry": {
        "type": "Point",
        "coordinates": [
          29.0606133,
          40.1827396
        ]
      },
      "properties": {
        "id": 9226083368,
        "osm_type": "node",
        "name": "Torunlar Hotel",
        "tourism": "hotel"
      }
    },
    {
      "type": "Feature",
      "geometry": {
        "type": "Point",
        "coordinates": [
          29.0678697,
          40.1829504
        ]
      },
      "properties": {
        "id": 9761089961,
        "osm_type": "node",
        "name": "Saray Otel",
        "tourism": "hotel"
      }
    },
    {
      "type": "Feature",
      "geometry": {
        "type": "Point",
        "coordinates": [
          29.0759379,
          40.1838285
        ]
      },
      "properties": {
        "id": 9762260702,
        "osm_type": "node",
        "name": "Kayhan City Hotel",
        "tourism": "hotel"
      }
    },
    {
      "type": "Feature",
      "geometry": {
        "type": "Point",
        "coordinates": [
          29.5868489,
          39.9277763
        ]
      },
      "properties": {
        "id": 9872958317,
        "osm_type": "node",
        "name": "Güven Otel",
        "tourism": "hotel"
      }
    },
    {
      "type": "Feature",
      "geometry": {
        "type": "Point",
        "coordinates": [
          29.5858849,
          39.9276617
        ]
      },
      "properties": {
        "id": 9872966317,
        "osm_type": "node",
        "name": "Asiyan Otel",
        "tourism": "hotel",
        "phone": "02244446483,05336590440"
      }
    },
    {
      "type": "Feature",
      "geometry": {
        "type": "Point",
        "coordinates": [
          29.5858126,
          39.9273712
        ]
      },
      "properties": {
        "id": 9872968717,
        "osm_type": "node",
        "name": "Çağlayan Otel",
        "tourism": "hotel"
      }
    },
    {
      "type": "Feature",
      "geometry": {
        "type": "Point",
        "coordinates": [
          28.8394683,
          40.1843344
        ]
      },
      "properties": {
        "id": 9902855817,
        "osm_type": "node",
        "tourism": "caravan_site"
      }
    },
    {
      "type": "Feature",
      "geometry": {
        "type": "Point",
        "coordinates": [
          29.2886058,
          40.1040234
        ]
      },
      "properties": {
        "id": 10019146704,
        "osm_type": "node",
        "tourism": "camp_site"
      }
    },
    {
      "type": "Feature",
      "geometry": {
        "type": "Point",
        "coordinates": [
          29.0687312,
          40.1845599
        ]
      },
      "properties": {
        "id": 10061047717,
        "osm_type": "node",
        "name": "Kar Beyaz",
        "tourism": "hotel"
      }
    },
    {
      "type": "Feature",
      "geometry": {
        "type": "Point",
        "coordinates": [
          29.1478441,
          40.1826066
        ]
      },
      "properties": {
        "id": 10063160417,
        "osm_type": "node",
        "name": "vjolanda",
        "tourism": "apartment"
      }
    },
    {
      "type": "Feature",
      "geometry": {
        "type": "Point",
        "coordinates": [
          29.0615228,
          40.1822871
        ]
      },
      "properties": {
        "id": 10595671602,
        "osm_type": "node",
        "name": "Lal Otel",
        "tourism": "hotel"
      }
    },
    {
      "type": "Feature",
      "geometry": {
        "type": "Point",
        "coordinates": [
          29.0629638,
          40.1833765
        ]
      },
      "properties": {
        "id": 10595671603,
        "osm_type": "node",
        "name": "Kent Hotel",
        "tourism": "hotel"
      }
    },
    {
      "type": "Feature",
      "geometry": {
        "type": "Point",
        "coordinates": [
          29.046504,
          40.2552727
        ]
      },
      "properties": {
        "id": 10608881164,
        "osm_type": "node",
        "name": "Şehit Abdullah Tayyip Olçok Uygulama Oteli",
        "tourism": "hotel"
      }
    },
    {
      "type": "Feature",
      "geometry": {
        "type": "Point",
        "coordinates": [
          28.9108436,
          40.225177
        ]
      },
      "properties": {
        "id": 10654297607,
        "osm_type": "node",
        "name": "Gölpark 1",
        "tourism": "apartment"
      }
    },
    {
      "type": "Feature",
      "geometry": {
        "type": "Point",
        "coordinates": [
          29.0613783,
          40.1832973
        ]
      },
      "properties": {
        "id": 10734990429,
        "osm_type": "node",
        "name": "Artıç Otel",
        "tourism": "hotel"
      }
    },
    {
      "type": "Feature",
      "geometry": {
        "type": "Point",
        "coordinates": [
          29.1013453,
          40.1906821
        ]
      },
      "properties": {
        "id": 10789576699,
        "osm_type": "node",
        "name": "Karayolları Misafirhane",
        "tourism": "guest_house"
      }
    },
    {
      "type": "Feature",
      "geometry": {
        "type": "Point",
        "coordinates": [
          28.8612208,
          40.3835576
        ]
      },
      "properties": {
        "id": 10918441405,
        "osm_type": "node",
        "name": "Blue Mudanya",
        "tourism": "hotel",
        "phone": "+902245447544"
      }
    },
    {
      "type": "Feature",
      "geometry": {
        "type": "Point",
        "coordinates": [
          28.9341027,
          40.1325364
        ]
      },
      "properties": {
        "id": 11139295644,
        "osm_type": "node",
        "tourism": "caravan_site"
      }
    },
    {
      "type": "Feature",
      "geometry": {
        "type": "Point",
        "coordinates": [
          28.9354047,
          40.1314072
        ]
      },
      "properties": {
        "id": 11139295663,
        "osm_type": "node",
        "name": "Karavan Kamp Alanı",
        "tourism": "caravan_site"
      }
    },
    {
      "type": "Feature",
      "geometry": {
        "type": "Point",
        "coordinates": [
          29.0597464,
          40.1839135
        ]
      },
      "properties": {
        "id": 11170449137,
        "osm_type": "node",
        "name": "Waha Otel",
        "tourism": "hotel"
      }
    },
    {
      "type": "Feature",
      "geometry": {
        "type": "Point",
        "coordinates": [
          29.7726683,
          40.3995483
        ]
      },
      "properties": {
        "id": 11413271969,
        "osm_type": "node",
        "name": "Orman Dağ Evi",
        "tourism": "alpine_hut",
        "phone": "+90 532 216 71 71"
      }
    },
    {
      "type": "Feature",
      "geometry": {
        "type": "Point",
        "coordinates": [
          29.0177602,
          40.2002018
        ]
      },
      "properties": {
        "id": 11519747569,
        "osm_type": "node",
        "tourism": "hotel"
      }
    },
    {
      "type": "Feature",
      "geometry": {
        "type": "Point",
        "coordinates": [
          29.0151259,
          40.2006439
        ]
      },
      "properties": {
        "id": 11530758369,
        "osm_type": "node",
        "tourism": "hotel"
      }
    },
    {
      "type": "Feature",
      "geometry": {
        "type": "Point",
        "coordinates": [
          29.0506257,
          40.1931426
        ]
      },
      "properties": {
        "id": 11948951569,
        "osm_type": "node",
        "name": "Bursa Park Apart Hotel",
        "tourism": "apartment"
      }
    },
    {
      "type": "Feature",
      "geometry": {
        "type": "Point",
        "coordinates": [
          28.9979071,
          40.2093835
        ]
      },
      "properties": {
        "id": 12156783904,
        "osm_type": "node",
        "name": "Ramada",
        "tourism": "hotel"
      }
    },
    {
      "type": "Feature",
      "geometry": {
        "type": "Point",
        "coordinates": [
          29.0613183,
          40.1944292
        ]
      },
      "properties": {
        "id": 12247800801,
        "osm_type": "node",
        "name": "Bursa Şahin Hotel",
        "tourism": "hotel"
      }
    },
    {
      "type": "Feature",
      "geometry": {
        "type": "Point",
        "coordinates": [
          28.9665212,
          40.207206
        ]
      },
      "properties": {
        "id": 12253835501,
        "osm_type": "node",
        "name": "DD Hotel",
        "tourism": "hotel"
      }
    },
    {
      "type": "Feature",
      "geometry": {
        "type": "Point",
        "coordinates": [
          29.1422639,
          40.1074369
        ]
      },
      "properties": {
        "id": 12488496666,
        "osm_type": "node",
        "name": "Ceylan Splend'or, Uludağ",
        "tourism": "hotel",
        "phone": "+90 543 347 52 72",
        "website": "https://www.ceylansplendor.com/"
      }
    },
    {
      "type": "Feature",
      "geometry": {
        "type": "Point",
        "coordinates": [
          28.8467476,
          40.2280313
        ]
      },
      "properties": {
        "id": 12767981801,
        "osm_type": "node",
        "name": "LeVor Hotel",
        "tourism": "hotel",
        "website": "https://www.levorhotel.com/en/"
      }
    },
    {
      "type": "Feature",
      "geometry": {
        "type": "Point",
        "coordinates": [
          28.6783047,
          40.1644066
        ]
      },
      "properties": {
        "id": 12830197501,
        "osm_type": "node",
        "name": "Faik Bey Konağı",
        "tourism": "hotel"
      }
    },
    {
      "type": "Feature",
      "geometry": {
        "type": "Point",
        "coordinates": [
          28.6304204,
          40.3639022
        ]
      },
      "properties": {
        "id": 12890433725,
        "osm_type": "node",
        "name": "Exerce sahil otel",
        "tourism": "hotel"
      }
    },
    {
      "type": "Feature",
      "geometry": {
        "type": "Point",
        "coordinates": [
          29.3582962,
          40.4156648
        ]
      },
      "properties": {
        "id": 12964880130,
        "osm_type": "node",
        "name": "Gölyaka Stone Garden Otel",
        "tourism": "hotel",
        "phone": "0546 716 5616",
        "website": "https://www.instagram.com/golyakastonegarden/"
      }
    },
    {
      "type": "Feature",
      "geometry": {
        "type": "Point",
        "coordinates": [
          28.9930849,
          40.3583509
        ]
      },
      "properties": {
        "id": 13153603138,
        "osm_type": "node",
        "tourism": "caravan_site"
      }
    },
    {
      "type": "Feature",
      "geometry": {
        "type": "Point",
        "coordinates": [
          29.1563493,
          40.430166
        ]
      },
      "properties": {
        "id": 13206843971,
        "osm_type": "node",
        "name": "Olea Suites Otel",
        "tourism": "hotel",
        "website": "https://olea-suites-gemlik.rezervasyonal.com/"
      }
    },
    {
      "type": "Feature",
      "geometry": {
        "type": "Point",
        "coordinates": [
          28.6789375,
          40.3686059
        ]
      },
      "properties": {
        "id": 13227864878,
        "osm_type": "node",
        "name": "Huzur pansiyon ve çay bahçesi",
        "tourism": "guest_house"
      }
    },
    {
      "type": "Feature",
      "geometry": {
        "type": "Point",
        "coordinates": [
          28.3583898,
          40.2156266
        ]
      },
      "properties": {
        "id": 13227930645,
        "osm_type": "node",
        "name": "Coşkun Hotel",
        "tourism": "hotel",
        "website": "https://www.coskunhotel.net"
      }
    },
    {
      "type": "Feature",
      "geometry": {
        "type": "Point",
        "coordinates": [
          29.7190784,
          40.4294068
        ]
      },
      "properties": {
        "id": 13336545537,
        "osm_type": "node",
        "name": "Aydın Hotel",
        "tourism": "hotel"
      }
    },
    {
      "type": "Feature",
      "geometry": {
        "type": "Point",
        "coordinates": [
          29.723028,
          40.429007
        ]
      },
      "properties": {
        "id": 13688445390,
        "osm_type": "node",
        "name": "Kaynarca otel",
        "tourism": "hotel",
        "phone": "+905301301753"
      }
    },
    {
      "type": "Feature",
      "geometry": {
        "type": "Point",
        "coordinates": [
          29.8307682,
          40.5353446
        ]
      },
      "properties": {
        "id": 13731655644,
        "osm_type": "node",
        "name": "Sizmari Dağ Evleri",
        "tourism": "hotel"
      }
    },
    {
      "type": "Feature",
      "geometry": {
        "type": "Point",
        "coordinates": [
          29.836478,
          40.5385062
        ]
      },
      "properties": {
        "id": 13731684341,
        "osm_type": "node",
        "name": "Candarlı Çiftliği",
        "tourism": "hotel"
      }
    },
    {
      "type": "Feature",
      "geometry": {
        "type": "Point",
        "coordinates": [
          29.8407694,
          40.5446573
        ]
      },
      "properties": {
        "id": 13731696637,
        "osm_type": "node",
        "name": "Cirit Kamping",
        "tourism": "camp_site"
      }
    },
    {
      "type": "Feature",
      "geometry": {
        "type": "Point",
        "coordinates": [
          28.8804126,
          40.2031064
        ]
      },
      "properties": {
        "id": 13735954401,
        "osm_type": "node",
        "name": "Pagus Karavan Park",
        "tourism": "caravan_site"
      }
    },
    {
      "type": "Feature",
      "geometry": {
        "type": "Point",
        "coordinates": [
          28.8909385,
          40.3726659
        ]
      },
      "properties": {
        "id": 170584544,
        "osm_type": "way",
        "name": "Montania Special Class Hotel",
        "tourism": "hotel",
        "website": "https://www.montania.com.tr/"
      }
    },
    {
      "type": "Feature",
      "geometry": {
        "type": "Point",
        "coordinates": [
          29.0669454,
          40.2329732
        ]
      },
      "properties": {
        "id": 260279306,
        "osm_type": "way",
        "name": "Hotel ibis Bursa",
        "tourism": "hotel"
      }
    },
    {
      "type": "Feature",
      "geometry": {
        "type": "Point",
        "coordinates": [
          29.0576365,
          40.1979865
        ]
      },
      "properties": {
        "id": 292735689,
        "osm_type": "way",
        "name": "Almira Hotel",
        "tourism": "hotel",
        "phone": "+90 224 2502020",
        "website": "https://www.almira.com.tr"
      }
    },
    {
      "type": "Feature",
      "geometry": {
        "type": "Point",
        "coordinates": [
          28.8884681,
          40.2186447
        ]
      },
      "properties": {
        "id": 303618158,
        "osm_type": "way",
        "name": "Bursa - Nilüfer Hatun Kız Öğrenci Yurdu",
        "tourism": "guest_house",
        "phone": "+90 224 413 67 07"
      }
    },
    {
      "type": "Feature",
      "geometry": {
        "type": "Point",
        "coordinates": [
          28.8917326,
          40.2174525
        ]
      },
      "properties": {
        "id": 303620130,
        "osm_type": "way",
        "name": "Ertuğrulgazi Erkek Öğrenci Yurdu",
        "tourism": "guest_house",
        "phone": "+90 224 413 85 00",
        "website": "https://www.ertugrulgaziogrenciyurdu.com/"
      }
    },
    {
      "type": "Feature",
      "geometry": {
        "type": "Point",
        "coordinates": [
          28.9991651,
          40.2074214
        ]
      },
      "properties": {
        "id": 306299181,
        "osm_type": "way",
        "name": "Sheraton",
        "tourism": "hotel"
      }
    },
    {
      "type": "Feature",
      "geometry": {
        "type": "Point",
        "coordinates": [
          29.1323913,
          40.1045774
        ]
      },
      "properties": {
        "id": 339694859,
        "osm_type": "way",
        "name": "Beceren Hotel",
        "tourism": "hotel",
        "phone": "+90 224 285 2111",
        "website": "https://www.beceren.com.tr/"
      }
    },
    {
      "type": "Feature",
      "geometry": {
        "type": "Point",
        "coordinates": [
          29.1747968,
          40.085916
        ]
      },
      "properties": {
        "id": 369748352,
        "osm_type": "way",
        "name": "Uludağ Dağ evi",
        "tourism": "alpine_hut"
      }
    },
    {
      "type": "Feature",
      "geometry": {
        "type": "Point",
        "coordinates": [
          28.3590838,
          40.2156364
        ]
      },
      "properties": {
        "id": 379349268,
        "osm_type": "way",
        "name": "Hotel Toru",
        "tourism": "hotel"
      }
    },
    {
      "type": "Feature",
      "geometry": {
        "type": "Point",
        "coordinates": [
          29.0616201,
          40.2283384
        ]
      },
      "properties": {
        "id": 383597436,
        "osm_type": "way",
        "name": "Hampton by Hilton Bursa",
        "tourism": "hotel",
        "phone": "+90 224 400 0404",
        "website": "https://www.hilton.com/en/hotels/btzhxhx-hampton-bursa/"
      }
    },
    {
      "type": "Feature",
      "geometry": {
        "type": "Point",
        "coordinates": [
          29.06166,
          40.2278807
        ]
      },
      "properties": {
        "id": 383597439,
        "osm_type": "way",
        "name": "Hilton Bursa Convention Center and Spa",
        "tourism": "hotel",
        "phone": "+90 224 500 0505",
        "website": "https://www.hilton.com/en/hotels/btzhihi-hilton-bursa-convention-center-and-spa/"
      }
    },
    {
      "type": "Feature",
      "geometry": {
        "type": "Point",
        "coordinates": [
          29.1302223,
          40.4486577
        ]
      },
      "properties": {
        "id": 393247753,
        "osm_type": "way",
        "tourism": "hotel"
      }
    },
    {
      "type": "Feature",
      "geometry": {
        "type": "Point",
        "coordinates": [
          28.3549486,
          40.1865863
        ]
      },
      "properties": {
        "id": 436873717,
        "osm_type": "way",
        "name": "Ramada Otel",
        "tourism": "hotel"
      }
    },
    {
      "type": "Feature",
      "geometry": {
        "type": "Point",
        "coordinates": [
          29.0609676,
          40.2570477
        ]
      },
      "properties": {
        "id": 444558679,
        "osm_type": "way",
        "name": "Baia Hotel",
        "tourism": "hotel"
      }
    },
    {
      "type": "Feature",
      "geometry": {
        "type": "Point",
        "coordinates": [
          29.1268564,
          40.1837667
        ]
      },
      "properties": {
        "id": 461154362,
        "osm_type": "way",
        "name": "Yeşil Yıldırım Hotel",
        "tourism": "hotel"
      }
    },
    {
      "type": "Feature",
      "geometry": {
        "type": "Point",
        "coordinates": [
          29.0225021,
          40.2025026
        ]
      },
      "properties": {
        "id": 528746826,
        "osm_type": "way",
        "name": "Hotel Anatolia",
        "tourism": "hotel"
      }
    },
    {
      "type": "Feature",
      "geometry": {
        "type": "Point",
        "coordinates": [
          28.9799795,
          40.1977355
        ]
      },
      "properties": {
        "id": 530009749,
        "osm_type": "way",
        "name": "İTÜ Evi",
        "tourism": "hotel"
      }
    },
    {
      "type": "Feature",
      "geometry": {
        "type": "Point",
        "coordinates": [
          29.0288004,
          40.2038125
        ]
      },
      "properties": {
        "id": 534143666,
        "osm_type": "way",
        "name": "VIP Apart Hotel",
        "tourism": "hotel"
      }
    },
    {
      "type": "Feature",
      "geometry": {
        "type": "Point",
        "coordinates": [
          29.0364257,
          40.2003337
        ]
      },
      "properties": {
        "id": 534143777,
        "osm_type": "way",
        "name": "Divan Hotel",
        "tourism": "hotel",
        "contact:phone": "+90 224 265 1000",
        "contact:website": "https://www.divan.com.tr/hotel/divan-bursa-hotel"
      }
    },
    {
      "type": "Feature",
      "geometry": {
        "type": "Point",
        "coordinates": [
          29.0250857,
          40.2034756
        ]
      },
      "properties": {
        "id": 534271452,
        "osm_type": "way",
        "name": "Ramada by Wyndham Bursa Çekirge Thermal & Spa",
        "tourism": "hotel",
        "phone": "+90 224 334 12 66",
        "website": "https://www.ramadabursathermal.com/"
      }
    },
    {
      "type": "Feature",
      "geometry": {
        "type": "Point",
        "coordinates": [
          29.3551904,
          40.5022668
        ]
      },
      "properties": {
        "id": 593697864,
        "osm_type": "way",
        "name": "Otel Villa Familia",
        "tourism": "hotel",
        "phone": "+90 224 573 81 39 - 40",
        "website": "https://www.otelfamilia.com/"
      }
    },
    {
      "type": "Feature",
      "geometry": {
        "type": "Point",
        "coordinates": [
          29.3116405,
          40.4912248
        ]
      },
      "properties": {
        "id": 593711445,
        "osm_type": "way",
        "name": "Hotel Familia",
        "tourism": "hotel",
        "website": "https://www.otelfamilia.com/"
      }
    },
    {
      "type": "Feature",
      "geometry": {
        "type": "Point",
        "coordinates": [
          29.1457685,
          40.1092604
        ]
      },
      "properties": {
        "id": 673635883,
        "osm_type": "way",
        "name": "Villa Karinna",
        "tourism": "chalet"
      }
    },
    {
      "type": "Feature",
      "geometry": {
        "type": "Point",
        "coordinates": [
          29.4774687,
          40.4977807
        ]
      },
      "properties": {
        "id": 699107382,
        "osm_type": "way",
        "name": "Ilıca Anatolia Pansiyon - Restoran",
        "tourism": "guest_house"
      }
    },
    {
      "type": "Feature",
      "geometry": {
        "type": "Point",
        "coordinates": [
          29.4776528,
          40.4977948
        ]
      },
      "properties": {
        "id": 699107725,
        "osm_type": "way",
        "tourism": "guest_house"
      }
    },
    {
      "type": "Feature",
      "geometry": {
        "type": "Point",
        "coordinates": [
          29.4777566,
          40.4977739
        ]
      },
      "properties": {
        "id": 699107726,
        "osm_type": "way",
        "tourism": "guest_house"
      }
    },
    {
      "type": "Feature",
      "geometry": {
        "type": "Point",
        "coordinates": [
          29.4779834,
          40.4977618
        ]
      },
      "properties": {
        "id": 699107727,
        "osm_type": "way",
        "tourism": "guest_house"
      }
    },
    {
      "type": "Feature",
      "geometry": {
        "type": "Point",
        "coordinates": [
          29.4781011,
          40.4977539
        ]
      },
      "properties": {
        "id": 699107728,
        "osm_type": "way",
        "tourism": "camp_site"
      }
    },
    {
      "type": "Feature",
      "geometry": {
        "type": "Point",
        "coordinates": [
          29.7059808,
          40.4125961
        ]
      },
      "properties": {
        "id": 699503051,
        "osm_type": "way",
        "name": "Iznik Karpi Apart Pansiyon",
        "tourism": "guest_house",
        "phone": "+90 224 7580050"
      }
    },
    {
      "type": "Feature",
      "geometry": {
        "type": "Point",
        "coordinates": [
          29.1716992,
          40.2051139
        ]
      },
      "properties": {
        "id": 723144532,
        "osm_type": "way",
        "name": "Yıldırım Belediyesi Demetevler Mahalle Konağı",
        "tourism": "apartment"
      }
    },
    {
      "type": "Feature",
      "geometry": {
        "type": "Point",
        "coordinates": [
          28.8832637,
          39.774908
        ]
      },
      "properties": {
        "id": 742809111,
        "osm_type": "way",
        "name": "Kız Pansiyonu",
        "tourism": "hostel"
      }
    },
    {
      "type": "Feature",
      "geometry": {
        "type": "Point",
        "coordinates": [
          29.5075674,
          40.0810886
        ]
      },
      "properties": {
        "id": 749067391,
        "osm_type": "way",
        "name": "Hotel Sokullu",
        "tourism": "hotel",
        "phone": "0224 715 13 52"
      }
    },
    {
      "type": "Feature",
      "geometry": {
        "type": "Point",
        "coordinates": [
          29.5048573,
          40.0737405
        ]
      },
      "properties": {
        "id": 751349889,
        "osm_type": "way",
        "name": "İnegöl Öğretmenevi",
        "tourism": "guest_house",
        "phone": "0224 711 28 00"
      }
    },
    {
      "type": "Feature",
      "geometry": {
        "type": "Point",
        "coordinates": [
          29.5094026,
          40.0756728
        ]
      },
      "properties": {
        "id": 751519940,
        "osm_type": "way",
        "name": "Royal Hotel",
        "tourism": "hotel",
        "phone": "444 6 613"
      }
    },
    {
      "type": "Feature",
      "geometry": {
        "type": "Point",
        "coordinates": [
          28.987392,
          39.9014399
        ]
      },
      "properties": {
        "id": 885991080,
        "osm_type": "way",
        "name": "Orhaneli Belediyesi Oteli",
        "tourism": "hotel"
      }
    },
    {
      "type": "Feature",
      "geometry": {
        "type": "Point",
        "coordinates": [
          28.9915115,
          40.2065666
        ]
      },
      "properties": {
        "id": 1008045968,
        "osm_type": "way",
        "name": "Gold Majesty",
        "tourism": "hotel"
      }
    },
    {
      "type": "Feature",
      "geometry": {
        "type": "Point",
        "coordinates": [
          28.8461557,
          40.2236255
        ]
      },
      "properties": {
        "id": 1060089098,
        "osm_type": "way",
        "name": "Kavala",
        "tourism": "hotel"
      }
    },
    {
      "type": "Feature",
      "geometry": {
        "type": "Point",
        "coordinates": [
          28.8430616,
          40.2260598
        ]
      },
      "properties": {
        "id": 1065671914,
        "osm_type": "way",
        "name": "Oruç Otel Spa",
        "tourism": "hotel"
      }
    },
    {
      "type": "Feature",
      "geometry": {
        "type": "Point",
        "coordinates": [
          28.8438746,
          40.2246737
        ]
      },
      "properties": {
        "id": 1065671929,
        "osm_type": "way",
        "name": "Leo Suites",
        "tourism": "hotel"
      }
    },
    {
      "type": "Feature",
      "geometry": {
        "type": "Point",
        "coordinates": [
          28.9488546,
          40.2118583
        ]
      },
      "properties": {
        "id": 1156561648,
        "osm_type": "way",
        "name": "Adranos Hotel",
        "tourism": "hotel"
      }
    },
    {
      "type": "Feature",
      "geometry": {
        "type": "Point",
        "coordinates": [
          29.0464865,
          40.2553147
        ]
      },
      "properties": {
        "id": 1159903086,
        "osm_type": "way",
        "tourism": "hotel"
      }
    },
    {
      "type": "Feature",
      "geometry": {
        "type": "Point",
        "coordinates": [
          29.074216,
          40.19224
        ]
      },
      "properties": {
        "id": 1167326020,
        "osm_type": "way",
        "name": "Prusias Otel",
        "tourism": "hotel"
      }
    },
    {
      "type": "Feature",
      "geometry": {
        "type": "Point",
        "coordinates": [
          29.6186529,
          40.3880385
        ]
      },
      "properties": {
        "id": 1185980680,
        "osm_type": "way",
        "name": "De La Terrasse Pansiyon İznik",
        "tourism": "hostel",
        "phone": "+90 532 247 4805",
        "website": "https://delaterrasseiznik.com/"
      }
    },
    {
      "type": "Feature",
      "geometry": {
        "type": "Point",
        "coordinates": [
          29.1292845,
          40.1073502
        ]
      },
      "properties": {
        "id": 1212187142,
        "osm_type": "way",
        "name": "Bursa İl Gıda Tarım Ve Hayvancılık Müdürlüğü Uludağ Eğitim Ve Dinlenme Tesisi",
        "tourism": "guest_house"
      }
    },
    {
      "type": "Feature",
      "geometry": {
        "type": "Point",
        "coordinates": [
          28.1983886,
          40.2592667
        ]
      },
      "properties": {
        "id": 1217802014,
        "osm_type": "way",
        "tourism": "hostel"
      }
    },
    {
      "type": "Feature",
      "geometry": {
        "type": "Point",
        "coordinates": [
          28.1978076,
          40.2598611
        ]
      },
      "properties": {
        "id": 1217802016,
        "osm_type": "way",
        "tourism": "hostel"
      }
    },
    {
      "type": "Feature",
      "geometry": {
        "type": "Point",
        "coordinates": [
          28.1979836,
          40.2595937
        ]
      },
      "properties": {
        "id": 1217802020,
        "osm_type": "way",
        "tourism": "hostel"
      }
    },
    {
      "type": "Feature",
      "geometry": {
        "type": "Point",
        "coordinates": [
          28.384139,
          40.3951661
        ]
      },
      "properties": {
        "id": 1228524948,
        "osm_type": "way",
        "tourism": "camp_site",
        "tents": "yes"
      }
    },
    {
      "type": "Feature",
      "geometry": {
        "type": "Point",
        "coordinates": [
          28.9934038,
          40.1873748
        ]
      },
      "properties": {
        "id": 1265517861,
        "osm_type": "way",
        "name": "Bursa Extrem park",
        "tourism": "alpine_hut"
      }
    },
    {
      "type": "Feature",
      "geometry": {
        "type": "Point",
        "coordinates": [
          29.0600669,
          40.1873537
        ]
      },
      "properties": {
        "id": 1266760621,
        "osm_type": "way",
        "name": "Bursa Öğretmenevi",
        "tourism": "hotel",
        "phone": "+90 224 224 2162",
        "website": "https://www.bursaogretmenevi.com.tr/"
      }
    },
    {
      "type": "Feature",
      "geometry": {
        "type": "Point",
        "coordinates": [
          29.0604546,
          40.1890257
        ]
      },
      "properties": {
        "id": 1271698338,
        "osm_type": "way",
        "name": "Kervansaray Bursa City Hotel",
        "tourism": "hotel",
        "phone": "+90 224 220 00 00",
        "website": "https://www.kervansaraybursacity.com/"
      }
    },
    {
      "type": "Feature",
      "geometry": {
        "type": "Point",
        "coordinates": [
          29.0573528,
          40.1857284
        ]
      },
      "properties": {
        "id": 1271781052,
        "osm_type": "way",
        "name": "Safran",
        "tourism": "hotel",
        "phone": "+90 224 224 72 16",
        "website": "https://www.safranotel.com/"
      }
    },
    {
      "type": "Feature",
      "geometry": {
        "type": "Point",
        "coordinates": [
          29.6527327,
          40.2746932
        ]
      },
      "properties": {
        "id": 1290639443,
        "osm_type": "way",
        "name": "Pansiyon",
        "tourism": "hostel"
      }
    },
    {
      "type": "Feature",
      "geometry": {
        "type": "Point",
        "coordinates": [
          29.7072689,
          40.416437
        ]
      },
      "properties": {
        "id": 1304621000,
        "osm_type": "way",
        "name": "Zeytin Bahçesi Hotel",
        "tourism": "hotel",
        "website": "https://www.zeytinbahcesihotel.com.tr/"
      }
    },
    {
      "type": "Feature",
      "geometry": {
        "type": "Point",
        "coordinates": [
          29.1408813,
          40.1188064
        ]
      },
      "properties": {
        "id": 1338615003,
        "osm_type": "way",
        "name": "Karinna Otel Orman Köşkleri",
        "tourism": "hotel"
      }
    },
    {
      "type": "Feature",
      "geometry": {
        "type": "Point",
        "coordinates": [
          28.3953382,
          40.167691
        ]
      },
      "properties": {
        "id": 1361164280,
        "osm_type": "way",
        "tourism": "guest_house"
      }
    },
    {
      "type": "Feature",
      "geometry": {
        "type": "Point",
        "coordinates": [
          29.1563541,
          40.4230105
        ]
      },
      "properties": {
        "id": 1378074905,
        "osm_type": "way",
        "tourism": "hotel"
      }
    },
    {
      "type": "Feature",
      "geometry": {
        "type": "Point",
        "coordinates": [
          29.1598403,
          40.4233944
        ]
      },
      "properties": {
        "id": 1378074916,
        "osm_type": "way",
        "name": "Gemlik Termal Tesisi",
        "tourism": "hotel"
      }
    },
    {
      "type": "Feature",
      "geometry": {
        "type": "Point",
        "coordinates": [
          28.35118,
          40.0310102
        ]
      },
      "properties": {
        "id": 1426168686,
        "osm_type": "way",
        "tourism": "apartment"
      }
    },
    {
      "type": "Feature",
      "geometry": {
        "type": "Point",
        "coordinates": [
          28.9913532,
          40.3576119
        ]
      },
      "properties": {
        "id": 1430976300,
        "osm_type": "way",
        "name": "Sırakayalar Kamp & Karavan",
        "tourism": "camp_site",
        "website": "https://www.instagram.com/sirakayalarkursunlu/"
      }
    },
    {
      "type": "Feature",
      "geometry": {
        "type": "Point",
        "coordinates": [
          29.1317532,
          40.1044657
        ]
      },
      "properties": {
        "id": 1461273536,
        "osm_type": "way",
        "name": "Kervansaray Uludağ Ski Center",
        "tourism": "hotel"
      }
    },
    {
      "type": "Feature",
      "geometry": {
        "type": "Point",
        "coordinates": [
          29.131192,
          40.1053719
        ]
      },
      "properties": {
        "id": 1461273537,
        "osm_type": "way",
        "name": "Fahri Otel",
        "tourism": "hotel"
      }
    },
    {
      "type": "Feature",
      "geometry": {
        "type": "Point",
        "coordinates": [
          29.1352548,
          40.1064054
        ]
      },
      "properties": {
        "id": 1461273552,
        "osm_type": "way",
        "name": "Uludağ Polisevi",
        "tourism": "guest_house"
      }
    },
    {
      "type": "Feature",
      "geometry": {
        "type": "Point",
        "coordinates": [
          29.13562,
          40.1063468
        ]
      },
      "properties": {
        "id": 1461273553,
        "osm_type": "way",
        "tourism": "guest_house"
      }
    },
    {
      "type": "Feature",
      "geometry": {
        "type": "Point",
        "coordinates": [
          29.1335017,
          40.1039612
        ]
      },
      "properties": {
        "id": 1461273562,
        "osm_type": "way",
        "name": "Erta Soyak Otel",
        "tourism": "hotel"
      }
    },
    {
      "type": "Feature",
      "geometry": {
        "type": "Point",
        "coordinates": [
          29.1332785,
          40.1034432
        ]
      },
      "properties": {
        "id": 1461273563,
        "osm_type": "way",
        "name": "Parnassius Uludağ Hotel",
        "tourism": "hotel"
      }
    },
    {
      "type": "Feature",
      "geometry": {
        "type": "Point",
        "coordinates": [
          29.1329634,
          40.103007
        ]
      },
      "properties": {
        "id": 1461273566,
        "osm_type": "way",
        "name": "Genç Yazıcı Hotel Uludağ",
        "tourism": "hotel"
      }
    },
    {
      "type": "Feature",
      "geometry": {
        "type": "Point",
        "coordinates": [
          29.132312,
          40.1029712
        ]
      },
      "properties": {
        "id": 1462046981,
        "osm_type": "way",
        "tourism": "hotel"
      }
    },
    {
      "type": "Feature",
      "geometry": {
        "type": "Point",
        "coordinates": [
          29.1328314,
          40.1026326
        ]
      },
      "properties": {
        "id": 1462046982,
        "osm_type": "way",
        "tourism": "hotel"
      }
    },
    {
      "type": "Feature",
      "geometry": {
        "type": "Point",
        "coordinates": [
          29.1296362,
          40.1070903
        ]
      },
      "properties": {
        "id": 1462046984,
        "osm_type": "way",
        "name": "Uludağ Jandarma Kış Eğitim Merkez Komutanlığı",
        "tourism": "guest_house"
      }
    },
    {
      "type": "Feature",
      "geometry": {
        "type": "Point",
        "coordinates": [
          29.1320308,
          40.1051834
        ]
      },
      "properties": {
        "id": 1462047002,
        "osm_type": "way",
        "tourism": "hotel"
      }
    },
    {
      "type": "Feature",
      "geometry": {
        "type": "Point",
        "coordinates": [
          29.1334079,
          40.1046646
        ]
      },
      "properties": {
        "id": 1462047006,
        "osm_type": "way",
        "name": "Grand Yazıcı Uludağ",
        "tourism": "hotel"
      }
    },
    {
      "type": "Feature",
      "geometry": {
        "type": "Point",
        "coordinates": [
          29.1339738,
          40.1049618
        ]
      },
      "properties": {
        "id": 1462047014,
        "osm_type": "way",
        "name": "Tedaş Misafirevi",
        "tourism": "guest_house"
      }
    },
    {
      "type": "Feature",
      "geometry": {
        "type": "Point",
        "coordinates": [
          29.1319761,
          40.1017869
        ]
      },
      "properties": {
        "id": 1462275743,
        "osm_type": "way",
        "name": "Uludag Kayak Egitim ve Kamp Merkezi",
        "tourism": "guest_house",
        "phone": "+902242852161"
      }
    },
    {
      "type": "Feature",
      "geometry": {
        "type": "Point",
        "coordinates": [
          29.1309665,
          40.1020335
        ]
      },
      "properties": {
        "id": 1462275745,
        "osm_type": "way",
        "name": "Oksijen Zone Hotels Uludağ",
        "tourism": "hotel"
      }
    },
    {
      "type": "Feature",
      "geometry": {
        "type": "Point",
        "coordinates": [
          29.13045,
          40.102606
        ]
      },
      "properties": {
        "id": 1462275751,
        "osm_type": "way",
        "name": "Trendlife Hotels",
        "tourism": "hotel",
        "phone": "+904443712",
        "website": "https://www.trendlifehotels.com/"
      }
    },
    {
      "type": "Feature",
      "geometry": {
        "type": "Point",
        "coordinates": [
          29.1301054,
          40.1019618
        ]
      },
      "properties": {
        "id": 1462275757,
        "osm_type": "way",
        "name": "Oksijen Zone Hotels",
        "tourism": "hotel"
      }
    },
    {
      "type": "Feature",
      "geometry": {
        "type": "Point",
        "coordinates": [
          29.1294655,
          40.102507
        ]
      },
      "properties": {
        "id": 1462275760,
        "osm_type": "way",
        "name": "Ulukardeşler Otel Uludağ",
        "tourism": "hotel"
      }
    },
    {
      "type": "Feature",
      "geometry": {
        "type": "Point",
        "coordinates": [
          29.1590342,
          40.4234142
        ]
      },
      "properties": {
        "id": 1500731083,
        "osm_type": "way",
        "tourism": "hotel"
      }
    },
    {
      "type": "Feature",
      "geometry": {
        "type": "Point",
        "coordinates": [
          29.0916347,
          40.1164431
        ]
      },
      "properties": {
        "id": 4550778,
        "osm_type": "relation",
        "name": "Kirazlı Otel",
        "tourism": "hotel"
      }
    }
  ]
}