{
  "type": "FeatureCollection",
  "features": [
    {
      "type": "Feature",
      "geometry": {
        "type": "Point",
        "coordinates": [
          22.0096387,
          44.0951204
        ]
      },
      "properties": {
        "id": 389946763,
        "osm_type": "node",
        "name": "Борско језеро",
        "tourism": "camp_site"
      }
    },
    {
      "type": "Feature",
      "geometry": {
        "type": "Point",
        "coordinates": [
          22.004954,
          44.0890294
        ]
      },
      "properties": {
        "id": 389946963,
        "osm_type": "node",
        "name": "Језеро",
        "tourism": "hotel",
        "website": "https://www.hoteljezero.rs/"
      }
    },
    {
      "type": "Feature",
      "geometry": {
        "type": "Point",
        "coordinates": [
          22.4572049,
          44.4845406
        ]
      },
      "properties": {
        "id": 827013217,
        "osm_type": "node",
        "name": "Камп „Мирочка вода”",
        "tourism": "camp_site",
        "phone": "+381 19 801290",
        "website": "https://www.camping.rs/en/c/campsite-mirocka-voda-serbia/"
      }
    },
    {
      "type": "Feature",
      "geometry": {
        "type": "Point",
        "coordinates": [
          22.1686517,
          44.4544768
        ]
      },
      "properties": {
        "id": 1361045690,
        "osm_type": "node",
        "tourism": "hotel"
      }
    },
    {
      "type": "Feature",
      "geometry": {
        "type": "Point",
        "coordinates": [
          22.0998949,
          44.4761203
        ]
      },
      "properties": {
        "id": 1361045855,
        "osm_type": "node",
        "tourism": "hotel"
      }
    },
    {
      "type": "Feature",
      "geometry": {
        "type": "Point",
        "coordinates": [
          22.1489867,
          44.4633875
        ]
      },
      "properties": {
        "id": 1411111160,
        "osm_type": "node",
        "name": "Lepenski vir",
        "tourism": "hotel"
      }
    },
    {
      "type": "Feature",
      "geometry": {
        "type": "Point",
        "coordinates": [
          22.153541,
          44.4660309
        ]
      },
      "properties": {
        "id": 1853016885,
        "osm_type": "node",
        "tourism": "guest_house"
      }
    },
    {
      "type": "Feature",
      "geometry": {
        "type": "Point",
        "coordinates": [
          22.403187,
          44.6804222
        ]
      },
      "properties": {
        "id": 2493609315,
        "osm_type": "node",
        "tourism": "camp_site"
      }
    },
    {
      "type": "Feature",
      "geometry": {
        "type": "Point",
        "coordinates": [
          22.1070689,
          44.4723883
        ]
      },
      "properties": {
        "id": 4173119532,
        "osm_type": "node",
        "name": "Капетан Мишин Брег",
        "tourism": "guest_house"
      }
    },
    {
      "type": "Feature",
      "geometry": {
        "type": "Point",
        "coordinates": [
          22.1544401,
          44.466609
        ]
      },
      "properties": {
        "id": 4185449289,
        "osm_type": "node",
        "name": "Jankovic",
        "tourism": "hotel"
      }
    },
    {
      "type": "Feature",
      "geometry": {
        "type": "Point",
        "coordinates": [
          22.5363916,
          44.3247392
        ]
      },
      "properties": {
        "id": 4966096821,
        "osm_type": "node",
        "name": "St. Mokranjac",
        "tourism": "camp_site",
        "phone": "+381 64 2020180",
        "website": "https://stmokranjac.com/"
      }
    },
    {
      "type": "Feature",
      "geometry": {
        "type": "Point",
        "coordinates": [
          22.4111508,
          44.6842997
        ]
      },
      "properties": {
        "id": 4966488522,
        "osm_type": "node",
        "tourism": "guest_house"
      }
    },
    {
      "type": "Feature",
      "geometry": {
        "type": "Point",
        "coordinates": [
          22.5600843,
          44.125451
        ]
      },
      "properties": {
        "id": 5347187723,
        "osm_type": "node",
        "tourism": "guest_house",
        "website": "http://www.pimnicerogljevo-jovanovic.com"
      }
    },
    {
      "type": "Feature",
      "geometry": {
        "type": "Point",
        "coordinates": [
          22.5325203,
          44.2280468
        ]
      },
      "properties": {
        "id": 5554848936,
        "osm_type": "node",
        "name": "Guesthouse Stanisavljevic",
        "tourism": "guest_house",
        "tents": "yes",
        "phone": "+381638266685"
      }
    },
    {
      "type": "Feature",
      "geometry": {
        "type": "Point",
        "coordinates": [
          22.1498883,
          44.4651622
        ]
      },
      "properties": {
        "id": 5729037700,
        "osm_type": "node",
        "name": "Trajan",
        "tourism": "hostel"
      }
    },
    {
      "type": "Feature",
      "geometry": {
        "type": "Point",
        "coordinates": [
          22.545351,
          44.3185731
        ]
      },
      "properties": {
        "id": 5747020729,
        "osm_type": "node",
        "name": "Angelinin Konak",
        "tourism": "hotel",
        "phone": "+381 62 545441"
      }
    },
    {
      "type": "Feature",
      "geometry": {
        "type": "Point",
        "coordinates": [
          22.1526454,
          44.4664306
        ]
      },
      "properties": {
        "id": 6552141085,
        "osm_type": "node",
        "tourism": "hostel"
      }
    },
    {
      "type": "Feature",
      "geometry": {
        "type": "Point",
        "coordinates": [
          22.6150734,
          44.6120372
        ]
      },
      "properties": {
        "id": 6552153285,
        "osm_type": "node",
        "tourism": "apartment"
      }
    },
    {
      "type": "Feature",
      "geometry": {
        "type": "Point",
        "coordinates": [
          22.6089506,
          44.6101762
        ]
      },
      "properties": {
        "id": 6552163323,
        "osm_type": "node",
        "name": "Apartmani Genčić",
        "tourism": "apartment"
      }
    },
    {
      "type": "Feature",
      "geometry": {
        "type": "Point",
        "coordinates": [
          22.5392196,
          44.6544045
        ]
      },
      "properties": {
        "id": 6715922501,
        "osm_type": "node",
        "name": "Karatas Sports Camp",
        "tourism": "hostel"
      }
    },
    {
      "type": "Feature",
      "geometry": {
        "type": "Point",
        "coordinates": [
          22.6059659,
          44.6059617
        ]
      },
      "properties": {
        "id": 7033873927,
        "osm_type": "node",
        "name": "Apartmani Šipi",
        "tourism": "guest_house",
        "phone": "+381 (0)63-8105594",
        "website": "http://apartmani-kladovo.com"
      }
    },
    {
      "type": "Feature",
      "geometry": {
        "type": "Point",
        "coordinates": [
          22.1380144,
          44.4629984
        ]
      },
      "properties": {
        "id": 7651636349,
        "osm_type": "node",
        "name": "Велић",
        "tourism": "guest_house"
      }
    },
    {
      "type": "Feature",
      "geometry": {
        "type": "Point",
        "coordinates": [
          22.109392,
          44.058272
        ]
      },
      "properties": {
        "id": 7713239228,
        "osm_type": "node",
        "name": "Radovanović",
        "tourism": "hostel"
      }
    },
    {
      "type": "Feature",
      "geometry": {
        "type": "Point",
        "coordinates": [
          21.9239057,
          44.0135399
        ]
      },
      "properties": {
        "id": 7783742885,
        "osm_type": "node",
        "name": "Kamp",
        "tourism": "camp_site"
      }
    },
    {
      "type": "Feature",
      "geometry": {
        "type": "Point",
        "coordinates": [
          21.9236746,
          44.0136622
        ]
      },
      "properties": {
        "id": 7783742985,
        "osm_type": "node",
        "name": "Etno domaćinstvo",
        "tourism": "motel"
      }
    },
    {
      "type": "Feature",
      "geometry": {
        "type": "Point",
        "coordinates": [
          22.002069,
          44.0906743
        ]
      },
      "properties": {
        "id": 7791816191,
        "osm_type": "node",
        "name": "Vertigo",
        "tourism": "hostel"
      }
    },
    {
      "type": "Feature",
      "geometry": {
        "type": "Point",
        "coordinates": [
          22.5415184,
          44.6458621
        ]
      },
      "properties": {
        "id": 8392090637,
        "osm_type": "node",
        "name": "Vila Žikica",
        "tourism": "guest_house"
      }
    },
    {
      "type": "Feature",
      "geometry": {
        "type": "Point",
        "coordinates": [
          22.1535865,
          44.4655774
        ]
      },
      "properties": {
        "id": 8392094308,
        "osm_type": "node",
        "name": "Odmor",
        "tourism": "apartment"
      }
    },
    {
      "type": "Feature",
      "geometry": {
        "type": "Point",
        "coordinates": [
          22.611419,
          44.6103396
        ]
      },
      "properties": {
        "id": 8392108206,
        "osm_type": "node",
        "name": "Mladenović",
        "tourism": "guest_house"
      }
    },
    {
      "type": "Feature",
      "geometry": {
        "type": "Point",
        "coordinates": [
          22.5722466,
          44.6292349
        ]
      },
      "properties": {
        "id": 8888658326,
        "osm_type": "node",
        "name": "Apartman Mima",
        "tourism": "apartment"
      }
    },
    {
      "type": "Feature",
      "geometry": {
        "type": "Point",
        "coordinates": [
          22.4940642,
          44.4031096
        ]
      },
      "properties": {
        "id": 9246341949,
        "osm_type": "node",
        "name": "Тихая полянка у дороги",
        "tourism": "camp_site"
      }
    },
    {
      "type": "Feature",
      "geometry": {
        "type": "Point",
        "coordinates": [
          22.6080463,
          44.6121901
        ]
      },
      "properties": {
        "id": 9772702117,
        "osm_type": "node",
        "tourism": "apartment"
      }
    },
    {
      "type": "Feature",
      "geometry": {
        "type": "Point",
        "coordinates": [
          22.10014,
          44.0637773
        ]
      },
      "properties": {
        "id": 9909944503,
        "osm_type": "node",
        "name": "Konačište Cristal",
        "tourism": "guest_house",
        "phone": "+381 30 456446"
      }
    },
    {
      "type": "Feature",
      "geometry": {
        "type": "Point",
        "coordinates": [
          22.6133099,
          44.6122308
        ]
      },
      "properties": {
        "id": 10066930600,
        "osm_type": "node",
        "name": "Adams's Apartment 3",
        "tourism": "apartment",
        "phone": "+381691126008"
      }
    },
    {
      "type": "Feature",
      "geometry": {
        "type": "Point",
        "coordinates": [
          22.4089672,
          44.6839951
        ]
      },
      "properties": {
        "id": 10944808131,
        "osm_type": "node",
        "name": "Nana Apartment",
        "tourism": "apartment"
      }
    },
    {
      "type": "Feature",
      "geometry": {
        "type": "Point",
        "coordinates": [
          22.3125981,
          44.6508079
        ]
      },
      "properties": {
        "id": 10944816002,
        "osm_type": "node",
        "name": "Vila Novakovic",
        "tourism": "apartment"
      }
    },
    {
      "type": "Feature",
      "geometry": {
        "type": "Point",
        "coordinates": [
          22.530498,
          44.2260768
        ]
      },
      "properties": {
        "id": 11449349935,
        "osm_type": "node",
        "name": "Beograd",
        "tourism": "hotel"
      }
    },
    {
      "type": "Feature",
      "geometry": {
        "type": "Point",
        "coordinates": [
          22.5320215,
          44.2297245
        ]
      },
      "properties": {
        "id": 11575459233,
        "osm_type": "node",
        "name": "Hostel 019",
        "tourism": "hostel"
      }
    },
    {
      "type": "Feature",
      "geometry": {
        "type": "Point",
        "coordinates": [
          22.1522898,
          44.466062
        ]
      },
      "properties": {
        "id": 12091389481,
        "osm_type": "node",
        "name": "Viking",
        "tourism": "guest_house"
      }
    },
    {
      "type": "Feature",
      "geometry": {
        "type": "Point",
        "coordinates": [
          22.5487902,
          44.3140169
        ]
      },
      "properties": {
        "id": 12971733698,
        "osm_type": "node",
        "tourism": "camp_site"
      }
    },
    {
      "type": "Feature",
      "geometry": {
        "type": "Point",
        "coordinates": [
          22.5696255,
          44.6318673
        ]
      },
      "properties": {
        "id": 13266558911,
        "osm_type": "node",
        "name": "Rankine Kolibe",
        "tourism": "camp_site",
        "phone": "+381611720940"
      }
    },
    {
      "type": "Feature",
      "geometry": {
        "type": "Point",
        "coordinates": [
          22.1238647,
          44.1727916
        ]
      },
      "properties": {
        "id": 34247323,
        "osm_type": "way",
        "name": "Планинарски дом Стол",
        "tourism": "alpine_hut"
      }
    },
    {
      "type": "Feature",
      "geometry": {
        "type": "Point",
        "coordinates": [
          22.0453617,
          44.0615824
        ]
      },
      "properties": {
        "id": 37213218,
        "osm_type": "way",
        "name": "Клуб Зиђин",
        "tourism": "hotel"
      }
    },
    {
      "type": "Feature",
      "geometry": {
        "type": "Point",
        "coordinates": [
          22.043166,
          44.0598718
        ]
      },
      "properties": {
        "id": 37213221,
        "osm_type": "way",
        "name": "Српска круна",
        "tourism": "motel",
        "phone": "+38130477079;+38130477078"
      }
    },
    {
      "type": "Feature",
      "geometry": {
        "type": "Point",
        "coordinates": [
          22.1055982,
          44.0568713
        ]
      },
      "properties": {
        "id": 60765952,
        "osm_type": "way",
        "name": "Албо",
        "tourism": "hotel",
        "phone": "+381 30 24 96 962",
        "website": "http://www.hotel-albo.rs/"
      }
    },
    {
      "type": "Feature",
      "geometry": {
        "type": "Point",
        "coordinates": [
          22.5296841,
          44.2306878
        ]
      },
      "properties": {
        "id": 70317335,
        "osm_type": "way",
        "name": "Hotel Inex Krajina",
        "tourism": "hotel",
        "phone": "+381 62 409019",
        "website": "https://hotelinexnegotin.com/"
      }
    },
    {
      "type": "Feature",
      "geometry": {
        "type": "Point",
        "coordinates": [
          22.0983911,
          44.0785635
        ]
      },
      "properties": {
        "id": 95508520,
        "osm_type": "way",
        "name": "Србија",
        "tourism": "hotel"
      }
    },
    {
      "type": "Feature",
      "geometry": {
        "type": "Point",
        "coordinates": [
          22.5262799,
          44.2358583
        ]
      },
      "properties": {
        "id": 129169285,
        "osm_type": "way",
        "name": "Vila DeLux",
        "tourism": "hotel"
      }
    },
    {
      "type": "Feature",
      "geometry": {
        "type": "Point",
        "coordinates": [
          22.5316816,
          44.2405001
        ]
      },
      "properties": {
        "id": 278571503,
        "osm_type": "way",
        "name": "Vila Kristina",
        "tourism": "hotel",
        "website": "http://www.vilakristina.rs/"
      }
    },
    {
      "type": "Feature",
      "geometry": {
        "type": "Point",
        "coordinates": [
          22.6138408,
          44.6126697
        ]
      },
      "properties": {
        "id": 278577539,
        "osm_type": "way",
        "name": "Ђердап",
        "tourism": "hotel",
        "website": "https://www.hoteldjerdap.com/"
      }
    },
    {
      "type": "Feature",
      "geometry": {
        "type": "Point",
        "coordinates": [
          22.616205,
          44.612533
        ]
      },
      "properties": {
        "id": 278577541,
        "osm_type": "way",
        "name": "Pleasure Point Bar",
        "tourism": "hotel",
        "website": "https://hotelkladovo.rs/"
      }
    },
    {
      "type": "Feature",
      "geometry": {
        "type": "Point",
        "coordinates": [
          22.1060951,
          44.4723307
        ]
      },
      "properties": {
        "id": 495728997,
        "osm_type": "way",
        "name": "Etno Complex Kapetan Mišin Breg",
        "tourism": "hotel"
      }
    },
    {
      "type": "Feature",
      "geometry": {
        "type": "Point",
        "coordinates": [
          22.2836783,
          44.6105598
        ]
      },
      "properties": {
        "id": 498878546,
        "osm_type": "way",
        "tourism": "alpine_hut"
      }
    },
    {
      "type": "Feature",
      "geometry": {
        "type": "Point",
        "coordinates": [
          21.9632482,
          44.0285723
        ]
      },
      "properties": {
        "id": 499973055,
        "osm_type": "way",
        "name": "Motel Zlotske Pećine",
        "tourism": "motel",
        "opening_hours": "Tu-Fr 14:00-22:00; Sa, Su 12:00-20:00",
        "phone": "063-7140548;060-7140548"
      }
    },
    {
      "type": "Feature",
      "geometry": {
        "type": "Point",
        "coordinates": [
          22.1486119,
          44.4633545
        ]
      },
      "properties": {
        "id": 507287155,
        "osm_type": "way",
        "name": "Lepenski vir",
        "tourism": "hotel"
      }
    },
    {
      "type": "Feature",
      "geometry": {
        "type": "Point",
        "coordinates": [
          22.0071657,
          44.0918582
        ]
      },
      "properties": {
        "id": 507958945,
        "osm_type": "way",
        "name": "Vertigo",
        "tourism": "hostel",
        "phone": "0648705208; 030-482500"
      }
    },
    {
      "type": "Feature",
      "geometry": {
        "type": "Point",
        "coordinates": [
          22.30717,
          44.304649
        ]
      },
      "properties": {
        "id": 736254326,
        "osm_type": "way",
        "name": "Salas Reka",
        "tourism": "guest_house",
        "phone": "+421 905 605 898",
        "website": "https://ralebiser.wixsite.com/salasreka"
      }
    },
    {
      "type": "Feature",
      "geometry": {
        "type": "Point",
        "coordinates": [
          22.5182578,
          44.2623631
        ]
      },
      "properties": {
        "id": 741687888,
        "osm_type": "way",
        "name": "Restaurant Jas",
        "tourism": "guest_house",
        "phone": "0381-631018774"
      }
    },
    {
      "type": "Feature",
      "geometry": {
        "type": "Point",
        "coordinates": [
          22.6062749,
          44.6052662
        ]
      },
      "properties": {
        "id": 752709364,
        "osm_type": "way",
        "name": "Apartment Vulsa",
        "tourism": "guest_house"
      }
    },
    {
      "type": "Feature",
      "geometry": {
        "type": "Point",
        "coordinates": [
          22.0427303,
          44.0597013
        ]
      },
      "properties": {
        "id": 822606055,
        "osm_type": "way",
        "tourism": "motel"
      }
    },
    {
      "type": "Feature",
      "geometry": {
        "type": "Point",
        "coordinates": [
          22.6216674,
          44.6060972
        ]
      },
      "properties": {
        "id": 1000865845,
        "osm_type": "way",
        "tourism": "apartment"
      }
    },
    {
      "type": "Feature",
      "geometry": {
        "type": "Point",
        "coordinates": [
          22.374575,
          44.3759725
        ]
      },
      "properties": {
        "id": 1073070174,
        "osm_type": "way",
        "name": "Pension Kerojevic",
        "tourism": "guest_house",
        "phone": "019-558157"
      }
    },
    {
      "type": "Feature",
      "geometry": {
        "type": "Point",
        "coordinates": [
          22.3423023,
          44.3825783
        ]
      },
      "properties": {
        "id": 1076365888,
        "osm_type": "way",
        "tourism": "camp_site"
      }
    },
    {
      "type": "Feature",
      "geometry": {
        "type": "Point",
        "coordinates": [
          22.5541759,
          44.0907037
        ]
      },
      "properties": {
        "id": 1077712181,
        "osm_type": "way",
        "tourism": "guest_house"
      }
    },
    {
      "type": "Feature",
      "geometry": {
        "type": "Point",
        "coordinates": [
          22.5546521,
          44.0907943
        ]
      },
      "properties": {
        "id": 1077712182,
        "osm_type": "way",
        "name": "Vila Milenovic",
        "tourism": "guest_house",
        "contact:phone": "064 39 81 604",
        "website": "https://www.rajackepivnice.com/"
      }
    },
    {
      "type": "Feature",
      "geometry": {
        "type": "Point",
        "coordinates": [
          22.1212335,
          44.1751426
        ]
      },
      "properties": {
        "id": 1080317747,
        "osm_type": "way",
        "name": "Етно кућа Илић",
        "tourism": "guest_house",
        "phone": "069-2212301",
        "contact:phone": "069-5151048"
      }
    },
    {
      "type": "Feature",
      "geometry": {
        "type": "Point",
        "coordinates": [
          22.1441617,
          44.4618853
        ]
      },
      "properties": {
        "id": 1082592682,
        "osm_type": "way",
        "name": "Гајановић",
        "tourism": "guest_house",
        "website": "https://www.booking.com/hotel/rs/gajanovic-rooms.sr.html"
      }
    },
    {
      "type": "Feature",
      "geometry": {
        "type": "Point",
        "coordinates": [
          22.1198586,
          43.9265925
        ]
      },
      "properties": {
        "id": 14419423,
        "osm_type": "relation",
        "name": "Camp Timok",
        "tourism": "guest_house",
        "website": "https://gemission.org/de/serving_opportunity/camp-timok-serbia/"
      }
    }
  ]
}