{
  "type": "FeatureCollection",
  "features": [
    {
      "type": "Feature",
      "geometry": {
        "type": "Point",
        "coordinates": [
          29.406999,
          38.6725189
        ]
      },
      "properties": {
        "id": 2881725958,
        "osm_type": "node",
        "name": "Gran Hotel",
        "tourism": "hotel"
      }
    },
    {
      "type": "Feature",
      "geometry": {
        "type": "Point",
        "coordinates": [
          29.4078497,
          38.6712611
        ]
      },
      "properties": {
        "id": 2881727399,
        "osm_type": "node",
        "name": "otel on arslan",
        "tourism": "hotel"
      }
    },
    {
      "type": "Feature",
      "geometry": {
        "type": "Point",
        "coordinates": [
          29.4082588,
          38.6787773
        ]
      },
      "properties": {
        "id": 4849565575,
        "osm_type": "node",
        "name": "Erciyes Otel",
        "tourism": "hotel"
      }
    },
    {
      "type": "Feature",
      "geometry": {
        "type": "Point",
        "coordinates": [
          29.3961519,
          38.6733215
        ]
      },
      "properties": {
        "id": 4853644807,
        "osm_type": "node",
        "name": "Özel Başak Kız Öğrenci Yurdu",
        "tourism": "hotel"
      }
    },
    {
      "type": "Feature",
      "geometry": {
        "type": "Point",
        "coordinates": [
          29.4012705,
          38.6749881
        ]
      },
      "properties": {
        "id": 4853683446,
        "osm_type": "node",
        "name": "Özel Güçlü Erkek Öğrenci Yurdu",
        "tourism": "hotel"
      }
    },
    {
      "type": "Feature",
      "geometry": {
        "type": "Point",
        "coordinates": [
          29.4010794,
          38.6748568
        ]
      },
      "properties": {
        "id": 4853683996,
        "osm_type": "node",
        "name": "Özel Arkadaş Kız Öğrenci Yurdu",
        "tourism": "hotel"
      }
    },
    {
      "type": "Feature",
      "geometry": {
        "type": "Point",
        "coordinates": [
          29.4061897,
          38.6628954
        ]
      },
      "properties": {
        "id": 4856214611,
        "osm_type": "node",
        "name": "Öz Vefa Kız Öğrenci Yurdu",
        "tourism": "hotel"
      }
    },
    {
      "type": "Feature",
      "geometry": {
        "type": "Point",
        "coordinates": [
          29.3000784,
          38.4138691
        ]
      },
      "properties": {
        "id": 5030128933,
        "osm_type": "node",
        "tourism": "camp_site"
      }
    },
    {
      "type": "Feature",
      "geometry": {
        "type": "Point",
        "coordinates": [
          29.3341539,
          38.6563347
        ]
      },
      "properties": {
        "id": 5823740954,
        "osm_type": "node",
        "name": "Yeşil Karaağaç Kamp Alanı",
        "tourism": "camp_site",
        "tents": "yes"
      }
    },
    {
      "type": "Feature",
      "geometry": {
        "type": "Point",
        "coordinates": [
          29.4859732,
          38.4071293
        ]
      },
      "properties": {
        "id": 5835601386,
        "osm_type": "node",
        "tourism": "camp_site"
      }
    },
    {
      "type": "Feature",
      "geometry": {
        "type": "Point",
        "coordinates": [
          29.2998667,
          38.4143368
        ]
      },
      "properties": {
        "id": 6134956395,
        "osm_type": "node",
        "tourism": "camp_site"
      }
    },
    {
      "type": "Feature",
      "geometry": {
        "type": "Point",
        "coordinates": [
          29.0504988,
          38.6398406
        ]
      },
      "properties": {
        "id": 6977531788,
        "osm_type": "node",
        "name": "Örencik Termal Tesisleri",
        "tourism": "hotel"
      }
    },
    {
      "type": "Feature",
      "geometry": {
        "type": "Point",
        "coordinates": [
          29.4068844,
          38.6726018
        ]
      },
      "properties": {
        "id": 13680355712,
        "osm_type": "node",
        "name": "Hotel Uzcan",
        "tourism": "hotel"
      }
    },
    {
      "type": "Feature",
      "geometry": {
        "type": "Point",
        "coordinates": [
          29.4036905,
          38.6799175
        ]
      },
      "properties": {
        "id": 492807277,
        "osm_type": "way",
        "name": "Dülgeroğlu Oteli",
        "tourism": "hotel"
      }
    },
    {
      "type": "Feature",
      "geometry": {
        "type": "Point",
        "coordinates": [
          29.4038615,
          38.6783784
        ]
      },
      "properties": {
        "id": 492922455,
        "osm_type": "way",
        "name": "Yücel Otel",
        "tourism": "hotel"
      }
    },
    {
      "type": "Feature",
      "geometry": {
        "type": "Point",
        "coordinates": [
          29.4162208,
          38.6698284
        ]
      },
      "properties": {
        "id": 1074463954,
        "osm_type": "way",
        "name": "Ramada by Wyndham Otel",
        "tourism": "hotel"
      }
    },
    {
      "type": "Feature",
      "geometry": {
        "type": "Point",
        "coordinates": [
          29.2961822,
          38.4182148
        ]
      },
      "properties": {
        "id": 1272664498,
        "osm_type": "way",
        "tourism": "hotel"
      }
    },
    {
      "type": "Feature",
      "geometry": {
        "type": "Point",
        "coordinates": [
          29.378322,
          38.6786654
        ]
      },
      "properties": {
        "id": 1292134370,
        "osm_type": "way",
        "name": "Sheraton",
        "tourism": "hotel"
      }
    },
    {
      "type": "Feature",
      "geometry": {
        "type": "Point",
        "coordinates": [
          29.4041421,
          38.6784174
        ]
      },
      "properties": {
        "id": 1323352031,
        "osm_type": "way",
        "name": "Çakabey Otel",
        "tourism": "hotel"
      }
    },
    {
      "type": "Feature",
      "geometry": {
        "type": "Point",
        "coordinates": [
          29.4050288,
          38.6776648
        ]
      },
      "properties": {
        "id": 1333731584,
        "osm_type": "way",
        "name": "Otel Ağaoğlu",
        "tourism": "hotel"
      }
    },
    {
      "type": "Feature",
      "geometry": {
        "type": "Point",
        "coordinates": [
          29.4083762,
          38.6723041
        ]
      },
      "properties": {
        "id": 1359935447,
        "osm_type": "way",
        "name": "Hotel Akdağ",
        "tourism": "hotel"
      }
    },
    {
      "type": "Feature",
      "geometry": {
        "type": "Point",
        "coordinates": [
          29.4041837,
          38.6787496
        ]
      },
      "properties": {
        "id": 1363425552,
        "osm_type": "way",
        "name": "Ersun Otel",
        "tourism": "hotel"
      }
    },
    {
      "type": "Feature",
      "geometry": {
        "type": "Point",
        "coordinates": [
          29.4055557,
          38.6771868
        ]
      },
      "properties": {
        "id": 1363889987,
        "osm_type": "way",
        "name": "Otel Şahlan 1",
        "tourism": "hotel"
      }
    },
    {
      "type": "Feature",
      "geometry": {
        "type": "Point",
        "coordinates": [
          29.4055011,
          38.6776887
        ]
      },
      "properties": {
        "id": 1364349450,
        "osm_type": "way",
        "name": "Tiritoğlu Oteli",
        "tourism": "hotel"
      }
    },
    {
      "type": "Feature",
      "geometry": {
        "type": "Point",
        "coordinates": [
          29.4071075,
          38.6757911
        ]
      },
      "properties": {
        "id": 1366096942,
        "osm_type": "way",
        "name": "Anemon Otel",
        "tourism": "hotel"
      }
    },
    {
      "type": "Feature",
      "geometry": {
        "type": "Point",
        "coordinates": [
          29.6760228,
          38.508729
        ]
      },
      "properties": {
        "id": 1451058883,
        "osm_type": "way",
        "tourism": "hotel"
      }
    },
    {
      "type": "Feature",
      "geometry": {
        "type": "Point",
        "coordinates": [
          29.4021509,
          38.6798714
        ]
      },
      "properties": {
        "id": 1480427564,
        "osm_type": "way",
        "name": "Konak esila",
        "tourism": "hotel"
      }
    },
    {
      "type": "Feature",
      "geometry": {
        "type": "Point",
        "coordinates": [
          29.4021058,
          38.6800436
        ]
      },
      "properties": {
        "id": 1480927999,
        "osm_type": "way",
        "name": "Konak asil",
        "tourism": "hotel"
      }
    },
    {
      "type": "Feature",
      "geometry": {
        "type": "Point",
        "coordinates": [
          29.410692,
          38.6789374
        ]
      },
      "properties": {
        "id": 1481634494,
        "osm_type": "way",
        "name": "nest hotel",
        "tourism": "hotel"
      }
    }
  ]
}