{
  "type": "FeatureCollection",
  "features": [
    {
      "type": "Feature",
      "geometry": {
        "type": "Point",
        "coordinates": [
          -61.2949498,
          16.2452158
        ]
      },
      "properties": {
        "id": 582751726,
        "osm_type": "node",
        "name": "Manganao",
        "tourism": "hotel"
      }
    },
    {
      "type": "Feature",
      "geometry": {
        "type": "Point",
        "coordinates": [
          -61.2781755,
          16.2838891
        ]
      },
      "properties": {
        "id": 728222107,
        "osm_type": "node",
        "name": "Bungalow Bao-Tan",
        "tourism": "chalet"
      }
    },
    {
      "type": "Feature",
      "geometry": {
        "type": "Point",
        "coordinates": [
          -61.2243315,
          15.9071372
        ]
      },
      "properties": {
        "id": 1423978600,
        "osm_type": "node",
        "name": "Au Jardin de Beauséjour",
        "tourism": "hostel"
      }
    },
    {
      "type": "Feature",
      "geometry": {
        "type": "Point",
        "coordinates": [
          -61.2865695,
          16.0025147
        ]
      },
      "properties": {
        "id": 1423978604,
        "osm_type": "node",
        "name": "Au Village de Ménard",
        "tourism": "hostel"
      }
    },
    {
      "type": "Feature",
      "geometry": {
        "type": "Point",
        "coordinates": [
          -61.2397489,
          15.960928
        ]
      },
      "properties": {
        "id": 1423978606,
        "osm_type": "node",
        "tourism": "hostel"
      }
    },
    {
      "type": "Feature",
      "geometry": {
        "type": "Point",
        "coordinates": [
          -61.7840907,
          16.3206807
        ]
      },
      "properties": {
        "id": 1675646785,
        "osm_type": "node",
        "name": "TI Paradis",
        "tourism": "chalet",
        "website": "http://www.ti-paradis.net"
      }
    },
    {
      "type": "Feature",
      "geometry": {
        "type": "Point",
        "coordinates": [
          -61.6016695,
          16.0183181
        ]
      },
      "properties": {
        "id": 1706106137,
        "osm_type": "node",
        "name": "Gîtes de l’habituée",
        "tourism": "guest_house"
      }
    },
    {
      "type": "Feature",
      "geometry": {
        "type": "Point",
        "coordinates": [
          -61.6548477,
          15.9719556
        ]
      },
      "properties": {
        "id": 1706120786,
        "osm_type": "node",
        "name": "Gîtes Antikaz’la",
        "tourism": "guest_house",
        "website": "http://www.tikaz-la.com/"
      }
    },
    {
      "type": "Feature",
      "geometry": {
        "type": "Point",
        "coordinates": [
          -61.782916,
          16.3199449
        ]
      },
      "properties": {
        "id": 1934235220,
        "osm_type": "node",
        "name": "Caraib Bay Hôtel",
        "tourism": "hotel"
      }
    },
    {
      "type": "Feature",
      "geometry": {
        "type": "Point",
        "coordinates": [
          -61.7699513,
          16.3389662
        ]
      },
      "properties": {
        "id": 1971944692,
        "osm_type": "node",
        "name": "Habitation Pineau",
        "tourism": "chalet"
      }
    },
    {
      "type": "Feature",
      "geometry": {
        "type": "Point",
        "coordinates": [
          -61.4319478,
          16.2133667
        ]
      },
      "properties": {
        "id": 2119959708,
        "osm_type": "node",
        "name": "Résidence hôtelière Marifa",
        "tourism": "hotel"
      }
    },
    {
      "type": "Feature",
      "geometry": {
        "type": "Point",
        "coordinates": [
          -61.2548093,
          16.2579747
        ]
      },
      "properties": {
        "id": 2265761522,
        "osm_type": "node",
        "name": "Le Neem",
        "tourism": "guest_house"
      }
    },
    {
      "type": "Feature",
      "geometry": {
        "type": "Point",
        "coordinates": [
          -61.2805545,
          15.8690924
        ]
      },
      "properties": {
        "id": 2283146370,
        "osm_type": "node",
        "name": "La Kallina",
        "tourism": "hotel"
      }
    },
    {
      "type": "Feature",
      "geometry": {
        "type": "Point",
        "coordinates": [
          -61.771214,
          16.2166459
        ]
      },
      "properties": {
        "id": 2297528673,
        "osm_type": "node",
        "name": "Acomat-Bellevue",
        "tourism": "guest_house",
        "phone": "+590 590 99 90 63",
        "website": "www.acomat-bellevue.com"
      }
    },
    {
      "type": "Feature",
      "geometry": {
        "type": "Point",
        "coordinates": [
          -61.7321028,
          16.0546653
        ]
      },
      "properties": {
        "id": 2300246113,
        "osm_type": "node",
        "name": "Domaine de Vanibel",
        "tourism": "chalet",
        "phone": "+590 590 98 40 79"
      }
    },
    {
      "type": "Feature",
      "geometry": {
        "type": "Point",
        "coordinates": [
          -61.7366856,
          16.3554933
        ]
      },
      "properties": {
        "id": 2522454808,
        "osm_type": "node",
        "name": "Résidence Guadeloupe",
        "tourism": "hostel"
      }
    },
    {
      "type": "Feature",
      "geometry": {
        "type": "Point",
        "coordinates": [
          -61.4244936,
          16.2115463
        ]
      },
      "properties": {
        "id": 2529444573,
        "osm_type": "node",
        "name": "Hôtel du Petit Havre",
        "tourism": "hotel",
        "website": "https://www.hotelpetithavre.com/"
      }
    },
    {
      "type": "Feature",
      "geometry": {
        "type": "Point",
        "coordinates": [
          -61.3434195,
          16.2487265
        ]
      },
      "properties": {
        "id": 2704793506,
        "osm_type": "node",
        "name": "Le Baliste",
        "tourism": "hotel"
      }
    },
    {
      "type": "Feature",
      "geometry": {
        "type": "Point",
        "coordinates": [
          -61.3211267,
          16.2818146
        ]
      },
      "properties": {
        "id": 2742239806,
        "osm_type": "node",
        "name": "La Maison Calebasse",
        "tourism": "hotel"
      }
    },
    {
      "type": "Feature",
      "geometry": {
        "type": "Point",
        "coordinates": [
          -61.5824556,
          15.866503
        ]
      },
      "properties": {
        "id": 2779414615,
        "osm_type": "node",
        "name": "Francine Bonbon",
        "tourism": "guest_house",
        "website": "http://terredehauttourisme.com/chambres-lhabitant/chez-m-bonbon"
      }
    },
    {
      "type": "Feature",
      "geometry": {
        "type": "Point",
        "coordinates": [
          -61.6001944,
          16.165828
        ]
      },
      "properties": {
        "id": 2873895533,
        "osm_type": "node",
        "name": "Tim Tim BoisSec",
        "tourism": "guest_house",
        "website": "https://sites.google.com/site/timtimboisseclocation/"
      }
    },
    {
      "type": "Feature",
      "geometry": {
        "type": "Point",
        "coordinates": [
          -61.3410224,
          16.3202964
        ]
      },
      "properties": {
        "id": 2926898663,
        "osm_type": "node",
        "name": "Jacanahi",
        "tourism": "guest_house"
      }
    },
    {
      "type": "Feature",
      "geometry": {
        "type": "Point",
        "coordinates": [
          -61.7660326,
          16.0717727
        ]
      },
      "properties": {
        "id": 2957852957,
        "osm_type": "node",
        "name": "Gîtes \"Les Cocotiers\"",
        "tourism": "hotel"
      }
    },
    {
      "type": "Feature",
      "geometry": {
        "type": "Point",
        "coordinates": [
          -61.5857515,
          15.863264
        ]
      },
      "properties": {
        "id": 2973877533,
        "osm_type": "node",
        "name": "gîtes \"Chez Maxou\"",
        "tourism": "hotel",
        "website": "http://terredehauttourisme.com/meubles-de-tourisme/chez-maxou"
      }
    },
    {
      "type": "Feature",
      "geometry": {
        "type": "Point",
        "coordinates": [
          -61.5794379,
          15.8756689
        ]
      },
      "properties": {
        "id": 2973886183,
        "osm_type": "node",
        "name": "centre UCPA",
        "tourism": "hotel"
      }
    },
    {
      "type": "Feature",
      "geometry": {
        "type": "Point",
        "coordinates": [
          -61.3665902,
          16.2372989
        ]
      },
      "properties": {
        "id": 3010199493,
        "osm_type": "node",
        "name": "Domaine du Vieux Moulin",
        "tourism": "hotel"
      }
    },
    {
      "type": "Feature",
      "geometry": {
        "type": "Point",
        "coordinates": [
          -61.3673674,
          16.2367093
        ]
      },
      "properties": {
        "id": 3010199494,
        "osm_type": "node",
        "name": "Résidence le Clôt Moulin",
        "tourism": "hotel"
      }
    },
    {
      "type": "Feature",
      "geometry": {
        "type": "Point",
        "coordinates": [
          -61.8020788,
          16.2827964
        ]
      },
      "properties": {
        "id": 3030386751,
        "osm_type": "node",
        "name": "Le Rayon Vert",
        "tourism": "hotel"
      }
    },
    {
      "type": "Feature",
      "geometry": {
        "type": "Point",
        "coordinates": [
          -61.7702517,
          16.343682
        ]
      },
      "properties": {
        "id": 3030496370,
        "osm_type": "node",
        "name": "Repaire de Jack et Jade",
        "tourism": "hostel"
      }
    },
    {
      "type": "Feature",
      "geometry": {
        "type": "Point",
        "coordinates": [
          -61.7861314,
          16.3242603
        ]
      },
      "properties": {
        "id": 3035273294,
        "osm_type": "node",
        "name": "Taïnos Village",
        "tourism": "hotel"
      }
    },
    {
      "type": "Feature",
      "geometry": {
        "type": "Point",
        "coordinates": [
          -61.7882798,
          16.331864
        ]
      },
      "properties": {
        "id": 3035273297,
        "osm_type": "node",
        "tourism": "hostel"
      }
    },
    {
      "type": "Feature",
      "geometry": {
        "type": "Point",
        "coordinates": [
          -61.7724192,
          16.3472008
        ]
      },
      "properties": {
        "id": 3037623897,
        "osm_type": "node",
        "name": "Caraibes Royal",
        "tourism": "hotel"
      }
    },
    {
      "type": "Feature",
      "geometry": {
        "type": "Point",
        "coordinates": [
          -61.7640827,
          16.3277023
        ]
      },
      "properties": {
        "id": 3059958091,
        "osm_type": "node",
        "name": "Piton Bungalows",
        "tourism": "hostel",
        "website": "https://www.pitonbungalows.com/"
      }
    },
    {
      "type": "Feature",
      "geometry": {
        "type": "Point",
        "coordinates": [
          -61.7842838,
          16.3222607
        ]
      },
      "properties": {
        "id": 3059958098,
        "osm_type": "node",
        "name": "Gite, location soleil couchant",
        "tourism": "chalet",
        "website": "https://www.soleilcouchant.fr/"
      }
    },
    {
      "type": "Feature",
      "geometry": {
        "type": "Point",
        "coordinates": [
          -61.7836508,
          16.3172411
        ]
      },
      "properties": {
        "id": 3059958108,
        "osm_type": "node",
        "name": "Oasis de Grande Anse",
        "tourism": "hostel"
      }
    },
    {
      "type": "Feature",
      "geometry": {
        "type": "Point",
        "coordinates": [
          -61.7920408,
          16.2879861
        ]
      },
      "properties": {
        "id": 3059958112,
        "osm_type": "node",
        "tourism": "hostel"
      }
    },
    {
      "type": "Feature",
      "geometry": {
        "type": "Point",
        "coordinates": [
          -61.7903795,
          16.3085956
        ]
      },
      "properties": {
        "id": 3059958114,
        "osm_type": "node",
        "tourism": "hostel"
      }
    },
    {
      "type": "Feature",
      "geometry": {
        "type": "Point",
        "coordinates": [
          -61.7964879,
          16.2993962
        ]
      },
      "properties": {
        "id": 3059958119,
        "osm_type": "node",
        "name": "Jardin des Colibris",
        "tourism": "hostel"
      }
    },
    {
      "type": "Feature",
      "geometry": {
        "type": "Point",
        "coordinates": [
          -61.7900988,
          16.3084115
        ]
      },
      "properties": {
        "id": 3059958123,
        "osm_type": "node",
        "tourism": "hostel"
      }
    },
    {
      "type": "Feature",
      "geometry": {
        "type": "Point",
        "coordinates": [
          -61.8043682,
          16.2728162
        ]
      },
      "properties": {
        "id": 3059958127,
        "osm_type": "node",
        "name": "Soleil Caraïbe",
        "tourism": "hostel"
      }
    },
    {
      "type": "Feature",
      "geometry": {
        "type": "Point",
        "coordinates": [
          -61.7780747,
          16.2357125
        ]
      },
      "properties": {
        "id": 3127824729,
        "osm_type": "node",
        "name": "Domaine du Piton Bellevue",
        "tourism": "guest_house"
      }
    },
    {
      "type": "Feature",
      "geometry": {
        "type": "Point",
        "coordinates": [
          -61.7874365,
          16.2426237
        ]
      },
      "properties": {
        "id": 3181757607,
        "osm_type": "node",
        "name": "Villa Rose Caraibes",
        "tourism": "hotel",
        "phone": "+590 590 99 96 62; +590 690 42 32 66",
        "website": "http://villarosecaraibes.com"
      }
    },
    {
      "type": "Feature",
      "geometry": {
        "type": "Point",
        "coordinates": [
          -61.2697888,
          16.253452
        ]
      },
      "properties": {
        "id": 3200015324,
        "osm_type": "node",
        "name": "Le Village de la Marina",
        "tourism": "hotel"
      }
    },
    {
      "type": "Feature",
      "geometry": {
        "type": "Point",
        "coordinates": [
          -61.0387338,
          16.3152674
        ]
      },
      "properties": {
        "id": 3520085675,
        "osm_type": "node",
        "name": "Club Caravelles",
        "tourism": "hotel"
      }
    },
    {
      "type": "Feature",
      "geometry": {
        "type": "Point",
        "coordinates": [
          -61.7826235,
          16.3199284
        ]
      },
      "properties": {
        "id": 3613980932,
        "osm_type": "node",
        "name": "Ecolodges Bungalows Arsenault",
        "tourism": "motel"
      }
    },
    {
      "type": "Feature",
      "geometry": {
        "type": "Point",
        "coordinates": [
          -61.5370343,
          16.2365906
        ]
      },
      "properties": {
        "id": 3661938728,
        "osm_type": "node",
        "name": "Homestay Nelly",
        "tourism": "guest_house"
      }
    },
    {
      "type": "Feature",
      "geometry": {
        "type": "Point",
        "coordinates": [
          -61.3303872,
          16.3316673
        ]
      },
      "properties": {
        "id": 3768794800,
        "osm_type": "node",
        "name": "Villa Les Néréïdes",
        "tourism": "guest_house"
      }
    },
    {
      "type": "Feature",
      "geometry": {
        "type": "Point",
        "coordinates": [
          -61.4684947,
          16.1999128
        ]
      },
      "properties": {
        "id": 3833622740,
        "osm_type": "node",
        "name": "Location Dampierre",
        "tourism": "guest_house",
        "phone": "+590 590 88 94 80"
      }
    },
    {
      "type": "Feature",
      "geometry": {
        "type": "Point",
        "coordinates": [
          -61.6273405,
          15.8592558
        ]
      },
      "properties": {
        "id": 3968887770,
        "osm_type": "node",
        "name": "Les Hauts de la Baie",
        "tourism": "hotel",
        "website": "http://www.maisons-charme-guadeloupe.com"
      }
    },
    {
      "type": "Feature",
      "geometry": {
        "type": "Point",
        "coordinates": [
          -61.7734356,
          16.3439087
        ]
      },
      "properties": {
        "id": 4090833956,
        "osm_type": "node",
        "name": "Caraibes Bonheur",
        "tourism": "hotel",
        "phone": "+590 590 28 58 35",
        "website": "https://www.residencevuemer.com/"
      }
    },
    {
      "type": "Feature",
      "geometry": {
        "type": "Point",
        "coordinates": [
          -61.7788235,
          16.3196772
        ]
      },
      "properties": {
        "id": 4123915310,
        "osm_type": "node",
        "name": "Les Calebasses",
        "tourism": "hotel",
        "website": "http://location-guadeloupe-deshaies.net"
      }
    },
    {
      "type": "Feature",
      "geometry": {
        "type": "Point",
        "coordinates": [
          -61.7052426,
          16.014901
        ]
      },
      "properties": {
        "id": 4242404489,
        "osm_type": "node",
        "name": "Gîte la Pitchouri",
        "tourism": "guest_house",
        "phone": "+590 590 80 20 89"
      }
    },
    {
      "type": "Feature",
      "geometry": {
        "type": "Point",
        "coordinates": [
          -61.3949444,
          16.2208662
        ]
      },
      "properties": {
        "id": 4315246390,
        "osm_type": "node",
        "name": "Rotabas",
        "tourism": "hotel",
        "phone": "+590 590882687"
      }
    },
    {
      "type": "Feature",
      "geometry": {
        "type": "Point",
        "coordinates": [
          -61.7858165,
          16.3216149
        ]
      },
      "properties": {
        "id": 4430662589,
        "osm_type": "node",
        "tourism": "guest_house"
      }
    },
    {
      "type": "Feature",
      "geometry": {
        "type": "Point",
        "coordinates": [
          -61.2877545,
          16.2493052
        ]
      },
      "properties": {
        "id": 4459024993,
        "osm_type": "node",
        "name": "CasaFlo",
        "tourism": "guest_house"
      }
    },
    {
      "type": "Feature",
      "geometry": {
        "type": "Point",
        "coordinates": [
          -61.2709923,
          16.2652466
        ]
      },
      "properties": {
        "id": 4517309269,
        "osm_type": "node",
        "name": "Ker Mamy",
        "tourism": "guest_house",
        "phone": "+590 590 918187",
        "website": "http://kermamy.com"
      }
    },
    {
      "type": "Feature",
      "geometry": {
        "type": "Point",
        "coordinates": [
          -61.4092518,
          16.2146491
        ]
      },
      "properties": {
        "id": 4539466712,
        "osm_type": "node",
        "tourism": "guest_house"
      }
    },
    {
      "type": "Feature",
      "geometry": {
        "type": "Point",
        "coordinates": [
          -61.3386938,
          16.2754837
        ]
      },
      "properties": {
        "id": 4547748292,
        "osm_type": "node",
        "name": "Fleur d'Éden Location",
        "tourism": "guest_house",
        "phone": "+590 690235058",
        "website": "https://www.fleur-d-eden.com/"
      }
    },
    {
      "type": "Feature",
      "geometry": {
        "type": "Point",
        "coordinates": [
          -61.3635274,
          16.244133
        ]
      },
      "properties": {
        "id": 4566037393,
        "osm_type": "node",
        "name": "LOGIREV",
        "tourism": "hotel",
        "phone": "+590690230458",
        "check_date": "2026-03-27"
      }
    },
    {
      "type": "Feature",
      "geometry": {
        "type": "Point",
        "coordinates": [
          -61.3245638,
          16.3284036
        ]
      },
      "properties": {
        "id": 4567034595,
        "osm_type": "node",
        "name": "Ayonbety",
        "tourism": "guest_house",
        "website": "http://ayonbety.com"
      }
    },
    {
      "type": "Feature",
      "geometry": {
        "type": "Point",
        "coordinates": [
          -61.7878048,
          16.3344251
        ]
      },
      "properties": {
        "id": 4600170660,
        "osm_type": "node",
        "name": "Katalo Villa",
        "tourism": "apartment"
      }
    },
    {
      "type": "Feature",
      "geometry": {
        "type": "Point",
        "coordinates": [
          -61.3011795,
          16.2759464
        ]
      },
      "properties": {
        "id": 4640047490,
        "osm_type": "node",
        "tourism": "guest_house"
      }
    },
    {
      "type": "Feature",
      "geometry": {
        "type": "Point",
        "coordinates": [
          -61.0749207,
          16.3025388
        ]
      },
      "properties": {
        "id": 4665758895,
        "osm_type": "node",
        "tourism": "hotel"
      }
    },
    {
      "type": "Feature",
      "geometry": {
        "type": "Point",
        "coordinates": [
          -61.4716611,
          16.2141242
        ]
      },
      "properties": {
        "id": 4728299790,
        "osm_type": "node",
        "tourism": "guest_house"
      }
    },
    {
      "type": "Feature",
      "geometry": {
        "type": "Point",
        "coordinates": [
          -61.3973945,
          16.3517689
        ]
      },
      "properties": {
        "id": 4729095998,
        "osm_type": "node",
        "name": "Gites de Stephen",
        "tourism": "guest_house"
      }
    },
    {
      "type": "Feature",
      "geometry": {
        "type": "Point",
        "coordinates": [
          -61.7732053,
          16.3433809
        ]
      },
      "properties": {
        "id": 4734113621,
        "osm_type": "node",
        "tourism": "guest_house"
      }
    },
    {
      "type": "Feature",
      "geometry": {
        "type": "Point",
        "coordinates": [
          -61.7752978,
          16.3386601
        ]
      },
      "properties": {
        "id": 4738327623,
        "osm_type": "node",
        "name": "Apartment for 2",
        "tourism": "chalet"
      }
    },
    {
      "type": "Feature",
      "geometry": {
        "type": "Point",
        "coordinates": [
          -61.2268611,
          15.9526361
        ]
      },
      "properties": {
        "id": 4750929976,
        "osm_type": "node",
        "name": "Labitasyon Tirisyl",
        "tourism": "guest_house"
      }
    },
    {
      "type": "Feature",
      "geometry": {
        "type": "Point",
        "coordinates": [
          -61.2801457,
          15.8680618
        ]
      },
      "properties": {
        "id": 4752136584,
        "osm_type": "node",
        "name": "Grand Palm",
        "tourism": "hotel"
      }
    },
    {
      "type": "Feature",
      "geometry": {
        "type": "Point",
        "coordinates": [
          -61.7828576,
          16.1762102
        ]
      },
      "properties": {
        "id": 4766204756,
        "osm_type": "node",
        "name": "Villa Falvert",
        "tourism": "hotel",
        "website": "http://www.falvert.fr"
      }
    },
    {
      "type": "Feature",
      "geometry": {
        "type": "Point",
        "coordinates": [
          -61.6380987,
          15.9829947
        ]
      },
      "properties": {
        "id": 4806674921,
        "osm_type": "node",
        "name": "Villa Koulaya Tona",
        "tourism": "guest_house",
        "website": "http://www.villa-koulayatona.com"
      }
    },
    {
      "type": "Feature",
      "geometry": {
        "type": "Point",
        "coordinates": [
          -61.7424181,
          16.3377206
        ]
      },
      "properties": {
        "id": 5043274123,
        "osm_type": "node",
        "name": "Tipareo",
        "tourism": "hotel",
        "opening_hours": "24/7",
        "phone": "+590690996710",
        "website": "https://www.tipareo.com/"
      }
    },
    {
      "type": "Feature",
      "geometry": {
        "type": "Point",
        "coordinates": [
          -61.4169685,
          16.3222218
        ]
      },
      "properties": {
        "id": 5104198321,
        "osm_type": "node",
        "tourism": "hostel",
        "opening_hours": "24/7",
        "phone": "+33772307221",
        "website": "https://www.guadeloupesurfcamp.com/"
      }
    },
    {
      "type": "Feature",
      "geometry": {
        "type": "Point",
        "coordinates": [
          -61.4859353,
          16.2111036
        ]
      },
      "properties": {
        "id": 5105788721,
        "osm_type": "node",
        "tourism": "guest_house",
        "phone": "+590 590 84 50 45",
        "website": "http://westindiescar.free.fr"
      }
    },
    {
      "type": "Feature",
      "geometry": {
        "type": "Point",
        "coordinates": [
          -61.354947,
          16.2567439
        ]
      },
      "properties": {
        "id": 5287580521,
        "osm_type": "node",
        "tourism": "guest_house"
      }
    },
    {
      "type": "Feature",
      "geometry": {
        "type": "Point",
        "coordinates": [
          -61.6282305,
          15.8587615
        ]
      },
      "properties": {
        "id": 5414686821,
        "osm_type": "node",
        "name": "COCO D'ILES",
        "tourism": "guest_house",
        "phone": "gratuit",
        "website": "https://www.locationlessaintes.com/"
      }
    },
    {
      "type": "Feature",
      "geometry": {
        "type": "Point",
        "coordinates": [
          -61.3734801,
          16.3351166
        ]
      },
      "properties": {
        "id": 5415577840,
        "osm_type": "node",
        "name": "Gîtes de France",
        "tourism": "guest_house"
      }
    },
    {
      "type": "Feature",
      "geometry": {
        "type": "Point",
        "coordinates": [
          -61.3161877,
          15.9559346
        ]
      },
      "properties": {
        "id": 5473705549,
        "osm_type": "node",
        "name": "Chez Cornano",
        "tourism": "chalet"
      }
    },
    {
      "type": "Feature",
      "geometry": {
        "type": "Point",
        "coordinates": [
          -61.2883608,
          16.000879
        ]
      },
      "properties": {
        "id": 5473720906,
        "osm_type": "node",
        "name": "Villa Garnicia",
        "tourism": "chalet"
      }
    },
    {
      "type": "Feature",
      "geometry": {
        "type": "Point",
        "coordinates": [
          -61.342557,
          16.2459085
        ]
      },
      "properties": {
        "id": 5534146327,
        "osm_type": "node",
        "name": "Ti-Soleil",
        "tourism": "chalet",
        "opening_hours": "Mo-Su 09:00-18:00",
        "phone": "+590 690576217",
        "website": "https://www.ti-soleil.com"
      }
    },
    {
      "type": "Feature",
      "geometry": {
        "type": "Point",
        "coordinates": [
          -61.7194288,
          16.3026983
        ]
      },
      "properties": {
        "id": 6017997092,
        "osm_type": "node",
        "name": "Gites de la Ravine Bleue",
        "tourism": "hotel",
        "website": "http://gitesdelaravinebleue.fr"
      }
    },
    {
      "type": "Feature",
      "geometry": {
        "type": "Point",
        "coordinates": [
          -61.3962361,
          16.2194576
        ]
      },
      "properties": {
        "id": 6059026433,
        "osm_type": "node",
        "name": "Club Med La Caravelle",
        "tourism": "hotel"
      }
    },
    {
      "type": "Feature",
      "geometry": {
        "type": "Point",
        "coordinates": [
          -61.4662165,
          16.4688993
        ]
      },
      "properties": {
        "id": 6085703786,
        "osm_type": "node",
        "tourism": "hotel"
      }
    },
    {
      "type": "Feature",
      "geometry": {
        "type": "Point",
        "coordinates": [
          -61.4567325,
          16.451907
        ]
      },
      "properties": {
        "id": 6094012586,
        "osm_type": "node",
        "tourism": "guest_house"
      }
    },
    {
      "type": "Feature",
      "geometry": {
        "type": "Point",
        "coordinates": [
          -61.6324101,
          15.9802947
        ]
      },
      "properties": {
        "id": 6122529270,
        "osm_type": "node",
        "name": "Le jardin des Sucriers",
        "tourism": "chalet"
      }
    },
    {
      "type": "Feature",
      "geometry": {
        "type": "Point",
        "coordinates": [
          -61.6187824,
          15.9836692
        ]
      },
      "properties": {
        "id": 6122565343,
        "osm_type": "node",
        "name": "Villa Annoncia",
        "tourism": "chalet"
      }
    },
    {
      "type": "Feature",
      "geometry": {
        "type": "Point",
        "coordinates": [
          -61.3453308,
          16.3226492
        ]
      },
      "properties": {
        "id": 6213976763,
        "osm_type": "node",
        "name": "Domaine de Lauréal",
        "tourism": "hotel",
        "phone": "+590 590 23 50 09",
        "website": "http://www.domainedelaureal.com"
      }
    },
    {
      "type": "Feature",
      "geometry": {
        "type": "Point",
        "coordinates": [
          -61.8012138,
          16.2724163
        ]
      },
      "properties": {
        "id": 6260314098,
        "osm_type": "node",
        "name": "Les B",
        "tourism": "guest_house"
      }
    },
    {
      "type": "Feature",
      "geometry": {
        "type": "Point",
        "coordinates": [
          -61.800676,
          16.2718583
        ]
      },
      "properties": {
        "id": 6260315887,
        "osm_type": "node",
        "name": "Les Bungalows Château d'O",
        "tourism": "guest_house"
      }
    },
    {
      "type": "Feature",
      "geometry": {
        "type": "Point",
        "coordinates": [
          -61.7877967,
          16.307416
        ]
      },
      "properties": {
        "id": 6308094585,
        "osm_type": "node",
        "name": "Au vieux manguier",
        "tourism": "guest_house"
      }
    },
    {
      "type": "Feature",
      "geometry": {
        "type": "Point",
        "coordinates": [
          -61.3676001,
          16.2431383
        ]
      },
      "properties": {
        "id": 6357077522,
        "osm_type": "node",
        "name": "Appartement Shenandoah",
        "tourism": "chalet"
      }
    },
    {
      "type": "Feature",
      "geometry": {
        "type": "Point",
        "coordinates": [
          -61.5041271,
          16.2070983
        ]
      },
      "properties": {
        "id": 6357108295,
        "osm_type": "node",
        "name": "La Source",
        "tourism": "apartment",
        "phone": "+590 690 76 49 69"
      }
    },
    {
      "type": "Feature",
      "geometry": {
        "type": "Point",
        "coordinates": [
          -61.5875972,
          16.1217978
        ]
      },
      "properties": {
        "id": 6374764079,
        "osm_type": "node",
        "name": "Le P'Tit Barth a Goyave",
        "tourism": "chalet",
        "phone": "+590 690 59 71 61"
      }
    },
    {
      "type": "Feature",
      "geometry": {
        "type": "Point",
        "coordinates": [
          -61.7206267,
          16.3420629
        ]
      },
      "properties": {
        "id": 6377025844,
        "osm_type": "node",
        "name": "Indigo Palmes",
        "tourism": "chalet"
      }
    },
    {
      "type": "Feature",
      "geometry": {
        "type": "Point",
        "coordinates": [
          -61.4455753,
          16.3237816
        ]
      },
      "properties": {
        "id": 6384521129,
        "osm_type": "node",
        "name": "Villa Agnes",
        "tourism": "chalet"
      }
    },
    {
      "type": "Feature",
      "geometry": {
        "type": "Point",
        "coordinates": [
          -61.5942554,
          16.1179315
        ]
      },
      "properties": {
        "id": 6387894089,
        "osm_type": "node",
        "tourism": "guest_house"
      }
    },
    {
      "type": "Feature",
      "geometry": {
        "type": "Point",
        "coordinates": [
          -61.6021402,
          16.0058227
        ]
      },
      "properties": {
        "id": 6423982431,
        "osm_type": "node",
        "name": "Hostel Bana",
        "tourism": "hostel"
      }
    },
    {
      "type": "Feature",
      "geometry": {
        "type": "Point",
        "coordinates": [
          -61.7675359,
          16.1517074
        ]
      },
      "properties": {
        "id": 6468829285,
        "osm_type": "node",
        "tourism": "hotel"
      }
    },
    {
      "type": "Feature",
      "geometry": {
        "type": "Point",
        "coordinates": [
          -61.4110776,
          16.2132822
        ]
      },
      "properties": {
        "id": 6606576286,
        "osm_type": "node",
        "tourism": "hotel"
      }
    },
    {
      "type": "Feature",
      "geometry": {
        "type": "Point",
        "coordinates": [
          -61.7137251,
          16.3073741
        ]
      },
      "properties": {
        "id": 6688336985,
        "osm_type": "node",
        "tourism": "hotel",
        "phone": "0781755213",
        "website": "https://villapalinaguadeloupe.ohmyloc.com/fr/"
      }
    },
    {
      "type": "Feature",
      "geometry": {
        "type": "Point",
        "coordinates": [
          -61.7617478,
          16.2166216
        ]
      },
      "properties": {
        "id": 7100318985,
        "osm_type": "node",
        "tourism": "guest_house"
      }
    },
    {
      "type": "Feature",
      "geometry": {
        "type": "Point",
        "coordinates": [
          -61.6301967,
          16.2112429
        ]
      },
      "properties": {
        "id": 7100319085,
        "osm_type": "node",
        "name": "maison Nathalie",
        "tourism": "guest_house"
      }
    },
    {
      "type": "Feature",
      "geometry": {
        "type": "Point",
        "coordinates": [
          -61.5222601,
          16.2136303
        ]
      },
      "properties": {
        "id": 7223664185,
        "osm_type": "node",
        "name": "Hôtel Fleur d'Épée",
        "tourism": "hotel",
        "phone": "+590 590 90 40 00",
        "website": "https://www.hotel-fleur-depee.com/"
      }
    },
    {
      "type": "Feature",
      "geometry": {
        "type": "Point",
        "coordinates": [
          -61.4792805,
          16.3306669
        ]
      },
      "properties": {
        "id": 7275909285,
        "osm_type": "node",
        "tourism": "guest_house"
      }
    },
    {
      "type": "Feature",
      "geometry": {
        "type": "Point",
        "coordinates": [
          -61.3766245,
          16.2332618
        ]
      },
      "properties": {
        "id": 7367163320,
        "osm_type": "node",
        "name": "COULEURS ANTILLES",
        "tourism": "hotel"
      }
    },
    {
      "type": "Feature",
      "geometry": {
        "type": "Point",
        "coordinates": [
          -61.7717986,
          16.3428276
        ]
      },
      "properties": {
        "id": 7644732385,
        "osm_type": "node",
        "tourism": "hostel",
        "opening_hours": "Mo-Su 07:00-22:00",
        "phone": "+590690240954"
      }
    },
    {
      "type": "Feature",
      "geometry": {
        "type": "Point",
        "coordinates": [
          -61.2395123,
          15.8779507
        ]
      },
      "properties": {
        "id": 7653610082,
        "osm_type": "node",
        "name": "La Rose du Brésil",
        "tourism": "hotel",
        "website": "https://www.larosedubresil.com/"
      }
    },
    {
      "type": "Feature",
      "geometry": {
        "type": "Point",
        "coordinates": [
          -61.3798938,
          16.2296546
        ]
      },
      "properties": {
        "id": 8376067379,
        "osm_type": "node",
        "name": "Gîte Coccoloba",
        "tourism": "guest_house",
        "website": "https://www.gitescoccoloba.com/"
      }
    },
    {
      "type": "Feature",
      "geometry": {
        "type": "Point",
        "coordinates": [
          -61.7858498,
          16.3046389
        ]
      },
      "properties": {
        "id": 8402298817,
        "osm_type": "node",
        "tourism": "hotel",
        "website": "https://www.tendacayou.com/"
      }
    },
    {
      "type": "Feature",
      "geometry": {
        "type": "Point",
        "coordinates": [
          -61.637699,
          15.9735961
        ]
      },
      "properties": {
        "id": 8756793817,
        "osm_type": "node",
        "tourism": "guest_house",
        "phone": "+590 690 67 71 73",
        "website": "https://www.cocoetzabrico.fr/"
      }
    },
    {
      "type": "Feature",
      "geometry": {
        "type": "Point",
        "coordinates": [
          -61.4325394,
          16.2138466
        ]
      },
      "properties": {
        "id": 8839930920,
        "osm_type": "node",
        "name": "Résidence Domaine de Mare-Gaillard",
        "tourism": "hotel"
      }
    },
    {
      "type": "Feature",
      "geometry": {
        "type": "Point",
        "coordinates": [
          -61.5847205,
          15.8741244
        ]
      },
      "properties": {
        "id": 8930936958,
        "osm_type": "node",
        "name": "Hôtel Kanaoa",
        "tourism": "hotel"
      }
    },
    {
      "type": "Feature",
      "geometry": {
        "type": "Point",
        "coordinates": [
          -61.3278295,
          16.2431362
        ]
      },
      "properties": {
        "id": 8980588902,
        "osm_type": "node",
        "name": "Village Pierre et Vacance",
        "tourism": "hotel"
      }
    },
    {
      "type": "Feature",
      "geometry": {
        "type": "Point",
        "coordinates": [
          -61.2644162,
          16.2526742
        ]
      },
      "properties": {
        "id": 8980605290,
        "osm_type": "node",
        "name": "La Cocoteraie",
        "tourism": "hotel"
      }
    },
    {
      "type": "Feature",
      "geometry": {
        "type": "Point",
        "coordinates": [
          -61.2706508,
          16.2621476
        ]
      },
      "properties": {
        "id": 9088763483,
        "osm_type": "node",
        "name": "Résidence Fleurie",
        "tourism": "apartment"
      }
    },
    {
      "type": "Feature",
      "geometry": {
        "type": "Point",
        "coordinates": [
          -61.2701403,
          16.2624375
        ]
      },
      "properties": {
        "id": 9088763484,
        "osm_type": "node",
        "name": "Résidence Arcadia",
        "tourism": "apartment"
      }
    },
    {
      "type": "Feature",
      "geometry": {
        "type": "Point",
        "coordinates": [
          -61.5805762,
          15.8616554
        ]
      },
      "properties": {
        "id": 9136206708,
        "osm_type": "node",
        "name": "Villa Praia",
        "tourism": "apartment"
      }
    },
    {
      "type": "Feature",
      "geometry": {
        "type": "Point",
        "coordinates": [
          -61.7498252,
          16.3513089
        ]
      },
      "properties": {
        "id": 9195263045,
        "osm_type": "node",
        "name": "Anse des Îles",
        "tourism": "chalet"
      }
    },
    {
      "type": "Feature",
      "geometry": {
        "type": "Point",
        "coordinates": [
          -61.4194131,
          16.4072403
        ]
      },
      "properties": {
        "id": 9422904739,
        "osm_type": "node",
        "name": "Chez Rodrigue",
        "tourism": "chalet"
      }
    },
    {
      "type": "Feature",
      "geometry": {
        "type": "Point",
        "coordinates": [
          -61.3624385,
          16.2431524
        ]
      },
      "properties": {
        "id": 9427888517,
        "osm_type": "node",
        "tourism": "apartment",
        "phone": "+590 690 73 70 07",
        "website": "https://www.soleiletcocotier.com/contact"
      }
    },
    {
      "type": "Feature",
      "geometry": {
        "type": "Point",
        "coordinates": [
          -61.7689505,
          16.0958962
        ]
      },
      "properties": {
        "id": 9459201812,
        "osm_type": "node",
        "name": "Les Gîtes du Bord de Mer",
        "tourism": "apartment",
        "phone": "+590 690 32 62 28;+590 590 25 05 22",
        "website": "http://gitesduborddemer.com/"
      }
    },
    {
      "type": "Feature",
      "geometry": {
        "type": "Point",
        "coordinates": [
          -61.5743785,
          15.8723344
        ]
      },
      "properties": {
        "id": 9464377617,
        "osm_type": "node",
        "tourism": "guest_house",
        "phone": "05909955552",
        "website": "https://www.chezgiseleetphilippe.com/"
      }
    },
    {
      "type": "Feature",
      "geometry": {
        "type": "Point",
        "coordinates": [
          -61.3655847,
          16.332588
        ]
      },
      "properties": {
        "id": 9484590128,
        "osm_type": "node",
        "name": "Location le moulin de la Baie",
        "tourism": "chalet"
      }
    },
    {
      "type": "Feature",
      "geometry": {
        "type": "Point",
        "coordinates": [
          -61.766874,
          16.1061067
        ]
      },
      "properties": {
        "id": 9506676117,
        "osm_type": "node",
        "name": "Le Papillon Bleu",
        "tourism": "hotel"
      }
    },
    {
      "type": "Feature",
      "geometry": {
        "type": "Point",
        "coordinates": [
          -61.6584859,
          16.1770095
        ]
      },
      "properties": {
        "id": 9570652451,
        "osm_type": "node",
        "name": "Les gîtes de la Lézarde",
        "tourism": "guest_house"
      }
    },
    {
      "type": "Feature",
      "geometry": {
        "type": "Point",
        "coordinates": [
          -61.6583181,
          16.1799535
        ]
      },
      "properties": {
        "id": 9570685635,
        "osm_type": "node",
        "name": "Kaliandra",
        "tourism": "chalet"
      }
    },
    {
      "type": "Feature",
      "geometry": {
        "type": "Point",
        "coordinates": [
          -61.6476828,
          16.1987511
        ]
      },
      "properties": {
        "id": 9570699009,
        "osm_type": "node",
        "name": "Habitation Tabanon",
        "tourism": "apartment",
        "phone": "+590690339492",
        "website": "https://www.habitation-tabanon.com/fr"
      }
    },
    {
      "type": "Feature",
      "geometry": {
        "type": "Point",
        "coordinates": [
          -61.6561208,
          16.1826064
        ]
      },
      "properties": {
        "id": 9570703680,
        "osm_type": "node",
        "name": "Villa Les Cassias",
        "tourism": "chalet"
      }
    },
    {
      "type": "Feature",
      "geometry": {
        "type": "Point",
        "coordinates": [
          -61.6528239,
          16.2071767
        ]
      },
      "properties": {
        "id": 9570727579,
        "osm_type": "node",
        "name": "Domaine de Villeneuve",
        "tourism": "chalet"
      }
    },
    {
      "type": "Feature",
      "geometry": {
        "type": "Point",
        "coordinates": [
          -61.5818999,
          15.8694477
        ]
      },
      "properties": {
        "id": 9644227387,
        "osm_type": "node",
        "name": "Clear Blue Caraibes",
        "tourism": "chalet",
        "phone": "+590 690 65 79 81",
        "website": "https://clearbluecaraibes.fun/"
      }
    },
    {
      "type": "Feature",
      "geometry": {
        "type": "Point",
        "coordinates": [
          -61.3992452,
          16.2315987
        ]
      },
      "properties": {
        "id": 9719510702,
        "osm_type": "node",
        "name": "Gîte Baobab",
        "tourism": "chalet"
      }
    },
    {
      "type": "Feature",
      "geometry": {
        "type": "Point",
        "coordinates": [
          -61.2784406,
          16.255028
        ]
      },
      "properties": {
        "id": 9766223218,
        "osm_type": "node",
        "name": "Villa Rosa Karibella",
        "tourism": "guest_house"
      }
    },
    {
      "type": "Feature",
      "geometry": {
        "type": "Point",
        "coordinates": [
          -61.299202,
          16.2492252
        ]
      },
      "properties": {
        "id": 9766299517,
        "osm_type": "node",
        "tourism": "guest_house"
      }
    },
    {
      "type": "Feature",
      "geometry": {
        "type": "Point",
        "coordinates": [
          -61.4090195,
          16.3976707
        ]
      },
      "properties": {
        "id": 9848093609,
        "osm_type": "node",
        "name": "Kaz à l'Anse Maurice",
        "tourism": "chalet"
      }
    },
    {
      "type": "Feature",
      "geometry": {
        "type": "Point",
        "coordinates": [
          -61.4772438,
          16.3997845
        ]
      },
      "properties": {
        "id": 9848110849,
        "osm_type": "node",
        "name": "Gîte du Moulin",
        "tourism": "chalet"
      }
    },
    {
      "type": "Feature",
      "geometry": {
        "type": "Point",
        "coordinates": [
          -61.3788414,
          16.3419704
        ]
      },
      "properties": {
        "id": 9848119325,
        "osm_type": "node",
        "name": "Paradise Villa",
        "tourism": "chalet"
      }
    },
    {
      "type": "Feature",
      "geometry": {
        "type": "Point",
        "coordinates": [
          -61.5897102,
          16.0357399
        ]
      },
      "properties": {
        "id": 9848138075,
        "osm_type": "node",
        "name": "Le bwa kao",
        "tourism": "chalet"
      }
    },
    {
      "type": "Feature",
      "geometry": {
        "type": "Point",
        "coordinates": [
          -61.5008597,
          16.2058477
        ]
      },
      "properties": {
        "id": 9851057532,
        "osm_type": "node",
        "name": "Lumazile",
        "tourism": "apartment",
        "website": "https://www.lumazile.fr"
      }
    },
    {
      "type": "Feature",
      "geometry": {
        "type": "Point",
        "coordinates": [
          -61.1982935,
          16.252044
        ]
      },
      "properties": {
        "id": 9867420677,
        "osm_type": "node",
        "name": "Hostellerie des Chateaux",
        "tourism": "chalet"
      }
    },
    {
      "type": "Feature",
      "geometry": {
        "type": "Point",
        "coordinates": [
          -61.220013,
          16.2571724
        ]
      },
      "properties": {
        "id": 9867432674,
        "osm_type": "node",
        "name": "Gîte Pointe des Châteaux",
        "tourism": "chalet"
      }
    },
    {
      "type": "Feature",
      "geometry": {
        "type": "Point",
        "coordinates": [
          -61.2884397,
          16.0006209
        ]
      },
      "properties": {
        "id": 9867437157,
        "osm_type": "node",
        "name": "Au domaine de Coton",
        "tourism": "chalet"
      }
    },
    {
      "type": "Feature",
      "geometry": {
        "type": "Point",
        "coordinates": [
          -61.208992,
          16.2556395
        ]
      },
      "properties": {
        "id": 9867451476,
        "osm_type": "node",
        "name": "Villa Tarare",
        "tourism": "chalet"
      }
    },
    {
      "type": "Feature",
      "geometry": {
        "type": "Point",
        "coordinates": [
          -61.1991284,
          16.2520996
        ]
      },
      "properties": {
        "id": 9867452821,
        "osm_type": "node",
        "name": "Villa perle des Salines",
        "tourism": "chalet"
      }
    },
    {
      "type": "Feature",
      "geometry": {
        "type": "Point",
        "coordinates": [
          -61.322163,
          16.2439837
        ]
      },
      "properties": {
        "id": 9867649490,
        "osm_type": "node",
        "name": "Hotel Amaudo",
        "tourism": "hotel"
      }
    },
    {
      "type": "Feature",
      "geometry": {
        "type": "Point",
        "coordinates": [
          -61.2534071,
          16.257383
        ]
      },
      "properties": {
        "id": 9867659045,
        "osm_type": "node",
        "name": "Hôtel la Christophine",
        "tourism": "hotel"
      }
    },
    {
      "type": "Feature",
      "geometry": {
        "type": "Point",
        "coordinates": [
          -61.287169,
          16.2620584
        ]
      },
      "properties": {
        "id": 9867667522,
        "osm_type": "node",
        "name": "Résidence les Cateletes",
        "tourism": "hotel"
      }
    },
    {
      "type": "Feature",
      "geometry": {
        "type": "Point",
        "coordinates": [
          -61.2531407,
          16.2579012
        ]
      },
      "properties": {
        "id": 9867686136,
        "osm_type": "node",
        "name": "Habitation de l'Anse Mancenillier",
        "tourism": "chalet"
      }
    },
    {
      "type": "Feature",
      "geometry": {
        "type": "Point",
        "coordinates": [
          -61.4253472,
          16.2104016
        ]
      },
      "properties": {
        "id": 9867696409,
        "osm_type": "node",
        "name": "Résidence Bleu marine",
        "tourism": "hotel",
        "website": "http://www.bleumarineresidence.com/"
      }
    },
    {
      "type": "Feature",
      "geometry": {
        "type": "Point",
        "coordinates": [
          -61.6877824,
          16.0431875
        ]
      },
      "properties": {
        "id": 9867730396,
        "osm_type": "node",
        "name": "Pimentiers de Papayer",
        "tourism": "chalet"
      }
    },
    {
      "type": "Feature",
      "geometry": {
        "type": "Point",
        "coordinates": [
          -61.3038816,
          16.2433082
        ]
      },
      "properties": {
        "id": 9889273231,
        "osm_type": "node",
        "name": "Kaz Loriké",
        "tourism": "apartment"
      }
    },
    {
      "type": "Feature",
      "geometry": {
        "type": "Point",
        "coordinates": [
          -61.0192846,
          16.3290638
        ]
      },
      "properties": {
        "id": 9907944117,
        "osm_type": "node",
        "tourism": "guest_house"
      }
    },
    {
      "type": "Feature",
      "geometry": {
        "type": "Point",
        "coordinates": [
          -61.2823423,
          16.2781481
        ]
      },
      "properties": {
        "id": 10255783009,
        "osm_type": "node",
        "name": "Domaine Saint-François",
        "tourism": "apartment",
        "phone": "+590 690 30 04 33",
        "website": "https://www.ledomainesaintfrancois.com/fr/index.html"
      }
    },
    {
      "type": "Feature",
      "geometry": {
        "type": "Point",
        "coordinates": [
          -61.5068298,
          16.2701682
        ]
      },
      "properties": {
        "id": 10571911952,
        "osm_type": "node",
        "name": "Le Cosy Bungalow de Lili",
        "tourism": "apartment"
      }
    },
    {
      "type": "Feature",
      "geometry": {
        "type": "Point",
        "coordinates": [
          -61.2983216,
          16.2949329
        ]
      },
      "properties": {
        "id": 10608925005,
        "osm_type": "node",
        "tourism": "guest_house"
      }
    },
    {
      "type": "Feature",
      "geometry": {
        "type": "Point",
        "coordinates": [
          -61.2658481,
          16.2649593
        ]
      },
      "properties": {
        "id": 10661179905,
        "osm_type": "node",
        "tourism": "hotel"
      }
    },
    {
      "type": "Feature",
      "geometry": {
        "type": "Point",
        "coordinates": [
          -61.780988,
          16.1775073
        ]
      },
      "properties": {
        "id": 10774013707,
        "osm_type": "node",
        "tourism": "apartment",
        "phone": "+590 690 63 48 62"
      }
    },
    {
      "type": "Feature",
      "geometry": {
        "type": "Point",
        "coordinates": [
          -61.7810059,
          16.17749
        ]
      },
      "properties": {
        "id": 10774013708,
        "osm_type": "node",
        "tourism": "apartment",
        "phone": "+590690634862"
      }
    },
    {
      "type": "Feature",
      "geometry": {
        "type": "Point",
        "coordinates": [
          -61.780709,
          16.1776826
        ]
      },
      "properties": {
        "id": 10903810605,
        "osm_type": "node",
        "tourism": "apartment",
        "phone": "+590 690 63 48 62"
      }
    },
    {
      "type": "Feature",
      "geometry": {
        "type": "Point",
        "coordinates": [
          -61.5365517,
          16.2514973
        ]
      },
      "properties": {
        "id": 10964384506,
        "osm_type": "node",
        "tourism": "apartment"
      }
    },
    {
      "type": "Feature",
      "geometry": {
        "type": "Point",
        "coordinates": [
          -61.4981699,
          16.2610332
        ]
      },
      "properties": {
        "id": 10964384507,
        "osm_type": "node",
        "tourism": "apartment"
      }
    },
    {
      "type": "Feature",
      "geometry": {
        "type": "Point",
        "coordinates": [
          -61.4061048,
          16.3943378
        ]
      },
      "properties": {
        "id": 11071816856,
        "osm_type": "node",
        "name": "Aire Plage de l'Anse Maurice",
        "tourism": "caravan_site",
        "website": "https://www.guadeloupe.fr/les-plages/anse-maurice/"
      }
    },
    {
      "type": "Feature",
      "geometry": {
        "type": "Point",
        "coordinates": [
          -61.6310614,
          15.9767052
        ]
      },
      "properties": {
        "id": 11110545064,
        "osm_type": "node",
        "name": "Gîtes de Checheti",
        "tourism": "apartment",
        "phone": "+590 590 00 87 44",
        "website": "https://www.checheti.com/"
      }
    },
    {
      "type": "Feature",
      "geometry": {
        "type": "Point",
        "coordinates": [
          -61.7055418,
          16.3146249
        ]
      },
      "properties": {
        "id": 11118707706,
        "osm_type": "node",
        "name": "Bungalows Au Son des Grenouilles",
        "tourism": "chalet",
        "phone": "+590690340697",
        "website": "https://ausondesgrenouilles.com/"
      }
    },
    {
      "type": "Feature",
      "geometry": {
        "type": "Point",
        "coordinates": [
          -61.3499049,
          16.3329366
        ]
      },
      "properties": {
        "id": 11577780274,
        "osm_type": "node",
        "tourism": "apartment"
      }
    },
    {
      "type": "Feature",
      "geometry": {
        "type": "Point",
        "coordinates": [
          -61.2736434,
          16.2653505
        ]
      },
      "properties": {
        "id": 11577781369,
        "osm_type": "node",
        "tourism": "apartment"
      }
    },
    {
      "type": "Feature",
      "geometry": {
        "type": "Point",
        "coordinates": [
          -61.5985517,
          15.8619539
        ]
      },
      "properties": {
        "id": 11653248451,
        "osm_type": "node",
        "name": "Boone Vacances",
        "tourism": "hotel",
        "contact:phone": "+590 590 60 52 85",
        "contact:website": "https://www.boone-vacances.com/"
      }
    },
    {
      "type": "Feature",
      "geometry": {
        "type": "Point",
        "coordinates": [
          -61.7703465,
          16.1552379
        ]
      },
      "properties": {
        "id": 11659098006,
        "osm_type": "node",
        "name": "Habitation Grange Bel'Ô",
        "tourism": "chalet",
        "phone": "+590 590 25 30 53"
      }
    },
    {
      "type": "Feature",
      "geometry": {
        "type": "Point",
        "coordinates": [
          -61.5811649,
          15.86606
        ]
      },
      "properties": {
        "id": 11763972748,
        "osm_type": "node",
        "name": "Iguann'la",
        "tourism": "chalet",
        "phone": "+590 590 99 56 57"
      }
    },
    {
      "type": "Feature",
      "geometry": {
        "type": "Point",
        "coordinates": [
          -61.7754995,
          16.1499092
        ]
      },
      "properties": {
        "id": 11829308062,
        "osm_type": "node",
        "name": "Les Galets Rouges",
        "tourism": "hotel",
        "phone": "+590 590 25 88 44; +590 690 48 72 72",
        "website": "https://www.lesgaletsrouges.com/"
      }
    },
    {
      "type": "Feature",
      "geometry": {
        "type": "Point",
        "coordinates": [
          -61.7683727,
          16.314559
        ]
      },
      "properties": {
        "id": 11873197628,
        "osm_type": "node",
        "name": "La Montagne Aux Orchidées",
        "tourism": "motel",
        "check_date": "2024-05-02"
      }
    },
    {
      "type": "Feature",
      "geometry": {
        "type": "Point",
        "coordinates": [
          -61.6444155,
          16.2007146
        ]
      },
      "properties": {
        "id": 11938296073,
        "osm_type": "node",
        "name": "Gîtes Créol’îles",
        "tourism": "apartment",
        "phone": "+590 590 320 499",
        "website": "https://creoliles.com/"
      }
    },
    {
      "type": "Feature",
      "geometry": {
        "type": "Point",
        "coordinates": [
          -61.7857975,
          16.2322645
        ]
      },
      "properties": {
        "id": 12670003906,
        "osm_type": "node",
        "name": "Maisom agreable",
        "tourism": "apartment",
        "phone": "+33617170590"
      }
    },
    {
      "type": "Feature",
      "geometry": {
        "type": "Point",
        "coordinates": [
          -61.5289639,
          16.2436487
        ]
      },
      "properties": {
        "id": 12670006982,
        "osm_type": "node",
        "name": "La Canopee Enchantee",
        "tourism": "apartment",
        "phone": "+33 607705935"
      }
    },
    {
      "type": "Feature",
      "geometry": {
        "type": "Point",
        "coordinates": [
          -61.5990894,
          16.1859626
        ]
      },
      "properties": {
        "id": 12770549777,
        "osm_type": "node",
        "tourism": "chalet"
      }
    },
    {
      "type": "Feature",
      "geometry": {
        "type": "Point",
        "coordinates": [
          -61.2053059,
          16.2510765
        ]
      },
      "properties": {
        "id": 12770613117,
        "osm_type": "node",
        "name": "Villa Blue Lagoon",
        "tourism": "chalet"
      }
    },
    {
      "type": "Feature",
      "geometry": {
        "type": "Point",
        "coordinates": [
          -61.7976703,
          16.2980056
        ]
      },
      "properties": {
        "id": 13033572630,
        "osm_type": "node",
        "name": "Villa Botanica",
        "tourism": "guest_house"
      }
    },
    {
      "type": "Feature",
      "geometry": {
        "type": "Point",
        "coordinates": [
          -61.5911707,
          15.8620838
        ]
      },
      "properties": {
        "id": 13090672168,
        "osm_type": "node",
        "name": "Chez Caroline & Richard",
        "tourism": "guest_house",
        "website": "https://chezcarolineamprichard.hoottelo.com/"
      }
    },
    {
      "type": "Feature",
      "geometry": {
        "type": "Point",
        "coordinates": [
          -61.7931034,
          16.2722612
        ]
      },
      "properties": {
        "id": 13094865471,
        "osm_type": "node",
        "name": "Les Hauts de Bornave",
        "tourism": "guest_house",
        "website": "https://www.leshautsdebornave.net/"
      }
    },
    {
      "type": "Feature",
      "geometry": {
        "type": "Point",
        "coordinates": [
          -61.4200674,
          16.2493503
        ]
      },
      "properties": {
        "id": 13313689323,
        "osm_type": "node",
        "name": "Kaz'à Kongo",
        "tourism": "guest_house"
      }
    },
    {
      "type": "Feature",
      "geometry": {
        "type": "Point",
        "coordinates": [
          -61.3790962,
          16.2239396
        ]
      },
      "properties": {
        "id": 13313689335,
        "osm_type": "node",
        "name": "Eden Bleu",
        "tourism": "guest_house"
      }
    },
    {
      "type": "Feature",
      "geometry": {
        "type": "Point",
        "coordinates": [
          -61.3619519,
          16.2434452
        ]
      },
      "properties": {
        "id": 13313689336,
        "osm_type": "node",
        "name": "Ti Bwa carbet",
        "tourism": "guest_house"
      }
    },
    {
      "type": "Feature",
      "geometry": {
        "type": "Point",
        "coordinates": [
          -61.3321926,
          16.3264338
        ]
      },
      "properties": {
        "id": 13313689383,
        "osm_type": "node",
        "name": "Villa Flora",
        "tourism": "guest_house"
      }
    },
    {
      "type": "Feature",
      "geometry": {
        "type": "Point",
        "coordinates": [
          -61.4181778,
          16.4060751
        ]
      },
      "properties": {
        "id": 13313702841,
        "osm_type": "node",
        "name": "Maison Boisne-noc",
        "tourism": "guest_house"
      }
    },
    {
      "type": "Feature",
      "geometry": {
        "type": "Point",
        "coordinates": [
          -61.4091244,
          16.395434
        ]
      },
      "properties": {
        "id": 13313702842,
        "osm_type": "node",
        "name": "Maison Alleaume",
        "tourism": "guest_house"
      }
    },
    {
      "type": "Feature",
      "geometry": {
        "type": "Point",
        "coordinates": [
          -61.3771015,
          16.2293218
        ]
      },
      "properties": {
        "id": 13314955361,
        "osm_type": "node",
        "name": "La case Bonheur",
        "tourism": "guest_house"
      }
    },
    {
      "type": "Feature",
      "geometry": {
        "type": "Point",
        "coordinates": [
          -61.6050427,
          16.1864453
        ]
      },
      "properties": {
        "id": 13324038767,
        "osm_type": "node",
        "name": "Duplex",
        "tourism": "apartment",
        "phone": "+33 7 69 90 20 08",
        "website": "https://www.booking.com/hotel/gp/duplex-petit-bourg.cs.html?label=gen173nr-10CAEoggI46AdIM1gEaDqIAQGYATO4AQfIAQ3YAQPoAQH4AQGIAgGoAgG4AuXohskGwAIB0gIkODIwMzgxOGQtNTU3NS00NmYyLTlkZDYtNDY3YmY1ZGQ3MmUx2AIB4AIB&sid=40c6235ef0c8537342301204bd09a7b7&aid=304142"
      }
    },
    {
      "type": "Feature",
      "geometry": {
        "type": "Point",
        "coordinates": [
          -61.5822932,
          15.8686819
        ]
      },
      "properties": {
        "id": 13370741599,
        "osm_type": "node",
        "name": "Villa Maï Taï",
        "tourism": "chalet",
        "website": "https://www.villamaitai.fr/"
      }
    },
    {
      "type": "Feature",
      "geometry": {
        "type": "Point",
        "coordinates": [
          -61.585243,
          16.2550159
        ]
      },
      "properties": {
        "id": 13417222968,
        "osm_type": "node",
        "name": "Tropical Dream",
        "tourism": "chalet",
        "website": "https://fr.planetofhotels.com/guadeloupe/baie-mahault-91028/tropical-dream-gites-touristiques"
      }
    },
    {
      "type": "Feature",
      "geometry": {
        "type": "Point",
        "coordinates": [
          -61.5824162,
          15.8664562
        ]
      },
      "properties": {
        "id": 13453205101,
        "osm_type": "node",
        "name": "Chez Brigitte",
        "tourism": "guest_house",
        "phone": "+590 690 11 58 60"
      }
    },
    {
      "type": "Feature",
      "geometry": {
        "type": "Point",
        "coordinates": [
          -61.3043104,
          16.2425895
        ]
      },
      "properties": {
        "id": 13516614401,
        "osm_type": "node",
        "tourism": "hotel"
      }
    },
    {
      "type": "Feature",
      "geometry": {
        "type": "Point",
        "coordinates": [
          -61.3043698,
          16.2422407
        ]
      },
      "properties": {
        "id": 13516614402,
        "osm_type": "node",
        "tourism": "apartment"
      }
    },
    {
      "type": "Feature",
      "geometry": {
        "type": "Point",
        "coordinates": [
          -61.2963897,
          16.2486396
        ]
      },
      "properties": {
        "id": 13720301201,
        "osm_type": "node",
        "name": "Résidence Blue Palm",
        "tourism": "guest_house",
        "phone": "+590 690 67 71 48",
        "website": "https://www.blue-palm.com/"
      }
    },
    {
      "type": "Feature",
      "geometry": {
        "type": "Point",
        "coordinates": [
          -61.5038211,
          16.2069222
        ]
      },
      "properties": {
        "id": 47033019,
        "osm_type": "way",
        "name": "Arawak Beach Resort",
        "tourism": "hotel"
      }
    },
    {
      "type": "Feature",
      "geometry": {
        "type": "Point",
        "coordinates": [
          -61.5069071,
          16.2079492
        ]
      },
      "properties": {
        "id": 47034937,
        "osm_type": "way",
        "name": "Karaïbes Hôtel",
        "tourism": "hotel"
      }
    },
    {
      "type": "Feature",
      "geometry": {
        "type": "Point",
        "coordinates": [
          -61.5075842,
          16.2091436
        ]
      },
      "properties": {
        "id": 47034940,
        "osm_type": "way",
        "name": "Hotel Canella Beach",
        "tourism": "hotel"
      }
    },
    {
      "type": "Feature",
      "geometry": {
        "type": "Point",
        "coordinates": [
          -61.5052788,
          16.2067133
        ]
      },
      "properties": {
        "id": 47034942,
        "osm_type": "way",
        "name": "Hotel Salako",
        "tourism": "hotel"
      }
    },
    {
      "type": "Feature",
      "geometry": {
        "type": "Point",
        "coordinates": [
          -61.5058072,
          16.2070267
        ]
      },
      "properties": {
        "id": 47035356,
        "osm_type": "way",
        "name": "Hotel Clipper",
        "tourism": "hotel"
      }
    },
    {
      "type": "Feature",
      "geometry": {
        "type": "Point",
        "coordinates": [
          -61.5362541,
          16.2353992
        ]
      },
      "properties": {
        "id": 65833070,
        "osm_type": "way",
        "name": "The Green Hostel",
        "tourism": "hostel"
      }
    },
    {
      "type": "Feature",
      "geometry": {
        "type": "Point",
        "coordinates": [
          -61.0700113,
          16.3045584
        ]
      },
      "properties": {
        "id": 66517588,
        "osm_type": "way",
        "name": "Hôtel Oasis",
        "tourism": "hotel"
      }
    },
    {
      "type": "Feature",
      "geometry": {
        "type": "Point",
        "coordinates": [
          -61.7756351,
          16.3491665
        ]
      },
      "properties": {
        "id": 119336028,
        "osm_type": "way",
        "name": "Fort Royal",
        "tourism": "hotel"
      }
    },
    {
      "type": "Feature",
      "geometry": {
        "type": "Point",
        "coordinates": [
          -61.798768,
          16.3020262
        ]
      },
      "properties": {
        "id": 119338701,
        "osm_type": "way",
        "name": "Villa Dream",
        "tourism": "chalet",
        "website": "https://www.gites.fr/gites_villa-dream_deshaies_h5772159.htm"
      }
    },
    {
      "type": "Feature",
      "geometry": {
        "type": "Point",
        "coordinates": [
          -61.7860147,
          16.3233172
        ]
      },
      "properties": {
        "id": 119343383,
        "osm_type": "way",
        "name": "Fleur des Iles",
        "tourism": "hotel"
      }
    },
    {
      "type": "Feature",
      "geometry": {
        "type": "Point",
        "coordinates": [
          -61.7735165,
          16.3462929
        ]
      },
      "properties": {
        "id": 119344729,
        "osm_type": "way",
        "name": "Couleurs Madras",
        "tourism": "guest_house"
      }
    },
    {
      "type": "Feature",
      "geometry": {
        "type": "Point",
        "coordinates": [
          -61.778103,
          16.3402105
        ]
      },
      "properties": {
        "id": 119348447,
        "osm_type": "way",
        "name": "Gîtes Rose des Vents",
        "tourism": "hotel",
        "phone": "+590 590 22 23 88"
      }
    },
    {
      "type": "Feature",
      "geometry": {
        "type": "Point",
        "coordinates": [
          -61.7673434,
          16.1533303
        ]
      },
      "properties": {
        "id": 120217937,
        "osm_type": "way",
        "name": "Villa Macanao",
        "tourism": "apartment"
      }
    },
    {
      "type": "Feature",
      "geometry": {
        "type": "Point",
        "coordinates": [
          -61.7717442,
          16.1389906
        ]
      },
      "properties": {
        "id": 120219935,
        "osm_type": "way",
        "name": "Les Bois de Rose",
        "tourism": "chalet"
      }
    },
    {
      "type": "Feature",
      "geometry": {
        "type": "Point",
        "coordinates": [
          -61.3443792,
          16.2472145
        ]
      },
      "properties": {
        "id": 124925549,
        "osm_type": "way",
        "name": "Le Relais du Moulin",
        "tourism": "hotel",
        "check_date": "2026-03-23"
      }
    },
    {
      "type": "Feature",
      "geometry": {
        "type": "Point",
        "coordinates": [
          -61.3299556,
          16.2423796
        ]
      },
      "properties": {
        "id": 124943782,
        "osm_type": "way",
        "name": "Pierre et Vacances",
        "tourism": "hotel",
        "check_date": "2024-04-01"
      }
    },
    {
      "type": "Feature",
      "geometry": {
        "type": "Point",
        "coordinates": [
          -61.3798167,
          16.2228366
        ]
      },
      "properties": {
        "id": 124944107,
        "osm_type": "way",
        "name": "Le Nil / Le Diwali",
        "tourism": "hotel"
      }
    },
    {
      "type": "Feature",
      "geometry": {
        "type": "Point",
        "coordinates": [
          -61.4188584,
          16.23511
        ]
      },
      "properties": {
        "id": 124944286,
        "osm_type": "way",
        "name": "LOCASTUDIO",
        "tourism": "guest_house",
        "phone": "+590 590 442 527",
        "website": "https://loca-studio.com/"
      }
    },
    {
      "type": "Feature",
      "geometry": {
        "type": "Point",
        "coordinates": [
          -61.382172,
          16.2233536
        ]
      },
      "properties": {
        "id": 124944436,
        "osm_type": "way",
        "name": "Auberge Le Grand Large",
        "tourism": "hotel",
        "website": "http://hotel-le-grand-large.hotel-plage-guadeloupe.com/"
      }
    },
    {
      "type": "Feature",
      "geometry": {
        "type": "Point",
        "coordinates": [
          -61.3437363,
          16.248177
        ]
      },
      "properties": {
        "id": 124944594,
        "osm_type": "way",
        "name": "Île Tropical Lodge",
        "tourism": "guest_house"
      }
    },
    {
      "type": "Feature",
      "geometry": {
        "type": "Point",
        "coordinates": [
          -61.4994518,
          16.2123374
        ]
      },
      "properties": {
        "id": 125027101,
        "osm_type": "way",
        "name": "La Maison Créole Hotel",
        "tourism": "hotel"
      }
    },
    {
      "type": "Feature",
      "geometry": {
        "type": "Point",
        "coordinates": [
          -61.4328414,
          16.2149096
        ]
      },
      "properties": {
        "id": 125028770,
        "osm_type": "way",
        "tourism": "guest_house"
      }
    },
    {
      "type": "Feature",
      "geometry": {
        "type": "Point",
        "coordinates": [
          -61.2696504,
          16.2522133
        ]
      },
      "properties": {
        "id": 125033964,
        "osm_type": "way",
        "tourism": "hotel"
      }
    },
    {
      "type": "Feature",
      "geometry": {
        "type": "Point",
        "coordinates": [
          -61.4395308,
          16.2109205
        ]
      },
      "properties": {
        "id": 125037108,
        "osm_type": "way",
        "name": "E.Gwada Hostel",
        "tourism": "hostel"
      }
    },
    {
      "type": "Feature",
      "geometry": {
        "type": "Point",
        "coordinates": [
          -61.5263042,
          16.2197895
        ]
      },
      "properties": {
        "id": 125052016,
        "osm_type": "way",
        "name": "Hotel Vilage Soleil La Marina",
        "tourism": "hotel"
      }
    },
    {
      "type": "Feature",
      "geometry": {
        "type": "Point",
        "coordinates": [
          -61.4572882,
          16.2113943
        ]
      },
      "properties": {
        "id": 125059063,
        "osm_type": "way",
        "tourism": "hostel"
      }
    },
    {
      "type": "Feature",
      "geometry": {
        "type": "Point",
        "coordinates": [
          -61.5850389,
          15.8637527
        ]
      },
      "properties": {
        "id": 125181939,
        "osm_type": "way",
        "name": "Lô Bleu Hôtel",
        "tourism": "hotel",
        "website": "https://lobleuhotel.com/",
        "check_date": "2024-12-28"
      }
    },
    {
      "type": "Feature",
      "geometry": {
        "type": "Point",
        "coordinates": [
          -61.5897918,
          15.8630518
        ]
      },
      "properties": {
        "id": 125182884,
        "osm_type": "way",
        "name": "Jardins sur Mer",
        "tourism": "apartment"
      }
    },
    {
      "type": "Feature",
      "geometry": {
        "type": "Point",
        "coordinates": [
          -61.5782055,
          15.866224
        ]
      },
      "properties": {
        "id": 125183140,
        "osm_type": "way",
        "tourism": "guest_house"
      }
    },
    {
      "type": "Feature",
      "geometry": {
        "type": "Point",
        "coordinates": [
          -61.5827394,
          15.8621769
        ]
      },
      "properties": {
        "id": 125183390,
        "osm_type": "way",
        "name": "Les Petits Saints",
        "tourism": "hotel",
        "website": "https://petitssaints.com/"
      }
    },
    {
      "type": "Feature",
      "geometry": {
        "type": "Point",
        "coordinates": [
          -61.5898655,
          15.8627593
        ]
      },
      "properties": {
        "id": 125183583,
        "osm_type": "way",
        "name": "Le Paradis Saintois",
        "tourism": "hotel"
      }
    },
    {
      "type": "Feature",
      "geometry": {
        "type": "Point",
        "coordinates": [
          -61.7100005,
          16.3074012
        ]
      },
      "properties": {
        "id": 125251338,
        "osm_type": "way",
        "name": "Villa les Alizés de Sofaïa",
        "tourism": "apartment"
      }
    },
    {
      "type": "Feature",
      "geometry": {
        "type": "Point",
        "coordinates": [
          -61.7211878,
          16.3412657
        ]
      },
      "properties": {
        "id": 125262894,
        "osm_type": "way",
        "name": "Habitation du Compté",
        "tourism": "hotel"
      }
    },
    {
      "type": "Feature",
      "geometry": {
        "type": "Point",
        "coordinates": [
          -61.2227105,
          15.891798
        ]
      },
      "properties": {
        "id": 125320771,
        "osm_type": "way",
        "tourism": "guest_house"
      }
    },
    {
      "type": "Feature",
      "geometry": {
        "type": "Point",
        "coordinates": [
          -61.2575904,
          15.8726449
        ]
      },
      "properties": {
        "id": 125322533,
        "osm_type": "way",
        "name": "Le M",
        "tourism": "hotel"
      }
    },
    {
      "type": "Feature",
      "geometry": {
        "type": "Point",
        "coordinates": [
          -61.2237547,
          15.8935017
        ]
      },
      "properties": {
        "id": 125324259,
        "osm_type": "way",
        "name": "Soleil Levant",
        "tourism": "hotel"
      }
    },
    {
      "type": "Feature",
      "geometry": {
        "type": "Point",
        "coordinates": [
          -61.2168652,
          15.9310519
        ]
      },
      "properties": {
        "id": 125324336,
        "osm_type": "way",
        "name": "Gîtes et spa ESAT Jericho",
        "tourism": "guest_house"
      }
    },
    {
      "type": "Feature",
      "geometry": {
        "type": "Point",
        "coordinates": [
          -61.3831507,
          16.3231718
        ]
      },
      "properties": {
        "id": 130367394,
        "osm_type": "way",
        "tourism": "chalet"
      }
    },
    {
      "type": "Feature",
      "geometry": {
        "type": "Point",
        "coordinates": [
          -61.6926852,
          16.0252775
        ]
      },
      "properties": {
        "id": 131453450,
        "osm_type": "way",
        "name": "Les bananes vertes",
        "tourism": "guest_house",
        "website": "https://www.lesbananesvertes.fr/"
      }
    },
    {
      "type": "Feature",
      "geometry": {
        "type": "Point",
        "coordinates": [
          -61.6989632,
          16.0329645
        ]
      },
      "properties": {
        "id": 131463908,
        "osm_type": "way",
        "name": "Habitation Matouba",
        "tourism": "guest_house",
        "website": "https://www.habitationmatouba.com/"
      }
    },
    {
      "type": "Feature",
      "geometry": {
        "type": "Point",
        "coordinates": [
          -61.2766244,
          16.2833616
        ]
      },
      "properties": {
        "id": 199767389,
        "osm_type": "way",
        "name": "Eden Nat",
        "tourism": "chalet",
        "phone": "+590 590 83 45 71",
        "website": "http://www.eden-nat.com/"
      }
    },
    {
      "type": "Feature",
      "geometry": {
        "type": "Point",
        "coordinates": [
          -61.3038293,
          16.322944
        ]
      },
      "properties": {
        "id": 199767390,
        "osm_type": "way",
        "name": "Résidence Club Caraibes",
        "tourism": "motel",
        "phone": "+590 690 44 11 54",
        "website": "https://caraibesnat.pagesperso-orange.fr/"
      }
    },
    {
      "type": "Feature",
      "geometry": {
        "type": "Point",
        "coordinates": [
          -61.3044528,
          16.3226146
        ]
      },
      "properties": {
        "id": 199767391,
        "osm_type": "way",
        "name": "Résidence Club Caraibes",
        "tourism": "motel",
        "phone": "+590 690 44 11 54",
        "website": "https://caraibesnat.pagesperso-orange.fr/"
      }
    },
    {
      "type": "Feature",
      "geometry": {
        "type": "Point",
        "coordinates": [
          -61.6971386,
          16.0325968
        ]
      },
      "properties": {
        "id": 242421010,
        "osm_type": "way",
        "name": "Les Cycas",
        "tourism": "chalet"
      }
    },
    {
      "type": "Feature",
      "geometry": {
        "type": "Point",
        "coordinates": [
          -61.6393776,
          15.9921745
        ]
      },
      "properties": {
        "id": 287740185,
        "osm_type": "way",
        "name": "Le Jardin Malanga",
        "tourism": "hotel",
        "check_date": "2026-03-18"
      }
    },
    {
      "type": "Feature",
      "geometry": {
        "type": "Point",
        "coordinates": [
          -61.0715935,
          16.3058946
        ]
      },
      "properties": {
        "id": 289734152,
        "osm_type": "way",
        "name": "La Luzarchadise",
        "tourism": "chalet"
      }
    },
    {
      "type": "Feature",
      "geometry": {
        "type": "Point",
        "coordinates": [
          -61.5909151,
          15.8624323
        ]
      },
      "properties": {
        "id": 293803088,
        "osm_type": "way",
        "name": "Villa Hermine",
        "tourism": "hotel",
        "website": "https://www.villahermine.com/"
      }
    },
    {
      "type": "Feature",
      "geometry": {
        "type": "Point",
        "coordinates": [
          -61.7666411,
          16.1527239
        ]
      },
      "properties": {
        "id": 323462566,
        "osm_type": "way",
        "name": "Le Paradis Créole",
        "tourism": "motel"
      }
    },
    {
      "type": "Feature",
      "geometry": {
        "type": "Point",
        "coordinates": [
          -61.285388,
          15.870702
        ]
      },
      "properties": {
        "id": 364324267,
        "osm_type": "way",
        "name": "Coco Beach Resort",
        "tourism": "hotel",
        "website": "http://www.cocobeachmariegalante.com/"
      }
    },
    {
      "type": "Feature",
      "geometry": {
        "type": "Point",
        "coordinates": [
          -61.4990333,
          16.2059871
        ]
      },
      "properties": {
        "id": 383204911,
        "osm_type": "way",
        "name": "Auberge de la Vieille Tour",
        "tourism": "hotel",
        "phone": "+590 590 84 2323",
        "website": "https://auberge-vieille-tour.fr/"
      }
    },
    {
      "type": "Feature",
      "geometry": {
        "type": "Point",
        "coordinates": [
          -61.4940505,
          16.2050232
        ]
      },
      "properties": {
        "id": 383204912,
        "osm_type": "way",
        "name": "La Pergola",
        "tourism": "hotel",
        "phone": "+590 590 84 4444",
        "website": "https://lapergolagosier.wordpress.com/"
      }
    },
    {
      "type": "Feature",
      "geometry": {
        "type": "Point",
        "coordinates": [
          -61.5054093,
          16.207905
        ]
      },
      "properties": {
        "id": 394457807,
        "osm_type": "way",
        "name": "Hotel Prao",
        "tourism": "hotel"
      }
    },
    {
      "type": "Feature",
      "geometry": {
        "type": "Point",
        "coordinates": [
          -61.3045621,
          16.2450727
        ]
      },
      "properties": {
        "id": 450585594,
        "osm_type": "way",
        "name": "Villa Blue Lagoon St François",
        "tourism": "hotel",
        "website": "https://www.villabluelagoonstfrancois.com/"
      }
    },
    {
      "type": "Feature",
      "geometry": {
        "type": "Point",
        "coordinates": [
          -61.0246933,
          16.3258699
        ]
      },
      "properties": {
        "id": 472411459,
        "osm_type": "way",
        "tourism": "chalet"
      }
    },
    {
      "type": "Feature",
      "geometry": {
        "type": "Point",
        "coordinates": [
          -61.024912,
          16.3257162
        ]
      },
      "properties": {
        "id": 472411460,
        "osm_type": "way",
        "tourism": "chalet"
      }
    },
    {
      "type": "Feature",
      "geometry": {
        "type": "Point",
        "coordinates": [
          -61.0251764,
          16.3256414
        ]
      },
      "properties": {
        "id": 472411461,
        "osm_type": "way",
        "tourism": "chalet"
      }
    },
    {
      "type": "Feature",
      "geometry": {
        "type": "Point",
        "coordinates": [
          -61.0252807,
          16.3262051
        ]
      },
      "properties": {
        "id": 472411462,
        "osm_type": "way",
        "name": "Gîte Les Flots Bleus",
        "tourism": "chalet"
      }
    },
    {
      "type": "Feature",
      "geometry": {
        "type": "Point",
        "coordinates": [
          -61.6402689,
          15.8498306
        ]
      },
      "properties": {
        "id": 474842382,
        "osm_type": "way",
        "name": "Le Soleil d'Eméry",
        "tourism": "guest_house"
      }
    },
    {
      "type": "Feature",
      "geometry": {
        "type": "Point",
        "coordinates": [
          -61.3304566,
          15.9438118
        ]
      },
      "properties": {
        "id": 567603746,
        "osm_type": "way",
        "name": "Kawann Beach Hotel",
        "tourism": "hotel"
      }
    },
    {
      "type": "Feature",
      "geometry": {
        "type": "Point",
        "coordinates": [
          -61.3187014,
          15.9538771
        ]
      },
      "properties": {
        "id": 568755488,
        "osm_type": "way",
        "name": "Le Coin Tranquille",
        "tourism": "hotel",
        "check_date": "2026-01-02"
      }
    },
    {
      "type": "Feature",
      "geometry": {
        "type": "Point",
        "coordinates": [
          -61.28686,
          15.8842223
        ]
      },
      "properties": {
        "id": 568814212,
        "osm_type": "way",
        "name": "Villa OBED",
        "tourism": "guest_house"
      }
    },
    {
      "type": "Feature",
      "geometry": {
        "type": "Point",
        "coordinates": [
          -61.3833118,
          16.3230725
        ]
      },
      "properties": {
        "id": 579058925,
        "osm_type": "way",
        "tourism": "chalet"
      }
    },
    {
      "type": "Feature",
      "geometry": {
        "type": "Point",
        "coordinates": [
          -61.3832501,
          16.3229284
        ]
      },
      "properties": {
        "id": 579058926,
        "osm_type": "way",
        "tourism": "chalet"
      }
    },
    {
      "type": "Feature",
      "geometry": {
        "type": "Point",
        "coordinates": [
          -61.3828302,
          16.3241331
        ]
      },
      "properties": {
        "id": 579058928,
        "osm_type": "way",
        "tourism": "chalet"
      }
    },
    {
      "type": "Feature",
      "geometry": {
        "type": "Point",
        "coordinates": [
          -61.3829309,
          16.3243133
        ]
      },
      "properties": {
        "id": 579058929,
        "osm_type": "way",
        "tourism": "chalet"
      }
    },
    {
      "type": "Feature",
      "geometry": {
        "type": "Point",
        "coordinates": [
          -61.4224912,
          16.4042479
        ]
      },
      "properties": {
        "id": 661894657,
        "osm_type": "way",
        "name": "Maison des Alizés",
        "tourism": "chalet"
      }
    },
    {
      "type": "Feature",
      "geometry": {
        "type": "Point",
        "coordinates": [
          -61.4503452,
          16.3540834
        ]
      },
      "properties": {
        "id": 672035022,
        "osm_type": "way",
        "name": "Le Relax",
        "tourism": "hotel"
      }
    },
    {
      "type": "Feature",
      "geometry": {
        "type": "Point",
        "coordinates": [
          -61.2733288,
          16.2533837
        ]
      },
      "properties": {
        "id": 736964596,
        "osm_type": "way",
        "name": "Butterfly Hostel",
        "tourism": "hostel"
      }
    },
    {
      "type": "Feature",
      "geometry": {
        "type": "Point",
        "coordinates": [
          -61.5366226,
          16.2349442
        ]
      },
      "properties": {
        "id": 898168423,
        "osm_type": "way",
        "name": "Hôtel Saint-John Perse",
        "tourism": "hotel"
      }
    },
    {
      "type": "Feature",
      "geometry": {
        "type": "Point",
        "coordinates": [
          -61.7768325,
          16.2110936
        ]
      },
      "properties": {
        "id": 988422614,
        "osm_type": "way",
        "name": "Eden Forest Villa",
        "tourism": "apartment"
      }
    },
    {
      "type": "Feature",
      "geometry": {
        "type": "Point",
        "coordinates": [
          -61.7860258,
          16.2271856
        ]
      },
      "properties": {
        "id": 988422621,
        "osm_type": "way",
        "name": "Villa Full Moon",
        "tourism": "apartment"
      }
    },
    {
      "type": "Feature",
      "geometry": {
        "type": "Point",
        "coordinates": [
          -61.341405,
          16.2438235
        ]
      },
      "properties": {
        "id": 1005960944,
        "osm_type": "way",
        "name": "Location de gite Kokoplaj",
        "tourism": "chalet"
      }
    },
    {
      "type": "Feature",
      "geometry": {
        "type": "Point",
        "coordinates": [
          -61.4022034,
          16.2186455
        ]
      },
      "properties": {
        "id": 1021277075,
        "osm_type": "way",
        "name": "La Toubana",
        "tourism": "hotel"
      }
    },
    {
      "type": "Feature",
      "geometry": {
        "type": "Point",
        "coordinates": [
          -61.2859426,
          16.0012794
        ]
      },
      "properties": {
        "id": 1075983548,
        "osm_type": "way",
        "name": "Residence les palmes du Moulin",
        "tourism": "chalet"
      }
    },
    {
      "type": "Feature",
      "geometry": {
        "type": "Point",
        "coordinates": [
          -61.2239623,
          15.8891651
        ]
      },
      "properties": {
        "id": 1099642923,
        "osm_type": "way",
        "name": "Cap Reva",
        "tourism": "hotel"
      }
    },
    {
      "type": "Feature",
      "geometry": {
        "type": "Point",
        "coordinates": [
          -61.7605052,
          16.0461633
        ]
      },
      "properties": {
        "id": 1099715757,
        "osm_type": "way",
        "name": "Hôtel de Rocroy",
        "tourism": "hotel"
      }
    },
    {
      "type": "Feature",
      "geometry": {
        "type": "Point",
        "coordinates": [
          -61.6696316,
          16.2411374
        ]
      },
      "properties": {
        "id": 1101045827,
        "osm_type": "way",
        "name": "Résidence les Kalbassiers",
        "tourism": "chalet"
      }
    },
    {
      "type": "Feature",
      "geometry": {
        "type": "Point",
        "coordinates": [
          -61.645155,
          15.9782461
        ]
      },
      "properties": {
        "id": 1101520552,
        "osm_type": "way",
        "name": "An Eol Caraïbes",
        "tourism": "hotel",
        "phone": "+590 590 81 22 01",
        "website": "https://www.aneolcaraibes.fr/"
      }
    },
    {
      "type": "Feature",
      "geometry": {
        "type": "Point",
        "coordinates": [
          -61.8051618,
          16.2678946
        ]
      },
      "properties": {
        "id": 1102655741,
        "osm_type": "way",
        "name": "Résidence Hôtelière De Petite Anse",
        "tourism": "hotel"
      }
    },
    {
      "type": "Feature",
      "geometry": {
        "type": "Point",
        "coordinates": [
          -61.6006359,
          15.8597059
        ]
      },
      "properties": {
        "id": 1102655742,
        "osm_type": "way",
        "name": "Hôtel Bois Joli",
        "tourism": "hotel"
      }
    },
    {
      "type": "Feature",
      "geometry": {
        "type": "Point",
        "coordinates": [
          -61.5144553,
          16.4704841
        ]
      },
      "properties": {
        "id": 1103888464,
        "osm_type": "way",
        "name": "Village Vacances EDF",
        "tourism": "hotel"
      }
    },
    {
      "type": "Feature",
      "geometry": {
        "type": "Point",
        "coordinates": [
          -61.7032423,
          16.0210371
        ]
      },
      "properties": {
        "id": 1104393883,
        "osm_type": "way",
        "name": "Hôtel Saint-Georges",
        "tourism": "hotel",
        "website": "https://hotelsaintgeorges.gp/"
      }
    },
    {
      "type": "Feature",
      "geometry": {
        "type": "Point",
        "coordinates": [
          -61.3055905,
          15.9513221
        ]
      },
      "properties": {
        "id": 1149542084,
        "osm_type": "way",
        "name": "Domaine de Meilly",
        "tourism": "camp_site"
      }
    },
    {
      "type": "Feature",
      "geometry": {
        "type": "Point",
        "coordinates": [
          -61.7355405,
          16.3550422
        ]
      },
      "properties": {
        "id": 1208257449,
        "osm_type": "way",
        "name": "La Marmite Kréyol",
        "tourism": "apartment"
      }
    },
    {
      "type": "Feature",
      "geometry": {
        "type": "Point",
        "coordinates": [
          -61.6536637,
          15.9787078
        ]
      },
      "properties": {
        "id": 1368368077,
        "osm_type": "way",
        "name": "Gite chez Marie-Christine",
        "tourism": "apartment",
        "phone": "+590 690714012"
      }
    },
    {
      "type": "Feature",
      "geometry": {
        "type": "Point",
        "coordinates": [
          -61.7697316,
          16.1506279
        ]
      },
      "properties": {
        "id": 1432588391,
        "osm_type": "way",
        "name": "Gîtes Rêve caraïbes",
        "tourism": "apartment",
        "website": "https://www.revecaraibes.com/"
      }
    },
    {
      "type": "Feature",
      "geometry": {
        "type": "Point",
        "coordinates": [
          -61.0668576,
          16.306347
        ]
      },
      "properties": {
        "id": 1436283695,
        "osm_type": "way",
        "name": "Les Gîtes de la Grande Ravine",
        "tourism": "guest_house",
        "website": "https://gitesgranderavine.wixsite.com"
      }
    },
    {
      "type": "Feature",
      "geometry": {
        "type": "Point",
        "coordinates": [
          -61.7836103,
          16.3237353
        ]
      },
      "properties": {
        "id": 1468797607,
        "osm_type": "way",
        "name": "Habitation Grande Anse",
        "tourism": "hotel"
      }
    },
    {
      "type": "Feature",
      "geometry": {
        "type": "Point",
        "coordinates": [
          -61.5070788,
          16.2074132
        ]
      },
      "properties": {
        "id": 370831,
        "osm_type": "relation",
        "name": "Hôtel La Créole",
        "tourism": "hotel"
      }
    },
    {
      "type": "Feature",
      "geometry": {
        "type": "Point",
        "coordinates": [
          -61.4394504,
          16.2108135
        ]
      },
      "properties": {
        "id": 3632124,
        "osm_type": "relation",
        "name": "E.Gwada Hostel",
        "tourism": "hostel",
        "phone": "+590 5 90 55 67 86",
        "website": "https://www.e-gwada.net/"
      }
    }
  ]
}