{
  "type": "FeatureCollection",
  "features": [
    {
      "type": "Feature",
      "geometry": {
        "type": "Point",
        "coordinates": [
          16.0299558,
          45.8189276
        ]
      },
      "properties": {
        "id": 286651500,
        "osm_type": "node",
        "name": "Youthhostel Ravnice",
        "tourism": "hostel"
      }
    },
    {
      "type": "Feature",
      "geometry": {
        "type": "Point",
        "coordinates": [
          15.9551052,
          45.8997568
        ]
      },
      "properties": {
        "id": 830667352,
        "osm_type": "node",
        "name": "Grofica",
        "tourism": "alpine_hut",
        "opening_hours": "Mo-Su 08:00-20:00",
        "phone": "+385 1 4559 701",
        "website": "https://planinarskidomgrofica.eatbu.hr"
      }
    },
    {
      "type": "Feature",
      "geometry": {
        "type": "Point",
        "coordinates": [
          15.9820809,
          45.8121186
        ]
      },
      "properties": {
        "id": 939085668,
        "osm_type": "node",
        "name": "Hotel Capital",
        "tourism": "hotel",
        "phone": "+385 1 556 2700",
        "website": "https://www.amadriapark.com/hotel/amadria-park-hotel-capital-zagreb-heritage-hotel",
        "check_date": "2023-12-08"
      }
    },
    {
      "type": "Feature",
      "geometry": {
        "type": "Point",
        "coordinates": [
          15.9648485,
          45.798566
        ]
      },
      "properties": {
        "id": 1237379791,
        "osm_type": "node",
        "name": "Hostel Fancy",
        "tourism": "hostel",
        "check_date": "2025-10-17"
      }
    },
    {
      "type": "Feature",
      "geometry": {
        "type": "Point",
        "coordinates": [
          15.9378662,
          45.8121663
        ]
      },
      "properties": {
        "id": 1318835252,
        "osm_type": "node",
        "name": "Sobe Zagreb",
        "tourism": "guest_house",
        "contact:phone": "+38598556410",
        "contact:website": "http://www.sobezagreb.com"
      }
    },
    {
      "type": "Feature",
      "geometry": {
        "type": "Point",
        "coordinates": [
          15.9960988,
          45.8014041
        ]
      },
      "properties": {
        "id": 1330087140,
        "osm_type": "node",
        "name": "Meridijan 16",
        "tourism": "hotel",
        "phone": "+38516065200",
        "website": "http://www.meridijan16.com/"
      }
    },
    {
      "type": "Feature",
      "geometry": {
        "type": "Point",
        "coordinates": [
          15.9763278,
          45.8161867
        ]
      },
      "properties": {
        "id": 1377887963,
        "osm_type": "node",
        "name": "City Centre Hostel",
        "tourism": "hostel",
        "website": "http://www.citycentre.hostel.com/"
      }
    },
    {
      "type": "Feature",
      "geometry": {
        "type": "Point",
        "coordinates": [
          15.9293323,
          45.8130376
        ]
      },
      "properties": {
        "id": 1473243970,
        "osm_type": "node",
        "name": "Mali mrak",
        "tourism": "hostel"
      }
    },
    {
      "type": "Feature",
      "geometry": {
        "type": "Point",
        "coordinates": [
          15.9772467,
          45.8160382
        ]
      },
      "properties": {
        "id": 1489476565,
        "osm_type": "node",
        "name": "Krovovi grada",
        "tourism": "guest_house"
      }
    },
    {
      "type": "Feature",
      "geometry": {
        "type": "Point",
        "coordinates": [
          15.9844326,
          45.8135757
        ]
      },
      "properties": {
        "id": 1511776898,
        "osm_type": "node",
        "name": "Jadran",
        "tourism": "hotel",
        "phone": "+385 1 4553 777",
        "website": "https://www.hotel-jadran.com.hr/"
      }
    },
    {
      "type": "Feature",
      "geometry": {
        "type": "Point",
        "coordinates": [
          15.9968223,
          45.8033787
        ]
      },
      "properties": {
        "id": 1603990538,
        "osm_type": "node",
        "tourism": "guest_house"
      }
    },
    {
      "type": "Feature",
      "geometry": {
        "type": "Point",
        "coordinates": [
          15.9164748,
          45.8015415
        ]
      },
      "properties": {
        "id": 1821365048,
        "osm_type": "node",
        "name": "Europa",
        "tourism": "motel"
      }
    },
    {
      "type": "Feature",
      "geometry": {
        "type": "Point",
        "coordinates": [
          15.9980679,
          45.8027588
        ]
      },
      "properties": {
        "id": 1823326817,
        "osm_type": "node",
        "name": "Sobes",
        "tourism": "hotel",
        "website": "https://www.rooms.hr/"
      }
    },
    {
      "type": "Feature",
      "geometry": {
        "type": "Point",
        "coordinates": [
          15.9768931,
          45.8147622
        ]
      },
      "properties": {
        "id": 1875071600,
        "osm_type": "node",
        "name": "Nokturno",
        "tourism": "hostel",
        "website": "http://www.hostel.nokturno.hr/",
        "check_date": "2025-06-03"
      }
    },
    {
      "type": "Feature",
      "geometry": {
        "type": "Point",
        "coordinates": [
          15.9629599,
          45.8124308
        ]
      },
      "properties": {
        "id": 1925454148,
        "osm_type": "node",
        "name": "Hotel Ilica",
        "tourism": "hotel",
        "phone": "+38513777522",
        "website": "http://www.hotel-ilica.hr",
        "check_date": "2024-06-20"
      }
    },
    {
      "type": "Feature",
      "geometry": {
        "type": "Point",
        "coordinates": [
          15.937931,
          45.7992341
        ]
      },
      "properties": {
        "id": 1934432500,
        "osm_type": "node",
        "name": "Doremiza",
        "tourism": "guest_house",
        "website": "https://www.doremiza.com/"
      }
    },
    {
      "type": "Feature",
      "geometry": {
        "type": "Point",
        "coordinates": [
          15.9571247,
          45.7915493
        ]
      },
      "properties": {
        "id": 2010606239,
        "osm_type": "node",
        "name": "The Movie hotel",
        "tourism": "hotel",
        "website": "https://www.agoda.com/the-movie-hotel-zagreb/hotel/zagreb-hr.html",
        "check_date": "2025-01-15"
      }
    },
    {
      "type": "Feature",
      "geometry": {
        "type": "Point",
        "coordinates": [
          15.8964053,
          45.7973838
        ]
      },
      "properties": {
        "id": 2126187627,
        "osm_type": "node",
        "tourism": "hostel"
      }
    },
    {
      "type": "Feature",
      "geometry": {
        "type": "Point",
        "coordinates": [
          15.9755128,
          45.8137908
        ]
      },
      "properties": {
        "id": 2126533266,
        "osm_type": "node",
        "name": "Apartment Lessi",
        "tourism": "guest_house",
        "check_date": "2024-05-14"
      }
    },
    {
      "type": "Feature",
      "geometry": {
        "type": "Point",
        "coordinates": [
          16.0032231,
          45.7977052
        ]
      },
      "properties": {
        "id": 2140190486,
        "osm_type": "node",
        "name": "Hulina",
        "tourism": "guest_house",
        "website": "https://www.agoda.com/hulina-apartment-no-front-desk-please-contact-the-property-5-days-before-arrival/hotel/zagreb-hr.html",
        "check_date": "2025-12-14"
      }
    },
    {
      "type": "Feature",
      "geometry": {
        "type": "Point",
        "coordinates": [
          15.900414,
          45.8091433
        ]
      },
      "properties": {
        "id": 2188472926,
        "osm_type": "node",
        "name": "Hotel Delminivm",
        "tourism": "hotel",
        "phone": "+385 1/3734-860",
        "website": "http://www.hotel-delminivm.hr"
      }
    },
    {
      "type": "Feature",
      "geometry": {
        "type": "Point",
        "coordinates": [
          15.9728235,
          45.8080885
        ]
      },
      "properties": {
        "id": 2188577449,
        "osm_type": "node",
        "name": "sobe Henrik",
        "tourism": "guest_house"
      }
    },
    {
      "type": "Feature",
      "geometry": {
        "type": "Point",
        "coordinates": [
          15.9738464,
          45.8136841
        ]
      },
      "properties": {
        "id": 2216921310,
        "osm_type": "node",
        "name": "Jägerhorn",
        "tourism": "hotel",
        "phone": "+385 1 4833877",
        "website": "https://www.hotel-jagerhorn.hr/",
        "check_date": "2024-05-25"
      }
    },
    {
      "type": "Feature",
      "geometry": {
        "type": "Point",
        "coordinates": [
          15.9838772,
          45.805638
        ]
      },
      "properties": {
        "id": 2218650631,
        "osm_type": "node",
        "name": "Palmers Lodge",
        "tourism": "hostel",
        "phone": "+385 1 8892 868",
        "website": "http://palmerslodge.com.hr/"
      }
    },
    {
      "type": "Feature",
      "geometry": {
        "type": "Point",
        "coordinates": [
          15.9580928,
          45.7938704
        ]
      },
      "properties": {
        "id": 2268341534,
        "osm_type": "node",
        "name": "Madison rooms Zagreb",
        "tourism": "guest_house",
        "website": "https://www.zagrebrooms.com/",
        "check_date": "2025-03-05"
      }
    },
    {
      "type": "Feature",
      "geometry": {
        "type": "Point",
        "coordinates": [
          15.9587244,
          45.7982067
        ]
      },
      "properties": {
        "id": 2286505998,
        "osm_type": "node",
        "name": "The Cherry Hostel",
        "tourism": "hostel"
      }
    },
    {
      "type": "Feature",
      "geometry": {
        "type": "Point",
        "coordinates": [
          15.9779885,
          45.7984316
        ]
      },
      "properties": {
        "id": 2287953136,
        "osm_type": "node",
        "name": "Rooms 4 You",
        "tourism": "hotel",
        "website": "http://www.room-zagreb.com",
        "check_date": "2024-12-17"
      }
    },
    {
      "type": "Feature",
      "geometry": {
        "type": "Point",
        "coordinates": [
          15.9978832,
          45.803382
        ]
      },
      "properties": {
        "id": 2300809767,
        "osm_type": "node",
        "name": "Hotel Sliško",
        "tourism": "hotel",
        "website": "http://slisko.hr"
      }
    },
    {
      "type": "Feature",
      "geometry": {
        "type": "Point",
        "coordinates": [
          16.1123861,
          45.8511314
        ]
      },
      "properties": {
        "id": 2311971120,
        "osm_type": "node",
        "name": "Raca",
        "tourism": "hotel",
        "website": "https://www.hotelraca.hr"
      }
    },
    {
      "type": "Feature",
      "geometry": {
        "type": "Point",
        "coordinates": [
          15.9672263,
          45.8052818
        ]
      },
      "properties": {
        "id": 2377276912,
        "osm_type": "node",
        "name": "Garden",
        "tourism": "hotel",
        "website": "https://www.gardenhotel.hr",
        "check_date": "2025-07-11"
      }
    },
    {
      "type": "Feature",
      "geometry": {
        "type": "Point",
        "coordinates": [
          15.9750816,
          45.8093096
        ]
      },
      "properties": {
        "id": 2379309306,
        "osm_type": "node",
        "name": "Alfa Micro",
        "tourism": "hostel"
      }
    },
    {
      "type": "Feature",
      "geometry": {
        "type": "Point",
        "coordinates": [
          15.9611605,
          45.8168049
        ]
      },
      "properties": {
        "id": 2394087692,
        "osm_type": "node",
        "name": "President Pantovčak",
        "tourism": "hotel",
        "website": "http://www.president-zagreb.com"
      }
    },
    {
      "type": "Feature",
      "geometry": {
        "type": "Point",
        "coordinates": [
          15.8745939,
          45.813148
        ]
      },
      "properties": {
        "id": 2408565312,
        "osm_type": "node",
        "name": "Apartments Bologna",
        "tourism": "apartment",
        "website": "https://www.apartmentszagreb.eu/"
      }
    },
    {
      "type": "Feature",
      "geometry": {
        "type": "Point",
        "coordinates": [
          16.0146391,
          45.8114034
        ]
      },
      "properties": {
        "id": 2489205318,
        "osm_type": "node",
        "name": "Hostel Favela",
        "tourism": "hostel",
        "website": "http://www.faveladom.hr"
      }
    },
    {
      "type": "Feature",
      "geometry": {
        "type": "Point",
        "coordinates": [
          15.9878077,
          45.8109742
        ]
      },
      "properties": {
        "id": 2524597845,
        "osm_type": "node",
        "name": "Apartments Bakić",
        "tourism": "guest_house",
        "phone": "+385 99 3702700",
        "website": "https://www.direct-croatia.com/apartments/zagreb/apartments-bakic/9052"
      }
    },
    {
      "type": "Feature",
      "geometry": {
        "type": "Point",
        "coordinates": [
          15.9758226,
          45.8142542
        ]
      },
      "properties": {
        "id": 2834415785,
        "osm_type": "node",
        "name": "Apartment Art",
        "tourism": "guest_house"
      }
    },
    {
      "type": "Feature",
      "geometry": {
        "type": "Point",
        "coordinates": [
          15.9688111,
          45.8131447
        ]
      },
      "properties": {
        "id": 2854645862,
        "osm_type": "node",
        "name": "Hotel Park 45",
        "tourism": "hotel",
        "phone": "+385 1 409 59 99"
      }
    },
    {
      "type": "Feature",
      "geometry": {
        "type": "Point",
        "coordinates": [
          15.9825677,
          45.8063529
        ]
      },
      "properties": {
        "id": 2974813255,
        "osm_type": "node",
        "name": "Temza",
        "tourism": "hostel",
        "check_date": "2025-08-31"
      }
    },
    {
      "type": "Feature",
      "geometry": {
        "type": "Point",
        "coordinates": [
          15.9779867,
          45.8147801
        ]
      },
      "properties": {
        "id": 2974821936,
        "osm_type": "node",
        "name": "Kaptol",
        "tourism": "hostel",
        "check_date": "2026-04-01"
      }
    },
    {
      "type": "Feature",
      "geometry": {
        "type": "Point",
        "coordinates": [
          15.9684966,
          45.8136449
        ]
      },
      "properties": {
        "id": 2974830005,
        "osm_type": "node",
        "name": "Stay Swanky",
        "tourism": "hostel",
        "phone": "+385 1 4004 248",
        "website": "https://stayswanky.com/stay/"
      }
    },
    {
      "type": "Feature",
      "geometry": {
        "type": "Point",
        "coordinates": [
          15.9727372,
          45.8120006
        ]
      },
      "properties": {
        "id": 2974835933,
        "osm_type": "node",
        "name": "Shappy",
        "tourism": "hostel"
      }
    },
    {
      "type": "Feature",
      "geometry": {
        "type": "Point",
        "coordinates": [
          15.9666613,
          45.8124165
        ]
      },
      "properties": {
        "id": 2974838706,
        "osm_type": "node",
        "name": "Hobo Bear Hostel",
        "tourism": "hostel"
      }
    },
    {
      "type": "Feature",
      "geometry": {
        "type": "Point",
        "coordinates": [
          15.9643528,
          45.8119442
        ]
      },
      "properties": {
        "id": 2974850340,
        "osm_type": "node",
        "name": "The Brit Hostel",
        "tourism": "hostel"
      }
    },
    {
      "type": "Feature",
      "geometry": {
        "type": "Point",
        "coordinates": [
          15.9753387,
          45.8126717
        ]
      },
      "properties": {
        "id": 2989352065,
        "osm_type": "node",
        "name": "Red Bike Point",
        "tourism": "guest_house"
      }
    },
    {
      "type": "Feature",
      "geometry": {
        "type": "Point",
        "coordinates": [
          15.9838359,
          45.8137156
        ]
      },
      "properties": {
        "id": 3046455948,
        "osm_type": "node",
        "name": "Art Hotel Like",
        "tourism": "hotel",
        "website": "http://www.arthotellike.hr",
        "check_date": "2026-04-01"
      }
    },
    {
      "type": "Feature",
      "geometry": {
        "type": "Point",
        "coordinates": [
          15.9898231,
          45.8025562
        ]
      },
      "properties": {
        "id": 3100917998,
        "osm_type": "node",
        "name": "Zagreb Centre",
        "tourism": "apartment"
      }
    },
    {
      "type": "Feature",
      "geometry": {
        "type": "Point",
        "coordinates": [
          16.1085056,
          45.8059463
        ]
      },
      "properties": {
        "id": 3329671830,
        "osm_type": "node",
        "name": "Zovko Hoteli",
        "tourism": "hotel",
        "website": "https://www.hoteli-zovko.com/"
      }
    },
    {
      "type": "Feature",
      "geometry": {
        "type": "Point",
        "coordinates": [
          15.9732431,
          45.8137375
        ]
      },
      "properties": {
        "id": 3374505653,
        "osm_type": "node",
        "name": "Apartman studio Maleni",
        "tourism": "apartment",
        "phone": "+385 95 904 29 53",
        "website": "http://www.apartmentmaleni.com"
      }
    },
    {
      "type": "Feature",
      "geometry": {
        "type": "Point",
        "coordinates": [
          15.9477697,
          45.7987299
        ]
      },
      "properties": {
        "id": 3398219466,
        "osm_type": "node",
        "name": "Hostel54",
        "tourism": "hostel",
        "website": "http://hostel54.com/"
      }
    },
    {
      "type": "Feature",
      "geometry": {
        "type": "Point",
        "coordinates": [
          15.9807171,
          45.8074823
        ]
      },
      "properties": {
        "id": 3428555379,
        "osm_type": "node",
        "name": "Himalayan Hostel",
        "tourism": "hostel",
        "phone": "+385 97 756 4037",
        "website": "https://himalayanhostel.cro-hr.com"
      }
    },
    {
      "type": "Feature",
      "geometry": {
        "type": "Point",
        "coordinates": [
          15.9658143,
          45.8038634
        ]
      },
      "properties": {
        "id": 3428649395,
        "osm_type": "node",
        "name": "SC Caffe",
        "tourism": "guest_house",
        "check_date": "2025-09-04"
      }
    },
    {
      "type": "Feature",
      "geometry": {
        "type": "Point",
        "coordinates": [
          15.9968914,
          45.8019812
        ]
      },
      "properties": {
        "id": 3492827393,
        "osm_type": "node",
        "name": "Login",
        "tourism": "guest_house"
      }
    },
    {
      "type": "Feature",
      "geometry": {
        "type": "Point",
        "coordinates": [
          16.0134578,
          45.7977347
        ]
      },
      "properties": {
        "id": 3763127363,
        "osm_type": "node",
        "name": "Maju Jaya Hostel",
        "tourism": "hostel",
        "phone": "+385 99 441 0257",
        "website": "http://www.majujayazagreb.hostel.com"
      }
    },
    {
      "type": "Feature",
      "geometry": {
        "type": "Point",
        "coordinates": [
          15.9663404,
          45.8057554
        ]
      },
      "properties": {
        "id": 3772964462,
        "osm_type": "node",
        "name": "Zagreb Deluxe Apartmets",
        "tourism": "motel",
        "phone": "+385 918811581",
        "website": "https://www.zagrebdeluxe.com/",
        "check_date": "2025-09-01"
      }
    },
    {
      "type": "Feature",
      "geometry": {
        "type": "Point",
        "coordinates": [
          15.9504397,
          45.7597859
        ]
      },
      "properties": {
        "id": 3772998547,
        "osm_type": "node",
        "name": "Sunčani apartmani",
        "tourism": "chalet",
        "opening_hours": "24/7",
        "contact:phone": "+385 981814194",
        "website": "http://www.suncaniapartmani.hr/"
      }
    },
    {
      "type": "Feature",
      "geometry": {
        "type": "Point",
        "coordinates": [
          16.0005807,
          45.8005444
        ]
      },
      "properties": {
        "id": 4009870916,
        "osm_type": "node",
        "name": "Amanda Apartment",
        "tourism": "apartment",
        "website": "http://apartment-amanda-hr.book.direct"
      }
    },
    {
      "type": "Feature",
      "geometry": {
        "type": "Point",
        "coordinates": [
          15.9924205,
          45.8133891
        ]
      },
      "properties": {
        "id": 4078635007,
        "osm_type": "node",
        "name": "Hostel Casablanca",
        "tourism": "hostel",
        "opening_hours": "08:00-23:00",
        "website": "http://www.hostel-casablanca.com/"
      }
    },
    {
      "type": "Feature",
      "geometry": {
        "type": "Point",
        "coordinates": [
          16.0000494,
          45.8164914
        ]
      },
      "properties": {
        "id": 4104546488,
        "osm_type": "node",
        "name": "LeBan Hotelicious Guesthouse",
        "tourism": "guest_house"
      }
    },
    {
      "type": "Feature",
      "geometry": {
        "type": "Point",
        "coordinates": [
          16.0062211,
          45.8179096
        ]
      },
      "properties": {
        "id": 4126929289,
        "osm_type": "node",
        "name": "Funk Lounge Hostel",
        "tourism": "hostel",
        "opening_hours": "24/7",
        "phone": "+38515552707",
        "website": "http://www.funklounge.hr"
      }
    },
    {
      "type": "Feature",
      "geometry": {
        "type": "Point",
        "coordinates": [
          15.9828126,
          45.8130422
        ]
      },
      "properties": {
        "id": 4162582999,
        "osm_type": "node",
        "name": "Hostel Bureau",
        "tourism": "hostel",
        "opening_hours": "24/7",
        "website": "https://www.hostel-bureau.eu/"
      }
    },
    {
      "type": "Feature",
      "geometry": {
        "type": "Point",
        "coordinates": [
          15.9842641,
          45.8081716
        ]
      },
      "properties": {
        "id": 4238926390,
        "osm_type": "node",
        "name": "Filip",
        "tourism": "hostel",
        "website": "https://hostel-filip.zagrebhotels24.com/",
        "check_date": "2023-02-14"
      }
    },
    {
      "type": "Feature",
      "geometry": {
        "type": "Point",
        "coordinates": [
          15.9921309,
          45.8092948
        ]
      },
      "properties": {
        "id": 4272394590,
        "osm_type": "node",
        "name": "Private Room by Maja Savic",
        "tourism": "guest_house"
      }
    },
    {
      "type": "Feature",
      "geometry": {
        "type": "Point",
        "coordinates": [
          15.9740094,
          45.8131785
        ]
      },
      "properties": {
        "id": 4273072448,
        "osm_type": "node",
        "name": "Flower Square Apartment Ilica",
        "tourism": "hostel",
        "contact:phone": "+385 99 66 33 603",
        "contact:website": "http://flowersquare-apartments.com/"
      }
    },
    {
      "type": "Feature",
      "geometry": {
        "type": "Point",
        "coordinates": [
          15.9834175,
          45.8075624
        ]
      },
      "properties": {
        "id": 4294169890,
        "osm_type": "node",
        "tourism": "apartment"
      }
    },
    {
      "type": "Feature",
      "geometry": {
        "type": "Point",
        "coordinates": [
          15.998499,
          45.847504
        ]
      },
      "properties": {
        "id": 4366784195,
        "osm_type": "node",
        "name": "Apartman Nikita",
        "tourism": "apartment"
      }
    },
    {
      "type": "Feature",
      "geometry": {
        "type": "Point",
        "coordinates": [
          16.053799,
          45.8158675
        ]
      },
      "properties": {
        "id": 4369979289,
        "osm_type": "node",
        "tourism": "guest_house"
      }
    },
    {
      "type": "Feature",
      "geometry": {
        "type": "Point",
        "coordinates": [
          16.123477,
          45.8809705
        ]
      },
      "properties": {
        "id": 4407716591,
        "osm_type": "node",
        "name": "Vikendica",
        "tourism": "guest_house"
      }
    },
    {
      "type": "Feature",
      "geometry": {
        "type": "Point",
        "coordinates": [
          15.9757581,
          45.8138111
        ]
      },
      "properties": {
        "id": 4533958291,
        "osm_type": "node",
        "name": "Apartmani Centar Zagreb",
        "tourism": "apartment",
        "website": "http://apartmani-centar.com/",
        "check_date": "2024-05-14"
      }
    },
    {
      "type": "Feature",
      "geometry": {
        "type": "Point",
        "coordinates": [
          15.9769625,
          45.7821143
        ]
      },
      "properties": {
        "id": 4548779389,
        "osm_type": "node",
        "tourism": "caravan_site"
      }
    },
    {
      "type": "Feature",
      "geometry": {
        "type": "Point",
        "coordinates": [
          15.9626849,
          45.8138796
        ]
      },
      "properties": {
        "id": 4737939848,
        "osm_type": "node",
        "name": "Apartman Elena",
        "tourism": "apartment"
      }
    },
    {
      "type": "Feature",
      "geometry": {
        "type": "Point",
        "coordinates": [
          15.9816026,
          45.8102344
        ]
      },
      "properties": {
        "id": 4993596750,
        "osm_type": "node",
        "name": "Dots",
        "tourism": "hostel",
        "phone": "+385 99 375 0909",
        "website": "https://dotshostelzagreb.com/"
      }
    },
    {
      "type": "Feature",
      "geometry": {
        "type": "Point",
        "coordinates": [
          15.9837293,
          45.8133783
        ]
      },
      "properties": {
        "id": 5051988362,
        "osm_type": "node",
        "name": "studio apartman",
        "tourism": "guest_house"
      }
    },
    {
      "type": "Feature",
      "geometry": {
        "type": "Point",
        "coordinates": [
          15.9623984,
          45.8212676
        ]
      },
      "properties": {
        "id": 5073718749,
        "osm_type": "node",
        "name": "Apartment Green Bike",
        "tourism": "guest_house",
        "website": "https://www.booking.com/hotel/hr/apartment-green-bike.hr.html"
      }
    },
    {
      "type": "Feature",
      "geometry": {
        "type": "Point",
        "coordinates": [
          15.9628182,
          45.8041554
        ]
      },
      "properties": {
        "id": 5116182256,
        "osm_type": "node",
        "name": "Apartment B44",
        "tourism": "apartment",
        "website": "https://www.facebook.com/apartmentszagreb1"
      }
    },
    {
      "type": "Feature",
      "geometry": {
        "type": "Point",
        "coordinates": [
          15.9979978,
          45.8019642
        ]
      },
      "properties": {
        "id": 5178485921,
        "osm_type": "node",
        "name": "Stay@10 Rooms",
        "tourism": "guest_house",
        "website": "https://www.booking.com/Share-i8yTPo"
      }
    },
    {
      "type": "Feature",
      "geometry": {
        "type": "Point",
        "coordinates": [
          15.9342854,
          45.889666
        ]
      },
      "properties": {
        "id": 5248412918,
        "osm_type": "node",
        "name": "Dom Crvenog križa Grada Zagreba",
        "tourism": "hostel",
        "phone": "+385 1 4555 855",
        "website": "http://ckzg.hr/odjeli/domovi-crvenog-kriza/"
      }
    },
    {
      "type": "Feature",
      "geometry": {
        "type": "Point",
        "coordinates": [
          15.9537603,
          45.8147395
        ]
      },
      "properties": {
        "id": 5265415122,
        "osm_type": "node",
        "name": "Blacksmith apartment",
        "tourism": "apartment",
        "opening_hours": "24/7",
        "phone": "+385996949483"
      }
    },
    {
      "type": "Feature",
      "geometry": {
        "type": "Point",
        "coordinates": [
          16.0855328,
          45.8260066
        ]
      },
      "properties": {
        "id": 5412196523,
        "osm_type": "node",
        "tourism": "apartment"
      }
    },
    {
      "type": "Feature",
      "geometry": {
        "type": "Point",
        "coordinates": [
          15.9977165,
          45.8150897
        ]
      },
      "properties": {
        "id": 5433686821,
        "osm_type": "node",
        "name": "Home",
        "tourism": "guest_house"
      }
    },
    {
      "type": "Feature",
      "geometry": {
        "type": "Point",
        "coordinates": [
          15.9795595,
          45.8136277
        ]
      },
      "properties": {
        "id": 5599893367,
        "osm_type": "node",
        "name": "Centar",
        "tourism": "hostel",
        "website": "https://hostel-centar.com/"
      }
    },
    {
      "type": "Feature",
      "geometry": {
        "type": "Point",
        "coordinates": [
          15.9860918,
          45.8100924
        ]
      },
      "properties": {
        "id": 5684669399,
        "osm_type": "node",
        "name": "Le Premier",
        "tourism": "hotel",
        "phone": "+385 1 4400 880",
        "website": "https://www.lepremier.hr/",
        "check_date": "2023-07-19"
      }
    },
    {
      "type": "Feature",
      "geometry": {
        "type": "Point",
        "coordinates": [
          15.9829014,
          45.8243248
        ]
      },
      "properties": {
        "id": 5731294821,
        "osm_type": "node",
        "name": "Apartmani Bela",
        "tourism": "apartment"
      }
    },
    {
      "type": "Feature",
      "geometry": {
        "type": "Point",
        "coordinates": [
          15.9671391,
          45.8060642
        ]
      },
      "properties": {
        "id": 5805119453,
        "osm_type": "node",
        "name": "Livapartment",
        "tourism": "apartment"
      }
    },
    {
      "type": "Feature",
      "geometry": {
        "type": "Point",
        "coordinates": [
          15.9130906,
          45.7629766
        ]
      },
      "properties": {
        "id": 5906674689,
        "osm_type": "node",
        "name": "Hotel Galerija",
        "tourism": "hotel"
      }
    },
    {
      "type": "Feature",
      "geometry": {
        "type": "Point",
        "coordinates": [
          15.9766463,
          45.8192525
        ]
      },
      "properties": {
        "id": 5989622815,
        "osm_type": "node",
        "name": "Hotel Academia",
        "tourism": "hotel",
        "phone": "+385 1 4550 046",
        "website": "https://www.hotelacademia.hr/"
      }
    },
    {
      "type": "Feature",
      "geometry": {
        "type": "Point",
        "coordinates": [
          15.9336598,
          45.7907795
        ]
      },
      "properties": {
        "id": 6200446667,
        "osm_type": "node",
        "name": "Lucija Apartment",
        "tourism": "apartment"
      }
    },
    {
      "type": "Feature",
      "geometry": {
        "type": "Point",
        "coordinates": [
          15.9353338,
          45.7921029
        ]
      },
      "properties": {
        "id": 6200446676,
        "osm_type": "node",
        "name": "Apartmani Liu",
        "tourism": "guest_house"
      }
    },
    {
      "type": "Feature",
      "geometry": {
        "type": "Point",
        "coordinates": [
          15.9362063,
          45.792589
        ]
      },
      "properties": {
        "id": 6200643062,
        "osm_type": "node",
        "name": "No Limit Apartments",
        "tourism": "guest_house"
      }
    },
    {
      "type": "Feature",
      "geometry": {
        "type": "Point",
        "coordinates": [
          15.9322927,
          45.789165
        ]
      },
      "properties": {
        "id": 6200643203,
        "osm_type": "node",
        "name": "Apartment Jarun Comfort",
        "tourism": "apartment"
      }
    },
    {
      "type": "Feature",
      "geometry": {
        "type": "Point",
        "coordinates": [
          15.9753859,
          45.7976868
        ]
      },
      "properties": {
        "id": 6349660385,
        "osm_type": "node",
        "name": "toni's apartments",
        "tourism": "apartment"
      }
    },
    {
      "type": "Feature",
      "geometry": {
        "type": "Point",
        "coordinates": [
          15.9586958,
          45.8136712
        ]
      },
      "properties": {
        "id": 6418761013,
        "osm_type": "node",
        "name": "Lobagola B&B",
        "tourism": "guest_house",
        "website": "http://www.lobagola.com"
      }
    },
    {
      "type": "Feature",
      "geometry": {
        "type": "Point",
        "coordinates": [
          15.9989732,
          45.8045717
        ]
      },
      "properties": {
        "id": 6643308727,
        "osm_type": "node",
        "name": "Hilton Garden Inn Zagreb - Radnicka",
        "tourism": "hotel",
        "phone": "+385-1-6042730",
        "website": "https://www.hilton.com/en/hotels/zagpagi-hilton-garden-inn-zagreb-radnicka"
      }
    },
    {
      "type": "Feature",
      "geometry": {
        "type": "Point",
        "coordinates": [
          15.9833761,
          45.8148157
        ]
      },
      "properties": {
        "id": 6713054245,
        "osm_type": "node",
        "name": "Ribnjak",
        "tourism": "apartment"
      }
    },
    {
      "type": "Feature",
      "geometry": {
        "type": "Point",
        "coordinates": [
          15.9829281,
          45.8149615
        ]
      },
      "properties": {
        "id": 6713054249,
        "osm_type": "node",
        "tourism": "apartment"
      }
    },
    {
      "type": "Feature",
      "geometry": {
        "type": "Point",
        "coordinates": [
          15.9752892,
          45.8066457
        ]
      },
      "properties": {
        "id": 6733403140,
        "osm_type": "node",
        "name": "Indigo centar",
        "tourism": "apartment",
        "website": "https://indigo-centar.business.site/"
      }
    },
    {
      "type": "Feature",
      "geometry": {
        "type": "Point",
        "coordinates": [
          15.9715319,
          45.8161546
        ]
      },
      "properties": {
        "id": 6754086085,
        "osm_type": "node",
        "name": "Apartman Bok!",
        "tourism": "apartment",
        "phone": "+385 958289134",
        "website": "http://www.apartman-bok.com/hr/"
      }
    },
    {
      "type": "Feature",
      "geometry": {
        "type": "Point",
        "coordinates": [
          15.9397097,
          45.8016991
        ]
      },
      "properties": {
        "id": 6767298278,
        "osm_type": "node",
        "tourism": "guest_house"
      }
    },
    {
      "type": "Feature",
      "geometry": {
        "type": "Point",
        "coordinates": [
          15.978363,
          45.8212753
        ]
      },
      "properties": {
        "id": 6903787485,
        "osm_type": "node",
        "name": "2BDR terrace view",
        "tourism": "apartment"
      }
    },
    {
      "type": "Feature",
      "geometry": {
        "type": "Point",
        "coordinates": [
          16.0107969,
          45.8011975
        ]
      },
      "properties": {
        "id": 7034452931,
        "osm_type": "node",
        "name": "Party Hostel",
        "tourism": "hostel"
      }
    },
    {
      "type": "Feature",
      "geometry": {
        "type": "Point",
        "coordinates": [
          15.9704603,
          45.7934873
        ]
      },
      "properties": {
        "id": 7289572022,
        "osm_type": "node",
        "name": "Irundo Zagreb Apartmani",
        "tourism": "apartment",
        "phone": "+385 1 8895 433",
        "website": "https://cityplaza.hr/prostor-za-najam/apartmani/"
      }
    },
    {
      "type": "Feature",
      "geometry": {
        "type": "Point",
        "coordinates": [
          16.0832166,
          45.9272027
        ]
      },
      "properties": {
        "id": 7393326385,
        "osm_type": "node",
        "tourism": "apartment"
      }
    },
    {
      "type": "Feature",
      "geometry": {
        "type": "Point",
        "coordinates": [
          16.0646637,
          45.8135037
        ]
      },
      "properties": {
        "id": 7616567285,
        "osm_type": "node",
        "name": "Kuća",
        "tourism": "apartment"
      }
    },
    {
      "type": "Feature",
      "geometry": {
        "type": "Point",
        "coordinates": [
          15.9847145,
          45.8066161
        ]
      },
      "properties": {
        "id": 7839932119,
        "osm_type": "node",
        "name": "My Way House",
        "tourism": "hostel",
        "phone": "+385 91 613 2073",
        "check_date": "2025-03-15"
      }
    },
    {
      "type": "Feature",
      "geometry": {
        "type": "Point",
        "coordinates": [
          15.9642575,
          45.8120614
        ]
      },
      "properties": {
        "id": 7885950119,
        "osm_type": "node",
        "name": "Whole wide world hostel",
        "tourism": "hostel",
        "website": "https://www.www-hostel.com/"
      }
    },
    {
      "type": "Feature",
      "geometry": {
        "type": "Point",
        "coordinates": [
          15.9479732,
          45.7705942
        ]
      },
      "properties": {
        "id": 7908063268,
        "osm_type": "node",
        "name": "Hostel Arena",
        "tourism": "hostel",
        "phone": "+385 1 642 19 50",
        "website": "https://www.nazor.hr/hostel-arena-zagreb/"
      }
    },
    {
      "type": "Feature",
      "geometry": {
        "type": "Point",
        "coordinates": [
          15.9533568,
          45.7756748
        ]
      },
      "properties": {
        "id": 8778984323,
        "osm_type": "node",
        "name": "Hostel Lapidarium",
        "tourism": "hostel",
        "phone": "+385 1 7888 750"
      }
    },
    {
      "type": "Feature",
      "geometry": {
        "type": "Point",
        "coordinates": [
          15.9174681,
          45.8096357
        ]
      },
      "properties": {
        "id": 8796494756,
        "osm_type": "node",
        "tourism": "guest_house"
      }
    },
    {
      "type": "Feature",
      "geometry": {
        "type": "Point",
        "coordinates": [
          15.9746584,
          45.8093178
        ]
      },
      "properties": {
        "id": 8869450018,
        "osm_type": "node",
        "name": "Hostel Chameleon",
        "tourism": "hostel",
        "check_date": "2024-09-09"
      }
    },
    {
      "type": "Feature",
      "geometry": {
        "type": "Point",
        "coordinates": [
          15.9789135,
          45.8163276
        ]
      },
      "properties": {
        "id": 8926705292,
        "osm_type": "node",
        "name": "Grand Bells",
        "tourism": "guest_house",
        "phone": "+38516454915"
      }
    },
    {
      "type": "Feature",
      "geometry": {
        "type": "Point",
        "coordinates": [
          15.9737043,
          45.8095373
        ]
      },
      "properties": {
        "id": 9044701494,
        "osm_type": "node",
        "name": "Apartment Ferk",
        "tourism": "apartment"
      }
    },
    {
      "type": "Feature",
      "geometry": {
        "type": "Point",
        "coordinates": [
          15.9735683,
          45.8132043
        ]
      },
      "properties": {
        "id": 9119208357,
        "osm_type": "node",
        "name": "Timeout Heritage Hotel Zagreb",
        "tourism": "hostel",
        "phone": "+385 98 1600 123",
        "website": "https://out.city/"
      }
    },
    {
      "type": "Feature",
      "geometry": {
        "type": "Point",
        "coordinates": [
          16.0176373,
          45.8027621
        ]
      },
      "properties": {
        "id": 9288085110,
        "osm_type": "node",
        "name": "Forty Two",
        "tourism": "hotel"
      }
    },
    {
      "type": "Feature",
      "geometry": {
        "type": "Point",
        "coordinates": [
          15.9254106,
          45.8132148
        ]
      },
      "properties": {
        "id": 9316270871,
        "osm_type": "node",
        "tourism": "guest_house"
      }
    },
    {
      "type": "Feature",
      "geometry": {
        "type": "Point",
        "coordinates": [
          15.9515865,
          45.7967179
        ]
      },
      "properties": {
        "id": 9333054802,
        "osm_type": "node",
        "name": "Trešnja",
        "tourism": "guest_house"
      }
    },
    {
      "type": "Feature",
      "geometry": {
        "type": "Point",
        "coordinates": [
          15.9163302,
          45.802289
        ]
      },
      "properties": {
        "id": 9348980183,
        "osm_type": "node",
        "name": "sobe Isabel",
        "tourism": "guest_house",
        "website": "http://www.sobe-isabel.com/"
      }
    },
    {
      "type": "Feature",
      "geometry": {
        "type": "Point",
        "coordinates": [
          15.9219709,
          45.8294384
        ]
      },
      "properties": {
        "id": 9349078470,
        "osm_type": "node",
        "name": "apartman Old Pear",
        "tourism": "guest_house"
      }
    },
    {
      "type": "Feature",
      "geometry": {
        "type": "Point",
        "coordinates": [
          15.939343,
          45.8075814
        ]
      },
      "properties": {
        "id": 9411455467,
        "osm_type": "node",
        "name": "Hostel Leptir",
        "tourism": "hostel",
        "phone": "+385 98 314 980",
        "website": "https://www.booking.com/hotel/hr/leptir.hr.html",
        "check_date": "2024-05-16"
      }
    },
    {
      "type": "Feature",
      "geometry": {
        "type": "Point",
        "coordinates": [
          15.9241904,
          45.8084482
        ]
      },
      "properties": {
        "id": 9413449193,
        "osm_type": "node",
        "tourism": "guest_house"
      }
    },
    {
      "type": "Feature",
      "geometry": {
        "type": "Point",
        "coordinates": [
          15.9374765,
          45.8001678
        ]
      },
      "properties": {
        "id": 9592368149,
        "osm_type": "node",
        "tourism": "guest_house"
      }
    },
    {
      "type": "Feature",
      "geometry": {
        "type": "Point",
        "coordinates": [
          15.9748334,
          45.8084161
        ]
      },
      "properties": {
        "id": 9774685888,
        "osm_type": "node",
        "name": "Shangri-La Hostel",
        "tourism": "hostel",
        "phone": "+385916000491"
      }
    },
    {
      "type": "Feature",
      "geometry": {
        "type": "Point",
        "coordinates": [
          15.9769365,
          45.8104006
        ]
      },
      "properties": {
        "id": 9878516818,
        "osm_type": "node",
        "tourism": "apartment"
      }
    },
    {
      "type": "Feature",
      "geometry": {
        "type": "Point",
        "coordinates": [
          15.9909385,
          45.8125556
        ]
      },
      "properties": {
        "id": 9897083891,
        "osm_type": "node",
        "name": "eazzynight2",
        "tourism": "apartment",
        "phone": "+385 95 383 8565"
      }
    },
    {
      "type": "Feature",
      "geometry": {
        "type": "Point",
        "coordinates": [
          15.9762248,
          45.8138038
        ]
      },
      "properties": {
        "id": 9924347817,
        "osm_type": "node",
        "name": "Main Square Hostel",
        "tourism": "hostel"
      }
    },
    {
      "type": "Feature",
      "geometry": {
        "type": "Point",
        "coordinates": [
          15.976021,
          45.8138443
        ]
      },
      "properties": {
        "id": 10203688579,
        "osm_type": "node",
        "name": "Studio Apartman",
        "tourism": "apartment"
      }
    },
    {
      "type": "Feature",
      "geometry": {
        "type": "Point",
        "coordinates": [
          15.8957447,
          45.7602135
        ]
      },
      "properties": {
        "id": 10299303116,
        "osm_type": "node",
        "tourism": "hotel"
      }
    },
    {
      "type": "Feature",
      "geometry": {
        "type": "Point",
        "coordinates": [
          15.9596238,
          45.7991172
        ]
      },
      "properties": {
        "id": 10548529636,
        "osm_type": "node",
        "name": "Hotel Blue",
        "tourism": "hotel",
        "website": "https://www.hotelblue.eu"
      }
    },
    {
      "type": "Feature",
      "geometry": {
        "type": "Point",
        "coordinates": [
          15.9128378,
          45.7911871
        ]
      },
      "properties": {
        "id": 10731039794,
        "osm_type": "node",
        "tourism": "guest_house",
        "check_date": "2023-03-12"
      }
    },
    {
      "type": "Feature",
      "geometry": {
        "type": "Point",
        "coordinates": [
          15.89615,
          45.797514
        ]
      },
      "properties": {
        "id": 10736159266,
        "osm_type": "node",
        "name": "New gallery best west apartments",
        "tourism": "guest_house",
        "phone": "+385 91 951 69 19",
        "website": "https://new-gallery-best-west-apartment.business.site/"
      }
    },
    {
      "type": "Feature",
      "geometry": {
        "type": "Point",
        "coordinates": [
          15.9524133,
          45.8117332
        ]
      },
      "properties": {
        "id": 10776377448,
        "osm_type": "node",
        "tourism": "guest_house",
        "check_date": "2023-03-31"
      }
    },
    {
      "type": "Feature",
      "geometry": {
        "type": "Point",
        "coordinates": [
          15.9523975,
          45.8118546
        ]
      },
      "properties": {
        "id": 10776377449,
        "osm_type": "node",
        "name": "Studio apartman",
        "tourism": "guest_house",
        "check_date": "2023-03-31"
      }
    },
    {
      "type": "Feature",
      "geometry": {
        "type": "Point",
        "coordinates": [
          15.9521545,
          45.8115252
        ]
      },
      "properties": {
        "id": 10776377452,
        "osm_type": "node",
        "tourism": "guest_house",
        "check_date": "2023-03-31"
      }
    },
    {
      "type": "Feature",
      "geometry": {
        "type": "Point",
        "coordinates": [
          15.9558883,
          45.8082672
        ]
      },
      "properties": {
        "id": 10862512850,
        "osm_type": "node",
        "tourism": "guest_house"
      }
    },
    {
      "type": "Feature",
      "geometry": {
        "type": "Point",
        "coordinates": [
          15.9756407,
          45.8103304
        ]
      },
      "properties": {
        "id": 10926421207,
        "osm_type": "node",
        "tourism": "apartment"
      }
    },
    {
      "type": "Feature",
      "geometry": {
        "type": "Point",
        "coordinates": [
          16.0022472,
          45.8151857
        ]
      },
      "properties": {
        "id": 11012669198,
        "osm_type": "node",
        "name": "Guesthouse Sermageova",
        "tourism": "apartment",
        "phone": "+385915384172"
      }
    },
    {
      "type": "Feature",
      "geometry": {
        "type": "Point",
        "coordinates": [
          15.97483,
          45.8095015
        ]
      },
      "properties": {
        "id": 11099538005,
        "osm_type": "node",
        "tourism": "hostel"
      }
    },
    {
      "type": "Feature",
      "geometry": {
        "type": "Point",
        "coordinates": [
          15.9657962,
          45.8102587
        ]
      },
      "properties": {
        "id": 11176984543,
        "osm_type": "node",
        "name": "Tia apartaments and rooms",
        "tourism": "guest_house"
      }
    },
    {
      "type": "Feature",
      "geometry": {
        "type": "Point",
        "coordinates": [
          15.9658555,
          45.8102773
        ]
      },
      "properties": {
        "id": 11177712717,
        "osm_type": "node",
        "name": "tulip & rose",
        "tourism": "guest_house"
      }
    },
    {
      "type": "Feature",
      "geometry": {
        "type": "Point",
        "coordinates": [
          15.8866422,
          45.8118563
        ]
      },
      "properties": {
        "id": 11356710874,
        "osm_type": "node",
        "name": "Vila Mali Raj",
        "tourism": "apartment"
      }
    },
    {
      "type": "Feature",
      "geometry": {
        "type": "Point",
        "coordinates": [
          15.9695788,
          45.8137361
        ]
      },
      "properties": {
        "id": 11390373433,
        "osm_type": "node",
        "name": "Smile & Love",
        "tourism": "apartment"
      }
    },
    {
      "type": "Feature",
      "geometry": {
        "type": "Point",
        "coordinates": [
          15.9798261,
          45.8114695
        ]
      },
      "properties": {
        "id": 11455460452,
        "osm_type": "node",
        "name": "art'otel",
        "tourism": "hotel",
        "website": "https://artotelzagreb.com/"
      }
    },
    {
      "type": "Feature",
      "geometry": {
        "type": "Point",
        "coordinates": [
          15.9854188,
          45.8158731
        ]
      },
      "properties": {
        "id": 11597932908,
        "osm_type": "node",
        "name": "Poolside hostel",
        "tourism": "hostel",
        "phone": "+385 1 6646905"
      }
    },
    {
      "type": "Feature",
      "geometry": {
        "type": "Point",
        "coordinates": [
          15.8364857,
          45.8166859
        ]
      },
      "properties": {
        "id": 11731412202,
        "osm_type": "node",
        "name": "VaiLou Apartment",
        "tourism": "apartment",
        "phone": "+385 95 5740 240"
      }
    },
    {
      "type": "Feature",
      "geometry": {
        "type": "Point",
        "coordinates": [
          15.9536337,
          45.8148216
        ]
      },
      "properties": {
        "id": 11748273508,
        "osm_type": "node",
        "name": "Studio apartman",
        "tourism": "apartment",
        "phone": "+385 99 43 52 517"
      }
    },
    {
      "type": "Feature",
      "geometry": {
        "type": "Point",
        "coordinates": [
          15.9768657,
          45.8134627
        ]
      },
      "properties": {
        "id": 11780573216,
        "osm_type": "node",
        "name": "Main Square Dream Apartment",
        "tourism": "apartment",
        "website": "https://www.booking.com/hotel/hr/main-square-dream-apartment-zagreb.html",
        "check_date": "2019-08-06"
      }
    },
    {
      "type": "Feature",
      "geometry": {
        "type": "Point",
        "coordinates": [
          15.9946607,
          45.8032236
        ]
      },
      "properties": {
        "id": 11793676518,
        "osm_type": "node",
        "name": "Hotel iNova",
        "tourism": "hotel",
        "phone": "+385 1 4854 370; +385 92 504 3030",
        "website": "https://hotel-inova.com/",
        "check_date": "2025-12-30"
      }
    },
    {
      "type": "Feature",
      "geometry": {
        "type": "Point",
        "coordinates": [
          16.0460258,
          45.8265862
        ]
      },
      "properties": {
        "id": 11809547530,
        "osm_type": "node",
        "name": "Hotel Residence",
        "tourism": "hotel",
        "website": "https://residence-grupa.hr/hotels/hotel-residence/"
      }
    },
    {
      "type": "Feature",
      "geometry": {
        "type": "Point",
        "coordinates": [
          16.1357453,
          45.9264723
        ]
      },
      "properties": {
        "id": 11849645450,
        "osm_type": "node",
        "name": "Kuca za odmor Bajni Breg",
        "tourism": "apartment"
      }
    },
    {
      "type": "Feature",
      "geometry": {
        "type": "Point",
        "coordinates": [
          16.1378656,
          45.9269844
        ]
      },
      "properties": {
        "id": 11849645457,
        "osm_type": "node",
        "name": "Villa Cerina",
        "tourism": "chalet"
      }
    },
    {
      "type": "Feature",
      "geometry": {
        "type": "Point",
        "coordinates": [
          15.9834778,
          45.8099425
        ]
      },
      "properties": {
        "id": 11851039781,
        "osm_type": "node",
        "tourism": "apartment"
      }
    },
    {
      "type": "Feature",
      "geometry": {
        "type": "Point",
        "coordinates": [
          15.9820617,
          45.7822748
        ]
      },
      "properties": {
        "id": 11872337219,
        "osm_type": "node",
        "name": "Grace Apartment Zagreb Croatia",
        "tourism": "apartment",
        "website": "https://airbnb.com/h/graceapartment-zagreb-croatia"
      }
    },
    {
      "type": "Feature",
      "geometry": {
        "type": "Point",
        "coordinates": [
          15.9535867,
          45.8054177
        ]
      },
      "properties": {
        "id": 11920929037,
        "osm_type": "node",
        "tourism": "apartment"
      }
    },
    {
      "type": "Feature",
      "geometry": {
        "type": "Point",
        "coordinates": [
          15.9396206,
          45.8012166
        ]
      },
      "properties": {
        "id": 11921740798,
        "osm_type": "node",
        "name": "Du-na",
        "tourism": "guest_house",
        "check_date": "2024-05-21"
      }
    },
    {
      "type": "Feature",
      "geometry": {
        "type": "Point",
        "coordinates": [
          15.9983497,
          45.8198819
        ]
      },
      "properties": {
        "id": 11991639568,
        "osm_type": "node",
        "name": "Rooms @ Zajceva 34",
        "tourism": "guest_house"
      }
    },
    {
      "type": "Feature",
      "geometry": {
        "type": "Point",
        "coordinates": [
          15.9534434,
          45.8089383
        ]
      },
      "properties": {
        "id": 12033505089,
        "osm_type": "node",
        "name": "Balkan Express Hostel",
        "tourism": "hostel",
        "website": "https://peron16.eu/peron-16-hostel-boutique/",
        "check_date": "2024-07-02"
      }
    },
    {
      "type": "Feature",
      "geometry": {
        "type": "Point",
        "coordinates": [
          15.9516153,
          45.7980839
        ]
      },
      "properties": {
        "id": 12068678215,
        "osm_type": "node",
        "name": "MZ Apartment",
        "tourism": "guest_house"
      }
    },
    {
      "type": "Feature",
      "geometry": {
        "type": "Point",
        "coordinates": [
          15.9506835,
          45.7971544
        ]
      },
      "properties": {
        "id": 12068678219,
        "osm_type": "node",
        "name": "Paula Apartment",
        "tourism": "apartment"
      }
    },
    {
      "type": "Feature",
      "geometry": {
        "type": "Point",
        "coordinates": [
          15.9956104,
          45.8169794
        ]
      },
      "properties": {
        "id": 12100114001,
        "osm_type": "node",
        "name": "Rooms 23",
        "tourism": "hotel",
        "opening_hours": "24/7",
        "phone": "+385 91 510 0864",
        "website": "https://rooms.hr/listing/rooms-23-standard-room-with-balcony/"
      }
    },
    {
      "type": "Feature",
      "geometry": {
        "type": "Point",
        "coordinates": [
          15.9285363,
          45.8064116
        ]
      },
      "properties": {
        "id": 12128761637,
        "osm_type": "node",
        "tourism": "apartment"
      }
    },
    {
      "type": "Feature",
      "geometry": {
        "type": "Point",
        "coordinates": [
          15.9981188,
          45.8026676
        ]
      },
      "properties": {
        "id": 12228620311,
        "osm_type": "node",
        "name": "Nacional plus",
        "tourism": "apartment"
      }
    },
    {
      "type": "Feature",
      "geometry": {
        "type": "Point",
        "coordinates": [
          15.984849,
          45.8141168
        ]
      },
      "properties": {
        "id": 12241705466,
        "osm_type": "node",
        "name": "Hostel 63",
        "tourism": "hostel",
        "check_date": "2024-10-10"
      }
    },
    {
      "type": "Feature",
      "geometry": {
        "type": "Point",
        "coordinates": [
          15.974225,
          45.7989001
        ]
      },
      "properties": {
        "id": 12287607514,
        "osm_type": "node",
        "name": "Hotel International",
        "tourism": "hotel",
        "website": "https://www.maistra.com/hr/hotel-international-zagreb"
      }
    },
    {
      "type": "Feature",
      "geometry": {
        "type": "Point",
        "coordinates": [
          15.9527685,
          45.7858487
        ]
      },
      "properties": {
        "id": 12331357850,
        "osm_type": "node",
        "name": "Hostel Savski most",
        "tourism": "hostel",
        "check_date": "2024-11-11"
      }
    },
    {
      "type": "Feature",
      "geometry": {
        "type": "Point",
        "coordinates": [
          15.9708408,
          45.8138244
        ]
      },
      "properties": {
        "id": 12386953797,
        "osm_type": "node",
        "name": "Piu Trendy rooms",
        "tourism": "apartment"
      }
    },
    {
      "type": "Feature",
      "geometry": {
        "type": "Point",
        "coordinates": [
          16.09567,
          45.8785243
        ]
      },
      "properties": {
        "id": 12397398926,
        "osm_type": "node",
        "name": "Val-Travel",
        "tourism": "caravan_site",
        "opening_hours": "Apr-Oct",
        "website": "https://www.val-travel.com/camphr.htm"
      }
    },
    {
      "type": "Feature",
      "geometry": {
        "type": "Point",
        "coordinates": [
          15.9759536,
          45.7981024
        ]
      },
      "properties": {
        "id": 12682513377,
        "osm_type": "node",
        "tourism": "apartment"
      }
    },
    {
      "type": "Feature",
      "geometry": {
        "type": "Point",
        "coordinates": [
          15.9910723,
          45.8118979
        ]
      },
      "properties": {
        "id": 12743559810,
        "osm_type": "node",
        "tourism": "apartment"
      }
    },
    {
      "type": "Feature",
      "geometry": {
        "type": "Point",
        "coordinates": [
          15.9954051,
          45.8018863
        ]
      },
      "properties": {
        "id": 12820370397,
        "osm_type": "node",
        "name": "Hotel Avenue 21",
        "tourism": "hotel",
        "phone": "+385 99 162 3055",
        "website": "https://avenue21zagreb.com/",
        "check_date": "2025-05-08"
      }
    },
    {
      "type": "Feature",
      "geometry": {
        "type": "Point",
        "coordinates": [
          15.975329,
          45.8198098
        ]
      },
      "properties": {
        "id": 12892487701,
        "osm_type": "node",
        "name": "Boutique HOH",
        "tourism": "hotel"
      }
    },
    {
      "type": "Feature",
      "geometry": {
        "type": "Point",
        "coordinates": [
          15.97644,
          45.8182889
        ]
      },
      "properties": {
        "id": 12923801701,
        "osm_type": "node",
        "name": "Flok Apartments",
        "tourism": "apartment",
        "website": "https://www.stayflok.com/properties/flok-tkalciceva/",
        "check_date": "2025-11-04"
      }
    },
    {
      "type": "Feature",
      "geometry": {
        "type": "Point",
        "coordinates": [
          15.9637876,
          45.7723036
        ]
      },
      "properties": {
        "id": 12942290023,
        "osm_type": "node",
        "name": "Trnsko",
        "tourism": "apartment"
      }
    },
    {
      "type": "Feature",
      "geometry": {
        "type": "Point",
        "coordinates": [
          15.9642868,
          45.7742404
        ]
      },
      "properties": {
        "id": 12942290024,
        "osm_type": "node",
        "name": "Apartment Mia -V",
        "tourism": "apartment"
      }
    },
    {
      "type": "Feature",
      "geometry": {
        "type": "Point",
        "coordinates": [
          15.9619292,
          45.7761914
        ]
      },
      "properties": {
        "id": 12942290025,
        "osm_type": "node",
        "name": "Four Seasons Apartment",
        "tourism": "apartment"
      }
    },
    {
      "type": "Feature",
      "geometry": {
        "type": "Point",
        "coordinates": [
          15.9623171,
          45.776528
        ]
      },
      "properties": {
        "id": 12942290026,
        "osm_type": "node",
        "name": "m-blok",
        "tourism": "apartment"
      }
    },
    {
      "type": "Feature",
      "geometry": {
        "type": "Point",
        "coordinates": [
          15.9493564,
          45.8006868
        ]
      },
      "properties": {
        "id": 13110832901,
        "osm_type": "node",
        "name": "Lucky place apartment - Free parking",
        "tourism": "apartment",
        "opening_hours": "24/7",
        "phone": "+385 91 378 2146"
      }
    },
    {
      "type": "Feature",
      "geometry": {
        "type": "Point",
        "coordinates": [
          15.9953316,
          45.8167009
        ]
      },
      "properties": {
        "id": 13166024386,
        "osm_type": "node",
        "name": "Sobe kod lidije",
        "tourism": "guest_house"
      }
    },
    {
      "type": "Feature",
      "geometry": {
        "type": "Point",
        "coordinates": [
          15.9421535,
          45.8061797
        ]
      },
      "properties": {
        "id": 13252002340,
        "osm_type": "node",
        "tourism": "apartment"
      }
    },
    {
      "type": "Feature",
      "geometry": {
        "type": "Point",
        "coordinates": [
          15.9592491,
          45.7752286
        ]
      },
      "properties": {
        "id": 13286543262,
        "osm_type": "node",
        "name": "Apartments Grgic",
        "tourism": "apartment",
        "phone": "+385958202402",
        "website": "https://apartmentsgrgic.hr"
      }
    },
    {
      "type": "Feature",
      "geometry": {
        "type": "Point",
        "coordinates": [
          15.9759465,
          45.8052351
        ]
      },
      "properties": {
        "id": 29274070,
        "osm_type": "way",
        "name": "Hotel Esplanade",
        "tourism": "hotel",
        "phone": "+385 1 4566 666",
        "website": "https://www.esplanade.hr/"
      }
    },
    {
      "type": "Feature",
      "geometry": {
        "type": "Point",
        "coordinates": [
          15.9660086,
          45.8065704
        ]
      },
      "properties": {
        "id": 29351814,
        "osm_type": "way",
        "name": "Hotel Westin",
        "tourism": "hotel",
        "phone": "+385 1 4892 000",
        "website": "http://www.hotelwestinzagreb.com/",
        "check_date": "2025-09-01"
      }
    },
    {
      "type": "Feature",
      "geometry": {
        "type": "Point",
        "coordinates": [
          15.9837781,
          45.7827734
        ]
      },
      "properties": {
        "id": 32538368,
        "osm_type": "way",
        "name": "Hotel Zagreb",
        "tourism": "hotel",
        "website": "https://hotel-zagreb.hr/"
      }
    },
    {
      "type": "Feature",
      "geometry": {
        "type": "Point",
        "coordinates": [
          15.9473917,
          45.772038
        ]
      },
      "properties": {
        "id": 32785455,
        "osm_type": "way",
        "name": "Hotel Novi Zagreb",
        "tourism": "hotel",
        "phone": "+385 99 493 0610",
        "website": "https://hotel-novi-zagreb.hr/"
      }
    },
    {
      "type": "Feature",
      "geometry": {
        "type": "Point",
        "coordinates": [
          15.9964691,
          45.818142
        ]
      },
      "properties": {
        "id": 64440025,
        "osm_type": "way",
        "tourism": "guest_house"
      }
    },
    {
      "type": "Feature",
      "geometry": {
        "type": "Point",
        "coordinates": [
          16.0021079,
          45.7953109
        ]
      },
      "properties": {
        "id": 66888137,
        "osm_type": "way",
        "name": "The Loop Hotel",
        "tourism": "hotel",
        "contact:phone": "+385 1 4093 430",
        "website": "https://www.theloophotel.eu/en/"
      }
    },
    {
      "type": "Feature",
      "geometry": {
        "type": "Point",
        "coordinates": [
          15.9838821,
          45.8009792
        ]
      },
      "properties": {
        "id": 75535012,
        "osm_type": "way",
        "name": "Hotel Orient Express",
        "tourism": "hotel",
        "website": "http://www.hotelorientexpress.com"
      }
    },
    {
      "type": "Feature",
      "geometry": {
        "type": "Point",
        "coordinates": [
          16.0398069,
          45.8326293
        ]
      },
      "properties": {
        "id": 78425468,
        "osm_type": "way",
        "name": "Hotel \"Dubrava\"",
        "tourism": "hotel"
      }
    },
    {
      "type": "Feature",
      "geometry": {
        "type": "Point",
        "coordinates": [
          16.1002832,
          45.8924859
        ]
      },
      "properties": {
        "id": 104997236,
        "osm_type": "way",
        "name": "Planinarski dom Vugrovec",
        "tourism": "alpine_hut",
        "opening_hours": "Sa-Su 09:00-21:00",
        "phone": "+385 1 3872 679"
      }
    },
    {
      "type": "Feature",
      "geometry": {
        "type": "Point",
        "coordinates": [
          16.0516577,
          45.854518
        ]
      },
      "properties": {
        "id": 105309376,
        "osm_type": "way",
        "name": "Grad Mladih",
        "tourism": "hostel",
        "phone": "+385 (0)1 6421 973",
        "website": "https://www.nazor.hr/default.aspx?id=301"
      }
    },
    {
      "type": "Feature",
      "geometry": {
        "type": "Point",
        "coordinates": [
          15.9614891,
          45.8972404
        ]
      },
      "properties": {
        "id": 112535698,
        "osm_type": "way",
        "name": "Runolist",
        "tourism": "alpine_hut",
        "opening_hours": "Mo-Su 08:00-20:00",
        "phone": "+385 1 4557 519"
      }
    },
    {
      "type": "Feature",
      "geometry": {
        "type": "Point",
        "coordinates": [
          15.8760161,
          45.8425398
        ]
      },
      "properties": {
        "id": 114512581,
        "osm_type": "way",
        "name": "Glavica",
        "tourism": "alpine_hut",
        "opening_hours": "Mo-Fr 09:00-17:00,Sa-Su 08:00-20:00"
      }
    },
    {
      "type": "Feature",
      "geometry": {
        "type": "Point",
        "coordinates": [
          15.978237,
          45.7645699
        ]
      },
      "properties": {
        "id": 116823228,
        "osm_type": "way",
        "name": "Hotel Diplomat",
        "tourism": "hotel"
      }
    },
    {
      "type": "Feature",
      "geometry": {
        "type": "Point",
        "coordinates": [
          15.9650437,
          45.8152271
        ]
      },
      "properties": {
        "id": 137114427,
        "osm_type": "way",
        "name": "Apartment Smokva",
        "tourism": "apartment",
        "phone": "+385 98 166 6233"
      }
    },
    {
      "type": "Feature",
      "geometry": {
        "type": "Point",
        "coordinates": [
          15.9685806,
          45.8261843
        ]
      },
      "properties": {
        "id": 137310695,
        "osm_type": "way",
        "name": "Hotel AS",
        "tourism": "hotel",
        "website": "http://www.hotel-as.hr"
      }
    },
    {
      "type": "Feature",
      "geometry": {
        "type": "Point",
        "coordinates": [
          15.977461,
          45.8085087
        ]
      },
      "properties": {
        "id": 137612933,
        "osm_type": "way",
        "name": "Hotel Palace",
        "tourism": "hotel",
        "website": "https://www.palace.hr/"
      }
    },
    {
      "type": "Feature",
      "geometry": {
        "type": "Point",
        "coordinates": [
          15.984552,
          45.8072464
        ]
      },
      "properties": {
        "id": 141576181,
        "osm_type": "way",
        "name": "Sheraton Zagreb",
        "tourism": "hotel",
        "phone": "+385 1/4553-535",
        "website": "http://www.hotel-sheratonzagreb.com/",
        "check_date": "2025-11-10"
      }
    },
    {
      "type": "Feature",
      "geometry": {
        "type": "Point",
        "coordinates": [
          15.8989954,
          45.7974316
        ]
      },
      "properties": {
        "id": 143027924,
        "osm_type": "way",
        "name": "Hotel Antunović",
        "tourism": "hotel",
        "phone": "+385 1 2041 200",
        "website": "https://www.hotelantunovic.com/"
      }
    },
    {
      "type": "Feature",
      "geometry": {
        "type": "Point",
        "coordinates": [
          15.918929,
          45.7947788
        ]
      },
      "properties": {
        "id": 144137989,
        "osm_type": "way",
        "name": "Hotel Admiral",
        "tourism": "hotel",
        "phone": "+385 1 33 22 900",
        "website": "https://www.admiralhotel.hr/"
      }
    },
    {
      "type": "Feature",
      "geometry": {
        "type": "Point",
        "coordinates": [
          16.0015588,
          45.8018283
        ]
      },
      "properties": {
        "id": 161082969,
        "osm_type": "way",
        "name": "DoubleTree by Hilton Zagreb",
        "tourism": "hotel",
        "phone": "+385 1 6001900",
        "website": "https://www.hilton.com/en/hotels/zagcrdi-doubletree-zagreb/"
      }
    },
    {
      "type": "Feature",
      "geometry": {
        "type": "Point",
        "coordinates": [
          15.9951437,
          45.7481537
        ]
      },
      "properties": {
        "id": 164057442,
        "osm_type": "way",
        "name": "Hotel Aristos",
        "tourism": "hotel",
        "website": "https://www.hotel-aristos.hr/"
      }
    },
    {
      "type": "Feature",
      "geometry": {
        "type": "Point",
        "coordinates": [
          16.0130614,
          45.7348556
        ]
      },
      "properties": {
        "id": 193838277,
        "osm_type": "way",
        "name": "Stella",
        "tourism": "hotel",
        "phone": "+385 1-539-36-00",
        "website": "http://www.hotel-stella.hr"
      }
    },
    {
      "type": "Feature",
      "geometry": {
        "type": "Point",
        "coordinates": [
          15.9804512,
          45.8067231
        ]
      },
      "properties": {
        "id": 195999266,
        "osm_type": "way",
        "name": "Hi Hostel Zagreb",
        "tourism": "hostel",
        "phone": "+38514841261",
        "website": "http://www.hfhs.hr/en/hostels/zagreb-youth-hostel-370",
        "check_date": "2025-11-10"
      }
    },
    {
      "type": "Feature",
      "geometry": {
        "type": "Point",
        "coordinates": [
          15.9806097,
          45.8071411
        ]
      },
      "properties": {
        "id": 195999576,
        "osm_type": "way",
        "name": "Hotel Astoria",
        "tourism": "hotel",
        "phone": "+38514808900",
        "website": "https://hotelastoria.hr/",
        "check_date": "2025-11-10"
      }
    },
    {
      "type": "Feature",
      "geometry": {
        "type": "Point",
        "coordinates": [
          15.9786904,
          45.7937062
        ]
      },
      "properties": {
        "id": 221432339,
        "osm_type": "way",
        "name": "Hotel Fala",
        "tourism": "hotel",
        "phone": "+385 01 6111 062"
      }
    },
    {
      "type": "Feature",
      "geometry": {
        "type": "Point",
        "coordinates": [
          15.8787012,
          45.7991635
        ]
      },
      "properties": {
        "id": 224229838,
        "osm_type": "way",
        "name": "Grand Hotel Zagreb",
        "tourism": "hotel",
        "phone": "+385 1 6062 600",
        "website": "https://grandhotelzagreb.com/"
      }
    },
    {
      "type": "Feature",
      "geometry": {
        "type": "Point",
        "coordinates": [
          15.9521018,
          45.805727
        ]
      },
      "properties": {
        "id": 230418762,
        "osm_type": "way",
        "name": "Zonar Zagreb",
        "tourism": "hotel",
        "phone": "+385 52 808 400",
        "website": "https://www.maistra.com/hr/smjestaj/zonar-zagreb/",
        "check_date": "2025-10-26"
      }
    },
    {
      "type": "Feature",
      "geometry": {
        "type": "Point",
        "coordinates": [
          16.1174607,
          45.9569042
        ]
      },
      "properties": {
        "id": 236108205,
        "osm_type": "way",
        "name": "Planinarska kuća Grohot",
        "tourism": "alpine_hut"
      }
    },
    {
      "type": "Feature",
      "geometry": {
        "type": "Point",
        "coordinates": [
          15.9548208,
          45.7746544
        ]
      },
      "properties": {
        "id": 243418361,
        "osm_type": "way",
        "name": "Kuca.House Apartments",
        "tourism": "guest_house"
      }
    },
    {
      "type": "Feature",
      "geometry": {
        "type": "Point",
        "coordinates": [
          15.9294293,
          45.7912682
        ]
      },
      "properties": {
        "id": 266349154,
        "osm_type": "way",
        "name": "Hotel Jarun",
        "tourism": "hotel",
        "phone": "+385 1 369 11 11",
        "website": "https://hotel-jarun.com/"
      }
    },
    {
      "type": "Feature",
      "geometry": {
        "type": "Point",
        "coordinates": [
          15.9695455,
          45.8143251
        ]
      },
      "properties": {
        "id": 281709814,
        "osm_type": "way",
        "name": "Residence Park",
        "tourism": "hotel",
        "website": "http://www.residencepark.hr"
      }
    },
    {
      "type": "Feature",
      "geometry": {
        "type": "Point",
        "coordinates": [
          15.9553078,
          45.8159465
        ]
      },
      "properties": {
        "id": 290956145,
        "osm_type": "way",
        "name": "Angela Classic",
        "tourism": "apartment",
        "phone": "+385 (0)91/565 4849",
        "website": "https://www.classic-rooms.com/"
      }
    },
    {
      "type": "Feature",
      "geometry": {
        "type": "Point",
        "coordinates": [
          15.9545186,
          45.8148061
        ]
      },
      "properties": {
        "id": 290956197,
        "osm_type": "way",
        "name": "Hotel Croatia",
        "tourism": "hotel",
        "website": "http://www.hotel-croatia.com.hr/"
      }
    },
    {
      "type": "Feature",
      "geometry": {
        "type": "Point",
        "coordinates": [
          15.9435582,
          45.7917686
        ]
      },
      "properties": {
        "id": 294584972,
        "osm_type": "way",
        "name": "Apartments Tony",
        "tourism": "guest_house"
      }
    },
    {
      "type": "Feature",
      "geometry": {
        "type": "Point",
        "coordinates": [
          15.9581368,
          45.8033884
        ]
      },
      "properties": {
        "id": 302657001,
        "osm_type": "way",
        "name": "Hotel Laguna",
        "tourism": "hotel",
        "phone": "+385 1/3047-000",
        "website": "https://hotel-laguna.hr/"
      }
    },
    {
      "type": "Feature",
      "geometry": {
        "type": "Point",
        "coordinates": [
          16.0199786,
          45.7586821
        ]
      },
      "properties": {
        "id": 317120342,
        "osm_type": "way",
        "name": "Logistics Youth Centre",
        "tourism": "hostel"
      }
    },
    {
      "type": "Feature",
      "geometry": {
        "type": "Point",
        "coordinates": [
          15.9526392,
          45.7889682
        ]
      },
      "properties": {
        "id": 330834310,
        "osm_type": "way",
        "name": "Bonus",
        "tourism": "apartment"
      }
    },
    {
      "type": "Feature",
      "geometry": {
        "type": "Point",
        "coordinates": [
          15.9748045,
          45.8509167
        ]
      },
      "properties": {
        "id": 364886195,
        "osm_type": "way",
        "name": "Puntijar",
        "tourism": "hotel",
        "website": "https://hotelpuntijar.com/"
      }
    },
    {
      "type": "Feature",
      "geometry": {
        "type": "Point",
        "coordinates": [
          16.0106437,
          45.8275531
        ]
      },
      "properties": {
        "id": 422218898,
        "osm_type": "way",
        "name": "Maksimir Lux",
        "tourism": "guest_house",
        "website": "http://apartmentmaksimirlux.rentalscroacia.info/"
      }
    },
    {
      "type": "Feature",
      "geometry": {
        "type": "Point",
        "coordinates": [
          15.9955376,
          45.8035591
        ]
      },
      "properties": {
        "id": 424329851,
        "osm_type": "way",
        "name": "National hotel",
        "tourism": "hotel",
        "website": "https://www.national.hr/"
      }
    },
    {
      "type": "Feature",
      "geometry": {
        "type": "Point",
        "coordinates": [
          15.9968411,
          45.8014275
        ]
      },
      "properties": {
        "id": 426270737,
        "osm_type": "way",
        "name": "Vila Zrina",
        "tourism": "guest_house",
        "phone": "+385 1 6188100",
        "website": "http://www.vilazrina.com/"
      }
    },
    {
      "type": "Feature",
      "geometry": {
        "type": "Point",
        "coordinates": [
          15.9979888,
          45.7990001
        ]
      },
      "properties": {
        "id": 440755899,
        "osm_type": "way",
        "name": "The Wallaby House Hostel",
        "tourism": "hostel",
        "contact:phone": "+385 1 6181 554"
      }
    },
    {
      "type": "Feature",
      "geometry": {
        "type": "Point",
        "coordinates": [
          16.0673951,
          45.9295331
        ]
      },
      "properties": {
        "id": 450493280,
        "osm_type": "way",
        "name": "Planinarski dom \"Lipa Rog\"",
        "tourism": "alpine_hut",
        "opening_hours": "Sa 08:00-22:00; Su 08:00-18:00",
        "phone": "+385 98 894 653",
        "website": "https://hpdlipa.hr/stranice.cfm?pageId=26"
      }
    },
    {
      "type": "Feature",
      "geometry": {
        "type": "Point",
        "coordinates": [
          15.99495,
          45.8028735
        ]
      },
      "properties": {
        "id": 474496656,
        "osm_type": "way",
        "name": "Luxury Boutique Hotel 9",
        "tourism": "hotel",
        "contact:phone": "+385 1 562 5040",
        "website": "https://www.hotel9.hr/",
        "check_date": "2026-03-30"
      }
    },
    {
      "type": "Feature",
      "geometry": {
        "type": "Point",
        "coordinates": [
          15.8959774,
          45.8117936
        ]
      },
      "properties": {
        "id": 498547170,
        "osm_type": "way",
        "name": "Hotel Maroon",
        "tourism": "hotel"
      }
    },
    {
      "type": "Feature",
      "geometry": {
        "type": "Point",
        "coordinates": [
          15.9130671,
          45.7992981
        ]
      },
      "properties": {
        "id": 519627250,
        "osm_type": "way",
        "name": "Hotel Vienna",
        "tourism": "hotel",
        "phone": "+385 1/3862-777",
        "website": "https://www.hotelvienna.hr/"
      }
    },
    {
      "type": "Feature",
      "geometry": {
        "type": "Point",
        "coordinates": [
          16.0236427,
          45.809577
        ]
      },
      "properties": {
        "id": 548980637,
        "osm_type": "way",
        "name": "Celic Apartments",
        "tourism": "apartment"
      }
    },
    {
      "type": "Feature",
      "geometry": {
        "type": "Point",
        "coordinates": [
          16.0231829,
          45.8105366
        ]
      },
      "properties": {
        "id": 548980647,
        "osm_type": "way",
        "name": "Bjonda",
        "tourism": "apartment"
      }
    },
    {
      "type": "Feature",
      "geometry": {
        "type": "Point",
        "coordinates": [
          16.0230472,
          45.8101617
        ]
      },
      "properties": {
        "id": 548980649,
        "osm_type": "way",
        "name": "PodnajoRastik Zagreb",
        "tourism": "apartment"
      }
    },
    {
      "type": "Feature",
      "geometry": {
        "type": "Point",
        "coordinates": [
          16.0363764,
          45.8365249
        ]
      },
      "properties": {
        "id": 551039360,
        "osm_type": "way",
        "name": "Vila svetog Ante",
        "tourism": "guest_house"
      }
    },
    {
      "type": "Feature",
      "geometry": {
        "type": "Point",
        "coordinates": [
          15.9292893,
          45.8115098
        ]
      },
      "properties": {
        "id": 554027748,
        "osm_type": "way",
        "tourism": "guest_house"
      }
    },
    {
      "type": "Feature",
      "geometry": {
        "type": "Point",
        "coordinates": [
          15.8852508,
          45.7542813
        ]
      },
      "properties": {
        "id": 554101024,
        "osm_type": "way",
        "name": "Hotel Calypso",
        "tourism": "hotel",
        "phone": "+385 1 653 00 00",
        "website": "https://www.hotel-calypso.hr/"
      }
    },
    {
      "type": "Feature",
      "geometry": {
        "type": "Point",
        "coordinates": [
          16.0984262,
          45.8284651
        ]
      },
      "properties": {
        "id": 559753401,
        "osm_type": "way",
        "name": "Gallus",
        "tourism": "hotel"
      }
    },
    {
      "type": "Feature",
      "geometry": {
        "type": "Point",
        "coordinates": [
          16.1262829,
          45.8242903
        ]
      },
      "properties": {
        "id": 561323063,
        "osm_type": "way",
        "name": "Hotel Phoenix",
        "tourism": "hotel"
      }
    },
    {
      "type": "Feature",
      "geometry": {
        "type": "Point",
        "coordinates": [
          16.1625351,
          45.8205327
        ]
      },
      "properties": {
        "id": 561835948,
        "osm_type": "way",
        "name": "Hotel Antunović",
        "tourism": "hotel"
      }
    },
    {
      "type": "Feature",
      "geometry": {
        "type": "Point",
        "coordinates": [
          15.999047,
          45.799155
        ]
      },
      "properties": {
        "id": 575660157,
        "osm_type": "way",
        "name": "Livris Hotel",
        "tourism": "hotel",
        "website": "https://www.livrishotel.com/"
      }
    },
    {
      "type": "Feature",
      "geometry": {
        "type": "Point",
        "coordinates": [
          15.9766711,
          45.8124356
        ]
      },
      "properties": {
        "id": 584569598,
        "osm_type": "way",
        "name": "Hotel Dubrovnik",
        "tourism": "hotel",
        "phone": "+385 1/4863-555",
        "website": "https://www.hotel-dubrovnik.hr/",
        "check_date": "2024-08-28"
      }
    },
    {
      "type": "Feature",
      "geometry": {
        "type": "Point",
        "coordinates": [
          15.9451389,
          45.8982209
        ]
      },
      "properties": {
        "id": 672956376,
        "osm_type": "way",
        "name": "Tomislavov dom",
        "tourism": "hotel",
        "phone": "+385 1 4560 400",
        "website": "https://www.sljeme.hr/hoteli/hotel-tomislavov-dom-21/21"
      }
    },
    {
      "type": "Feature",
      "geometry": {
        "type": "Point",
        "coordinates": [
          15.9370046,
          45.8025289
        ]
      },
      "properties": {
        "id": 721764859,
        "osm_type": "way",
        "tourism": "guest_house"
      }
    },
    {
      "type": "Feature",
      "geometry": {
        "type": "Point",
        "coordinates": [
          15.980066,
          45.8055152
        ]
      },
      "properties": {
        "id": 892238673,
        "osm_type": "way",
        "name": "Hotel Central",
        "tourism": "hotel",
        "website": "https://hotel-central.hr/",
        "check_date": "2025-01-24"
      }
    },
    {
      "type": "Feature",
      "geometry": {
        "type": "Point",
        "coordinates": [
          16.0231558,
          45.8104848
        ]
      },
      "properties": {
        "id": 899610087,
        "osm_type": "way",
        "name": "Bjonda",
        "tourism": "apartment"
      }
    },
    {
      "type": "Feature",
      "geometry": {
        "type": "Point",
        "coordinates": [
          15.9850296,
          45.8058717
        ]
      },
      "properties": {
        "id": 907287954,
        "osm_type": "way",
        "name": "Canopy by Hilton Zagreb City Centre",
        "tourism": "hotel",
        "phone": "+385 1 4559 505",
        "website": "https://www.hilton.com/en/hotels/zagzcpy-canopy-zagreb-city-centre/",
        "check_date": "2024-06-16"
      }
    },
    {
      "type": "Feature",
      "geometry": {
        "type": "Point",
        "coordinates": [
          15.9772921,
          45.8122868
        ]
      },
      "properties": {
        "id": 1109233191,
        "osm_type": "way",
        "name": "Met Boutique Hotel",
        "tourism": "hotel",
        "opening_hours": "24/7",
        "phone": "+385 1 5572 200",
        "website": "https://methotel.hr/",
        "check_date": "2026-01-27"
      }
    },
    {
      "type": "Feature",
      "geometry": {
        "type": "Point",
        "coordinates": [
          15.999735,
          45.7985594
        ]
      },
      "properties": {
        "id": 1147420551,
        "osm_type": "way",
        "name": "Lika",
        "tourism": "hostel",
        "website": "https://www.hostel-lika.com/"
      }
    },
    {
      "type": "Feature",
      "geometry": {
        "type": "Point",
        "coordinates": [
          15.9543153,
          45.8038733
        ]
      },
      "properties": {
        "id": 1357728004,
        "osm_type": "way",
        "name": "Moving",
        "tourism": "hostel",
        "website": "http://www.hostelmoving.hr"
      }
    },
    {
      "type": "Feature",
      "geometry": {
        "type": "Point",
        "coordinates": [
          15.9766711,
          45.8124356
        ]
      },
      "properties": {
        "id": 8256799,
        "osm_type": "relation",
        "name": "Hotel Dubrovnik",
        "tourism": "hotel",
        "website": "https://www.hotel-dubrovnik.hr/"
      }
    }
  ]
}