{
  "type": "FeatureCollection",
  "features": [
    {
      "type": "Feature",
      "geometry": {
        "type": "Point",
        "coordinates": [
          19.6467957,
          45.1740258
        ]
      },
      "properties": {
        "id": 357438436,
        "osm_type": "node",
        "name": "Цептор Андревље",
        "tourism": "hotel",
        "phone": "+381 21 480 24 00",
        "website": "http://ceptor-andrevlje.rs/"
      }
    },
    {
      "type": "Feature",
      "geometry": {
        "type": "Point",
        "coordinates": [
          19.3911419,
          45.247562
        ]
      },
      "properties": {
        "id": 1304097143,
        "osm_type": "node",
        "name": "Идила плус",
        "tourism": "guest_house",
        "phone": "+381 21 751-830",
        "website": "https://www.idila.net/"
      }
    },
    {
      "type": "Feature",
      "geometry": {
        "type": "Point",
        "coordinates": [
          19.9172199,
          45.1688198
        ]
      },
      "properties": {
        "id": 1445790660,
        "osm_type": "node",
        "tourism": "chalet"
      }
    },
    {
      "type": "Feature",
      "geometry": {
        "type": "Point",
        "coordinates": [
          19.846187,
          45.2541436
        ]
      },
      "properties": {
        "id": 1455639760,
        "osm_type": "node",
        "name": "Сова",
        "tourism": "hostel",
        "website": "http://hostelsova.com"
      }
    },
    {
      "type": "Feature",
      "geometry": {
        "type": "Point",
        "coordinates": [
          19.8333817,
          45.2575411
        ]
      },
      "properties": {
        "id": 1474304023,
        "osm_type": "node",
        "name": "Smile",
        "tourism": "hostel"
      }
    },
    {
      "type": "Feature",
      "geometry": {
        "type": "Point",
        "coordinates": [
          19.8385667,
          45.2551389
        ]
      },
      "properties": {
        "id": 2428051416,
        "osm_type": "node",
        "name": "021",
        "tourism": "hostel"
      }
    },
    {
      "type": "Feature",
      "geometry": {
        "type": "Point",
        "coordinates": [
          19.8407614,
          45.252504
        ]
      },
      "properties": {
        "id": 2525018221,
        "osm_type": "node",
        "name": "Frenky",
        "tourism": "hostel",
        "phone": "+381(0) 21 427 881",
        "website": "http://www.hostelfrenky.com/"
      }
    },
    {
      "type": "Feature",
      "geometry": {
        "type": "Point",
        "coordinates": [
          19.8459766,
          45.2565998
        ]
      },
      "properties": {
        "id": 2747979184,
        "osm_type": "node",
        "name": "Лазин хостел",
        "tourism": "hostel"
      }
    },
    {
      "type": "Feature",
      "geometry": {
        "type": "Point",
        "coordinates": [
          19.808302,
          45.2465019
        ]
      },
      "properties": {
        "id": 3025257376,
        "osm_type": "node",
        "name": "Dash",
        "tourism": "hotel"
      }
    },
    {
      "type": "Feature",
      "geometry": {
        "type": "Point",
        "coordinates": [
          19.8618213,
          45.2540928
        ]
      },
      "properties": {
        "id": 3197010800,
        "osm_type": "node",
        "name": "Varad INN",
        "tourism": "hostel",
        "phone": "+38121431400",
        "website": "www.varadinn.com",
        "check_date": "2025-12-28"
      }
    },
    {
      "type": "Feature",
      "geometry": {
        "type": "Point",
        "coordinates": [
          19.882062,
          45.2461912
        ]
      },
      "properties": {
        "id": 3200104954,
        "osm_type": "node",
        "name": "Свети Георгије",
        "tourism": "hotel"
      }
    },
    {
      "type": "Feature",
      "geometry": {
        "type": "Point",
        "coordinates": [
          20.0440457,
          45.6142456
        ]
      },
      "properties": {
        "id": 3487029182,
        "osm_type": "node",
        "name": "Villa Via",
        "tourism": "hotel"
      }
    },
    {
      "type": "Feature",
      "geometry": {
        "type": "Point",
        "coordinates": [
          20.0473734,
          45.6122629
        ]
      },
      "properties": {
        "id": 3521470049,
        "osm_type": "node",
        "name": "Собе БЛ Спортиво",
        "tourism": "hotel"
      }
    },
    {
      "type": "Feature",
      "geometry": {
        "type": "Point",
        "coordinates": [
          19.830192,
          45.2922295
        ]
      },
      "properties": {
        "id": 3556418684,
        "osm_type": "node",
        "name": "Мотел „Бор”",
        "tourism": "motel"
      }
    },
    {
      "type": "Feature",
      "geometry": {
        "type": "Point",
        "coordinates": [
          19.6490936,
          45.5739029
        ]
      },
      "properties": {
        "id": 3562833993,
        "osm_type": "node",
        "name": "CFK „Drago Jovović”",
        "tourism": "hotel",
        "phone": "+38121707737",
        "website": "http://www.smestaj.cfkvrbas.com"
      }
    },
    {
      "type": "Feature",
      "geometry": {
        "type": "Point",
        "coordinates": [
          19.8366762,
          45.2514291
        ]
      },
      "properties": {
        "id": 4029752490,
        "osm_type": "node",
        "name": "Hotel Panorama Garni",
        "tourism": "hotel",
        "phone": "+381 214801800",
        "website": "https://www.hotelpanorama.co.rs/"
      }
    },
    {
      "type": "Feature",
      "geometry": {
        "type": "Point",
        "coordinates": [
          19.8471033,
          45.264486
        ]
      },
      "properties": {
        "id": 4258400990,
        "osm_type": "node",
        "name": "Sky",
        "tourism": "guest_house",
        "phone": "+381641391555"
      }
    },
    {
      "type": "Feature",
      "geometry": {
        "type": "Point",
        "coordinates": [
          19.8223381,
          45.2377917
        ]
      },
      "properties": {
        "id": 4350320397,
        "osm_type": "node",
        "name": "Amaro",
        "tourism": "guest_house",
        "opening_hours": "Su-Th 07:00-00:00; Fr-Sa 07:00-01:00",
        "phone": "+381695558753"
      }
    },
    {
      "type": "Feature",
      "geometry": {
        "type": "Point",
        "coordinates": [
          19.9336286,
          45.2041777
        ]
      },
      "properties": {
        "id": 4376042999,
        "osm_type": "node",
        "name": "Премиер Президент Хотел",
        "tourism": "hotel"
      }
    },
    {
      "type": "Feature",
      "geometry": {
        "type": "Point",
        "coordinates": [
          19.8455362,
          45.258558
        ]
      },
      "properties": {
        "id": 4705054303,
        "osm_type": "node",
        "tourism": "hotel"
      }
    },
    {
      "type": "Feature",
      "geometry": {
        "type": "Point",
        "coordinates": [
          19.6034804,
          45.2235298
        ]
      },
      "properties": {
        "id": 4982759621,
        "osm_type": "node",
        "tourism": "camp_site"
      }
    },
    {
      "type": "Feature",
      "geometry": {
        "type": "Point",
        "coordinates": [
          19.390833,
          45.2446974
        ]
      },
      "properties": {
        "id": 5157033405,
        "osm_type": "node",
        "name": "Idila",
        "tourism": "hotel"
      }
    },
    {
      "type": "Feature",
      "geometry": {
        "type": "Point",
        "coordinates": [
          19.5272891,
          45.2699649
        ]
      },
      "properties": {
        "id": 5157135133,
        "osm_type": "node",
        "name": "Дунав",
        "tourism": "hotel"
      }
    },
    {
      "type": "Feature",
      "geometry": {
        "type": "Point",
        "coordinates": [
          19.6314639,
          45.2408199
        ]
      },
      "properties": {
        "id": 5157211385,
        "osm_type": "node",
        "name": "Bane B&B",
        "tourism": "guest_house",
        "phone": "+381 21898835"
      }
    },
    {
      "type": "Feature",
      "geometry": {
        "type": "Point",
        "coordinates": [
          19.940202,
          45.2059601
        ]
      },
      "properties": {
        "id": 5158297422,
        "osm_type": "node",
        "tourism": "camp_site"
      }
    },
    {
      "type": "Feature",
      "geometry": {
        "type": "Point",
        "coordinates": [
          19.1351132,
          45.2903362
        ]
      },
      "properties": {
        "id": 5168704403,
        "osm_type": "node",
        "name": "Bela Vrba",
        "tourism": "hotel",
        "phone": "+381 62 41 75 13",
        "website": "https://hotelbelavrba.com/"
      }
    },
    {
      "type": "Feature",
      "geometry": {
        "type": "Point",
        "coordinates": [
          19.460897,
          45.2291171
        ]
      },
      "properties": {
        "id": 5170719548,
        "osm_type": "node",
        "name": "House & camp „Skelica”",
        "tourism": "guest_house",
        "phone": "+381 61 3011577",
        "website": "skelica.com"
      }
    },
    {
      "type": "Feature",
      "geometry": {
        "type": "Point",
        "coordinates": [
          19.4612121,
          45.2294793
        ]
      },
      "properties": {
        "id": 5170728100,
        "osm_type": "node",
        "name": "Casa Castellum",
        "tourism": "guest_house",
        "phone": "+381 65 6909999",
        "website": "nestin.info"
      }
    },
    {
      "type": "Feature",
      "geometry": {
        "type": "Point",
        "coordinates": [
          19.9329013,
          45.2035596
        ]
      },
      "properties": {
        "id": 5180763828,
        "osm_type": "node",
        "name": "Каром",
        "tourism": "apartment"
      }
    },
    {
      "type": "Feature",
      "geometry": {
        "type": "Point",
        "coordinates": [
          19.8378077,
          45.2491279
        ]
      },
      "properties": {
        "id": 5759385221,
        "osm_type": "node",
        "tourism": "guest_house"
      }
    },
    {
      "type": "Feature",
      "geometry": {
        "type": "Point",
        "coordinates": [
          20.0255093,
          45.241221
        ]
      },
      "properties": {
        "id": 5782151095,
        "osm_type": "node",
        "name": "Coffeecamp-Kovilj",
        "tourism": "camp_site",
        "phone": "+381 65 2090807",
        "website": "https://www.coffeecamp-kovilj.com/"
      }
    },
    {
      "type": "Feature",
      "geometry": {
        "type": "Point",
        "coordinates": [
          19.8457098,
          45.256846
        ]
      },
      "properties": {
        "id": 5787931358,
        "osm_type": "node",
        "name": "maresh",
        "tourism": "apartment"
      }
    },
    {
      "type": "Feature",
      "geometry": {
        "type": "Point",
        "coordinates": [
          19.8196585,
          45.3888148
        ]
      },
      "properties": {
        "id": 5862086290,
        "osm_type": "node",
        "name": "Фарма 47",
        "tourism": "camp_site",
        "website": "https://www.agrotourism-novisad.com/"
      }
    },
    {
      "type": "Feature",
      "geometry": {
        "type": "Point",
        "coordinates": [
          19.7806583,
          45.2073283
        ]
      },
      "properties": {
        "id": 6145458685,
        "osm_type": "node",
        "name": "Скенар",
        "tourism": "guest_house"
      }
    },
    {
      "type": "Feature",
      "geometry": {
        "type": "Point",
        "coordinates": [
          19.8397811,
          45.3666194
        ]
      },
      "properties": {
        "id": 6156317085,
        "osm_type": "node",
        "name": "salaš137",
        "tourism": "apartment"
      }
    },
    {
      "type": "Feature",
      "geometry": {
        "type": "Point",
        "coordinates": [
          19.8473077,
          45.2571295
        ]
      },
      "properties": {
        "id": 6510595380,
        "osm_type": "node",
        "name": "Tal Centar",
        "tourism": "guest_house"
      }
    },
    {
      "type": "Feature",
      "geometry": {
        "type": "Point",
        "coordinates": [
          19.8490226,
          45.2565193
        ]
      },
      "properties": {
        "id": 6552319286,
        "osm_type": "node",
        "tourism": "hostel"
      }
    },
    {
      "type": "Feature",
      "geometry": {
        "type": "Point",
        "coordinates": [
          19.8474958,
          45.2551159
        ]
      },
      "properties": {
        "id": 6568379291,
        "osm_type": "node",
        "name": "Arhiv",
        "tourism": "hotel"
      }
    },
    {
      "type": "Feature",
      "geometry": {
        "type": "Point",
        "coordinates": [
          19.8372126,
          45.182551
        ]
      },
      "properties": {
        "id": 6698943585,
        "osm_type": "node",
        "name": "Планинарска кућа „Орлово гнездо-Југодент”",
        "tourism": "alpine_hut",
        "phone": "+381 64 3755465 (Predrag Vujaković)"
      }
    },
    {
      "type": "Feature",
      "geometry": {
        "type": "Point",
        "coordinates": [
          19.6004597,
          45.3601346
        ]
      },
      "properties": {
        "id": 6871678986,
        "osm_type": "node",
        "name": "Smeštaj Poniger",
        "tourism": "guest_house"
      }
    },
    {
      "type": "Feature",
      "geometry": {
        "type": "Point",
        "coordinates": [
          19.8250501,
          45.2411574
        ]
      },
      "properties": {
        "id": 7297912985,
        "osm_type": "node",
        "tourism": "apartment",
        "opening_hours": "24/7"
      }
    },
    {
      "type": "Feature",
      "geometry": {
        "type": "Point",
        "coordinates": [
          19.4698595,
          45.2356201
        ]
      },
      "properties": {
        "id": 7726435907,
        "osm_type": "node",
        "name": "Vila Mali",
        "tourism": "guest_house"
      }
    },
    {
      "type": "Feature",
      "geometry": {
        "type": "Point",
        "coordinates": [
          19.8466603,
          45.2607579
        ]
      },
      "properties": {
        "id": 8229047725,
        "osm_type": "node",
        "name": "11tica DM",
        "tourism": "hotel",
        "phone": "+381 21 3830767;+381 69 3830767",
        "website": "https://www.hotel11tica.rs/"
      }
    },
    {
      "type": "Feature",
      "geometry": {
        "type": "Point",
        "coordinates": [
          19.8396355,
          45.2533672
        ]
      },
      "properties": {
        "id": 8229047729,
        "osm_type": "node",
        "name": "Jevrejska Apartment",
        "tourism": "apartment",
        "phone": "+381 63 7706289"
      }
    },
    {
      "type": "Feature",
      "geometry": {
        "type": "Point",
        "coordinates": [
          19.7873693,
          45.5432147
        ]
      },
      "properties": {
        "id": 8440942133,
        "osm_type": "node",
        "name": "Olivera City Apartmani",
        "tourism": "hostel"
      }
    },
    {
      "type": "Feature",
      "geometry": {
        "type": "Point",
        "coordinates": [
          19.7857457,
          45.2383993
        ]
      },
      "properties": {
        "id": 8796540717,
        "osm_type": "node",
        "name": "Telepska Dolina Grande",
        "tourism": "apartment",
        "opening_hours": "24/7"
      }
    },
    {
      "type": "Feature",
      "geometry": {
        "type": "Point",
        "coordinates": [
          19.7827684,
          45.2393751
        ]
      },
      "properties": {
        "id": 8811454018,
        "osm_type": "node",
        "name": "Stan",
        "tourism": "apartment"
      }
    },
    {
      "type": "Feature",
      "geometry": {
        "type": "Point",
        "coordinates": [
          19.2596897,
          45.3051067
        ]
      },
      "properties": {
        "id": 8978053423,
        "osm_type": "node",
        "name": "Kuća za Odmor S",
        "tourism": "hostel",
        "phone": "+381 600767371",
        "check_date": "2024-06-24"
      }
    },
    {
      "type": "Feature",
      "geometry": {
        "type": "Point",
        "coordinates": [
          19.8387693,
          45.2590828
        ]
      },
      "properties": {
        "id": 9652852017,
        "osm_type": "node",
        "name": "sinisa",
        "tourism": "apartment",
        "phone": "0654083710"
      }
    },
    {
      "type": "Feature",
      "geometry": {
        "type": "Point",
        "coordinates": [
          19.874113,
          45.2547496
        ]
      },
      "properties": {
        "id": 9688678424,
        "osm_type": "node",
        "name": "ARS apartment",
        "tourism": "guest_house"
      }
    },
    {
      "type": "Feature",
      "geometry": {
        "type": "Point",
        "coordinates": [
          19.7070823,
          45.2375974
        ]
      },
      "properties": {
        "id": 9805582271,
        "osm_type": "node",
        "name": "Hotel Korzo",
        "tourism": "hotel"
      }
    },
    {
      "type": "Feature",
      "geometry": {
        "type": "Point",
        "coordinates": [
          19.9291378,
          45.1727619
        ]
      },
      "properties": {
        "id": 9922104918,
        "osm_type": "node",
        "name": "Eko resort",
        "tourism": "camp_site",
        "phone": "+381602201234",
        "website": "http://campingfruskagora.com"
      }
    },
    {
      "type": "Feature",
      "geometry": {
        "type": "Point",
        "coordinates": [
          19.3818037,
          45.2381389
        ]
      },
      "properties": {
        "id": 9938657186,
        "osm_type": "node",
        "name": "Campingplatz",
        "tourism": "camp_site",
        "tents": "yes"
      }
    },
    {
      "type": "Feature",
      "geometry": {
        "type": "Point",
        "coordinates": [
          19.8372003,
          45.2445239
        ]
      },
      "properties": {
        "id": 10060684117,
        "osm_type": "node",
        "tourism": "hostel"
      }
    },
    {
      "type": "Feature",
      "geometry": {
        "type": "Point",
        "coordinates": [
          19.2593222,
          45.3049445
        ]
      },
      "properties": {
        "id": 10184045062,
        "osm_type": "node",
        "name": "Kuća za Odmor S",
        "tourism": "camp_site",
        "check_date": "2024-06-24"
      }
    },
    {
      "type": "Feature",
      "geometry": {
        "type": "Point",
        "coordinates": [
          19.8488658,
          45.2585218
        ]
      },
      "properties": {
        "id": 10855850357,
        "osm_type": "node",
        "name": "Central Sweet Home I.M.",
        "tourism": "apartment",
        "check_date": "2023-04-29"
      }
    },
    {
      "type": "Feature",
      "geometry": {
        "type": "Point",
        "coordinates": [
          19.8457451,
          45.256029
        ]
      },
      "properties": {
        "id": 10960481609,
        "osm_type": "node",
        "tourism": "apartment"
      }
    },
    {
      "type": "Feature",
      "geometry": {
        "type": "Point",
        "coordinates": [
          19.8379627,
          45.2525878
        ]
      },
      "properties": {
        "id": 11388513280,
        "osm_type": "node",
        "name": "Garni hotel Planeta Inn",
        "tourism": "hotel",
        "opening_hours": "24/7",
        "phone": "+381 216615809",
        "website": "https://planetainn.com",
        "check_date": "2023-12-01"
      }
    },
    {
      "type": "Feature",
      "geometry": {
        "type": "Point",
        "coordinates": [
          19.8492881,
          45.2607974
        ]
      },
      "properties": {
        "id": 11469855770,
        "osm_type": "node",
        "name": "Podbara Center",
        "tourism": "apartment",
        "opening_hours": "24/7",
        "phone": "+381616458090",
        "website": "https://www.booking.com/Pulse-oJKYVF"
      }
    },
    {
      "type": "Feature",
      "geometry": {
        "type": "Point",
        "coordinates": [
          19.8317718,
          45.2537612
        ]
      },
      "properties": {
        "id": 11469861369,
        "osm_type": "node",
        "name": "Futoška Centar",
        "tourism": "apartment",
        "phone": "+381616458090",
        "website": "https://www.booking.com/Pulse-Hzc8dF"
      }
    },
    {
      "type": "Feature",
      "geometry": {
        "type": "Point",
        "coordinates": [
          19.8438072,
          45.2609536
        ]
      },
      "properties": {
        "id": 11582442187,
        "osm_type": "node",
        "name": "Apartments Vladika",
        "tourism": "apartment"
      }
    },
    {
      "type": "Feature",
      "geometry": {
        "type": "Point",
        "coordinates": [
          19.8415407,
          45.2574586
        ]
      },
      "properties": {
        "id": 11738956870,
        "osm_type": "node",
        "tourism": "hostel",
        "check_date": "2025-03-28"
      }
    },
    {
      "type": "Feature",
      "geometry": {
        "type": "Point",
        "coordinates": [
          19.8460588,
          45.2578975
        ]
      },
      "properties": {
        "id": 11836262524,
        "osm_type": "node",
        "name": "meebo",
        "tourism": "apartment"
      }
    },
    {
      "type": "Feature",
      "geometry": {
        "type": "Point",
        "coordinates": [
          19.8457986,
          45.257872
        ]
      },
      "properties": {
        "id": 11836262535,
        "osm_type": "node",
        "name": "Live & Sleep",
        "tourism": "apartment"
      }
    },
    {
      "type": "Feature",
      "geometry": {
        "type": "Point",
        "coordinates": [
          19.8322848,
          45.2699078
        ]
      },
      "properties": {
        "id": 12452915683,
        "osm_type": "node",
        "name": "Елемент",
        "tourism": "hotel",
        "website": "https://www.hotelelementns.rs/"
      }
    },
    {
      "type": "Feature",
      "geometry": {
        "type": "Point",
        "coordinates": [
          19.940815,
          45.1512048
        ]
      },
      "properties": {
        "id": 12536446105,
        "osm_type": "node",
        "tourism": "camp_site"
      }
    },
    {
      "type": "Feature",
      "geometry": {
        "type": "Point",
        "coordinates": [
          19.8459864,
          45.2539825
        ]
      },
      "properties": {
        "id": 12712741001,
        "osm_type": "node",
        "name": "Green World",
        "tourism": "hostel"
      }
    },
    {
      "type": "Feature",
      "geometry": {
        "type": "Point",
        "coordinates": [
          19.8434359,
          45.2531428
        ]
      },
      "properties": {
        "id": 12960363783,
        "osm_type": "node",
        "name": "Пупин",
        "tourism": "hotel",
        "check_date": "2025-06-28"
      }
    },
    {
      "type": "Feature",
      "geometry": {
        "type": "Point",
        "coordinates": [
          19.3836702,
          45.2484199
        ]
      },
      "properties": {
        "id": 13041865201,
        "osm_type": "node",
        "name": "Hotel Fontana",
        "tourism": "hotel",
        "phone": "+381 60 40055",
        "website": "https://www.fontanabackapalanka.rs/"
      }
    },
    {
      "type": "Feature",
      "geometry": {
        "type": "Point",
        "coordinates": [
          19.8490706,
          45.263881
        ]
      },
      "properties": {
        "id": 13462436001,
        "osm_type": "node",
        "name": "Brodsky's Cat Art Hostel",
        "tourism": "hostel"
      }
    },
    {
      "type": "Feature",
      "geometry": {
        "type": "Point",
        "coordinates": [
          19.8366936,
          45.2476067
        ]
      },
      "properties": {
        "id": 13473148806,
        "osm_type": "node",
        "name": "Passenger Hostel",
        "tourism": "hostel",
        "phone": "+381 62 9741175"
      }
    },
    {
      "type": "Feature",
      "geometry": {
        "type": "Point",
        "coordinates": [
          19.847038,
          45.2548639
        ]
      },
      "properties": {
        "id": 43094151,
        "osm_type": "way",
        "name": "Путник",
        "tourism": "hotel"
      }
    },
    {
      "type": "Feature",
      "geometry": {
        "type": "Point",
        "coordinates": [
          19.8418847,
          45.2545192
        ]
      },
      "properties": {
        "id": 69232495,
        "osm_type": "way",
        "name": "Центар",
        "tourism": "hotel",
        "phone": "+3810214776333",
        "website": "https://hotel-centar.rs/",
        "check_date": "2026-02-03"
      }
    },
    {
      "type": "Feature",
      "geometry": {
        "type": "Point",
        "coordinates": [
          19.8452196,
          45.254452
        ]
      },
      "properties": {
        "id": 73518057,
        "osm_type": "way",
        "name": "Војводина",
        "tourism": "hotel"
      }
    },
    {
      "type": "Feature",
      "geometry": {
        "type": "Point",
        "coordinates": [
          19.8472235,
          45.2554488
        ]
      },
      "properties": {
        "id": 138363705,
        "osm_type": "way",
        "name": "Зенит",
        "tourism": "hotel"
      }
    },
    {
      "type": "Feature",
      "geometry": {
        "type": "Point",
        "coordinates": [
          19.828949,
          45.2405085
        ]
      },
      "properties": {
        "id": 139939864,
        "osm_type": "way",
        "name": "Александар",
        "tourism": "hotel",
        "phone": "+381 21 4804400;+381 66 8840880",
        "website": "https://hotel-aleksandar.rs/"
      }
    },
    {
      "type": "Feature",
      "geometry": {
        "type": "Point",
        "coordinates": [
          19.8616464,
          45.2519805
        ]
      },
      "properties": {
        "id": 144081662,
        "osm_type": "way",
        "name": "Леополд I",
        "tourism": "hotel",
        "phone": "+381 21 488 7878",
        "website": "www.leopoldns.com"
      }
    },
    {
      "type": "Feature",
      "geometry": {
        "type": "Point",
        "coordinates": [
          19.8291579,
          45.2633884
        ]
      },
      "properties": {
        "id": 144930623,
        "osm_type": "way",
        "name": "Нови Сад",
        "tourism": "hotel",
        "opening_hours": "Mo-Su 07:00-23:00",
        "phone": "+381 21 442511",
        "website": "http://www.hotelnovisad.rs"
      }
    },
    {
      "type": "Feature",
      "geometry": {
        "type": "Point",
        "coordinates": [
          19.8162629,
          45.2374339
        ]
      },
      "properties": {
        "id": 194604793,
        "osm_type": "way",
        "name": "Дуга",
        "tourism": "hotel"
      }
    },
    {
      "type": "Feature",
      "geometry": {
        "type": "Point",
        "coordinates": [
          19.7244086,
          45.5080129
        ]
      },
      "properties": {
        "id": 224031824,
        "osm_type": "way",
        "name": "Мотел „Браћа Мандић”",
        "tourism": "motel"
      }
    },
    {
      "type": "Feature",
      "geometry": {
        "type": "Point",
        "coordinates": [
          19.8162466,
          45.2481865
        ]
      },
      "properties": {
        "id": 227099315,
        "osm_type": "way",
        "name": "Sheraton Novi Sad",
        "tourism": "hotel",
        "phone": "+381 21 4878000",
        "website": "https://www.marriott.com/hotels/travel/begsi-sheraton-novi-sad/"
      }
    },
    {
      "type": "Feature",
      "geometry": {
        "type": "Point",
        "coordinates": [
          19.0111438,
          45.3546942
        ]
      },
      "properties": {
        "id": 234148095,
        "osm_type": "way",
        "tourism": "camp_site"
      }
    },
    {
      "type": "Feature",
      "geometry": {
        "type": "Point",
        "coordinates": [
          19.8629076,
          45.1593842
        ]
      },
      "properties": {
        "id": 257080370,
        "osm_type": "way",
        "name": "Норцев",
        "tourism": "hotel",
        "phone": "+381 (21) 4800 222",
        "website": "https://norcev.rs/"
      }
    },
    {
      "type": "Feature",
      "geometry": {
        "type": "Point",
        "coordinates": [
          19.82109,
          45.2435884
        ]
      },
      "properties": {
        "id": 289524888,
        "osm_type": "way",
        "tourism": "hotel"
      }
    },
    {
      "type": "Feature",
      "geometry": {
        "type": "Point",
        "coordinates": [
          19.819688,
          45.2488443
        ]
      },
      "properties": {
        "id": 292074170,
        "osm_type": "way",
        "name": "Вила Лорд",
        "tourism": "guest_house",
        "phone": "+381 63 1766 683"
      }
    },
    {
      "type": "Feature",
      "geometry": {
        "type": "Point",
        "coordinates": [
          19.8196414,
          45.2487233
        ]
      },
      "properties": {
        "id": 292074174,
        "osm_type": "way",
        "name": "Президент",
        "tourism": "hotel",
        "phone": "+381 21 487 7444",
        "website": "https://www.prezidenthotel.com/",
        "check_date": "2024-11-21"
      }
    },
    {
      "type": "Feature",
      "geometry": {
        "type": "Point",
        "coordinates": [
          19.8311886,
          45.2739211
        ]
      },
      "properties": {
        "id": 296027188,
        "osm_type": "way",
        "name": "Гостинска Кућа „Маја”",
        "tourism": "guest_house",
        "phone": "+381 62 500705"
      }
    },
    {
      "type": "Feature",
      "geometry": {
        "type": "Point",
        "coordinates": [
          19.8339659,
          45.2691878
        ]
      },
      "properties": {
        "id": 296489809,
        "osm_type": "way",
        "name": "Stojić",
        "tourism": "guest_house",
        "contact:phone": "+381 21 6772057",
        "contact:website": "www.prenociste-novisad.com"
      }
    },
    {
      "type": "Feature",
      "geometry": {
        "type": "Point",
        "coordinates": [
          19.8404144,
          45.2619886
        ]
      },
      "properties": {
        "id": 296655747,
        "osm_type": "way",
        "name": "Бела Лађа",
        "tourism": "hotel"
      }
    },
    {
      "type": "Feature",
      "geometry": {
        "type": "Point",
        "coordinates": [
          19.8405166,
          45.2649909
        ]
      },
      "properties": {
        "id": 296666892,
        "osm_type": "way",
        "tourism": "hotel"
      }
    },
    {
      "type": "Feature",
      "geometry": {
        "type": "Point",
        "coordinates": [
          19.8473526,
          45.2588162
        ]
      },
      "properties": {
        "id": 297085842,
        "osm_type": "way",
        "name": "Бела Лађа II",
        "tourism": "guest_house",
        "phone": "+381 21 500190",
        "website": "https://www.belaladja.com/sobe.html",
        "check_date": "2026-02-14"
      }
    },
    {
      "type": "Feature",
      "geometry": {
        "type": "Point",
        "coordinates": [
          19.8085513,
          45.2464796
        ]
      },
      "properties": {
        "id": 298777440,
        "osm_type": "way",
        "name": "Dash",
        "tourism": "hotel"
      }
    },
    {
      "type": "Feature",
      "geometry": {
        "type": "Point",
        "coordinates": [
          19.8160272,
          45.2400054
        ]
      },
      "properties": {
        "id": 299143558,
        "osm_type": "way",
        "name": "Вигор",
        "tourism": "hotel"
      }
    },
    {
      "type": "Feature",
      "geometry": {
        "type": "Point",
        "coordinates": [
          19.8403761,
          45.2649384
        ]
      },
      "properties": {
        "id": 299929021,
        "osm_type": "way",
        "name": "Римски",
        "tourism": "hotel"
      }
    },
    {
      "type": "Feature",
      "geometry": {
        "type": "Point",
        "coordinates": [
          19.8297796,
          45.3013189
        ]
      },
      "properties": {
        "id": 301856750,
        "osm_type": "way",
        "name": "Милказа",
        "tourism": "hotel"
      }
    },
    {
      "type": "Feature",
      "geometry": {
        "type": "Point",
        "coordinates": [
          19.8307352,
          45.2893242
        ]
      },
      "properties": {
        "id": 303033776,
        "osm_type": "way",
        "name": "Jet Set",
        "tourism": "hotel"
      }
    },
    {
      "type": "Feature",
      "geometry": {
        "type": "Point",
        "coordinates": [
          19.7875435,
          45.2332758
        ]
      },
      "properties": {
        "id": 303605355,
        "osm_type": "way",
        "name": "Браћа Дринић",
        "tourism": "hotel"
      }
    },
    {
      "type": "Feature",
      "geometry": {
        "type": "Point",
        "coordinates": [
          19.7950806,
          45.2344398
        ]
      },
      "properties": {
        "id": 303613884,
        "osm_type": "way",
        "name": "Мотел „Лупус”",
        "tourism": "motel"
      }
    },
    {
      "type": "Feature",
      "geometry": {
        "type": "Point",
        "coordinates": [
          19.8222114,
          45.2376697
        ]
      },
      "properties": {
        "id": 303668887,
        "osm_type": "way",
        "name": "Arta",
        "tourism": "hotel"
      }
    },
    {
      "type": "Feature",
      "geometry": {
        "type": "Point",
        "coordinates": [
          19.7812188,
          45.244756
        ]
      },
      "properties": {
        "id": 303972213,
        "osm_type": "way",
        "name": "Вила Москва",
        "tourism": "hotel"
      }
    },
    {
      "type": "Feature",
      "geometry": {
        "type": "Point",
        "coordinates": [
          19.7811668,
          45.2442898
        ]
      },
      "properties": {
        "id": 303972215,
        "osm_type": "way",
        "name": "Стари Кровови",
        "tourism": "hotel",
        "website": "https://www.hotel-starikrovovi.com/"
      }
    },
    {
      "type": "Feature",
      "geometry": {
        "type": "Point",
        "coordinates": [
          19.8584905,
          45.2645439
        ]
      },
      "properties": {
        "id": 311834229,
        "osm_type": "way",
        "name": "Аурора",
        "tourism": "hotel"
      }
    },
    {
      "type": "Feature",
      "geometry": {
        "type": "Point",
        "coordinates": [
          19.8813755,
          45.2430711
        ]
      },
      "properties": {
        "id": 314145223,
        "osm_type": "way",
        "name": "Мачак",
        "tourism": "guest_house"
      }
    },
    {
      "type": "Feature",
      "geometry": {
        "type": "Point",
        "coordinates": [
          19.8446157,
          45.2067665
        ]
      },
      "properties": {
        "id": 315801641,
        "osm_type": "way",
        "name": "Сунце",
        "tourism": "motel"
      }
    },
    {
      "type": "Feature",
      "geometry": {
        "type": "Point",
        "coordinates": [
          19.8275399,
          45.2199816
        ]
      },
      "properties": {
        "id": 317658529,
        "osm_type": "way",
        "name": "Мотел „Илиџа”",
        "tourism": "motel"
      }
    },
    {
      "type": "Feature",
      "geometry": {
        "type": "Point",
        "coordinates": [
          19.838169,
          45.2240589
        ]
      },
      "properties": {
        "id": 329727964,
        "osm_type": "way",
        "name": "Конак",
        "tourism": "hotel"
      }
    },
    {
      "type": "Feature",
      "geometry": {
        "type": "Point",
        "coordinates": [
          19.8558468,
          45.2227876
        ]
      },
      "properties": {
        "id": 330371114,
        "osm_type": "way",
        "name": "Вила „Еванђелина”",
        "tourism": "hostel"
      }
    },
    {
      "type": "Feature",
      "geometry": {
        "type": "Point",
        "coordinates": [
          19.9127706,
          45.1725322
        ]
      },
      "properties": {
        "id": 330976288,
        "osm_type": "way",
        "name": "Стражилово",
        "tourism": "alpine_hut",
        "phone": "+381 63 526638 (Željko Fekete)",
        "contact:phone": "+381 63 8079337 (Brane)",
        "website": "http://www.strazilovo.org"
      }
    },
    {
      "type": "Feature",
      "geometry": {
        "type": "Point",
        "coordinates": [
          19.8245769,
          45.3104223
        ]
      },
      "properties": {
        "id": 350584527,
        "osm_type": "way",
        "name": "Соле мио",
        "tourism": "hotel",
        "website": "https://hotelsolemio.rs/"
      }
    },
    {
      "type": "Feature",
      "geometry": {
        "type": "Point",
        "coordinates": [
          19.8301764,
          45.2950398
        ]
      },
      "properties": {
        "id": 355560578,
        "osm_type": "way",
        "name": "Бојана",
        "tourism": "hotel"
      }
    },
    {
      "type": "Feature",
      "geometry": {
        "type": "Point",
        "coordinates": [
          19.9300853,
          45.1747534
        ]
      },
      "properties": {
        "id": 432635318,
        "osm_type": "way",
        "name": "Екокампинг Фрушка гора",
        "tourism": "camp_site",
        "tents": "yes",
        "phone": "+381 60 2201234",
        "website": "http://campingfruskagora.com"
      }
    },
    {
      "type": "Feature",
      "geometry": {
        "type": "Point",
        "coordinates": [
          19.9407719,
          45.1516696
        ]
      },
      "properties": {
        "id": 531380196,
        "osm_type": "way",
        "name": "Видмар",
        "tourism": "guest_house",
        "phone": "+381 21 523200"
      }
    },
    {
      "type": "Feature",
      "geometry": {
        "type": "Point",
        "coordinates": [
          19.8217425,
          45.2394401
        ]
      },
      "properties": {
        "id": 624346881,
        "osm_type": "way",
        "name": "Macchiato Rooms",
        "tourism": "apartment",
        "phone": "+381 607136230"
      }
    },
    {
      "type": "Feature",
      "geometry": {
        "type": "Point",
        "coordinates": [
          19.9171378,
          45.1688488
        ]
      },
      "properties": {
        "id": 641800890,
        "osm_type": "way",
        "name": "Бранков чардак",
        "tourism": "motel",
        "phone": "063 342415"
      }
    },
    {
      "type": "Feature",
      "geometry": {
        "type": "Point",
        "coordinates": [
          19.8269246,
          45.1841788
        ]
      },
      "properties": {
        "id": 642768683,
        "osm_type": "way",
        "name": "Планинарски дом „Железничар”",
        "tourism": "alpine_hut",
        "phone": "+381 64 1839991 (Žika Petrović)",
        "website": "http://www.psdzeleznicarns.org.rs/kontakt/"
      }
    },
    {
      "type": "Feature",
      "geometry": {
        "type": "Point",
        "coordinates": [
          19.7806936,
          45.1590878
        ]
      },
      "properties": {
        "id": 642768685,
        "osm_type": "way",
        "name": "Планинарски дом „Змајевац”",
        "tourism": "alpine_hut",
        "phone": "+381 60 4650381 (Saša Matešić)",
        "website": "http://pdzmajevac.blogspot.rs/"
      }
    },
    {
      "type": "Feature",
      "geometry": {
        "type": "Point",
        "coordinates": [
          19.8502339,
          45.1857741
        ]
      },
      "properties": {
        "id": 642768687,
        "osm_type": "way",
        "name": "Планинарски дом „Занатлија”",
        "tourism": "alpine_hut",
        "phone": "+381 64 8372011 (Milojko Pavlović)",
        "website": "http://pdzanatlija_nsad.on.neobee.net/"
      }
    },
    {
      "type": "Feature",
      "geometry": {
        "type": "Point",
        "coordinates": [
          19.823244,
          45.1837813
        ]
      },
      "properties": {
        "id": 642768689,
        "osm_type": "way",
        "name": "Планинарски дом „Др Радивој Симоновић”",
        "tourism": "alpine_hut",
        "phone": "+381 21 529978 (Dragoljub Živkov)"
      }
    },
    {
      "type": "Feature",
      "geometry": {
        "type": "Point",
        "coordinates": [
          19.5964767,
          45.3571721
        ]
      },
      "properties": {
        "id": 680658074,
        "osm_type": "way",
        "name": "Apartmani Svetlica",
        "tourism": "apartment",
        "phone": "+381-21-781-848",
        "website": "https://apartmanisvetlica.wixsite.com/svetlica-apartmani/kontakt"
      }
    },
    {
      "type": "Feature",
      "geometry": {
        "type": "Point",
        "coordinates": [
          20.3079495,
          45.2035178
        ]
      },
      "properties": {
        "id": 689363276,
        "osm_type": "way",
        "name": "Хотел Тиса",
        "tourism": "hotel"
      }
    },
    {
      "type": "Feature",
      "geometry": {
        "type": "Point",
        "coordinates": [
          20.3083118,
          45.2051756
        ]
      },
      "properties": {
        "id": 689367288,
        "osm_type": "way",
        "name": "Етно кућа Богојевић",
        "tourism": "motel"
      }
    },
    {
      "type": "Feature",
      "geometry": {
        "type": "Point",
        "coordinates": [
          19.0894955,
          45.4000754
        ]
      },
      "properties": {
        "id": 693730689,
        "osm_type": "way",
        "name": "Бачки Двор",
        "tourism": "motel"
      }
    },
    {
      "type": "Feature",
      "geometry": {
        "type": "Point",
        "coordinates": [
          19.1120466,
          45.3241806
        ]
      },
      "properties": {
        "id": 694471418,
        "osm_type": "way",
        "name": "Ловачка кућа Плавна",
        "tourism": "motel",
        "contact:phone": "(0)21 778 268"
      }
    },
    {
      "type": "Feature",
      "geometry": {
        "type": "Point",
        "coordinates": [
          20.0550092,
          45.6109899
        ]
      },
      "properties": {
        "id": 741941659,
        "osm_type": "way",
        "name": "Imperial Lux Hotel",
        "tourism": "hotel"
      }
    },
    {
      "type": "Feature",
      "geometry": {
        "type": "Point",
        "coordinates": [
          19.4868087,
          45.253702
        ]
      },
      "properties": {
        "id": 810676434,
        "osm_type": "way",
        "name": "Полој",
        "tourism": "motel"
      }
    },
    {
      "type": "Feature",
      "geometry": {
        "type": "Point",
        "coordinates": [
          19.3843416,
          45.266765
        ]
      },
      "properties": {
        "id": 845692919,
        "osm_type": "way",
        "tourism": "hotel"
      }
    },
    {
      "type": "Feature",
      "geometry": {
        "type": "Point",
        "coordinates": [
          20.0529283,
          45.6152325
        ]
      },
      "properties": {
        "id": 970844318,
        "osm_type": "way",
        "name": "Experience",
        "tourism": "hotel",
        "phone": "+381 21 38 5005;+381 21 3855005",
        "website": "https://www.hotelexperience.rs"
      }
    },
    {
      "type": "Feature",
      "geometry": {
        "type": "Point",
        "coordinates": [
          19.8275261,
          45.1842643
        ]
      },
      "properties": {
        "id": 1098082043,
        "osm_type": "way",
        "name": "Планинарски дом „Црвени Чот”",
        "tourism": "alpine_hut",
        "phone": "+381 63 689381 (Duško Ninkov)"
      }
    },
    {
      "type": "Feature",
      "geometry": {
        "type": "Point",
        "coordinates": [
          19.6410774,
          45.5707389
        ]
      },
      "properties": {
        "id": 1153422672,
        "osm_type": "way",
        "name": "Bačka",
        "tourism": "hotel",
        "phone": "+38121707376",
        "website": "http://www.hotelbacka.rs"
      }
    },
    {
      "type": "Feature",
      "geometry": {
        "type": "Point",
        "coordinates": [
          19.8235088,
          45.1909981
        ]
      },
      "properties": {
        "id": 1300602660,
        "osm_type": "way",
        "name": "Šumska 1",
        "tourism": "guest_house",
        "website": "https://www.sumska1.com/"
      }
    },
    {
      "type": "Feature",
      "geometry": {
        "type": "Point",
        "coordinates": [
          19.7806898,
          45.1591928
        ]
      },
      "properties": {
        "id": 1348384164,
        "osm_type": "way",
        "name": "Zmajevac",
        "tourism": "hotel"
      }
    },
    {
      "type": "Feature",
      "geometry": {
        "type": "Point",
        "coordinates": [
          19.0718041,
          45.3922953
        ]
      },
      "properties": {
        "id": 9638731,
        "osm_type": "relation",
        "tourism": "hotel"
      }
    },
    {
      "type": "Feature",
      "geometry": {
        "type": "Point",
        "coordinates": [
          20.0549882,
          45.6112349
        ]
      },
      "properties": {
        "id": 10257297,
        "osm_type": "relation",
        "tourism": "hotel"
      }
    },
    {
      "type": "Feature",
      "geometry": {
        "type": "Point",
        "coordinates": [
          19.8408627,
          45.2548381
        ]
      },
      "properties": {
        "id": 16676362,
        "osm_type": "relation",
        "name": "The Tesla Art Hostel",
        "tourism": "hostel"
      }
    }
  ]
}