{
  "type": "FeatureCollection",
  "features": [
    {
      "type": "Feature",
      "geometry": {
        "type": "Point",
        "coordinates": [
          18.8016657,
          45.2852201
        ]
      },
      "properties": {
        "id": 676796591,
        "osm_type": "node",
        "name": "Vila Lenije",
        "tourism": "hotel"
      }
    },
    {
      "type": "Feature",
      "geometry": {
        "type": "Point",
        "coordinates": [
          18.8060611,
          45.2879021
        ]
      },
      "properties": {
        "id": 676796598,
        "osm_type": "node",
        "name": "Admiral",
        "tourism": "hotel"
      }
    },
    {
      "type": "Feature",
      "geometry": {
        "type": "Point",
        "coordinates": [
          18.7000162,
          45.1022164
        ]
      },
      "properties": {
        "id": 1404485096,
        "osm_type": "node",
        "tourism": "hotel"
      }
    },
    {
      "type": "Feature",
      "geometry": {
        "type": "Point",
        "coordinates": [
          19.1673831,
          45.265432
        ]
      },
      "properties": {
        "id": 1724478100,
        "osm_type": "node",
        "name": "Budimka",
        "tourism": "guest_house",
        "phone": "+385 32 527 017"
      }
    },
    {
      "type": "Feature",
      "geometry": {
        "type": "Point",
        "coordinates": [
          19.0059305,
          45.3498165
        ]
      },
      "properties": {
        "id": 2420967889,
        "osm_type": "node",
        "name": "Vila Rosa",
        "tourism": "guest_house",
        "phone": "+385 91 520 4036"
      }
    },
    {
      "type": "Feature",
      "geometry": {
        "type": "Point",
        "coordinates": [
          18.809193,
          45.2958866
        ]
      },
      "properties": {
        "id": 2834033918,
        "osm_type": "node",
        "name": "Lady-M",
        "tourism": "hotel"
      }
    },
    {
      "type": "Feature",
      "geometry": {
        "type": "Point",
        "coordinates": [
          19.3772806,
          45.2227307
        ]
      },
      "properties": {
        "id": 3463539160,
        "osm_type": "node",
        "name": "Pansion Masarini",
        "tourism": "guest_house"
      }
    },
    {
      "type": "Feature",
      "geometry": {
        "type": "Point",
        "coordinates": [
          19.2838771,
          45.2345652
        ]
      },
      "properties": {
        "id": 3463585784,
        "osm_type": "node",
        "name": "Kapitenovo camping",
        "tourism": "camp_site"
      }
    },
    {
      "type": "Feature",
      "geometry": {
        "type": "Point",
        "coordinates": [
          18.9761834,
          45.348148
        ]
      },
      "properties": {
        "id": 4457073438,
        "osm_type": "node",
        "name": "Vacation house Erovac",
        "tourism": "guest_house"
      }
    },
    {
      "type": "Feature",
      "geometry": {
        "type": "Point",
        "coordinates": [
          18.8030603,
          45.2877268
        ]
      },
      "properties": {
        "id": 5156409678,
        "osm_type": "node",
        "name": "Hostel Plus Centar",
        "tourism": "hostel",
        "phone": "+385 32 333 021",
        "website": "http://www.hostel-plus.hr"
      }
    },
    {
      "type": "Feature",
      "geometry": {
        "type": "Point",
        "coordinates": [
          19.0211396,
          45.3418009
        ]
      },
      "properties": {
        "id": 7004571307,
        "osm_type": "node",
        "name": "Biser Dunava",
        "tourism": "apartment",
        "opening_hours": "24/7",
        "phone": "+385 (0) 92 271 7082",
        "website": "https://biserdunava.com/"
      }
    },
    {
      "type": "Feature",
      "geometry": {
        "type": "Point",
        "coordinates": [
          18.9923279,
          45.346464
        ]
      },
      "properties": {
        "id": 11740671634,
        "osm_type": "node",
        "name": "San",
        "tourism": "apartment"
      }
    },
    {
      "type": "Feature",
      "geometry": {
        "type": "Point",
        "coordinates": [
          18.9930385,
          45.3463769
        ]
      },
      "properties": {
        "id": 11740671635,
        "osm_type": "node",
        "name": "Noćko",
        "tourism": "guest_house"
      }
    },
    {
      "type": "Feature",
      "geometry": {
        "type": "Point",
        "coordinates": [
          18.8065424,
          45.2934027
        ]
      },
      "properties": {
        "id": 11811581080,
        "osm_type": "node",
        "name": "Apartman Lola",
        "tourism": "apartment",
        "phone": "385993328444",
        "website": "https://www.lola.com.hr"
      }
    },
    {
      "type": "Feature",
      "geometry": {
        "type": "Point",
        "coordinates": [
          18.5355297,
          45.1133387
        ]
      },
      "properties": {
        "id": 12399327098,
        "osm_type": "node",
        "name": "Mihića dvori",
        "tourism": "guest_house",
        "phone": "+385922896659",
        "website": "https://www.mihica-dvori.com/"
      }
    },
    {
      "type": "Feature",
      "geometry": {
        "type": "Point",
        "coordinates": [
          18.7655915,
          45.2624061
        ]
      },
      "properties": {
        "id": 169977648,
        "osm_type": "way",
        "name": "Pikov stan",
        "tourism": "guest_house"
      }
    },
    {
      "type": "Feature",
      "geometry": {
        "type": "Point",
        "coordinates": [
          19.0111438,
          45.3546942
        ]
      },
      "properties": {
        "id": 234148095,
        "osm_type": "way",
        "tourism": "camp_site"
      }
    },
    {
      "type": "Feature",
      "geometry": {
        "type": "Point",
        "coordinates": [
          18.8118875,
          45.3021122
        ]
      },
      "properties": {
        "id": 279161765,
        "osm_type": "way",
        "name": "Hotel Gem",
        "tourism": "hotel",
        "website": "http://hotel-gem.eu/"
      }
    },
    {
      "type": "Feature",
      "geometry": {
        "type": "Point",
        "coordinates": [
          19.0015594,
          45.3537302
        ]
      },
      "properties": {
        "id": 295061301,
        "osm_type": "way",
        "name": "Hotel Lav",
        "tourism": "hotel",
        "website": "http://www.hotel-lav.hr/english/index_hr.htm"
      }
    },
    {
      "type": "Feature",
      "geometry": {
        "type": "Point",
        "coordinates": [
          18.9760528,
          45.3540508
        ]
      },
      "properties": {
        "id": 295165910,
        "osm_type": "way",
        "tourism": "guest_house"
      }
    },
    {
      "type": "Feature",
      "geometry": {
        "type": "Point",
        "coordinates": [
          19.0052238,
          45.3439807
        ]
      },
      "properties": {
        "id": 305648985,
        "osm_type": "way",
        "name": "Pansion Vila Vanda Vukovar",
        "tourism": "hotel",
        "phone": "+38598896507",
        "website": "https://pansion-vukovar.hr/"
      }
    },
    {
      "type": "Feature",
      "geometry": {
        "type": "Point",
        "coordinates": [
          18.801147,
          45.2316007
        ]
      },
      "properties": {
        "id": 342357436,
        "osm_type": "way",
        "name": "Hotel Kunjevci",
        "tourism": "hotel",
        "phone": "+385 32 352 999;+385 98 256 052",
        "website": "http://www.hotel-kunjevci.hr"
      }
    },
    {
      "type": "Feature",
      "geometry": {
        "type": "Point",
        "coordinates": [
          19.100539,
          45.292651
        ]
      },
      "properties": {
        "id": 502500632,
        "osm_type": "way",
        "name": "Gondola",
        "tourism": "guest_house"
      }
    },
    {
      "type": "Feature",
      "geometry": {
        "type": "Point",
        "coordinates": [
          18.799397,
          45.2898775
        ]
      },
      "properties": {
        "id": 531165946,
        "osm_type": "way",
        "name": "Hostel Plus",
        "tourism": "hostel",
        "phone": "+385 32 332 466",
        "website": "http://www.hostel-plus.hr"
      }
    },
    {
      "type": "Feature",
      "geometry": {
        "type": "Point",
        "coordinates": [
          18.8030168,
          45.287324
        ]
      },
      "properties": {
        "id": 531166358,
        "osm_type": "way",
        "name": "Hotel Slavonija",
        "tourism": "hotel",
        "phone": "00385 (0)32 342 555",
        "website": "https://hotel-slavonija.eu"
      }
    },
    {
      "type": "Feature",
      "geometry": {
        "type": "Point",
        "coordinates": [
          19.3801204,
          45.2248021
        ]
      },
      "properties": {
        "id": 531235321,
        "osm_type": "way",
        "name": "Hostel Old Town Cinema",
        "tourism": "hostel"
      }
    },
    {
      "type": "Feature",
      "geometry": {
        "type": "Point",
        "coordinates": [
          19.0019798,
          45.3482537
        ]
      },
      "properties": {
        "id": 787469820,
        "osm_type": "way",
        "name": "Hostel 101 Dalmatinac",
        "tourism": "hostel",
        "phone": "+385914440126;+38532616109",
        "website": "http://101dalmatinac.com/"
      }
    },
    {
      "type": "Feature",
      "geometry": {
        "type": "Point",
        "coordinates": [
          19.3802192,
          45.2298771
        ]
      },
      "properties": {
        "id": 899054024,
        "osm_type": "way",
        "name": "Dunav",
        "tourism": "hotel",
        "website": "http://www.hoteldunavilok.com"
      }
    },
    {
      "type": "Feature",
      "geometry": {
        "type": "Point",
        "coordinates": [
          19.3718171,
          45.2244376
        ]
      },
      "properties": {
        "id": 899332352,
        "osm_type": "way",
        "name": "Stari podrumi",
        "tourism": "hotel",
        "check_date": "2025-03-24"
      }
    }
  ]
}