{
  "type": "FeatureCollection",
  "features": [
    {
      "type": "Feature",
      "geometry": {
        "type": "Point",
        "coordinates": [
          19.644878,
          46.0880153
        ]
      },
      "properties": {
        "id": 925840533,
        "osm_type": "node",
        "name": "Мотел Дон Кихот",
        "tourism": "motel"
      }
    },
    {
      "type": "Feature",
      "geometry": {
        "type": "Point",
        "coordinates": [
          19.6631781,
          46.1008586
        ]
      },
      "properties": {
        "id": 925840559,
        "osm_type": "node",
        "name": "Gloria Lux",
        "tourism": "hotel"
      }
    },
    {
      "type": "Feature",
      "geometry": {
        "type": "Point",
        "coordinates": [
          19.6728609,
          46.0709202
        ]
      },
      "properties": {
        "id": 925840628,
        "osm_type": "node",
        "name": "Мотел Денис",
        "tourism": "motel"
      }
    },
    {
      "type": "Feature",
      "geometry": {
        "type": "Point",
        "coordinates": [
          19.6658858,
          46.1025199
        ]
      },
      "properties": {
        "id": 1055422015,
        "osm_type": "node",
        "name": "Prenoćište Best Food",
        "tourism": "apartment",
        "website": "https://www.bestfood.rs/smestaj"
      }
    },
    {
      "type": "Feature",
      "geometry": {
        "type": "Point",
        "coordinates": [
          19.6691103,
          46.1041165
        ]
      },
      "properties": {
        "id": 1055437256,
        "osm_type": "node",
        "tourism": "apartment"
      }
    },
    {
      "type": "Feature",
      "geometry": {
        "type": "Point",
        "coordinates": [
          19.7545886,
          46.1002953
        ]
      },
      "properties": {
        "id": 2079482884,
        "osm_type": "node",
        "name": "Hotel Palic Resort",
        "tourism": "hotel"
      }
    },
    {
      "type": "Feature",
      "geometry": {
        "type": "Point",
        "coordinates": [
          19.7761357,
          45.8518255
        ]
      },
      "properties": {
        "id": 3176991261,
        "osm_type": "node",
        "name": "Vadászotthon",
        "tourism": "guest_house"
      }
    },
    {
      "type": "Feature",
      "geometry": {
        "type": "Point",
        "coordinates": [
          19.7747658,
          45.8513708
        ]
      },
      "properties": {
        "id": 3177002831,
        "osm_type": "node",
        "name": "Nagy Zsolt",
        "tourism": "guest_house",
        "phone": "+381638114495"
      }
    },
    {
      "type": "Feature",
      "geometry": {
        "type": "Point",
        "coordinates": [
          19.7617399,
          46.1015244
        ]
      },
      "properties": {
        "id": 4206871709,
        "osm_type": "node",
        "tourism": "guest_house"
      }
    },
    {
      "type": "Feature",
      "geometry": {
        "type": "Point",
        "coordinates": [
          19.7643993,
          46.0863981
        ]
      },
      "properties": {
        "id": 4907815621,
        "osm_type": "node",
        "name": "Palićka Kruna",
        "tourism": "hotel"
      }
    },
    {
      "type": "Feature",
      "geometry": {
        "type": "Point",
        "coordinates": [
          19.8043925,
          46.1111744
        ]
      },
      "properties": {
        "id": 6866184354,
        "osm_type": "node",
        "name": "Vinski Dvor",
        "tourism": "hotel",
        "phone": "+381638554929",
        "website": "https://vinskidvor.com/"
      }
    },
    {
      "type": "Feature",
      "geometry": {
        "type": "Point",
        "coordinates": [
          19.7079198,
          45.6581653
        ]
      },
      "properties": {
        "id": 7196083085,
        "osm_type": "node",
        "tourism": "camp_site"
      }
    },
    {
      "type": "Feature",
      "geometry": {
        "type": "Point",
        "coordinates": [
          19.6679635,
          46.0875181
        ]
      },
      "properties": {
        "id": 9368486444,
        "osm_type": "node",
        "name": "Night&Day Rooms",
        "tourism": "motel"
      }
    },
    {
      "type": "Feature",
      "geometry": {
        "type": "Point",
        "coordinates": [
          19.6634981,
          46.1010292
        ]
      },
      "properties": {
        "id": 9371116046,
        "osm_type": "node",
        "name": "Forum Garni",
        "tourism": "hotel"
      }
    },
    {
      "type": "Feature",
      "geometry": {
        "type": "Point",
        "coordinates": [
          19.661987,
          46.099243
        ]
      },
      "properties": {
        "id": 9373053479,
        "osm_type": "node",
        "name": "POP Art",
        "tourism": "apartment"
      }
    },
    {
      "type": "Feature",
      "geometry": {
        "type": "Point",
        "coordinates": [
          19.754722,
          46.0983982
        ]
      },
      "properties": {
        "id": 9493153117,
        "osm_type": "node",
        "tourism": "hotel"
      }
    },
    {
      "type": "Feature",
      "geometry": {
        "type": "Point",
        "coordinates": [
          19.6630858,
          46.1014986
        ]
      },
      "properties": {
        "id": 9897078578,
        "osm_type": "node",
        "name": "Apartman Borovo",
        "tourism": "apartment",
        "check_date": "2025-10-25"
      }
    },
    {
      "type": "Feature",
      "geometry": {
        "type": "Point",
        "coordinates": [
          19.8668888,
          46.135986
        ]
      },
      "properties": {
        "id": 10261395939,
        "osm_type": "node",
        "name": "Какаш салаш",
        "tourism": "guest_house"
      }
    },
    {
      "type": "Feature",
      "geometry": {
        "type": "Point",
        "coordinates": [
          19.7720863,
          46.0967333
        ]
      },
      "properties": {
        "id": 10676737090,
        "osm_type": "node",
        "tourism": "hotel"
      }
    },
    {
      "type": "Feature",
      "geometry": {
        "type": "Point",
        "coordinates": [
          19.6666167,
          46.1029609
        ]
      },
      "properties": {
        "id": 10826291557,
        "osm_type": "node",
        "name": "Hotel Galleria",
        "tourism": "hotel",
        "phone": "+381 24 647111"
      }
    },
    {
      "type": "Feature",
      "geometry": {
        "type": "Point",
        "coordinates": [
          19.6657294,
          46.0950381
        ]
      },
      "properties": {
        "id": 10860306387,
        "osm_type": "node",
        "name": "MB Apartment 2",
        "tourism": "apartment",
        "check_date": "2023-05-01"
      }
    },
    {
      "type": "Feature",
      "geometry": {
        "type": "Point",
        "coordinates": [
          19.6648347,
          46.0965372
        ]
      },
      "properties": {
        "id": 10960464905,
        "osm_type": "node",
        "tourism": "apartment"
      }
    },
    {
      "type": "Feature",
      "geometry": {
        "type": "Point",
        "coordinates": [
          19.6667409,
          46.1036057
        ]
      },
      "properties": {
        "id": 11028425460,
        "osm_type": "node",
        "name": "Urban Haven",
        "tourism": "guest_house",
        "phone": "+38163 728 74 12",
        "website": "https://www.urbanhaven.rs/"
      }
    },
    {
      "type": "Feature",
      "geometry": {
        "type": "Point",
        "coordinates": [
          19.678322,
          45.7020403
        ]
      },
      "properties": {
        "id": 11113950823,
        "osm_type": "node",
        "name": "Motel",
        "tourism": "motel"
      }
    },
    {
      "type": "Feature",
      "geometry": {
        "type": "Point",
        "coordinates": [
          19.6737842,
          46.0950978
        ]
      },
      "properties": {
        "id": 11118650251,
        "osm_type": "node",
        "name": "Put Svile",
        "tourism": "hostel"
      }
    },
    {
      "type": "Feature",
      "geometry": {
        "type": "Point",
        "coordinates": [
          19.672577,
          46.083512
        ]
      },
      "properties": {
        "id": 11118664204,
        "osm_type": "node",
        "name": "Avior",
        "tourism": "hotel",
        "phone": "+381 65 3513337",
        "website": "https://www.avior.rs/"
      }
    },
    {
      "type": "Feature",
      "geometry": {
        "type": "Point",
        "coordinates": [
          19.6378579,
          45.8089478
        ]
      },
      "properties": {
        "id": 11123387605,
        "osm_type": "node",
        "tourism": "apartment"
      }
    },
    {
      "type": "Feature",
      "geometry": {
        "type": "Point",
        "coordinates": [
          19.667848,
          46.076967
        ]
      },
      "properties": {
        "id": 11150500434,
        "osm_type": "node",
        "name": "Yugoland",
        "tourism": "camp_site",
        "opening_hours": "May 01-Nov 12 Mo-Su 09:00-19:00",
        "tents": "yes"
      }
    },
    {
      "type": "Feature",
      "geometry": {
        "type": "Point",
        "coordinates": [
          19.7529051,
          46.0985891
        ]
      },
      "properties": {
        "id": 11736625067,
        "osm_type": "node",
        "name": "Villa Elizabet",
        "tourism": "hotel",
        "website": "https://vilaelizabet.com/",
        "check_date": "2024-09-10"
      }
    },
    {
      "type": "Feature",
      "geometry": {
        "type": "Point",
        "coordinates": [
          19.6672282,
          46.1021187
        ]
      },
      "properties": {
        "id": 12271876906,
        "osm_type": "node",
        "name": "Ignim",
        "tourism": "apartment"
      }
    },
    {
      "type": "Feature",
      "geometry": {
        "type": "Point",
        "coordinates": [
          19.6548794,
          46.092005
        ]
      },
      "properties": {
        "id": 12848926757,
        "osm_type": "node",
        "name": "Апартман Никола",
        "tourism": "apartment",
        "phone": "+381656350640"
      }
    },
    {
      "type": "Feature",
      "geometry": {
        "type": "Point",
        "coordinates": [
          19.6573173,
          46.0895848
        ]
      },
      "properties": {
        "id": 13167046401,
        "osm_type": "node",
        "name": "Rooms Simke",
        "tourism": "hostel",
        "phone": "0638159021"
      }
    },
    {
      "type": "Feature",
      "geometry": {
        "type": "Point",
        "coordinates": [
          19.6574819,
          46.0894538
        ]
      },
      "properties": {
        "id": 13167046501,
        "osm_type": "node",
        "name": "Rooms Tamara",
        "tourism": "guest_house"
      }
    },
    {
      "type": "Feature",
      "geometry": {
        "type": "Point",
        "coordinates": [
          19.6562895,
          46.0905666
        ]
      },
      "properties": {
        "id": 13172633301,
        "osm_type": "node",
        "name": "Kollar D Guest House",
        "tourism": "guest_house"
      }
    },
    {
      "type": "Feature",
      "geometry": {
        "type": "Point",
        "coordinates": [
          19.6781619,
          46.0753304
        ]
      },
      "properties": {
        "id": 13188314641,
        "osm_type": "node",
        "name": "Imperium",
        "tourism": "hotel",
        "phone": "+381 24 4156270;+381 65 9496016",
        "website": "https://hotelimperiumsubotica.rs/"
      }
    },
    {
      "type": "Feature",
      "geometry": {
        "type": "Point",
        "coordinates": [
          19.6684569,
          46.0969939
        ]
      },
      "properties": {
        "id": 13456008206,
        "osm_type": "node",
        "name": "Artist Hotel",
        "tourism": "hotel",
        "phone": "+381 24 266100",
        "website": "https://artisthotel.rs/"
      }
    },
    {
      "type": "Feature",
      "geometry": {
        "type": "Point",
        "coordinates": [
          19.6292693,
          45.8578029
        ]
      },
      "properties": {
        "id": 13649032566,
        "osm_type": "node",
        "tourism": "hotel"
      }
    },
    {
      "type": "Feature",
      "geometry": {
        "type": "Point",
        "coordinates": [
          19.6303519,
          45.8585917
        ]
      },
      "properties": {
        "id": 13649032568,
        "osm_type": "node",
        "tourism": "hotel"
      }
    },
    {
      "type": "Feature",
      "geometry": {
        "type": "Point",
        "coordinates": [
          19.7645021,
          46.1003935
        ]
      },
      "properties": {
        "id": 13660708988,
        "osm_type": "node",
        "name": "Villa Larus",
        "tourism": "hostel",
        "phone": "+381 24 755220",
        "website": "http://www.villalarus.rs/"
      }
    },
    {
      "type": "Feature",
      "geometry": {
        "type": "Point",
        "coordinates": [
          19.6688406,
          46.0997151
        ]
      },
      "properties": {
        "id": 77810193,
        "osm_type": "way",
        "name": "Хотел Патрија",
        "tourism": "hotel",
        "website": "http://www.hotelpatria.rs"
      }
    },
    {
      "type": "Feature",
      "geometry": {
        "type": "Point",
        "coordinates": [
          19.6620754,
          46.0955907
        ]
      },
      "properties": {
        "id": 78066342,
        "osm_type": "way",
        "name": "Пбг Хотел",
        "tourism": "hotel"
      }
    },
    {
      "type": "Feature",
      "geometry": {
        "type": "Point",
        "coordinates": [
          19.6797027,
          46.089624
        ]
      },
      "properties": {
        "id": 79271480,
        "osm_type": "way",
        "name": "Vila Maya",
        "tourism": "guest_house",
        "phone": "+381 64 066 0849"
      }
    },
    {
      "type": "Feature",
      "geometry": {
        "type": "Point",
        "coordinates": [
          19.6489769,
          46.0915464
        ]
      },
      "properties": {
        "id": 79271482,
        "osm_type": "way",
        "name": "Royal Crown",
        "tourism": "hotel",
        "phone": "+381 24 533666",
        "website": "https://royalcrown.rs/"
      }
    },
    {
      "type": "Feature",
      "geometry": {
        "type": "Point",
        "coordinates": [
          19.7592342,
          46.0991412
        ]
      },
      "properties": {
        "id": 80828141,
        "osm_type": "way",
        "name": "Језеро",
        "tourism": "hotel",
        "website": "https://www.elittepalic.rs/"
      }
    },
    {
      "type": "Feature",
      "geometry": {
        "type": "Point",
        "coordinates": [
          19.7724854,
          46.0950733
        ]
      },
      "properties": {
        "id": 80919759,
        "osm_type": "way",
        "name": "Vila Vivien Apartmani",
        "tourism": "apartment",
        "opening_hours": "Mo-Su 10:00-22:00",
        "phone": "+38162202070",
        "website": "http://www.vivi.rs"
      }
    },
    {
      "type": "Feature",
      "geometry": {
        "type": "Point",
        "coordinates": [
          19.70514,
          45.62501
        ]
      },
      "properties": {
        "id": 224035503,
        "osm_type": "way",
        "name": "Roadstar Motel",
        "tourism": "motel"
      }
    },
    {
      "type": "Feature",
      "geometry": {
        "type": "Point",
        "coordinates": [
          19.7861305,
          46.1128668
        ]
      },
      "properties": {
        "id": 382463608,
        "osm_type": "way",
        "name": "Majkin salaš",
        "tourism": "hotel",
        "opening_hours": "Su-Th 12:00-22:00; Fr-Sa 12:00-24:00",
        "phone": "+381 (24) 753 672"
      }
    },
    {
      "type": "Feature",
      "geometry": {
        "type": "Point",
        "coordinates": [
          19.7831097,
          46.1117982
        ]
      },
      "properties": {
        "id": 382463609,
        "osm_type": "way",
        "name": "Majkin salaš",
        "tourism": "hotel",
        "phone": "+381 (24) 753 032"
      }
    },
    {
      "type": "Feature",
      "geometry": {
        "type": "Point",
        "coordinates": [
          19.7730222,
          46.0959261
        ]
      },
      "properties": {
        "id": 467534209,
        "osm_type": "way",
        "name": "Guest House Kristina",
        "tourism": "hotel",
        "phone": "+381 606124692",
        "website": "http://www.guesthousekristina.com/"
      }
    },
    {
      "type": "Feature",
      "geometry": {
        "type": "Point",
        "coordinates": [
          19.7361149,
          46.1052507
        ]
      },
      "properties": {
        "id": 508280201,
        "osm_type": "way",
        "name": "De Tour",
        "tourism": "camp_site"
      }
    },
    {
      "type": "Feature",
      "geometry": {
        "type": "Point",
        "coordinates": [
          19.5587688,
          46.1633373
        ]
      },
      "properties": {
        "id": 783399154,
        "osm_type": "way",
        "name": "Вила Мајур",
        "tourism": "hotel",
        "website": "https://www.vilamajur.com"
      }
    },
    {
      "type": "Feature",
      "geometry": {
        "type": "Point",
        "coordinates": [
          19.7628922,
          46.0987248
        ]
      },
      "properties": {
        "id": 788254471,
        "osm_type": "way",
        "name": "Президент",
        "tourism": "hotel",
        "website": "https://www.hotelprezident.com"
      }
    },
    {
      "type": "Feature",
      "geometry": {
        "type": "Point",
        "coordinates": [
          19.762997,
          46.0986957
        ]
      },
      "properties": {
        "id": 788254472,
        "osm_type": "way",
        "tourism": "hotel"
      }
    },
    {
      "type": "Feature",
      "geometry": {
        "type": "Point",
        "coordinates": [
          19.5211913,
          45.7502496
        ]
      },
      "properties": {
        "id": 828079787,
        "osm_type": "way",
        "name": "Бисер",
        "tourism": "hotel"
      }
    },
    {
      "type": "Feature",
      "geometry": {
        "type": "Point",
        "coordinates": [
          19.7815949,
          46.0897985
        ]
      },
      "properties": {
        "id": 1078736187,
        "osm_type": "way",
        "name": "Camping Palić",
        "tourism": "camp_site",
        "tents": "yes",
        "website": "https://campingpalic.com"
      }
    },
    {
      "type": "Feature",
      "geometry": {
        "type": "Point",
        "coordinates": [
          19.7072016,
          45.6577247
        ]
      },
      "properties": {
        "id": 9391124,
        "osm_type": "relation",
        "tourism": "hotel"
      }
    },
    {
      "type": "Feature",
      "geometry": {
        "type": "Point",
        "coordinates": [
          19.7079411,
          45.6585327
        ]
      },
      "properties": {
        "id": 9391136,
        "osm_type": "relation",
        "tourism": "hotel"
      }
    }
  ]
}