{
  "type": "FeatureCollection",
  "features": [
    {
      "type": "Feature",
      "geometry": {
        "type": "Point",
        "coordinates": [
          -7.3966653,
          40.6310439
        ]
      },
      "properties": {
        "id": 1212068324,
        "osm_type": "node",
        "name": "Mira Serra",
        "tourism": "hotel",
        "phone": "+351 271 742 604",
        "website": "http://www.hmiraserra.com.pt/hotel-mira-serra",
        "check_date": "2024-07-16"
      }
    },
    {
      "type": "Feature",
      "geometry": {
        "type": "Point",
        "coordinates": [
          -7.7050259,
          40.4185294
        ]
      },
      "properties": {
        "id": 1287023007,
        "osm_type": "node",
        "name": "Hotel Eurosol Seia Camelo",
        "tourism": "hotel",
        "check_date": "2025-05-29"
      }
    },
    {
      "type": "Feature",
      "geometry": {
        "type": "Point",
        "coordinates": [
          -7.4689337,
          40.4116479
        ]
      },
      "properties": {
        "id": 1413299495,
        "osm_type": "node",
        "name": "Relva de Reboleira",
        "tourism": "camp_site"
      }
    },
    {
      "type": "Feature",
      "geometry": {
        "type": "Point",
        "coordinates": [
          -7.506288,
          40.8570868
        ]
      },
      "properties": {
        "id": 1607531093,
        "osm_type": "node",
        "name": "Hotel do Vale",
        "tourism": "hotel",
        "phone": "+351 232 687 363",
        "website": "http://www.hoteldovale.net/"
      }
    },
    {
      "type": "Feature",
      "geometry": {
        "type": "Point",
        "coordinates": [
          -7.7118931,
          40.4069831
        ]
      },
      "properties": {
        "id": 1679803634,
        "osm_type": "node",
        "name": "Quinta do Crestelo",
        "tourism": "motel"
      }
    },
    {
      "type": "Feature",
      "geometry": {
        "type": "Point",
        "coordinates": [
          -7.2523996,
          40.5764797
        ]
      },
      "properties": {
        "id": 1799531118,
        "osm_type": "node",
        "name": "Quinta dos Avelanais",
        "tourism": "hotel"
      }
    },
    {
      "type": "Feature",
      "geometry": {
        "type": "Point",
        "coordinates": [
          -6.918407,
          40.6170912
        ]
      },
      "properties": {
        "id": 1842903037,
        "osm_type": "node",
        "tourism": "caravan_site"
      }
    },
    {
      "type": "Feature",
      "geometry": {
        "type": "Point",
        "coordinates": [
          -6.8385684,
          40.6154868
        ]
      },
      "properties": {
        "id": 1842903143,
        "osm_type": "node",
        "tourism": "caravan_site"
      }
    },
    {
      "type": "Feature",
      "geometry": {
        "type": "Point",
        "coordinates": [
          -7.5435069,
          40.6235398
        ]
      },
      "properties": {
        "id": 1877289471,
        "osm_type": "node",
        "name": "Palace Hotel & SPA - Termas de São Miguel",
        "tourism": "hotel"
      }
    },
    {
      "type": "Feature",
      "geometry": {
        "type": "Point",
        "coordinates": [
          -6.9648526,
          40.8764453
        ]
      },
      "properties": {
        "id": 2044197004,
        "osm_type": "node",
        "name": "Casa da Cisterna",
        "tourism": "guest_house"
      }
    },
    {
      "type": "Feature",
      "geometry": {
        "type": "Point",
        "coordinates": [
          -7.4631568,
          40.5401925
        ]
      },
      "properties": {
        "id": 2126357848,
        "osm_type": "node",
        "name": "Pousada INATEL Linhares da Beira",
        "tourism": "hotel"
      }
    },
    {
      "type": "Feature",
      "geometry": {
        "type": "Point",
        "coordinates": [
          -6.8284624,
          40.606519
        ]
      },
      "properties": {
        "id": 2270029537,
        "osm_type": "node",
        "name": "Cubano",
        "tourism": "hostel"
      }
    },
    {
      "type": "Feature",
      "geometry": {
        "type": "Point",
        "coordinates": [
          -6.828256,
          40.6074242
        ]
      },
      "properties": {
        "id": 2270029554,
        "osm_type": "node",
        "name": "Lusitano",
        "tourism": "hotel",
        "phone": "+351 271513503"
      }
    },
    {
      "type": "Feature",
      "geometry": {
        "type": "Point",
        "coordinates": [
          -7.1404102,
          41.0932232
        ]
      },
      "properties": {
        "id": 2352728767,
        "osm_type": "node",
        "name": "Pousada de Juventude",
        "tourism": "hostel",
        "contact:phone": "+351 279 764 041",
        "contact:website": "http://microsites.juventude.gov.pt/Portal/pt/PFoz_Coa.htm"
      }
    },
    {
      "type": "Feature",
      "geometry": {
        "type": "Point",
        "coordinates": [
          -7.0698824,
          40.7728693
        ]
      },
      "properties": {
        "id": 2394914647,
        "osm_type": "node",
        "name": "Residencia Falcão",
        "tourism": "guest_house"
      }
    },
    {
      "type": "Feature",
      "geometry": {
        "type": "Point",
        "coordinates": [
          -7.0607246,
          40.7757972
        ]
      },
      "properties": {
        "id": 2396436523,
        "osm_type": "node",
        "name": "Residencial Skylab",
        "tourism": "guest_house"
      }
    },
    {
      "type": "Feature",
      "geometry": {
        "type": "Point",
        "coordinates": [
          -7.2245189,
          40.5665845
        ]
      },
      "properties": {
        "id": 2423832146,
        "osm_type": "node",
        "name": "Hotel Pombeira",
        "tourism": "hotel"
      }
    },
    {
      "type": "Feature",
      "geometry": {
        "type": "Point",
        "coordinates": [
          -7.2100141,
          40.9641469
        ]
      },
      "properties": {
        "id": 2650145894,
        "osm_type": "node",
        "tourism": "hostel"
      }
    },
    {
      "type": "Feature",
      "geometry": {
        "type": "Point",
        "coordinates": [
          -7.5889198,
          40.3286211
        ]
      },
      "properties": {
        "id": 2689923861,
        "osm_type": "node",
        "name": "Campismo do Covão da Ametade",
        "tourism": "camp_site"
      }
    },
    {
      "type": "Feature",
      "geometry": {
        "type": "Point",
        "coordinates": [
          -7.5673595,
          40.4082028
        ]
      },
      "properties": {
        "id": 2690528472,
        "osm_type": "node",
        "name": "Casa das Penhas Douradas",
        "tourism": "hotel"
      }
    },
    {
      "type": "Feature",
      "geometry": {
        "type": "Point",
        "coordinates": [
          -7.2616739,
          40.964981
        ]
      },
      "properties": {
        "id": 3066513463,
        "osm_type": "node",
        "name": "Pensão Nova Era",
        "tourism": "hotel"
      }
    },
    {
      "type": "Feature",
      "geometry": {
        "type": "Point",
        "coordinates": [
          -7.2610487,
          40.9697736
        ]
      },
      "properties": {
        "id": 3066643488,
        "osm_type": "node",
        "name": "Hotel Novo Dia",
        "tourism": "hotel"
      }
    },
    {
      "type": "Feature",
      "geometry": {
        "type": "Point",
        "coordinates": [
          -7.2597632,
          40.9695435
        ]
      },
      "properties": {
        "id": 3068061477,
        "osm_type": "node",
        "tourism": "caravan_site"
      }
    },
    {
      "type": "Feature",
      "geometry": {
        "type": "Point",
        "coordinates": [
          -6.9283893,
          40.3925632
        ]
      },
      "properties": {
        "id": 3371972929,
        "osm_type": "node",
        "name": "Hotel Pelicano",
        "tourism": "hotel"
      }
    },
    {
      "type": "Feature",
      "geometry": {
        "type": "Point",
        "coordinates": [
          -7.401151,
          40.6271077
        ]
      },
      "properties": {
        "id": 3628042655,
        "osm_type": "node",
        "name": "Hotel Quinta dos Cedros",
        "tourism": "hotel",
        "website": "https://tavferhoteis.pt/quinta-dos-cedros/"
      }
    },
    {
      "type": "Feature",
      "geometry": {
        "type": "Point",
        "coordinates": [
          -7.536864,
          40.4020146
        ]
      },
      "properties": {
        "id": 3948296545,
        "osm_type": "node",
        "name": "Pensão Serradalto",
        "tourism": "hostel",
        "phone": "+351 275 981 151"
      }
    },
    {
      "type": "Feature",
      "geometry": {
        "type": "Point",
        "coordinates": [
          -7.5388968,
          40.4028081
        ]
      },
      "properties": {
        "id": 4157154464,
        "osm_type": "node",
        "name": "Casa das Obras",
        "tourism": "hotel",
        "website": "http://www.cadadasobras.pt"
      }
    },
    {
      "type": "Feature",
      "geometry": {
        "type": "Point",
        "coordinates": [
          -6.9629482,
          40.8846497
        ]
      },
      "properties": {
        "id": 4315073406,
        "osm_type": "node",
        "name": "Cruz da Vila",
        "tourism": "chalet"
      }
    },
    {
      "type": "Feature",
      "geometry": {
        "type": "Point",
        "coordinates": [
          -6.9624638,
          40.8977414
        ]
      },
      "properties": {
        "id": 4315092591,
        "osm_type": "node",
        "name": "Bairro cruz da vila",
        "tourism": "chalet"
      }
    },
    {
      "type": "Feature",
      "geometry": {
        "type": "Point",
        "coordinates": [
          -7.7827897,
          40.4781844
        ]
      },
      "properties": {
        "id": 4462402454,
        "osm_type": "node",
        "name": "Casa de Santa Ana da Beira",
        "tourism": "guest_house",
        "phone": "+351969003277",
        "website": "https://www.casadesantaanadabeira.com"
      }
    },
    {
      "type": "Feature",
      "geometry": {
        "type": "Point",
        "coordinates": [
          -7.0280017,
          40.4302887
        ]
      },
      "properties": {
        "id": 4837197628,
        "osm_type": "node",
        "name": "Refúgio no Campo",
        "tourism": "guest_house",
        "phone": "+351 913274242",
        "website": "https://refugionocampo.pt/"
      }
    },
    {
      "type": "Feature",
      "geometry": {
        "type": "Point",
        "coordinates": [
          -7.1781549,
          41.0239663
        ]
      },
      "properties": {
        "id": 5119974238,
        "osm_type": "node",
        "name": "Quinta Chaô D'Ordem",
        "tourism": "guest_house"
      }
    },
    {
      "type": "Feature",
      "geometry": {
        "type": "Point",
        "coordinates": [
          -7.273018,
          40.5407135
        ]
      },
      "properties": {
        "id": 5319893253,
        "osm_type": "node",
        "name": "Residencial Ferrinho",
        "tourism": "hotel"
      }
    },
    {
      "type": "Feature",
      "geometry": {
        "type": "Point",
        "coordinates": [
          -7.7703881,
          40.4482785
        ]
      },
      "properties": {
        "id": 5744107168,
        "osm_type": "node",
        "name": "Casa do Fundo - Sustainable & Ecotourism",
        "tourism": "guest_house",
        "phone": "+351967332005",
        "website": "https://www.casadofundo.com/"
      }
    },
    {
      "type": "Feature",
      "geometry": {
        "type": "Point",
        "coordinates": [
          -7.0701903,
          40.7708284
        ]
      },
      "properties": {
        "id": 5752685734,
        "osm_type": "node",
        "name": "Guest House Alecrim e Rosmaninho",
        "tourism": "guest_house"
      }
    },
    {
      "type": "Feature",
      "geometry": {
        "type": "Point",
        "coordinates": [
          -6.9504464,
          40.5929617
        ]
      },
      "properties": {
        "id": 5911424531,
        "osm_type": "node",
        "name": "Casa do Corro",
        "tourism": "guest_house",
        "website": "https://www.casadocorro.com"
      }
    },
    {
      "type": "Feature",
      "geometry": {
        "type": "Point",
        "coordinates": [
          -6.9496155,
          40.5926334
        ]
      },
      "properties": {
        "id": 5911424532,
        "osm_type": "node",
        "name": "Casa da Cidadela",
        "tourism": "guest_house",
        "website": "https://www.casadocorro.com"
      }
    },
    {
      "type": "Feature",
      "geometry": {
        "type": "Point",
        "coordinates": [
          -6.8899802,
          40.5843022
        ]
      },
      "properties": {
        "id": 5916171585,
        "osm_type": "node",
        "name": "El Patio de Caetana",
        "tourism": "hotel",
        "phone": "+351 936 040 683"
      }
    },
    {
      "type": "Feature",
      "geometry": {
        "type": "Point",
        "coordinates": [
          -7.5925768,
          40.4937579
        ]
      },
      "properties": {
        "id": 6390609992,
        "osm_type": "node",
        "name": "Monteneve",
        "tourism": "hotel"
      }
    },
    {
      "type": "Feature",
      "geometry": {
        "type": "Point",
        "coordinates": [
          -7.5377548,
          40.3950926
        ]
      },
      "properties": {
        "id": 6552870731,
        "osm_type": "node",
        "name": "Vale do Zêzere",
        "tourism": "hotel",
        "phone": "+351275982002"
      }
    },
    {
      "type": "Feature",
      "geometry": {
        "type": "Point",
        "coordinates": [
          -7.71028,
          40.4492719
        ]
      },
      "properties": {
        "id": 6684775084,
        "osm_type": "node",
        "name": "Residencial Mira Sol",
        "tourism": "motel"
      }
    },
    {
      "type": "Feature",
      "geometry": {
        "type": "Point",
        "coordinates": [
          -7.7160271,
          40.4293655
        ]
      },
      "properties": {
        "id": 6688398931,
        "osm_type": "node",
        "name": "Residencial Serra Nevada",
        "tourism": "motel",
        "phone": "+ 351 238 313 753",
        "website": "http://www.residencialserranevada.com"
      }
    },
    {
      "type": "Feature",
      "geometry": {
        "type": "Point",
        "coordinates": [
          -7.536826,
          40.820475
        ]
      },
      "properties": {
        "id": 6736453919,
        "osm_type": "node",
        "name": "O Padeiro",
        "tourism": "hotel",
        "phone": "+351 232 688 215",
        "website": "https://www.panifexopadeiro.pt/"
      }
    },
    {
      "type": "Feature",
      "geometry": {
        "type": "Point",
        "coordinates": [
          -7.3180717,
          40.5537473
        ]
      },
      "properties": {
        "id": 6822156962,
        "osm_type": "node",
        "name": "Vinha da Manta",
        "tourism": "camp_site",
        "website": "https://www.damanta.nl/"
      }
    },
    {
      "type": "Feature",
      "geometry": {
        "type": "Point",
        "coordinates": [
          -7.735594,
          40.3785082
        ]
      },
      "properties": {
        "id": 6852718585,
        "osm_type": "node",
        "name": "Parque do Campismo Silvestre",
        "tourism": "camp_site"
      }
    },
    {
      "type": "Feature",
      "geometry": {
        "type": "Point",
        "coordinates": [
          -7.5451406,
          40.3890319
        ]
      },
      "properties": {
        "id": 7139710809,
        "osm_type": "node",
        "name": "Rampa",
        "tourism": "hostel",
        "phone": "+351966596783"
      }
    },
    {
      "type": "Feature",
      "geometry": {
        "type": "Point",
        "coordinates": [
          -7.6451949,
          40.4046368
        ]
      },
      "properties": {
        "id": 7230159941,
        "osm_type": "node",
        "name": "Abrigo da Montanha",
        "tourism": "hotel"
      }
    },
    {
      "type": "Feature",
      "geometry": {
        "type": "Point",
        "coordinates": [
          -6.9644712,
          40.8968647
        ]
      },
      "properties": {
        "id": 7920745674,
        "osm_type": "node",
        "name": "Estalagem Falcão de Mendonça",
        "tourism": "hotel"
      }
    },
    {
      "type": "Feature",
      "geometry": {
        "type": "Point",
        "coordinates": [
          -7.1661244,
          41.0353738
        ]
      },
      "properties": {
        "id": 8124750848,
        "osm_type": "node",
        "name": "Casa dos Primos",
        "tourism": "apartment"
      }
    },
    {
      "type": "Feature",
      "geometry": {
        "type": "Point",
        "coordinates": [
          -7.6403508,
          40.4022616
        ]
      },
      "properties": {
        "id": 9106186912,
        "osm_type": "node",
        "name": "Casas do Cruzeiro",
        "tourism": "chalet",
        "phone": "+351238315872;+351238312825",
        "website": "https://www.casasdocruzeiro.pt"
      }
    },
    {
      "type": "Feature",
      "geometry": {
        "type": "Point",
        "coordinates": [
          -7.5913114,
          40.497612
        ]
      },
      "properties": {
        "id": 9109425460,
        "osm_type": "node",
        "tourism": "caravan_site"
      }
    },
    {
      "type": "Feature",
      "geometry": {
        "type": "Point",
        "coordinates": [
          -7.8287994,
          40.407844
        ]
      },
      "properties": {
        "id": 9208330517,
        "osm_type": "node",
        "name": "Logeren bij Belgen - Vakantiewoning 6 pers - Quinta dos Bruzios",
        "tourism": "chalet",
        "phone": "+351 967 234 217",
        "website": "https://www.portugalvilla.eu/"
      }
    },
    {
      "type": "Feature",
      "geometry": {
        "type": "Point",
        "coordinates": [
          -7.0640495,
          40.7748637
        ]
      },
      "properties": {
        "id": 9356051597,
        "osm_type": "node",
        "name": "Cravo's Heritage House",
        "tourism": "guest_house"
      }
    },
    {
      "type": "Feature",
      "geometry": {
        "type": "Point",
        "coordinates": [
          -7.4481868,
          40.3889765
        ]
      },
      "properties": {
        "id": 9759467317,
        "osm_type": "node",
        "name": "Campingbeijames",
        "tourism": "camp_site",
        "website": "https://www.campingbeijames.com"
      }
    },
    {
      "type": "Feature",
      "geometry": {
        "type": "Point",
        "coordinates": [
          -7.5313841,
          40.4041321
        ]
      },
      "properties": {
        "id": 9873030089,
        "osm_type": "node",
        "name": "Descanso Serrano",
        "tourism": "guest_house"
      }
    },
    {
      "type": "Feature",
      "geometry": {
        "type": "Point",
        "coordinates": [
          -7.2665183,
          40.5385655
        ]
      },
      "properties": {
        "id": 10080581218,
        "osm_type": "node",
        "name": "Pensão Aliança",
        "tourism": "guest_house"
      }
    },
    {
      "type": "Feature",
      "geometry": {
        "type": "Point",
        "coordinates": [
          -7.8223585,
          40.4197037
        ]
      },
      "properties": {
        "id": 10121541517,
        "osm_type": "node",
        "name": "Chão do Rio",
        "tourism": "guest_house",
        "phone": "+351 919 523 269",
        "website": "https://chaodorio.pt/"
      }
    },
    {
      "type": "Feature",
      "geometry": {
        "type": "Point",
        "coordinates": [
          -6.9482995,
          40.5943693
        ]
      },
      "properties": {
        "id": 10159350018,
        "osm_type": "node",
        "name": "Castel Mendo",
        "tourism": "caravan_site",
        "opening_hours": "24/7"
      }
    },
    {
      "type": "Feature",
      "geometry": {
        "type": "Point",
        "coordinates": [
          -7.2032655,
          40.3325463
        ]
      },
      "properties": {
        "id": 10159350317,
        "osm_type": "node",
        "name": "Sortelha",
        "tourism": "caravan_site"
      }
    },
    {
      "type": "Feature",
      "geometry": {
        "type": "Point",
        "coordinates": [
          -7.6450662,
          40.404642
        ]
      },
      "properties": {
        "id": 10312647644,
        "osm_type": "node",
        "tourism": "hotel"
      }
    },
    {
      "type": "Feature",
      "geometry": {
        "type": "Point",
        "coordinates": [
          -7.1160719,
          40.9153748
        ]
      },
      "properties": {
        "id": 10543569910,
        "osm_type": "node",
        "tourism": "caravan_site"
      }
    },
    {
      "type": "Feature",
      "geometry": {
        "type": "Point",
        "coordinates": [
          -7.5378234,
          40.4056745
        ]
      },
      "properties": {
        "id": 10582514558,
        "osm_type": "node",
        "name": "Casa Mariolas",
        "tourism": "hotel",
        "phone": "+351 966 582 336",
        "website": "https://www.casamariolas.com/"
      }
    },
    {
      "type": "Feature",
      "geometry": {
        "type": "Point",
        "coordinates": [
          -7.5126623,
          40.3972635
        ]
      },
      "properties": {
        "id": 10633325405,
        "osm_type": "node",
        "name": "Quinta de Leandres",
        "tourism": "hotel"
      }
    },
    {
      "type": "Feature",
      "geometry": {
        "type": "Point",
        "coordinates": [
          -7.51276,
          40.3971381
        ]
      },
      "properties": {
        "id": 10684232105,
        "osm_type": "node",
        "name": "Quinta de Leandres",
        "tourism": "hotel"
      }
    },
    {
      "type": "Feature",
      "geometry": {
        "type": "Point",
        "coordinates": [
          -7.086601,
          40.348668
        ]
      },
      "properties": {
        "id": 10769055156,
        "osm_type": "node",
        "name": "Stellplatz Sabugal",
        "tourism": "caravan_site"
      }
    },
    {
      "type": "Feature",
      "geometry": {
        "type": "Point",
        "coordinates": [
          -7.242078,
          40.549203
        ]
      },
      "properties": {
        "id": 10769082214,
        "osm_type": "node",
        "name": "Stellplatz Polis Park, Guarda",
        "tourism": "caravan_site"
      }
    },
    {
      "type": "Feature",
      "geometry": {
        "type": "Point",
        "coordinates": [
          -7.1470448,
          41.0813377
        ]
      },
      "properties": {
        "id": 10769082718,
        "osm_type": "node",
        "tourism": "caravan_site"
      }
    },
    {
      "type": "Feature",
      "geometry": {
        "type": "Point",
        "coordinates": [
          -7.6068989,
          40.5118191
        ]
      },
      "properties": {
        "id": 11023993748,
        "osm_type": "node",
        "name": "Quinta do Paço",
        "tourism": "chalet"
      }
    },
    {
      "type": "Feature",
      "geometry": {
        "type": "Point",
        "coordinates": [
          -7.268362,
          40.538037
        ]
      },
      "properties": {
        "id": 12194820901,
        "osm_type": "node",
        "name": "Hotel Santos",
        "tourism": "hotel"
      }
    },
    {
      "type": "Feature",
      "geometry": {
        "type": "Point",
        "coordinates": [
          -7.2673132,
          40.5400882
        ]
      },
      "properties": {
        "id": 12401137890,
        "osm_type": "node",
        "name": "Urbe Sanchina",
        "tourism": "hostel",
        "phone": "+351 963 804 413",
        "website": "https://urbesanchina.pt/"
      }
    },
    {
      "type": "Feature",
      "geometry": {
        "type": "Point",
        "coordinates": [
          -7.2734558,
          40.5348443
        ]
      },
      "properties": {
        "id": 12452879132,
        "osm_type": "node",
        "name": "HI Pousada da Juventude da Guarda",
        "tourism": "hostel",
        "website": "https://www.pousadasjuventude.pt/pt/pousadas/pousada-da-guarda/"
      }
    },
    {
      "type": "Feature",
      "geometry": {
        "type": "Point",
        "coordinates": [
          -7.5298905,
          40.4063649
        ]
      },
      "properties": {
        "id": 12455560510,
        "osm_type": "node",
        "name": "Casa Raposa",
        "tourism": "hotel",
        "website": "https://casaraposa.lodgify.com",
        "check_date": "2024-12-27"
      }
    },
    {
      "type": "Feature",
      "geometry": {
        "type": "Point",
        "coordinates": [
          -6.9251213,
          40.3816263
        ]
      },
      "properties": {
        "id": 12535051501,
        "osm_type": "node",
        "name": "Parque Autocaravanas de Alfaiates",
        "tourism": "caravan_site",
        "website": "https://alfaiates.sabugal.pt/"
      }
    },
    {
      "type": "Feature",
      "geometry": {
        "type": "Point",
        "coordinates": [
          -7.6446536,
          40.455698
        ]
      },
      "properties": {
        "id": 12877443162,
        "osm_type": "node",
        "name": "Quintal do Forno",
        "tourism": "hotel"
      }
    },
    {
      "type": "Feature",
      "geometry": {
        "type": "Point",
        "coordinates": [
          -7.7015684,
          40.4196829
        ]
      },
      "properties": {
        "id": 13730258103,
        "osm_type": "node",
        "name": "AL. Seia Villa",
        "tourism": "alpine_hut",
        "check_date": "2026-04-14"
      }
    },
    {
      "type": "Feature",
      "geometry": {
        "type": "Point",
        "coordinates": [
          -7.7015649,
          40.4193878
        ]
      },
      "properties": {
        "id": 13730277901,
        "osm_type": "node",
        "name": "AL.",
        "tourism": "alpine_hut",
        "check_date": "2026-04-14"
      }
    },
    {
      "type": "Feature",
      "geometry": {
        "type": "Point",
        "coordinates": [
          -6.9404569,
          41.0271661
        ]
      },
      "properties": {
        "id": 148950610,
        "osm_type": "way",
        "name": "Alojamento Local Bago d'Ouro",
        "tourism": "hotel",
        "contact:phone": "+351 271 355 000;+351 271 355 126;+351 966 873 568",
        "contact:website": "www.bagodourohotels.pt"
      }
    },
    {
      "type": "Feature",
      "geometry": {
        "type": "Point",
        "coordinates": [
          -7.7106123,
          40.4068489
        ]
      },
      "properties": {
        "id": 155585937,
        "osm_type": "way",
        "name": "Quinta do Crestelo",
        "tourism": "hotel"
      }
    },
    {
      "type": "Feature",
      "geometry": {
        "type": "Point",
        "coordinates": [
          -7.542051,
          40.5201184
        ]
      },
      "properties": {
        "id": 263554637,
        "osm_type": "way",
        "name": "Quinta das Cegonhas",
        "tourism": "camp_site",
        "tents": "yes"
      }
    },
    {
      "type": "Feature",
      "geometry": {
        "type": "Point",
        "coordinates": [
          -7.2592118,
          40.9695185
        ]
      },
      "properties": {
        "id": 302555172,
        "osm_type": "way",
        "name": "Parque Municipal de Campismo",
        "tourism": "camp_site"
      }
    },
    {
      "type": "Feature",
      "geometry": {
        "type": "Point",
        "coordinates": [
          -7.3089636,
          40.5858129
        ]
      },
      "properties": {
        "id": 326085076,
        "osm_type": "way",
        "name": "Quinta de São José",
        "tourism": "guest_house",
        "website": "https://sites.google.com/site/casadoraposo/home/a-casa-do-raposo"
      }
    },
    {
      "type": "Feature",
      "geometry": {
        "type": "Point",
        "coordinates": [
          -7.0442357,
          40.442822
        ]
      },
      "properties": {
        "id": 338421582,
        "osm_type": "way",
        "name": "Termas do Cró",
        "tourism": "hotel",
        "check_date": "2025-12-09"
      }
    },
    {
      "type": "Feature",
      "geometry": {
        "type": "Point",
        "coordinates": [
          -7.8153271,
          40.4899061
        ]
      },
      "properties": {
        "id": 340418528,
        "osm_type": "way",
        "name": "Casa Nespereira",
        "tourism": "guest_house"
      }
    },
    {
      "type": "Feature",
      "geometry": {
        "type": "Point",
        "coordinates": [
          -7.8155659,
          40.4901825
        ]
      },
      "properties": {
        "id": 340418705,
        "osm_type": "way",
        "name": "Casa Nespereira",
        "tourism": "guest_house"
      }
    },
    {
      "type": "Feature",
      "geometry": {
        "type": "Point",
        "coordinates": [
          -7.8264166,
          40.4036794
        ]
      },
      "properties": {
        "id": 342312826,
        "osm_type": "way",
        "name": "Toca da Raposa",
        "tourism": "camp_site",
        "opening_hours": "Mar-Oct",
        "tents": "yes",
        "phone": "+351 926 704218",
        "website": "http://www.toca-da-raposa.com"
      }
    },
    {
      "type": "Feature",
      "geometry": {
        "type": "Point",
        "coordinates": [
          -7.5451496,
          40.3858372
        ]
      },
      "properties": {
        "id": 353064622,
        "osm_type": "way",
        "name": "Inatel Manteigas",
        "tourism": "hotel"
      }
    },
    {
      "type": "Feature",
      "geometry": {
        "type": "Point",
        "coordinates": [
          -7.2673403,
          40.5388047
        ]
      },
      "properties": {
        "id": 354891165,
        "osm_type": "way",
        "name": "Residência Filipe",
        "tourism": "hostel",
        "phone": "+351 271223658",
        "website": "http://www.residenciafilipe.com/site/",
        "check_date": "2026-03-01"
      }
    },
    {
      "type": "Feature",
      "geometry": {
        "type": "Point",
        "coordinates": [
          -6.8759377,
          40.8295716
        ]
      },
      "properties": {
        "id": 361043464,
        "osm_type": "way",
        "tourism": "guest_house"
      }
    },
    {
      "type": "Feature",
      "geometry": {
        "type": "Point",
        "coordinates": [
          -7.6597864,
          40.5288959
        ]
      },
      "properties": {
        "id": 362083677,
        "osm_type": "way",
        "tourism": "camp_site"
      }
    },
    {
      "type": "Feature",
      "geometry": {
        "type": "Point",
        "coordinates": [
          -6.9647073,
          40.8768202
        ]
      },
      "properties": {
        "id": 382242229,
        "osm_type": "way",
        "name": "Casa da Cisterna",
        "tourism": "guest_house",
        "contact:website": "http://www.casadacisterna.com"
      }
    },
    {
      "type": "Feature",
      "geometry": {
        "type": "Point",
        "coordinates": [
          -7.5889766,
          40.4033096
        ]
      },
      "properties": {
        "id": 400451232,
        "osm_type": "way",
        "name": "Vale do Rossim Eco Resort",
        "tourism": "camp_site",
        "phone": "+351 275 981 029"
      }
    },
    {
      "type": "Feature",
      "geometry": {
        "type": "Point",
        "coordinates": [
          -7.487723,
          40.5384549
        ]
      },
      "properties": {
        "id": 478386043,
        "osm_type": "way",
        "name": "Quinta do Adamastor",
        "tourism": "hotel"
      }
    },
    {
      "type": "Feature",
      "geometry": {
        "type": "Point",
        "coordinates": [
          -6.9015467,
          40.7290488
        ]
      },
      "properties": {
        "id": 492106952,
        "osm_type": "way",
        "name": "Área de Autocaravanas de Almeida",
        "tourism": "caravan_site",
        "opening_hours": "24/7"
      }
    },
    {
      "type": "Feature",
      "geometry": {
        "type": "Point",
        "coordinates": [
          -7.5628968,
          40.405714
        ]
      },
      "properties": {
        "id": 496780722,
        "osm_type": "way",
        "name": "Vila Alzira",
        "tourism": "chalet"
      }
    },
    {
      "type": "Feature",
      "geometry": {
        "type": "Point",
        "coordinates": [
          -7.5398657,
          40.418516
        ]
      },
      "properties": {
        "id": 496780728,
        "osm_type": "way",
        "name": "Casa de São Lourenço",
        "tourism": "hotel",
        "contact:website": "casadesaolourenco.pt"
      }
    },
    {
      "type": "Feature",
      "geometry": {
        "type": "Point",
        "coordinates": [
          -7.5318931,
          40.4096622
        ]
      },
      "properties": {
        "id": 501388557,
        "osm_type": "way",
        "name": "Casa Cerro da Correia - Local Lodge",
        "tourism": "guest_house",
        "phone": "+351 966 787 834",
        "website": "https://casacerrodacorreia.pt/"
      }
    },
    {
      "type": "Feature",
      "geometry": {
        "type": "Point",
        "coordinates": [
          -7.5049418,
          40.5519782
        ]
      },
      "properties": {
        "id": 528107425,
        "osm_type": "way",
        "name": "Quinta do Tapadao",
        "tourism": "apartment"
      }
    },
    {
      "type": "Feature",
      "geometry": {
        "type": "Point",
        "coordinates": [
          -7.4561787,
          40.5457042
        ]
      },
      "properties": {
        "id": 528107483,
        "osm_type": "way",
        "tourism": "apartment"
      }
    },
    {
      "type": "Feature",
      "geometry": {
        "type": "Point",
        "coordinates": [
          -7.462915,
          40.5394352
        ]
      },
      "properties": {
        "id": 528191204,
        "osm_type": "way",
        "tourism": "hotel"
      }
    },
    {
      "type": "Feature",
      "geometry": {
        "type": "Point",
        "coordinates": [
          -7.5132196,
          40.5217816
        ]
      },
      "properties": {
        "id": 528819818,
        "osm_type": "way",
        "name": "Quinta do Pinheiro",
        "tourism": "chalet"
      }
    },
    {
      "type": "Feature",
      "geometry": {
        "type": "Point",
        "coordinates": [
          -6.828233,
          40.6074088
        ]
      },
      "properties": {
        "id": 552132263,
        "osm_type": "way",
        "name": "Hotel Lusitano",
        "tourism": "hotel"
      }
    },
    {
      "type": "Feature",
      "geometry": {
        "type": "Point",
        "coordinates": [
          -7.5167671,
          40.5714143
        ]
      },
      "properties": {
        "id": 590546519,
        "osm_type": "way",
        "name": "Inatel Vila Ruiva",
        "tourism": "hotel",
        "phone": "+351 271 776 015",
        "website": "https://www.inatel.pt/"
      }
    },
    {
      "type": "Feature",
      "geometry": {
        "type": "Point",
        "coordinates": [
          -7.4921496,
          40.5887649
        ]
      },
      "properties": {
        "id": 608997689,
        "osm_type": "way",
        "name": "Solar dos Cerveiras",
        "tourism": "guest_house",
        "contact:phone": "+351 271 776 122;+351 962 723 251",
        "contact:website": "http://solardoscerveiras.com/"
      }
    },
    {
      "type": "Feature",
      "geometry": {
        "type": "Point",
        "coordinates": [
          -7.5922224,
          40.4955276
        ]
      },
      "properties": {
        "id": 609543709,
        "osm_type": "way",
        "name": "Hotel Eurosol Gouveia",
        "tourism": "hotel",
        "contact:website": "www.eurosol.pt"
      }
    },
    {
      "type": "Feature",
      "geometry": {
        "type": "Point",
        "coordinates": [
          -7.5286543,
          40.5222407
        ]
      },
      "properties": {
        "id": 613757736,
        "osm_type": "way",
        "name": "Honey House",
        "tourism": "guest_house",
        "phone": "+351 968 094 424",
        "website": "https://veganretreatportugal.com/"
      }
    },
    {
      "type": "Feature",
      "geometry": {
        "type": "Point",
        "coordinates": [
          -6.9419375,
          40.8769935
        ]
      },
      "properties": {
        "id": 622014382,
        "osm_type": "way",
        "name": "Hospedaria do Convento - Turismo de Habitação",
        "tourism": "guest_house",
        "contact:phone": "+351 912 411 061",
        "contact:website": "http://www.hospedariadoconvento.pt"
      }
    },
    {
      "type": "Feature",
      "geometry": {
        "type": "Point",
        "coordinates": [
          -7.231918,
          40.9151753
        ]
      },
      "properties": {
        "id": 642585868,
        "osm_type": "way",
        "name": "Casas do Côro",
        "tourism": "hotel",
        "website": "http://www.casasdocoro.com.pt"
      }
    },
    {
      "type": "Feature",
      "geometry": {
        "type": "Point",
        "coordinates": [
          -7.2328334,
          40.9151574
        ]
      },
      "properties": {
        "id": 643037510,
        "osm_type": "way",
        "name": "Casa das Freiras",
        "tourism": "guest_house",
        "website": "http://casadasfreirasturismorural.blogspot.com"
      }
    },
    {
      "type": "Feature",
      "geometry": {
        "type": "Point",
        "coordinates": [
          -7.3548237,
          40.774703
        ]
      },
      "properties": {
        "id": 645245320,
        "osm_type": "way",
        "name": "Hotel Turismo de Trancoso",
        "tourism": "hotel"
      }
    },
    {
      "type": "Feature",
      "geometry": {
        "type": "Point",
        "coordinates": [
          -7.3516492,
          40.7803796
        ]
      },
      "properties": {
        "id": 645245830,
        "osm_type": "way",
        "name": "Residencial Dom Dinis",
        "tourism": "hotel"
      }
    },
    {
      "type": "Feature",
      "geometry": {
        "type": "Point",
        "coordinates": [
          -7.3542614,
          40.7713107
        ]
      },
      "properties": {
        "id": 645246693,
        "osm_type": "way",
        "name": "Residencial São Bartolomeu",
        "tourism": "hotel"
      }
    },
    {
      "type": "Feature",
      "geometry": {
        "type": "Point",
        "coordinates": [
          -7.088972,
          40.3497727
        ]
      },
      "properties": {
        "id": 657310952,
        "osm_type": "way",
        "name": "Raihotel",
        "tourism": "hotel"
      }
    },
    {
      "type": "Feature",
      "geometry": {
        "type": "Point",
        "coordinates": [
          -7.0887918,
          40.3505516
        ]
      },
      "properties": {
        "id": 657310959,
        "osm_type": "way",
        "name": "Hospedaria Robalo",
        "tourism": "guest_house"
      }
    },
    {
      "type": "Feature",
      "geometry": {
        "type": "Point",
        "coordinates": [
          -7.2305124,
          40.5592939
        ]
      },
      "properties": {
        "id": 675702768,
        "osm_type": "way",
        "name": "Hotel Lusitânia Parque",
        "tourism": "hotel"
      }
    },
    {
      "type": "Feature",
      "geometry": {
        "type": "Point",
        "coordinates": [
          -7.5442624,
          40.5289135
        ]
      },
      "properties": {
        "id": 681330970,
        "osm_type": "way",
        "name": "Quinta dos Gata",
        "tourism": "guest_house",
        "phone": "+351 968 151 978"
      }
    },
    {
      "type": "Feature",
      "geometry": {
        "type": "Point",
        "coordinates": [
          -7.380927,
          40.6148845
        ]
      },
      "properties": {
        "id": 684800038,
        "osm_type": "way",
        "name": "Casa da Martha _ Alojamento Local",
        "tourism": "guest_house"
      }
    },
    {
      "type": "Feature",
      "geometry": {
        "type": "Point",
        "coordinates": [
          -7.7078843,
          40.4161637
        ]
      },
      "properties": {
        "id": 689933351,
        "osm_type": "way",
        "name": "Residencial Silva",
        "tourism": "hotel"
      }
    },
    {
      "type": "Feature",
      "geometry": {
        "type": "Point",
        "coordinates": [
          -7.7099249,
          40.4130426
        ]
      },
      "properties": {
        "id": 689944249,
        "osm_type": "way",
        "name": "Residencial Leitão",
        "tourism": "hotel"
      }
    },
    {
      "type": "Feature",
      "geometry": {
        "type": "Point",
        "coordinates": [
          -7.5383273,
          40.3950754
        ]
      },
      "properties": {
        "id": 697759241,
        "osm_type": "way",
        "name": "Hotel Berne",
        "tourism": "hotel",
        "website": "https://hotelberne.com",
        "contact:website": "https://hotelberne.com"
      }
    },
    {
      "type": "Feature",
      "geometry": {
        "type": "Point",
        "coordinates": [
          -7.3891921,
          40.6394452
        ]
      },
      "properties": {
        "id": 704282683,
        "osm_type": "way",
        "tourism": "caravan_site"
      }
    },
    {
      "type": "Feature",
      "geometry": {
        "type": "Point",
        "coordinates": [
          -7.6844264,
          40.466158
        ]
      },
      "properties": {
        "id": 711062660,
        "osm_type": "way",
        "name": "Residencial Senhora da Lomba",
        "tourism": "motel"
      }
    },
    {
      "type": "Feature",
      "geometry": {
        "type": "Point",
        "coordinates": [
          -7.0956587,
          40.3514923
        ]
      },
      "properties": {
        "id": 754443170,
        "osm_type": "way",
        "name": "Sol Rio",
        "tourism": "hotel"
      }
    },
    {
      "type": "Feature",
      "geometry": {
        "type": "Point",
        "coordinates": [
          -7.5419333,
          40.5201324
        ]
      },
      "properties": {
        "id": 783930382,
        "osm_type": "way",
        "name": "Camping das Cegunhas",
        "tourism": "camp_site",
        "tents": "yes"
      }
    },
    {
      "type": "Feature",
      "geometry": {
        "type": "Point",
        "coordinates": [
          -7.6880765,
          40.326179
        ]
      },
      "properties": {
        "id": 809337517,
        "osm_type": "way",
        "name": "Loriga Hostel - Feel Nature",
        "tourism": "hostel"
      }
    },
    {
      "type": "Feature",
      "geometry": {
        "type": "Point",
        "coordinates": [
          -7.463868,
          40.7644292
        ]
      },
      "properties": {
        "id": 874013044,
        "osm_type": "way",
        "name": "Terreira da Santa Cruz",
        "tourism": "hotel"
      }
    },
    {
      "type": "Feature",
      "geometry": {
        "type": "Point",
        "coordinates": [
          -7.7257384,
          40.2843481
        ]
      },
      "properties": {
        "id": 880335647,
        "osm_type": "way",
        "name": "Retiro do Aguincho",
        "tourism": "apartment"
      }
    },
    {
      "type": "Feature",
      "geometry": {
        "type": "Point",
        "coordinates": [
          -7.5384462,
          40.4000964
        ]
      },
      "properties": {
        "id": 895026711,
        "osm_type": "way",
        "name": "Casa d'Avenida",
        "tourism": "guest_house"
      }
    },
    {
      "type": "Feature",
      "geometry": {
        "type": "Point",
        "coordinates": [
          -7.688515,
          40.3276856
        ]
      },
      "properties": {
        "id": 895031822,
        "osm_type": "way",
        "name": "O Vicente",
        "tourism": "guest_house",
        "opening_hours": "Mo-Su 12:00-15:00,19:00-21:30",
        "phone": "+351 238 953 127",
        "website": "https://www.ovicente.com/"
      }
    },
    {
      "type": "Feature",
      "geometry": {
        "type": "Point",
        "coordinates": [
          -7.688166,
          40.3277976
        ]
      },
      "properties": {
        "id": 895031823,
        "osm_type": "way",
        "name": "Casa da Fonte Sagrada",
        "tourism": "guest_house"
      }
    },
    {
      "type": "Feature",
      "geometry": {
        "type": "Point",
        "coordinates": [
          -6.8272585,
          40.6145432
        ]
      },
      "properties": {
        "id": 925950483,
        "osm_type": "way",
        "name": "Quinta do Prado Verde",
        "tourism": "hotel"
      }
    },
    {
      "type": "Feature",
      "geometry": {
        "type": "Point",
        "coordinates": [
          -6.8717411,
          40.410932
        ]
      },
      "properties": {
        "id": 940406608,
        "osm_type": "way",
        "name": "Área de Autocaravanas de Aldeia da Ponte",
        "tourism": "caravan_site",
        "opening_hours": "24/7"
      }
    },
    {
      "type": "Feature",
      "geometry": {
        "type": "Point",
        "coordinates": [
          -7.4048561,
          40.4031731
        ]
      },
      "properties": {
        "id": 954079010,
        "osm_type": "way",
        "name": "Valhelhas Camping",
        "tourism": "camp_site",
        "opening_hours": "Mo-Su 08:00-22:00",
        "tents": "yes",
        "website": "https://valhelhascamping.com/"
      }
    },
    {
      "type": "Feature",
      "geometry": {
        "type": "Point",
        "coordinates": [
          -7.084611,
          40.9383412
        ]
      },
      "properties": {
        "id": 978554859,
        "osm_type": "way",
        "name": "Hortas da Saboia",
        "tourism": "camp_site"
      }
    },
    {
      "type": "Feature",
      "geometry": {
        "type": "Point",
        "coordinates": [
          -7.208293,
          40.9663998
        ]
      },
      "properties": {
        "id": 987941607,
        "osm_type": "way",
        "name": "Longroiva Hotel Rural & Termal Spa",
        "tourism": "hotel",
        "website": "https://www.hoteldelongroiva.com"
      }
    },
    {
      "type": "Feature",
      "geometry": {
        "type": "Point",
        "coordinates": [
          -7.5461255,
          40.3815547
        ]
      },
      "properties": {
        "id": 1000504306,
        "osm_type": "way",
        "name": "Hotel Vila Galé Serra da Estrela",
        "tourism": "hotel",
        "website": "https://www.vilagale.com/pt/hoteis/centro-de-portugal/vila-gale-serra-da-estrela"
      }
    },
    {
      "type": "Feature",
      "geometry": {
        "type": "Point",
        "coordinates": [
          -6.9304865,
          40.6250709
        ]
      },
      "properties": {
        "id": 1045120420,
        "osm_type": "way",
        "name": "Casa do Lagar",
        "tourism": "guest_house"
      }
    },
    {
      "type": "Feature",
      "geometry": {
        "type": "Point",
        "coordinates": [
          -7.2593501,
          40.8557119
        ]
      },
      "properties": {
        "id": 1062560877,
        "osm_type": "way",
        "tourism": "hotel"
      }
    },
    {
      "type": "Feature",
      "geometry": {
        "type": "Point",
        "coordinates": [
          -7.7074641,
          40.3770606
        ]
      },
      "properties": {
        "id": 1063133591,
        "osm_type": "way",
        "name": "Casas da Lapa, Nature & Spa Hotel",
        "tourism": "hotel"
      }
    },
    {
      "type": "Feature",
      "geometry": {
        "type": "Point",
        "coordinates": [
          -7.3532307,
          40.7709287
        ]
      },
      "properties": {
        "id": 1098798547,
        "osm_type": "way",
        "name": "Figuras Mágicas",
        "tourism": "hotel",
        "phone": "+351966218683",
        "website": "https://figurasmagicas.com/"
      }
    },
    {
      "type": "Feature",
      "geometry": {
        "type": "Point",
        "coordinates": [
          -7.5237269,
          40.4049173
        ]
      },
      "properties": {
        "id": 1127969269,
        "osm_type": "way",
        "name": "Hotel da Fábrica",
        "tourism": "hotel"
      }
    },
    {
      "type": "Feature",
      "geometry": {
        "type": "Point",
        "coordinates": [
          -7.543461,
          40.3938099
        ]
      },
      "properties": {
        "id": 1127969270,
        "osm_type": "way",
        "name": "Casa do Comendador",
        "tourism": "hotel"
      }
    },
    {
      "type": "Feature",
      "geometry": {
        "type": "Point",
        "coordinates": [
          -7.7058654,
          40.419789
        ]
      },
      "properties": {
        "id": 1187810101,
        "osm_type": "way",
        "tourism": "caravan_site"
      }
    },
    {
      "type": "Feature",
      "geometry": {
        "type": "Point",
        "coordinates": [
          -7.5567971,
          40.7227571
        ]
      },
      "properties": {
        "id": 1199165156,
        "osm_type": "way",
        "name": "Relax Container",
        "tourism": "guest_house",
        "website": "https://www.relaxcontainer.com/"
      }
    },
    {
      "type": "Feature",
      "geometry": {
        "type": "Point",
        "coordinates": [
          -7.0838743,
          40.6653764
        ]
      },
      "properties": {
        "id": 1202845040,
        "osm_type": "way",
        "tourism": "chalet"
      }
    },
    {
      "type": "Feature",
      "geometry": {
        "type": "Point",
        "coordinates": [
          -7.08303,
          40.3056503
        ]
      },
      "properties": {
        "id": 1271752997,
        "osm_type": "way",
        "name": "Área de Serviço de Malcata",
        "tourism": "caravan_site",
        "website": "https://www.jf-malcata.pt/freguesia/onde-dormir/10-parque_de_autocaravanas_area_de_servico_de_malcata"
      }
    },
    {
      "type": "Feature",
      "geometry": {
        "type": "Point",
        "coordinates": [
          -7.2211725,
          41.0600537
        ]
      },
      "properties": {
        "id": 1283148177,
        "osm_type": "way",
        "name": "Área de Autocaravanas Jean Pierre Rossi e Alberto Brochado Texeira",
        "tourism": "caravan_site"
      }
    },
    {
      "type": "Feature",
      "geometry": {
        "type": "Point",
        "coordinates": [
          -7.5712211,
          40.4910026
        ]
      },
      "properties": {
        "id": 1289068752,
        "osm_type": "way",
        "name": "Curral do Negro",
        "tourism": "camp_site",
        "tents": "yes",
        "phone": "+351 924 397 711",
        "website": "https://www.curraldonegro.pt/"
      }
    },
    {
      "type": "Feature",
      "geometry": {
        "type": "Point",
        "coordinates": [
          -7.2733719,
          40.5347732
        ]
      },
      "properties": {
        "id": 1346351737,
        "osm_type": "way",
        "name": "HI Pousada da Juventude da Guarda",
        "tourism": "hostel",
        "phone": "+351 271 231 005",
        "website": "https://www.pousadasjuventude.pt/pt/pousadas/pousada-da-guarda/"
      }
    },
    {
      "type": "Feature",
      "geometry": {
        "type": "Point",
        "coordinates": [
          -6.9635403,
          40.8754555
        ]
      },
      "properties": {
        "id": 1378280959,
        "osm_type": "way",
        "tourism": "caravan_site"
      }
    },
    {
      "type": "Feature",
      "geometry": {
        "type": "Point",
        "coordinates": [
          -7.674958,
          40.4133029
        ]
      },
      "properties": {
        "id": 1413297779,
        "osm_type": "way",
        "name": "Albergaria Senhora do Espinheiro",
        "tourism": "hotel"
      }
    },
    {
      "type": "Feature",
      "geometry": {
        "type": "Point",
        "coordinates": [
          -7.0788035,
          40.7718598
        ]
      },
      "properties": {
        "id": 1432154439,
        "osm_type": "way",
        "name": "Aire CAMPING-CAR PARK de Pinhel",
        "tourism": "caravan_site",
        "tents": "no",
        "website": "https://www.campingcarpark.com/fr_FR/sejour/aire-etape-camping-car/pinhel/64-beira-interieure-nord/pinhel"
      }
    },
    {
      "type": "Feature",
      "geometry": {
        "type": "Point",
        "coordinates": [
          -7.1779754,
          41.0242491
        ]
      },
      "properties": {
        "id": 1432781332,
        "osm_type": "way",
        "tourism": "guest_house"
      }
    },
    {
      "type": "Feature",
      "geometry": {
        "type": "Point",
        "coordinates": [
          -7.17814,
          41.023717
        ]
      },
      "properties": {
        "id": 1432781335,
        "osm_type": "way",
        "tourism": "guest_house"
      }
    },
    {
      "type": "Feature",
      "geometry": {
        "type": "Point",
        "coordinates": [
          -7.7948045,
          40.414598
        ]
      },
      "properties": {
        "id": 1487621096,
        "osm_type": "way",
        "name": "D. Inês",
        "tourism": "apartment"
      }
    },
    {
      "type": "Feature",
      "geometry": {
        "type": "Point",
        "coordinates": [
          -7.2760515,
          40.5349606
        ]
      },
      "properties": {
        "id": 1728415,
        "osm_type": "relation",
        "name": "Parque de Campismo Municipal da Guarda",
        "tourism": "camp_site",
        "tents": "yes"
      }
    },
    {
      "type": "Feature",
      "geometry": {
        "type": "Point",
        "coordinates": [
          -7.2693083,
          40.5392131
        ]
      },
      "properties": {
        "id": 2398466,
        "osm_type": "relation",
        "name": "Guesthouse da Sé",
        "tourism": "guest_house"
      }
    },
    {
      "type": "Feature",
      "geometry": {
        "type": "Point",
        "coordinates": [
          -7.2662168,
          40.5431043
        ]
      },
      "properties": {
        "id": 2513433,
        "osm_type": "relation",
        "name": "Hotel Vanguarda",
        "tourism": "hotel",
        "phone": "+351 271 208 390",
        "website": "http://www.hotelvanguarda.com.pt/"
      }
    },
    {
      "type": "Feature",
      "geometry": {
        "type": "Point",
        "coordinates": [
          -6.9058176,
          40.7273426
        ]
      },
      "properties": {
        "id": 7225963,
        "osm_type": "relation",
        "name": "Pousada de Nossa Senhora das Neves",
        "tourism": "hotel"
      }
    },
    {
      "type": "Feature",
      "geometry": {
        "type": "Point",
        "coordinates": [
          -7.3497355,
          40.7793851
        ]
      },
      "properties": {
        "id": 8970268,
        "osm_type": "relation",
        "name": "Solar Sampaio e Melo",
        "tourism": "hotel"
      }
    }
  ]
}