{
  "type": "FeatureCollection",
  "features": [
    {
      "type": "Feature",
      "geometry": {
        "type": "Point",
        "coordinates": [
          20.8022128,
          43.2851634
        ]
      },
      "properties": {
        "id": 563238962,
        "osm_type": "node",
        "name": "Олга Дедијер",
        "tourism": "hotel"
      }
    },
    {
      "type": "Feature",
      "geometry": {
        "type": "Point",
        "coordinates": [
          20.8088404,
          43.2852725
        ]
      },
      "properties": {
        "id": 563264803,
        "osm_type": "node",
        "name": "Конаци",
        "tourism": "hotel"
      }
    },
    {
      "type": "Feature",
      "geometry": {
        "type": "Point",
        "coordinates": [
          20.3592457,
          42.8679926
        ]
      },
      "properties": {
        "id": 570989278,
        "osm_type": "node",
        "name": "Поглед",
        "tourism": "alpine_hut"
      }
    },
    {
      "type": "Feature",
      "geometry": {
        "type": "Point",
        "coordinates": [
          20.8156468,
          43.2900017
        ]
      },
      "properties": {
        "id": 608849302,
        "osm_type": "node",
        "name": "Копаоник",
        "tourism": "alpine_hut"
      }
    },
    {
      "type": "Feature",
      "geometry": {
        "type": "Point",
        "coordinates": [
          20.8200829,
          43.2906101
        ]
      },
      "properties": {
        "id": 608849311,
        "osm_type": "node",
        "name": "Ртањ",
        "tourism": "alpine_hut"
      }
    },
    {
      "type": "Feature",
      "geometry": {
        "type": "Point",
        "coordinates": [
          20.8141361,
          43.2858457
        ]
      },
      "properties": {
        "id": 608868019,
        "osm_type": "node",
        "name": "Авала",
        "tourism": "alpine_hut"
      }
    },
    {
      "type": "Feature",
      "geometry": {
        "type": "Point",
        "coordinates": [
          20.8044784,
          43.2866406
        ]
      },
      "properties": {
        "id": 610466318,
        "osm_type": "node",
        "name": "Крагујевачко дечје одмаралиште",
        "tourism": "hostel"
      }
    },
    {
      "type": "Feature",
      "geometry": {
        "type": "Point",
        "coordinates": [
          20.5129418,
          43.1412766
        ]
      },
      "properties": {
        "id": 617125626,
        "osm_type": "node",
        "name": "Таџ",
        "tourism": "hotel"
      }
    },
    {
      "type": "Feature",
      "geometry": {
        "type": "Point",
        "coordinates": [
          20.5421357,
          43.1838965
        ]
      },
      "properties": {
        "id": 617733533,
        "osm_type": "node",
        "name": "Oxa",
        "tourism": "hotel",
        "website": "https://www.hoteloxa.rs/"
      }
    },
    {
      "type": "Feature",
      "geometry": {
        "type": "Point",
        "coordinates": [
          20.3770031,
          43.1163274
        ]
      },
      "properties": {
        "id": 660671309,
        "osm_type": "node",
        "name": "Хотел Сопоћани",
        "tourism": "hotel"
      }
    },
    {
      "type": "Feature",
      "geometry": {
        "type": "Point",
        "coordinates": [
          20.6314893,
          43.3310187
        ]
      },
      "properties": {
        "id": 1377812405,
        "osm_type": "node",
        "name": "Етно кућа Чакмара",
        "tourism": "guest_house",
        "website": "http://www.cakmara.com"
      }
    },
    {
      "type": "Feature",
      "geometry": {
        "type": "Point",
        "coordinates": [
          20.8939758,
          43.6242315
        ]
      },
      "properties": {
        "id": 1927809769,
        "osm_type": "node",
        "name": "Апартмани Дукат",
        "tourism": "guest_house",
        "phone": "+381 36 611101",
        "website": "https://www.apartmanidukat.com/"
      }
    },
    {
      "type": "Feature",
      "geometry": {
        "type": "Point",
        "coordinates": [
          20.895094,
          43.6220551
        ]
      },
      "properties": {
        "id": 1928569658,
        "osm_type": "node",
        "name": "Меркур (нови)",
        "tourism": "hotel",
        "phone": "+381 36 618865",
        "website": "http://www.vrnjcispa.com/"
      }
    },
    {
      "type": "Feature",
      "geometry": {
        "type": "Point",
        "coordinates": [
          20.886197,
          43.6200745
        ]
      },
      "properties": {
        "id": 1935597282,
        "osm_type": "node",
        "name": "Хотел Поштански дом",
        "tourism": "hotel",
        "phone": "+381 36 611922",
        "website": "http://www.pttdom.co.rs/"
      }
    },
    {
      "type": "Feature",
      "geometry": {
        "type": "Point",
        "coordinates": [
          20.8935135,
          43.6220733
        ]
      },
      "properties": {
        "id": 1935805935,
        "osm_type": "node",
        "name": "Апартмани Пассаге",
        "tourism": "guest_house",
        "phone": "+381 36 616789",
        "website": "http://www.passageapartmani.rs/"
      }
    },
    {
      "type": "Feature",
      "geometry": {
        "type": "Point",
        "coordinates": [
          20.8896863,
          43.6201063
        ]
      },
      "properties": {
        "id": 1935851973,
        "osm_type": "node",
        "name": "Апартмани Вила Ленка 2",
        "tourism": "guest_house",
        "phone": "+381 36 522350",
        "website": "https://www.vilalenka2.com/"
      }
    },
    {
      "type": "Feature",
      "geometry": {
        "type": "Point",
        "coordinates": [
          20.889371,
          43.6139266
        ]
      },
      "properties": {
        "id": 1935899895,
        "osm_type": "node",
        "name": "Апартмански комплекс Језеро",
        "tourism": "guest_house",
        "phone": "+381 36 661547"
      }
    },
    {
      "type": "Feature",
      "geometry": {
        "type": "Point",
        "coordinates": [
          20.8924634,
          43.6163108
        ]
      },
      "properties": {
        "id": 1936060292,
        "osm_type": "node",
        "name": "Хотел Бреза",
        "tourism": "hotel",
        "phone": "+381 36 612400",
        "website": "http://www.hotelbreza.rs/"
      }
    },
    {
      "type": "Feature",
      "geometry": {
        "type": "Point",
        "coordinates": [
          20.8928419,
          43.6168198
        ]
      },
      "properties": {
        "id": 1936060298,
        "osm_type": "node",
        "name": "Хотел Партизанка",
        "tourism": "hotel",
        "phone": "+381 36 662060"
      }
    },
    {
      "type": "Feature",
      "geometry": {
        "type": "Point",
        "coordinates": [
          20.8398839,
          43.5632212
        ]
      },
      "properties": {
        "id": 1936789617,
        "osm_type": "node",
        "name": "Вила Гочанка",
        "tourism": "guest_house",
        "phone": "+381 36 641570",
        "website": "https://vrnjackabanja.co.rs/srpski/gocankavmeni"
      }
    },
    {
      "type": "Feature",
      "geometry": {
        "type": "Point",
        "coordinates": [
          20.8470807,
          43.5602806
        ]
      },
      "properties": {
        "id": 1937438038,
        "osm_type": "node",
        "name": "Планинска етно кућа Вила Хоризонт",
        "tourism": "guest_house",
        "phone": "+381 36 641550",
        "website": "https://www.vilahorizont.co.rs/"
      }
    },
    {
      "type": "Feature",
      "geometry": {
        "type": "Point",
        "coordinates": [
          20.8921717,
          43.6171284
        ]
      },
      "properties": {
        "id": 1940669965,
        "osm_type": "node",
        "name": "Vila Emilia Lux",
        "tourism": "guest_house",
        "phone": "+381 65 922 9 444",
        "website": "https://vilaemilia.rs/"
      }
    },
    {
      "type": "Feature",
      "geometry": {
        "type": "Point",
        "coordinates": [
          20.8780967,
          43.5591865
        ]
      },
      "properties": {
        "id": 1941603841,
        "osm_type": "node",
        "name": "Планински дом „Бели извор”",
        "tourism": "hotel",
        "phone": "+38136612008",
        "website": "https://www.htpfontana.com/index.php?option=com_content&view=article&id=6&Itemid=7"
      }
    },
    {
      "type": "Feature",
      "geometry": {
        "type": "Point",
        "coordinates": [
          20.8950423,
          43.624679
        ]
      },
      "properties": {
        "id": 1941951227,
        "osm_type": "node",
        "name": "Краљ",
        "tourism": "hotel",
        "phone": "+381 36 036 611232",
        "website": "http://www.vilakralj.co.rs/"
      }
    },
    {
      "type": "Feature",
      "geometry": {
        "type": "Point",
        "coordinates": [
          20.8996692,
          43.6231924
        ]
      },
      "properties": {
        "id": 1942018851,
        "osm_type": "node",
        "name": "Апартмани ИВА Центар",
        "tourism": "guest_house",
        "phone": "+381 36 620333",
        "website": "http://www.iwacentar.com/"
      }
    },
    {
      "type": "Feature",
      "geometry": {
        "type": "Point",
        "coordinates": [
          20.9014538,
          43.614725
        ]
      },
      "properties": {
        "id": 1942018852,
        "osm_type": "node",
        "name": "Spa Resort Sunny Hill",
        "tourism": "hotel",
        "phone": "+381 36 620480"
      }
    },
    {
      "type": "Feature",
      "geometry": {
        "type": "Point",
        "coordinates": [
          20.9054226,
          43.6258602
        ]
      },
      "properties": {
        "id": 1942018853,
        "osm_type": "node",
        "name": "Вила Рај",
        "tourism": "guest_house",
        "phone": "+381 36 615500",
        "website": "http://www.vilaraj.com/"
      }
    },
    {
      "type": "Feature",
      "geometry": {
        "type": "Point",
        "coordinates": [
          20.8999502,
          43.6230332
        ]
      },
      "properties": {
        "id": 1942078116,
        "osm_type": "node",
        "name": "Апартмани Рај",
        "tourism": "guest_house",
        "phone": "+381 64 3007430",
        "website": "http://www.apartmaniraj.com/"
      }
    },
    {
      "type": "Feature",
      "geometry": {
        "type": "Point",
        "coordinates": [
          20.8936652,
          43.6227063
        ]
      },
      "properties": {
        "id": 1942078121,
        "osm_type": "node",
        "name": "Hotel In Club",
        "tourism": "hotel",
        "phone": "+381 36 611021",
        "website": "http://www.inhotel-vrnjackabanja.com/"
      }
    },
    {
      "type": "Feature",
      "geometry": {
        "type": "Point",
        "coordinates": [
          20.8959882,
          43.6227182
        ]
      },
      "properties": {
        "id": 1942516736,
        "osm_type": "node",
        "name": "Апартмани Вила Паради",
        "tourism": "guest_house",
        "phone": "+381 63 7406443",
        "website": "http://www.vila-paradi.com/"
      }
    },
    {
      "type": "Feature",
      "geometry": {
        "type": "Point",
        "coordinates": [
          20.8943313,
          43.6245701
        ]
      },
      "properties": {
        "id": 1942516737,
        "osm_type": "node",
        "name": "Апартмани Шумадија",
        "tourism": "guest_house",
        "phone": "+381 36 622240",
        "website": "https://www.apartmanisumadija.co.rs/"
      }
    },
    {
      "type": "Feature",
      "geometry": {
        "type": "Point",
        "coordinates": [
          20.8917264,
          43.6125222
        ]
      },
      "properties": {
        "id": 1943294174,
        "osm_type": "node",
        "name": "Цветни конаци",
        "tourism": "guest_house",
        "phone": "+381 36 622449",
        "website": "http://www.cvetnikonaci.com/"
      }
    },
    {
      "type": "Feature",
      "geometry": {
        "type": "Point",
        "coordinates": [
          20.8934282,
          43.6118287
        ]
      },
      "properties": {
        "id": 1943414569,
        "osm_type": "node",
        "name": "Апартмани Вила Победа",
        "tourism": "guest_house",
        "phone": "+381 36 615822",
        "website": "http://www.vila-pobeda.com/"
      }
    },
    {
      "type": "Feature",
      "geometry": {
        "type": "Point",
        "coordinates": [
          20.8930387,
          43.6119717
        ]
      },
      "properties": {
        "id": 1943414594,
        "osm_type": "node",
        "name": "Апартмани Вила Диона",
        "tourism": "guest_house",
        "phone": "+381 62 778588",
        "website": "http://www.viladiona.com/"
      }
    },
    {
      "type": "Feature",
      "geometry": {
        "type": "Point",
        "coordinates": [
          20.8932095,
          43.6189366
        ]
      },
      "properties": {
        "id": 1943453177,
        "osm_type": "node",
        "name": "Хотел Парк",
        "tourism": "hotel",
        "website": "http://www.ahoteli.com/"
      }
    },
    {
      "type": "Feature",
      "geometry": {
        "type": "Point",
        "coordinates": [
          20.8932806,
          43.6172825
        ]
      },
      "properties": {
        "id": 1943483162,
        "osm_type": "node",
        "name": "Vila Emilia",
        "tourism": "guest_house",
        "phone": "+381 65 922 9 444",
        "website": "https://vilaemilia.rs/"
      }
    },
    {
      "type": "Feature",
      "geometry": {
        "type": "Point",
        "coordinates": [
          20.8913504,
          43.6115354
        ]
      },
      "properties": {
        "id": 1944235377,
        "osm_type": "node",
        "name": "Апартмани Престиж",
        "tourism": "guest_house",
        "phone": "+381 36 620660",
        "website": "http://www.apartmaniprestige.com/"
      }
    },
    {
      "type": "Feature",
      "geometry": {
        "type": "Point",
        "coordinates": [
          20.8927592,
          43.6210027
        ]
      },
      "properties": {
        "id": 1950042878,
        "osm_type": "node",
        "name": "Слобода",
        "tourism": "hotel",
        "phone": "+381 36 612040",
        "website": "https://www.htpfontana.com/index.php?option=com_content&view=article&id=5&Itemid=6"
      }
    },
    {
      "type": "Feature",
      "geometry": {
        "type": "Point",
        "coordinates": [
          20.8955286,
          43.6094201
        ]
      },
      "properties": {
        "id": 1951826989,
        "osm_type": "node",
        "name": "Хотел Орион одмаралиште „Борјак”",
        "tourism": "hotel",
        "phone": "+381 36 612041",
        "website": "https://vrnjackabanja.co.rs/srpski/orionhmeni"
      }
    },
    {
      "type": "Feature",
      "geometry": {
        "type": "Point",
        "coordinates": [
          20.8925892,
          43.6226724
        ]
      },
      "properties": {
        "id": 1952518854,
        "osm_type": "node",
        "name": "Апартмани Бели Бор",
        "tourism": "guest_house",
        "phone": "+381 36 622131",
        "website": "http://www.apartmani-belibor.com/"
      }
    },
    {
      "type": "Feature",
      "geometry": {
        "type": "Point",
        "coordinates": [
          20.8980436,
          43.6271431
        ]
      },
      "properties": {
        "id": 1952564022,
        "osm_type": "node",
        "name": "Апартмани Бања",
        "tourism": "guest_house"
      }
    },
    {
      "type": "Feature",
      "geometry": {
        "type": "Point",
        "coordinates": [
          20.896772,
          43.6294879
        ]
      },
      "properties": {
        "id": 1956586381,
        "osm_type": "node",
        "name": "Hotel Solaris Resort",
        "tourism": "hotel",
        "phone": "+381 36 426500",
        "website": "https://www.solarisresort.com/"
      }
    },
    {
      "type": "Feature",
      "geometry": {
        "type": "Point",
        "coordinates": [
          20.8921668,
          43.6127698
        ]
      },
      "properties": {
        "id": 1956636359,
        "osm_type": "node",
        "name": "Хотел Снежник",
        "tourism": "hotel",
        "phone": "+381 36 616150",
        "website": "http://www.hotel-sneznik.com/"
      }
    },
    {
      "type": "Feature",
      "geometry": {
        "type": "Point",
        "coordinates": [
          20.8924665,
          43.6234699
        ]
      },
      "properties": {
        "id": 1956805559,
        "osm_type": "node",
        "name": "Villa Garden",
        "tourism": "guest_house",
        "phone": "+381 36 611067",
        "website": "https://www.vrnjackabanja.co.rs/srpski/index.php?option=com_content&view=article&id=141&Itemid=114"
      }
    },
    {
      "type": "Feature",
      "geometry": {
        "type": "Point",
        "coordinates": [
          20.6873685,
          43.7240499
        ]
      },
      "properties": {
        "id": 2202262286,
        "osm_type": "node",
        "name": "Турист",
        "tourism": "hotel",
        "phone": "+381 36 322366",
        "website": "https://www.hotel-turist.net"
      }
    },
    {
      "type": "Feature",
      "geometry": {
        "type": "Point",
        "coordinates": [
          20.3392603,
          42.9882941
        ]
      },
      "properties": {
        "id": 2432387654,
        "osm_type": "node",
        "tourism": "motel"
      }
    },
    {
      "type": "Feature",
      "geometry": {
        "type": "Point",
        "coordinates": [
          20.896453,
          43.6224568
        ]
      },
      "properties": {
        "id": 2774148737,
        "osm_type": "node",
        "name": "Prvatni smeštaj „Centar apartmani”",
        "tourism": "hotel",
        "phone": "0644160545;036616690",
        "website": "https://vrnjacka-banja.tripod.com/"
      }
    },
    {
      "type": "Feature",
      "geometry": {
        "type": "Point",
        "coordinates": [
          20.6911617,
          43.7313779
        ]
      },
      "properties": {
        "id": 2989460728,
        "osm_type": "node",
        "name": "Konac",
        "tourism": "hostel"
      }
    },
    {
      "type": "Feature",
      "geometry": {
        "type": "Point",
        "coordinates": [
          20.3513284,
          43.2758126
        ]
      },
      "properties": {
        "id": 3546734107,
        "osm_type": "node",
        "name": "Motel GOS",
        "tourism": "motel",
        "phone": "381642100503"
      }
    },
    {
      "type": "Feature",
      "geometry": {
        "type": "Point",
        "coordinates": [
          20.8976341,
          43.5325349
        ]
      },
      "properties": {
        "id": 3983738011,
        "osm_type": "node",
        "name": "Дечје одмаралиште „Станишинци”",
        "tourism": "motel"
      }
    },
    {
      "type": "Feature",
      "geometry": {
        "type": "Point",
        "coordinates": [
          20.8035777,
          43.4797396
        ]
      },
      "properties": {
        "id": 4428090911,
        "osm_type": "node",
        "tourism": "alpine_hut"
      }
    },
    {
      "type": "Feature",
      "geometry": {
        "type": "Point",
        "coordinates": [
          20.5271465,
          43.1463551
        ]
      },
      "properties": {
        "id": 4600119626,
        "osm_type": "node",
        "name": "Студентски смештај Нови Пазар",
        "tourism": "motel",
        "opening_hours": "24/7",
        "phone": "+381641895900"
      }
    },
    {
      "type": "Feature",
      "geometry": {
        "type": "Point",
        "coordinates": [
          20.8134955,
          43.2842971
        ]
      },
      "properties": {
        "id": 4695956493,
        "osm_type": "node",
        "name": "Вила Параглајдер",
        "tourism": "guest_house",
        "website": "http://vilaparaglajder.rs"
      }
    },
    {
      "type": "Feature",
      "geometry": {
        "type": "Point",
        "coordinates": [
          20.7940956,
          43.2724199
        ]
      },
      "properties": {
        "id": 4705730890,
        "osm_type": "node",
        "name": "Апартман Александар",
        "tourism": "guest_house"
      }
    },
    {
      "type": "Feature",
      "geometry": {
        "type": "Point",
        "coordinates": [
          20.6137446,
          43.2815335
        ]
      },
      "properties": {
        "id": 4962805877,
        "osm_type": "node",
        "name": "Караван",
        "tourism": "hotel"
      }
    },
    {
      "type": "Feature",
      "geometry": {
        "type": "Point",
        "coordinates": [
          20.7464348,
          43.3910866
        ]
      },
      "properties": {
        "id": 4970308426,
        "osm_type": "node",
        "name": "Оаза",
        "tourism": "motel"
      }
    },
    {
      "type": "Feature",
      "geometry": {
        "type": "Point",
        "coordinates": [
          20.4501072,
          43.4098543
        ]
      },
      "properties": {
        "id": 5028248480,
        "osm_type": "node",
        "name": "Pansion Nebo",
        "tourism": "motel"
      }
    },
    {
      "type": "Feature",
      "geometry": {
        "type": "Point",
        "coordinates": [
          20.4758362,
          43.4187181
        ]
      },
      "properties": {
        "id": 5035660856,
        "osm_type": "node",
        "name": "Бревина",
        "tourism": "camp_site"
      }
    },
    {
      "type": "Feature",
      "geometry": {
        "type": "Point",
        "coordinates": [
          20.5228912,
          43.1463147
        ]
      },
      "properties": {
        "id": 6544276485,
        "osm_type": "node",
        "tourism": "apartment"
      }
    },
    {
      "type": "Feature",
      "geometry": {
        "type": "Point",
        "coordinates": [
          20.5211721,
          43.1402871
        ]
      },
      "properties": {
        "id": 6782089985,
        "osm_type": "node",
        "name": "Hotel Palma",
        "tourism": "hotel"
      }
    },
    {
      "type": "Feature",
      "geometry": {
        "type": "Point",
        "coordinates": [
          20.8137769,
          43.2851937
        ]
      },
      "properties": {
        "id": 7201821187,
        "osm_type": "node",
        "name": "Casa di Pietra",
        "tourism": "apartment",
        "phone": "+381 (0) 63 320 778",
        "website": "http://www.casadipietra.rs"
      }
    },
    {
      "type": "Feature",
      "geometry": {
        "type": "Point",
        "coordinates": [
          20.7694855,
          43.2765368
        ]
      },
      "properties": {
        "id": 7246799685,
        "osm_type": "node",
        "name": "Chalet Vrhovi Kopaonika",
        "tourism": "chalet",
        "opening_hours": "24/7",
        "phone": "(+ 381) 62 4646 88",
        "website": "https://chaletvrhovikopaonika.com/"
      }
    },
    {
      "type": "Feature",
      "geometry": {
        "type": "Point",
        "coordinates": [
          20.7953708,
          43.2723904
        ]
      },
      "properties": {
        "id": 7289666790,
        "osm_type": "node",
        "tourism": "alpine_hut"
      }
    },
    {
      "type": "Feature",
      "geometry": {
        "type": "Point",
        "coordinates": [
          20.8069492,
          43.2834958
        ]
      },
      "properties": {
        "id": 7342790600,
        "osm_type": "node",
        "name": "Вила Језеро",
        "tourism": "hotel"
      }
    },
    {
      "type": "Feature",
      "geometry": {
        "type": "Point",
        "coordinates": [
          20.7809338,
          43.2747068
        ]
      },
      "properties": {
        "id": 7617396185,
        "osm_type": "node",
        "name": "Вила Анастазија",
        "tourism": "apartment"
      }
    },
    {
      "type": "Feature",
      "geometry": {
        "type": "Point",
        "coordinates": [
          20.7670086,
          43.2756364
        ]
      },
      "properties": {
        "id": 7808281901,
        "osm_type": "node",
        "name": "Планинска чаролија апартмани",
        "tourism": "apartment"
      }
    },
    {
      "type": "Feature",
      "geometry": {
        "type": "Point",
        "coordinates": [
          20.5078039,
          43.7663963
        ]
      },
      "properties": {
        "id": 7994814085,
        "osm_type": "node",
        "tourism": "guest_house"
      }
    },
    {
      "type": "Feature",
      "geometry": {
        "type": "Point",
        "coordinates": [
          20.6915446,
          43.7249413
        ]
      },
      "properties": {
        "id": 7999778486,
        "osm_type": "node",
        "tourism": "guest_house"
      }
    },
    {
      "type": "Feature",
      "geometry": {
        "type": "Point",
        "coordinates": [
          20.693702,
          43.7217478
        ]
      },
      "properties": {
        "id": 8112991317,
        "osm_type": "node",
        "tourism": "guest_house"
      }
    },
    {
      "type": "Feature",
      "geometry": {
        "type": "Point",
        "coordinates": [
          20.4865985,
          43.4164332
        ]
      },
      "properties": {
        "id": 8122070505,
        "osm_type": "node",
        "name": "Домаћинство Шеклер",
        "tourism": "guest_house"
      }
    },
    {
      "type": "Feature",
      "geometry": {
        "type": "Point",
        "coordinates": [
          20.4850533,
          43.4147654
        ]
      },
      "properties": {
        "id": 8122105308,
        "osm_type": "node",
        "name": "Вила Милена",
        "tourism": "guest_house"
      }
    },
    {
      "type": "Feature",
      "geometry": {
        "type": "Point",
        "coordinates": [
          20.4818903,
          43.4154301
        ]
      },
      "properties": {
        "id": 8122111633,
        "osm_type": "node",
        "name": "Вила Селена",
        "tourism": "guest_house"
      }
    },
    {
      "type": "Feature",
      "geometry": {
        "type": "Point",
        "coordinates": [
          20.9092843,
          43.5690882
        ]
      },
      "properties": {
        "id": 8142002117,
        "osm_type": "node",
        "tourism": "guest_house"
      }
    },
    {
      "type": "Feature",
      "geometry": {
        "type": "Point",
        "coordinates": [
          20.5082325,
          43.7630196
        ]
      },
      "properties": {
        "id": 8192367117,
        "osm_type": "node",
        "tourism": "guest_house"
      }
    },
    {
      "type": "Feature",
      "geometry": {
        "type": "Point",
        "coordinates": [
          20.7822227,
          43.2727184
        ]
      },
      "properties": {
        "id": 8370334717,
        "osm_type": "node",
        "name": "Mountain paradise Kopaonik",
        "tourism": "guest_house",
        "phone": "+38166131139",
        "website": "https://www.booking.com/Share-tDbpPS"
      }
    },
    {
      "type": "Feature",
      "geometry": {
        "type": "Point",
        "coordinates": [
          20.7604979,
          43.2935769
        ]
      },
      "properties": {
        "id": 9394207928,
        "osm_type": "node",
        "name": "Барска река",
        "tourism": "alpine_hut"
      }
    },
    {
      "type": "Feature",
      "geometry": {
        "type": "Point",
        "coordinates": [
          20.5181166,
          43.1285077
        ]
      },
      "properties": {
        "id": 9906535218,
        "osm_type": "node",
        "name": "Mendi’s Home",
        "tourism": "guest_house"
      }
    },
    {
      "type": "Feature",
      "geometry": {
        "type": "Point",
        "coordinates": [
          20.5391764,
          43.1653374
        ]
      },
      "properties": {
        "id": 9983365825,
        "osm_type": "node",
        "tourism": "hotel"
      }
    },
    {
      "type": "Feature",
      "geometry": {
        "type": "Point",
        "coordinates": [
          20.749543,
          43.3889972
        ]
      },
      "properties": {
        "id": 10543765705,
        "osm_type": "node",
        "name": "Apartmani Radoičić",
        "tourism": "apartment"
      }
    },
    {
      "type": "Feature",
      "geometry": {
        "type": "Point",
        "coordinates": [
          20.8088688,
          43.2861661
        ]
      },
      "properties": {
        "id": 10614076801,
        "osm_type": "node",
        "name": "Apartments Mozaik",
        "tourism": "apartment",
        "phone": "+381645925492",
        "website": "https://www.apartmanimozaik.rs/"
      }
    },
    {
      "type": "Feature",
      "geometry": {
        "type": "Point",
        "coordinates": [
          20.759977,
          43.2761808
        ]
      },
      "properties": {
        "id": 10676638806,
        "osm_type": "node",
        "name": "Fashion Apartmani",
        "tourism": "apartment"
      }
    },
    {
      "type": "Feature",
      "geometry": {
        "type": "Point",
        "coordinates": [
          20.8931667,
          43.6076741
        ]
      },
      "properties": {
        "id": 10921247987,
        "osm_type": "node",
        "name": "Garni hotel Vir",
        "tourism": "hotel",
        "phone": "+381 64 9213555"
      }
    },
    {
      "type": "Feature",
      "geometry": {
        "type": "Point",
        "coordinates": [
          20.8130098,
          43.2867552
        ]
      },
      "properties": {
        "id": 10963332686,
        "osm_type": "node",
        "name": "Zimski",
        "tourism": "apartment",
        "phone": "+381647012359",
        "website": "https://zim.ski/"
      }
    },
    {
      "type": "Feature",
      "geometry": {
        "type": "Point",
        "coordinates": [
          20.8985014,
          43.6202248
        ]
      },
      "properties": {
        "id": 10995704276,
        "osm_type": "node",
        "name": "Смештај Ната",
        "tourism": "apartment"
      }
    },
    {
      "type": "Feature",
      "geometry": {
        "type": "Point",
        "coordinates": [
          20.8823801,
          43.6185596
        ]
      },
      "properties": {
        "id": 11232491419,
        "osm_type": "node",
        "name": "Apartman Posejdon Deluxe 2",
        "tourism": "apartment",
        "phone": "+381 60 6776371"
      }
    },
    {
      "type": "Feature",
      "geometry": {
        "type": "Point",
        "coordinates": [
          20.8930091,
          43.6190589
        ]
      },
      "properties": {
        "id": 11403202469,
        "osm_type": "node",
        "tourism": "hotel"
      }
    },
    {
      "type": "Feature",
      "geometry": {
        "type": "Point",
        "coordinates": [
          20.7601222,
          43.2764392
        ]
      },
      "properties": {
        "id": 11746810029,
        "osm_type": "node",
        "name": "SANS LUX Apartman N42",
        "tourism": "apartment"
      }
    },
    {
      "type": "Feature",
      "geometry": {
        "type": "Point",
        "coordinates": [
          20.7807873,
          43.2743523
        ]
      },
      "properties": {
        "id": 11746811342,
        "osm_type": "node",
        "name": "Кућерак на Копу",
        "tourism": "apartment"
      }
    },
    {
      "type": "Feature",
      "geometry": {
        "type": "Point",
        "coordinates": [
          20.7617654,
          43.3215737
        ]
      },
      "properties": {
        "id": 12051668239,
        "osm_type": "node",
        "tourism": "camp_site"
      }
    },
    {
      "type": "Feature",
      "geometry": {
        "type": "Point",
        "coordinates": [
          20.8132246,
          43.286733
        ]
      },
      "properties": {
        "id": 12187120674,
        "osm_type": "node",
        "name": "FoRest Apartments",
        "tourism": "apartment",
        "phone": "+381652356894",
        "website": "https://forest.ski/"
      }
    },
    {
      "type": "Feature",
      "geometry": {
        "type": "Point",
        "coordinates": [
          20.8049165,
          43.2861536
        ]
      },
      "properties": {
        "id": 12224106971,
        "osm_type": "node",
        "name": "Apartmani A",
        "tourism": "apartment",
        "phone": "+38162216914",
        "website": "https://www.apartmania.rs/"
      }
    },
    {
      "type": "Feature",
      "geometry": {
        "type": "Point",
        "coordinates": [
          20.6161402,
          43.6910064
        ]
      },
      "properties": {
        "id": 12246838661,
        "osm_type": "node",
        "name": "Okanik",
        "tourism": "guest_house"
      }
    },
    {
      "type": "Feature",
      "geometry": {
        "type": "Point",
        "coordinates": [
          20.4401723,
          43.3220018
        ]
      },
      "properties": {
        "id": 12344569081,
        "osm_type": "node",
        "name": "Hotel Sedlo",
        "tourism": "hotel",
        "phone": "+381641304184",
        "website": "https://hotelsedlo.com"
      }
    },
    {
      "type": "Feature",
      "geometry": {
        "type": "Point",
        "coordinates": [
          20.8851146,
          43.6172603
        ]
      },
      "properties": {
        "id": 12500013757,
        "osm_type": "node",
        "name": "Врњачке терме",
        "tourism": "hotel",
        "phone": "+381 36 5155300",
        "website": "https://vrnjacketerme.rs/"
      }
    },
    {
      "type": "Feature",
      "geometry": {
        "type": "Point",
        "coordinates": [
          20.7469574,
          43.3923068
        ]
      },
      "properties": {
        "id": 13256464166,
        "osm_type": "node",
        "name": "Apartman Djekovic",
        "tourism": "apartment"
      }
    },
    {
      "type": "Feature",
      "geometry": {
        "type": "Point",
        "coordinates": [
          20.549342,
          43.6145312
        ]
      },
      "properties": {
        "id": 13261578834,
        "osm_type": "node",
        "tourism": "camp_site"
      }
    },
    {
      "type": "Feature",
      "geometry": {
        "type": "Point",
        "coordinates": [
          20.8104232,
          43.2860991
        ]
      },
      "properties": {
        "id": 47872169,
        "osm_type": "way",
        "name": "ЈАТ апартмани",
        "tourism": "hotel",
        "website": "http://www.jatapartmani.com/"
      }
    },
    {
      "type": "Feature",
      "geometry": {
        "type": "Point",
        "coordinates": [
          20.8101532,
          43.2855972
        ]
      },
      "properties": {
        "id": 47872171,
        "osm_type": "way",
        "name": "Хотел Путник А",
        "tourism": "hotel"
      }
    },
    {
      "type": "Feature",
      "geometry": {
        "type": "Point",
        "coordinates": [
          20.8118465,
          43.2846658
        ]
      },
      "properties": {
        "id": 47872172,
        "osm_type": "way",
        "name": "Хотел Гранд",
        "tourism": "hotel"
      }
    },
    {
      "type": "Feature",
      "geometry": {
        "type": "Point",
        "coordinates": [
          20.8104973,
          43.2847196
        ]
      },
      "properties": {
        "id": 50891336,
        "osm_type": "way",
        "name": "Viceroy Kopaonik Serbia",
        "tourism": "hotel",
        "phone": "+381 36 515 5500",
        "website": "https://www.viceroyhotelsandresorts.com/serbia"
      }
    },
    {
      "type": "Feature",
      "geometry": {
        "type": "Point",
        "coordinates": [
          20.8956981,
          43.6208959
        ]
      },
      "properties": {
        "id": 180058491,
        "osm_type": "way",
        "name": "Фонтана",
        "tourism": "hotel",
        "phone": "+381 36 612153",
        "website": "https://htpfontana.com"
      }
    },
    {
      "type": "Feature",
      "geometry": {
        "type": "Point",
        "coordinates": [
          20.8922464,
          43.6153954
        ]
      },
      "properties": {
        "id": 180889474,
        "osm_type": "way",
        "name": "Србија",
        "tourism": "hotel"
      }
    },
    {
      "type": "Feature",
      "geometry": {
        "type": "Point",
        "coordinates": [
          20.8926762,
          43.6202026
        ]
      },
      "properties": {
        "id": 182074000,
        "osm_type": "way",
        "name": "Зептер",
        "tourism": "hotel",
        "phone": "+381 36 612167;+381 63 664843",
        "website": "https://zepterhotelvbanja.com"
      }
    },
    {
      "type": "Feature",
      "geometry": {
        "type": "Point",
        "coordinates": [
          20.8958585,
          43.6193406
        ]
      },
      "properties": {
        "id": 182393055,
        "osm_type": "way",
        "name": "Железничар",
        "tourism": "hotel",
        "phone": "+381 36 612368",
        "website": "https://www.zelturist.rs/hoteli-zelturist/hotel-zeleznicar-vrnjacka-banja"
      }
    },
    {
      "type": "Feature",
      "geometry": {
        "type": "Point",
        "coordinates": [
          20.8967168,
          43.6195812
        ]
      },
      "properties": {
        "id": 182393059,
        "osm_type": "way",
        "name": "Тонанти",
        "tourism": "hotel",
        "phone": "+381 66 050000",
        "website": "https://hoteltonanti.rs"
      }
    },
    {
      "type": "Feature",
      "geometry": {
        "type": "Point",
        "coordinates": [
          20.8958689,
          43.6214016
        ]
      },
      "properties": {
        "id": 182941878,
        "osm_type": "way",
        "name": "Vila Splendor",
        "tourism": "apartment",
        "phone": "+ 381 69 622 720",
        "website": "https://www.vilasplendor.rs/"
      }
    },
    {
      "type": "Feature",
      "geometry": {
        "type": "Point",
        "coordinates": [
          20.89463,
          43.6214152
        ]
      },
      "properties": {
        "id": 183904176,
        "osm_type": "way",
        "name": "Меркур (стари)",
        "tourism": "hotel",
        "phone": "+381 36 618865",
        "website": "http://www.vrnjcispa.com/"
      }
    },
    {
      "type": "Feature",
      "geometry": {
        "type": "Point",
        "coordinates": [
          20.896411,
          43.6205597
        ]
      },
      "properties": {
        "id": 183904179,
        "osm_type": "way",
        "name": "Вила Девеџић",
        "tourism": "guest_house",
        "phone": "+381 36 612811",
        "website": "http://www.viladevedzic.com/"
      }
    },
    {
      "type": "Feature",
      "geometry": {
        "type": "Point",
        "coordinates": [
          20.8974593,
          43.6168199
        ]
      },
      "properties": {
        "id": 184491184,
        "osm_type": "way",
        "name": "Пансион Вук",
        "tourism": "guest_house",
        "phone": "+381 36 612131",
        "website": "http://www.pansionvuk.com/"
      }
    },
    {
      "type": "Feature",
      "geometry": {
        "type": "Point",
        "coordinates": [
          20.8963187,
          43.6155956
        ]
      },
      "properties": {
        "id": 184724635,
        "osm_type": "way",
        "name": "Мирко Томић",
        "tourism": "hotel",
        "phone": "+381 36 611675"
      }
    },
    {
      "type": "Feature",
      "geometry": {
        "type": "Point",
        "coordinates": [
          20.8960661,
          43.6136951
        ]
      },
      "properties": {
        "id": 184726546,
        "osm_type": "way",
        "name": "Одмаралиште „Врачар”",
        "tourism": "guest_house",
        "phone": "+381 11 3606710",
        "website": "https://www.vracarbvk.rs/"
      }
    },
    {
      "type": "Feature",
      "geometry": {
        "type": "Point",
        "coordinates": [
          20.8967979,
          43.6208754
        ]
      },
      "properties": {
        "id": 184746026,
        "osm_type": "way",
        "name": "Хотел Вила Казабланка",
        "tourism": "hotel",
        "phone": "+381 36 620450",
        "website": "http://www.villacasablanca.co.rs/"
      }
    },
    {
      "type": "Feature",
      "geometry": {
        "type": "Point",
        "coordinates": [
          20.8967692,
          43.6212721
        ]
      },
      "properties": {
        "id": 184746027,
        "osm_type": "way",
        "name": "Хотел Вила Ас",
        "tourism": "hotel",
        "phone": "+381 36 620777"
      }
    },
    {
      "type": "Feature",
      "geometry": {
        "type": "Point",
        "coordinates": [
          20.8960524,
          43.6163349
        ]
      },
      "properties": {
        "id": 184871504,
        "osm_type": "way",
        "name": "Одмаралиште Вила Панонија",
        "tourism": "hotel",
        "phone": "+381 36 615665",
        "website": "http://ptkpanonija.rs/vila-panonija/"
      }
    },
    {
      "type": "Feature",
      "geometry": {
        "type": "Point",
        "coordinates": [
          20.8966104,
          43.6188281
        ]
      },
      "properties": {
        "id": 185125671,
        "osm_type": "way",
        "name": "Вила Мињон",
        "tourism": "guest_house",
        "phone": "+381 36 615663",
        "website": "https://www.vilaminjon.net/"
      }
    },
    {
      "type": "Feature",
      "geometry": {
        "type": "Point",
        "coordinates": [
          20.8127013,
          43.2864484
        ]
      },
      "properties": {
        "id": 200504196,
        "osm_type": "way",
        "name": "Villa Bianca",
        "tourism": "hotel"
      }
    },
    {
      "type": "Feature",
      "geometry": {
        "type": "Point",
        "coordinates": [
          20.8121725,
          43.2862633
        ]
      },
      "properties": {
        "id": 200504198,
        "osm_type": "way",
        "name": "Villa Ivana",
        "tourism": "hotel"
      }
    },
    {
      "type": "Feature",
      "geometry": {
        "type": "Point",
        "coordinates": [
          20.8131269,
          43.2866778
        ]
      },
      "properties": {
        "id": 200504200,
        "osm_type": "way",
        "name": "Vila Nikola",
        "tourism": "hotel",
        "website": "https://vilanikola.com"
      }
    },
    {
      "type": "Feature",
      "geometry": {
        "type": "Point",
        "coordinates": [
          20.813036,
          43.2827406
        ]
      },
      "properties": {
        "id": 200504209,
        "osm_type": "way",
        "name": "Небеске столице 1",
        "tourism": "hotel"
      }
    },
    {
      "type": "Feature",
      "geometry": {
        "type": "Point",
        "coordinates": [
          20.6102015,
          43.6910932
        ]
      },
      "properties": {
        "id": 219701780,
        "osm_type": "way",
        "name": "Термал",
        "tourism": "hotel"
      }
    },
    {
      "type": "Feature",
      "geometry": {
        "type": "Point",
        "coordinates": [
          20.6602189,
          43.7301551
        ]
      },
      "properties": {
        "id": 279158567,
        "osm_type": "way",
        "name": "Kiss 2006",
        "tourism": "hotel"
      }
    },
    {
      "type": "Feature",
      "geometry": {
        "type": "Point",
        "coordinates": [
          20.8048677,
          43.2828878
        ]
      },
      "properties": {
        "id": 382678546,
        "osm_type": "way",
        "name": "Суво рудиште",
        "tourism": "apartment"
      }
    },
    {
      "type": "Feature",
      "geometry": {
        "type": "Point",
        "coordinates": [
          20.8043245,
          43.2826279
        ]
      },
      "properties": {
        "id": 382679694,
        "osm_type": "way",
        "name": "Сребрна лисица",
        "tourism": "hotel",
        "phone": "+381365471305",
        "website": "https://www.srebrnalisica.com/"
      }
    },
    {
      "type": "Feature",
      "geometry": {
        "type": "Point",
        "coordinates": [
          20.7564084,
          43.5615538
        ]
      },
      "properties": {
        "id": 387653195,
        "osm_type": "way",
        "name": "Дечије одмаралиште „Гоч”",
        "tourism": "hotel"
      }
    },
    {
      "type": "Feature",
      "geometry": {
        "type": "Point",
        "coordinates": [
          20.7588733,
          43.5624358
        ]
      },
      "properties": {
        "id": 387653668,
        "osm_type": "way",
        "name": "Добре Воде",
        "tourism": "hotel"
      }
    },
    {
      "type": "Feature",
      "geometry": {
        "type": "Point",
        "coordinates": [
          20.516597,
          43.1401557
        ]
      },
      "properties": {
        "id": 397337806,
        "osm_type": "way",
        "name": "Хотел Врбак",
        "tourism": "hotel"
      }
    },
    {
      "type": "Feature",
      "geometry": {
        "type": "Point",
        "coordinates": [
          20.521291,
          43.139853
        ]
      },
      "properties": {
        "id": 398727075,
        "osm_type": "way",
        "name": "Atlas",
        "tourism": "hotel",
        "phone": "+381 20 601101",
        "website": "https://www.hotelatlas.rs/"
      }
    },
    {
      "type": "Feature",
      "geometry": {
        "type": "Point",
        "coordinates": [
          20.7677416,
          43.2743712
        ]
      },
      "properties": {
        "id": 399091490,
        "osm_type": "way",
        "name": "Вила Милица",
        "tourism": "chalet"
      }
    },
    {
      "type": "Feature",
      "geometry": {
        "type": "Point",
        "coordinates": [
          20.7678059,
          43.2744807
        ]
      },
      "properties": {
        "id": 399091491,
        "osm_type": "way",
        "name": "Vila Milicia",
        "tourism": "apartment"
      }
    },
    {
      "type": "Feature",
      "geometry": {
        "type": "Point",
        "coordinates": [
          20.6913207,
          43.7251076
        ]
      },
      "properties": {
        "id": 419686267,
        "osm_type": "way",
        "name": "Belvedere",
        "tourism": "hotel"
      }
    },
    {
      "type": "Feature",
      "geometry": {
        "type": "Point",
        "coordinates": [
          20.8142368,
          43.2823272
        ]
      },
      "properties": {
        "id": 464632449,
        "osm_type": "way",
        "name": "Небеске столице 2",
        "tourism": "hotel"
      }
    },
    {
      "type": "Feature",
      "geometry": {
        "type": "Point",
        "coordinates": [
          20.6137304,
          43.6896816
        ]
      },
      "properties": {
        "id": 547025209,
        "osm_type": "way",
        "name": "Жича",
        "tourism": "hotel"
      }
    },
    {
      "type": "Feature",
      "geometry": {
        "type": "Point",
        "coordinates": [
          20.6733769,
          43.7255849
        ]
      },
      "properties": {
        "id": 549147223,
        "osm_type": "way",
        "name": "Royal",
        "tourism": "hotel"
      }
    },
    {
      "type": "Feature",
      "geometry": {
        "type": "Point",
        "coordinates": [
          20.6952072,
          43.7216437
        ]
      },
      "properties": {
        "id": 549151873,
        "osm_type": "way",
        "name": "Crystal",
        "tourism": "hotel"
      }
    },
    {
      "type": "Feature",
      "geometry": {
        "type": "Point",
        "coordinates": [
          20.7597742,
          43.5623638
        ]
      },
      "properties": {
        "id": 602692403,
        "osm_type": "way",
        "name": "Планинарски дом „Добра вода”",
        "tourism": "alpine_hut"
      }
    },
    {
      "type": "Feature",
      "geometry": {
        "type": "Point",
        "coordinates": [
          20.8156513,
          43.2898688
        ]
      },
      "properties": {
        "id": 640731055,
        "osm_type": "way",
        "name": "Планинарски дом „Копаоник”",
        "tourism": "alpine_hut",
        "website": "https://www.psd-kopaonik.org.rs/"
      }
    },
    {
      "type": "Feature",
      "geometry": {
        "type": "Point",
        "coordinates": [
          20.8200153,
          43.2906965
        ]
      },
      "properties": {
        "id": 640731056,
        "osm_type": "way",
        "name": "Планинарски дом „Ртањ”",
        "tourism": "alpine_hut",
        "website": "https://www.rtanj.rs/"
      }
    },
    {
      "type": "Feature",
      "geometry": {
        "type": "Point",
        "coordinates": [
          20.8203758,
          43.2908736
        ]
      },
      "properties": {
        "id": 640731057,
        "osm_type": "way",
        "name": "Ртањ 2",
        "tourism": "alpine_hut"
      }
    },
    {
      "type": "Feature",
      "geometry": {
        "type": "Point",
        "coordinates": [
          20.6803827,
          43.5657501
        ]
      },
      "properties": {
        "id": 642768693,
        "osm_type": "way",
        "name": "Планинарски дом „Зорица Гиздовић”",
        "tourism": "alpine_hut"
      }
    },
    {
      "type": "Feature",
      "geometry": {
        "type": "Point",
        "coordinates": [
          20.7538323,
          43.5591207
        ]
      },
      "properties": {
        "id": 642768750,
        "osm_type": "way",
        "name": "Пирамида",
        "tourism": "hotel"
      }
    },
    {
      "type": "Feature",
      "geometry": {
        "type": "Point",
        "coordinates": [
          20.8086034,
          43.2843641
        ]
      },
      "properties": {
        "id": 662059808,
        "osm_type": "way",
        "name": "Горски",
        "tourism": "hotel",
        "website": "https://www.gorskihotel.com/"
      }
    },
    {
      "type": "Feature",
      "geometry": {
        "type": "Point",
        "coordinates": [
          20.7816679,
          43.2736237
        ]
      },
      "properties": {
        "id": 676094376,
        "osm_type": "way",
        "name": "Вила Софија",
        "tourism": "apartment"
      }
    },
    {
      "type": "Feature",
      "geometry": {
        "type": "Point",
        "coordinates": [
          20.3591948,
          42.8679207
        ]
      },
      "properties": {
        "id": 690352199,
        "osm_type": "way",
        "name": "Планинарски дом ПД „Санџак”",
        "tourism": "alpine_hut",
        "website": "www.pdsandzak.org.rs"
      }
    },
    {
      "type": "Feature",
      "geometry": {
        "type": "Point",
        "coordinates": [
          20.8121881,
          43.2855532
        ]
      },
      "properties": {
        "id": 746111159,
        "osm_type": "way",
        "name": "Vila „Pahulja”",
        "tourism": "apartment"
      }
    },
    {
      "type": "Feature",
      "geometry": {
        "type": "Point",
        "coordinates": [
          20.8133656,
          43.2848781
        ]
      },
      "properties": {
        "id": 746111160,
        "osm_type": "way",
        "name": "Vila „Suri”",
        "tourism": "apartment"
      }
    },
    {
      "type": "Feature",
      "geometry": {
        "type": "Point",
        "coordinates": [
          20.7837897,
          43.2737654
        ]
      },
      "properties": {
        "id": 751925557,
        "osm_type": "way",
        "name": "Zoned",
        "tourism": "hotel",
        "phone": "+381 36 427666",
        "website": "https://zonedkopaonik.com"
      }
    },
    {
      "type": "Feature",
      "geometry": {
        "type": "Point",
        "coordinates": [
          20.7969283,
          43.2870364
        ]
      },
      "properties": {
        "id": 751926223,
        "osm_type": "way",
        "name": "Хотел Путник",
        "tourism": "hotel"
      }
    },
    {
      "type": "Feature",
      "geometry": {
        "type": "Point",
        "coordinates": [
          20.6525086,
          43.641208
        ]
      },
      "properties": {
        "id": 759269936,
        "osm_type": "way",
        "name": "Планинарска кућа „Ноне”",
        "tourism": "alpine_hut",
        "contact:phone": "+381 64 1593107",
        "website": "https://pss.rs/objektipp/planinarska-kuca-none/"
      }
    },
    {
      "type": "Feature",
      "geometry": {
        "type": "Point",
        "coordinates": [
          20.7825753,
          43.2737534
        ]
      },
      "properties": {
        "id": 761788900,
        "osm_type": "way",
        "name": "MujEn Lux",
        "tourism": "hotel"
      }
    },
    {
      "type": "Feature",
      "geometry": {
        "type": "Point",
        "coordinates": [
          20.7810149,
          43.2739071
        ]
      },
      "properties": {
        "id": 761788901,
        "osm_type": "way",
        "name": "Вила Милмари",
        "tourism": "apartment"
      }
    },
    {
      "type": "Feature",
      "geometry": {
        "type": "Point",
        "coordinates": [
          20.6168627,
          43.2888954
        ]
      },
      "properties": {
        "id": 964075400,
        "osm_type": "way",
        "name": "Мотел Путник",
        "tourism": "motel"
      }
    },
    {
      "type": "Feature",
      "geometry": {
        "type": "Point",
        "coordinates": [
          20.8472281,
          43.5598721
        ]
      },
      "properties": {
        "id": 996704687,
        "osm_type": "way",
        "name": "Вила Вела Гоч",
        "tourism": "hotel"
      }
    },
    {
      "type": "Feature",
      "geometry": {
        "type": "Point",
        "coordinates": [
          20.7833308,
          43.2732711
        ]
      },
      "properties": {
        "id": 998793860,
        "osm_type": "way",
        "name": "4jazavca",
        "tourism": "chalet"
      }
    },
    {
      "type": "Feature",
      "geometry": {
        "type": "Point",
        "coordinates": [
          20.7934123,
          43.2704383
        ]
      },
      "properties": {
        "id": 999041827,
        "osm_type": "way",
        "name": "Vila Popara",
        "tourism": "apartment"
      }
    },
    {
      "type": "Feature",
      "geometry": {
        "type": "Point",
        "coordinates": [
          20.7678652,
          43.2714033
        ]
      },
      "properties": {
        "id": 999080368,
        "osm_type": "way",
        "name": "Skyview Apartments",
        "tourism": "apartment"
      }
    },
    {
      "type": "Feature",
      "geometry": {
        "type": "Point",
        "coordinates": [
          20.6939926,
          43.7274374
        ]
      },
      "properties": {
        "id": 1003474254,
        "osm_type": "way",
        "name": "Хотел Ботика",
        "tourism": "hotel"
      }
    },
    {
      "type": "Feature",
      "geometry": {
        "type": "Point",
        "coordinates": [
          20.7677444,
          43.2734675
        ]
      },
      "properties": {
        "id": 1013724025,
        "osm_type": "way",
        "name": "PresidentKop",
        "tourism": "hotel"
      }
    },
    {
      "type": "Feature",
      "geometry": {
        "type": "Point",
        "coordinates": [
          20.7675288,
          43.2744079
        ]
      },
      "properties": {
        "id": 1013724047,
        "osm_type": "way",
        "name": "Nicole",
        "tourism": "hotel"
      }
    },
    {
      "type": "Feature",
      "geometry": {
        "type": "Point",
        "coordinates": [
          20.8883369,
          43.6458454
        ]
      },
      "properties": {
        "id": 1100813581,
        "osm_type": "way",
        "name": "Camping Vrnjacko Vrelo",
        "tourism": "caravan_site",
        "contact:phone": "+381 62 8007211"
      }
    },
    {
      "type": "Feature",
      "geometry": {
        "type": "Point",
        "coordinates": [
          20.6145213,
          43.2955153
        ]
      },
      "properties": {
        "id": 1158979101,
        "osm_type": "way",
        "name": "Rivera",
        "tourism": "motel"
      }
    },
    {
      "type": "Feature",
      "geometry": {
        "type": "Point",
        "coordinates": [
          20.9005018,
          43.6183832
        ]
      },
      "properties": {
        "id": 1178034713,
        "osm_type": "way",
        "name": "Вила Јасмин",
        "tourism": "apartment"
      }
    },
    {
      "type": "Feature",
      "geometry": {
        "type": "Point",
        "coordinates": [
          20.887023,
          43.6147992
        ]
      },
      "properties": {
        "id": 16261999,
        "osm_type": "relation",
        "name": "Слатина",
        "tourism": "hotel",
        "phone": "+381 36 661442"
      }
    },
    {
      "type": "Feature",
      "geometry": {
        "type": "Point",
        "coordinates": [
          20.7668175,
          43.2749885
        ]
      },
      "properties": {
        "id": 18755725,
        "osm_type": "relation",
        "name": "Краљеви чардаци",
        "tourism": "hotel",
        "phone": "+381 36 428 558",
        "website": "https://kraljevicardaci.com/"
      }
    }
  ]
}