{
  "type": "FeatureCollection",
  "features": [
    {
      "type": "Feature",
      "geometry": {
        "type": "Point",
        "coordinates": [
          -7.6958261,
          40.8225609
        ]
      },
      "properties": {
        "id": 26860429,
        "osm_type": "node",
        "name": "Quinta Chave Grande",
        "tourism": "camp_site"
      }
    },
    {
      "type": "Feature",
      "geometry": {
        "type": "Point",
        "coordinates": [
          -8.0941048,
          41.0742949
        ]
      },
      "properties": {
        "id": 1240877980,
        "osm_type": "node",
        "name": "Pensão Varandas",
        "tourism": "hotel"
      }
    },
    {
      "type": "Feature",
      "geometry": {
        "type": "Point",
        "coordinates": [
          -7.6814779,
          41.1516127
        ]
      },
      "properties": {
        "id": 1343155078,
        "osm_type": "node",
        "name": "Hotel Folgosa Douro",
        "tourism": "hotel",
        "phone": "+351 254 858 222",
        "website": "http://www.hotelfolgosadouro.com"
      }
    },
    {
      "type": "Feature",
      "geometry": {
        "type": "Point",
        "coordinates": [
          -7.6781723,
          41.1521241
        ]
      },
      "properties": {
        "id": 1346957282,
        "osm_type": "node",
        "name": "Quinta da Azenha",
        "tourism": "hotel",
        "phone": "+351 254 855 172",
        "website": "www.quintadaazenha.net"
      }
    },
    {
      "type": "Feature",
      "geometry": {
        "type": "Point",
        "coordinates": [
          -7.9115464,
          41.1183362
        ]
      },
      "properties": {
        "id": 1412145099,
        "osm_type": "node",
        "name": "Casa da Recosta",
        "tourism": "chalet"
      }
    },
    {
      "type": "Feature",
      "geometry": {
        "type": "Point",
        "coordinates": [
          -8.0407746,
          41.0878782
        ]
      },
      "properties": {
        "id": 1480379726,
        "osm_type": "node",
        "name": "Pousada da Calçada",
        "tourism": "hotel"
      }
    },
    {
      "type": "Feature",
      "geometry": {
        "type": "Point",
        "coordinates": [
          -7.6072049,
          40.9734687
        ]
      },
      "properties": {
        "id": 1588968212,
        "osm_type": "node",
        "name": "125 Azul",
        "tourism": "motel"
      }
    },
    {
      "type": "Feature",
      "geometry": {
        "type": "Point",
        "coordinates": [
          -7.6115769,
          40.9755464
        ]
      },
      "properties": {
        "id": 1588968217,
        "osm_type": "node",
        "tourism": "motel"
      }
    },
    {
      "type": "Feature",
      "geometry": {
        "type": "Point",
        "coordinates": [
          -7.7757318,
          41.0193081
        ]
      },
      "properties": {
        "id": 1805207237,
        "osm_type": "node",
        "name": "Chave de Ouro",
        "tourism": "guest_house"
      }
    },
    {
      "type": "Feature",
      "geometry": {
        "type": "Point",
        "coordinates": [
          -7.5691632,
          41.1168714
        ]
      },
      "properties": {
        "id": 1809564347,
        "osm_type": "node",
        "name": "Hotel Douro Inn",
        "tourism": "hotel"
      }
    },
    {
      "type": "Feature",
      "geometry": {
        "type": "Point",
        "coordinates": [
          -7.7058783,
          40.6765128
        ]
      },
      "properties": {
        "id": 1902348075,
        "osm_type": "node",
        "name": "Parador Casa da Ínsua",
        "tourism": "hotel",
        "phone": "+351 232 640 110"
      }
    },
    {
      "type": "Feature",
      "geometry": {
        "type": "Point",
        "coordinates": [
          -7.8156018,
          41.0396119
        ]
      },
      "properties": {
        "id": 2059054904,
        "osm_type": "node",
        "name": "Quinta do Terreiro",
        "tourism": "hotel"
      }
    },
    {
      "type": "Feature",
      "geometry": {
        "type": "Point",
        "coordinates": [
          -8.2627469,
          40.5939776
        ]
      },
      "properties": {
        "id": 2158040907,
        "osm_type": "node",
        "name": "Fonte Frade",
        "tourism": "camp_site"
      }
    },
    {
      "type": "Feature",
      "geometry": {
        "type": "Point",
        "coordinates": [
          -8.1707802,
          40.569039
        ]
      },
      "properties": {
        "id": 2321046352,
        "osm_type": "node",
        "name": "Hotel do Caramulo",
        "tourism": "hotel",
        "phone": "+351 232 860 100",
        "website": "http://www.hoteldocaramulo.pt/"
      }
    },
    {
      "type": "Feature",
      "geometry": {
        "type": "Point",
        "coordinates": [
          -8.1745844,
          40.9974776
        ]
      },
      "properties": {
        "id": 2349255024,
        "osm_type": "node",
        "name": "Quinta do Cadafaz",
        "tourism": "guest_house"
      }
    },
    {
      "type": "Feature",
      "geometry": {
        "type": "Point",
        "coordinates": [
          -8.1883298,
          40.9970427
        ]
      },
      "properties": {
        "id": 2351314095,
        "osm_type": "node",
        "name": "RENT",
        "tourism": "chalet"
      }
    },
    {
      "type": "Feature",
      "geometry": {
        "type": "Point",
        "coordinates": [
          -8.1071609,
          40.3975506
        ]
      },
      "properties": {
        "id": 2443355074,
        "osm_type": "node",
        "name": "Quinta da Abelenda",
        "tourism": "guest_house",
        "website": "https://www.abelenda47.com"
      }
    },
    {
      "type": "Feature",
      "geometry": {
        "type": "Point",
        "coordinates": [
          -7.3456559,
          41.1438508
        ]
      },
      "properties": {
        "id": 2513494493,
        "osm_type": "node",
        "name": "Dourovou - Ecoturismo Fluvial",
        "tourism": "chalet",
        "website": "http://loja.douro.biz/epages/270985.sf/pt_PT/?ObjectPath=/Shops/270985/Categories/Casas"
      }
    },
    {
      "type": "Feature",
      "geometry": {
        "type": "Point",
        "coordinates": [
          -7.3933796,
          40.9894633
        ]
      },
      "properties": {
        "id": 2650969349,
        "osm_type": "node",
        "name": "Hotel Medieval",
        "tourism": "hotel"
      }
    },
    {
      "type": "Feature",
      "geometry": {
        "type": "Point",
        "coordinates": [
          -7.405415,
          41.1470153
        ]
      },
      "properties": {
        "id": 3549816297,
        "osm_type": "node",
        "tourism": "hotel"
      }
    },
    {
      "type": "Feature",
      "geometry": {
        "type": "Point",
        "coordinates": [
          -8.0535262,
          40.7325537
        ]
      },
      "properties": {
        "id": 3558894231,
        "osm_type": "node",
        "name": "Paco da Torre",
        "tourism": "guest_house"
      }
    },
    {
      "type": "Feature",
      "geometry": {
        "type": "Point",
        "coordinates": [
          -7.8069489,
          41.1002283
        ]
      },
      "properties": {
        "id": 3575233652,
        "osm_type": "node",
        "name": "Hotel do Cerrado",
        "tourism": "hotel",
        "check_date": "2026-03-22"
      }
    },
    {
      "type": "Feature",
      "geometry": {
        "type": "Point",
        "coordinates": [
          -7.7549431,
          41.1443584
        ]
      },
      "properties": {
        "id": 3626017378,
        "osm_type": "node",
        "name": "Quinta de Casaldronho Wine Hotel",
        "tourism": "hotel"
      }
    },
    {
      "type": "Feature",
      "geometry": {
        "type": "Point",
        "coordinates": [
          -7.8668113,
          40.879922
        ]
      },
      "properties": {
        "id": 3722758228,
        "osm_type": "node",
        "name": "Quinta da Rabaçosa",
        "tourism": "guest_house"
      }
    },
    {
      "type": "Feature",
      "geometry": {
        "type": "Point",
        "coordinates": [
          -8.0842253,
          40.7403265
        ]
      },
      "properties": {
        "id": 4183287405,
        "osm_type": "node",
        "name": "Hotel Monte Rio",
        "tourism": "hotel"
      }
    },
    {
      "type": "Feature",
      "geometry": {
        "type": "Point",
        "coordinates": [
          -8.0914403,
          40.7392302
        ]
      },
      "properties": {
        "id": 4183422512,
        "osm_type": "node",
        "name": "Pensão Avenida",
        "tourism": "guest_house"
      }
    },
    {
      "type": "Feature",
      "geometry": {
        "type": "Point",
        "coordinates": [
          -8.0933205,
          40.7391552
        ]
      },
      "properties": {
        "id": 4183935792,
        "osm_type": "node",
        "name": "Pensão das Termas",
        "tourism": "hotel"
      }
    },
    {
      "type": "Feature",
      "geometry": {
        "type": "Point",
        "coordinates": [
          -7.4016839,
          41.1466572
        ]
      },
      "properties": {
        "id": 4289314891,
        "osm_type": "node",
        "name": "São João Campsite",
        "tourism": "camp_site"
      }
    },
    {
      "type": "Feature",
      "geometry": {
        "type": "Point",
        "coordinates": [
          -8.0780404,
          40.7001008
        ]
      },
      "properties": {
        "id": 4374212183,
        "osm_type": "node",
        "name": "Camping Rural Naturrosa",
        "tourism": "camp_site",
        "tents": "yes",
        "website": "https://sites.google.com/site/naturrosa/"
      }
    },
    {
      "type": "Feature",
      "geometry": {
        "type": "Point",
        "coordinates": [
          -7.912439,
          40.6910292
        ]
      },
      "properties": {
        "id": 4393967191,
        "osm_type": "node",
        "tourism": "guest_house"
      }
    },
    {
      "type": "Feature",
      "geometry": {
        "type": "Point",
        "coordinates": [
          -7.9304911,
          40.8530737
        ]
      },
      "properties": {
        "id": 4962851521,
        "osm_type": "node",
        "name": "Parque de campismos",
        "tourism": "caravan_site"
      }
    },
    {
      "type": "Feature",
      "geometry": {
        "type": "Point",
        "coordinates": [
          -7.9938152,
          41.0988764
        ]
      },
      "properties": {
        "id": 5077838492,
        "osm_type": "node",
        "name": "Quinta do Outeiro",
        "tourism": "guest_house",
        "website": "https://outeirorocaille.com"
      }
    },
    {
      "type": "Feature",
      "geometry": {
        "type": "Point",
        "coordinates": [
          -8.0982736,
          41.0826327
        ]
      },
      "properties": {
        "id": 5104693424,
        "osm_type": "node",
        "name": "Quinta da Costeira",
        "tourism": "guest_house"
      }
    },
    {
      "type": "Feature",
      "geometry": {
        "type": "Point",
        "coordinates": [
          -7.9021587,
          40.6721568
        ]
      },
      "properties": {
        "id": 5150163192,
        "osm_type": "node",
        "name": "Antiga Casa da Burra",
        "tourism": "guest_house"
      }
    },
    {
      "type": "Feature",
      "geometry": {
        "type": "Point",
        "coordinates": [
          -7.3334933,
          41.1417069
        ]
      },
      "properties": {
        "id": 5640875321,
        "osm_type": "node",
        "name": "Quinta de São Xisto",
        "tourism": "guest_house",
        "phone": "+351254488061"
      }
    },
    {
      "type": "Feature",
      "geometry": {
        "type": "Point",
        "coordinates": [
          -7.807252,
          41.0966185
        ]
      },
      "properties": {
        "id": 5731700735,
        "osm_type": "node",
        "name": "Residenal Solar da Sé",
        "tourism": "guest_house",
        "check_date": "2024-07-21"
      }
    },
    {
      "type": "Feature",
      "geometry": {
        "type": "Point",
        "coordinates": [
          -7.9279152,
          40.8810898
        ]
      },
      "properties": {
        "id": 5732692208,
        "osm_type": "node",
        "name": "Albergue de Ribolhos",
        "tourism": "hostel"
      }
    },
    {
      "type": "Feature",
      "geometry": {
        "type": "Point",
        "coordinates": [
          -7.8975419,
          40.6577336
        ]
      },
      "properties": {
        "id": 5732707471,
        "osm_type": "node",
        "name": "Albergue Centro de Actividades Escutas de Viriato (CAEV)",
        "tourism": "hostel"
      }
    },
    {
      "type": "Feature",
      "geometry": {
        "type": "Point",
        "coordinates": [
          -7.8961484,
          40.7642223
        ]
      },
      "properties": {
        "id": 5733236215,
        "osm_type": "node",
        "name": "Albergue de Almargem",
        "tourism": "hostel",
        "phone": "+351 967 016 819"
      }
    },
    {
      "type": "Feature",
      "geometry": {
        "type": "Point",
        "coordinates": [
          -7.8013139,
          41.1020715
        ]
      },
      "properties": {
        "id": 5754782051,
        "osm_type": "node",
        "name": "Casa de São José",
        "tourism": "guest_house",
        "phone": "+351 254 712 486"
      }
    },
    {
      "type": "Feature",
      "geometry": {
        "type": "Point",
        "coordinates": [
          -7.9171643,
          40.6560939
        ]
      },
      "properties": {
        "id": 5882206447,
        "osm_type": "node",
        "name": "Hotel Minho de Vento",
        "tourism": "hotel"
      }
    },
    {
      "type": "Feature",
      "geometry": {
        "type": "Point",
        "coordinates": [
          -7.9145337,
          40.6541615
        ]
      },
      "properties": {
        "id": 5882850012,
        "osm_type": "node",
        "name": "Pensão Residêncial Dom Duarte",
        "tourism": "guest_house"
      }
    },
    {
      "type": "Feature",
      "geometry": {
        "type": "Point",
        "coordinates": [
          -7.9113897,
          40.6592218
        ]
      },
      "properties": {
        "id": 5884804966,
        "osm_type": "node",
        "name": "Apartamentos \"O Fado\"",
        "tourism": "guest_house"
      }
    },
    {
      "type": "Feature",
      "geometry": {
        "type": "Point",
        "coordinates": [
          -7.9127311,
          40.6570607
        ]
      },
      "properties": {
        "id": 5884805310,
        "osm_type": "node",
        "name": "Casa da Rua da Paz",
        "tourism": "guest_house"
      }
    },
    {
      "type": "Feature",
      "geometry": {
        "type": "Point",
        "coordinates": [
          -7.9167494,
          40.6511933
        ]
      },
      "properties": {
        "id": 5884817736,
        "osm_type": "node",
        "name": "Hotel Bela Vista",
        "tourism": "hotel"
      }
    },
    {
      "type": "Feature",
      "geometry": {
        "type": "Point",
        "coordinates": [
          -7.9130731,
          40.6565671
        ]
      },
      "properties": {
        "id": 5884817737,
        "osm_type": "node",
        "name": "Hotel Charme e Alegria",
        "tourism": "hotel"
      }
    },
    {
      "type": "Feature",
      "geometry": {
        "type": "Point",
        "coordinates": [
          -7.9192476,
          40.658341
        ]
      },
      "properties": {
        "id": 5884817738,
        "osm_type": "node",
        "name": "Hotel José Alberto",
        "tourism": "hotel"
      }
    },
    {
      "type": "Feature",
      "geometry": {
        "type": "Point",
        "coordinates": [
          -7.9132011,
          40.6579125
        ]
      },
      "properties": {
        "id": 5884817739,
        "osm_type": "node",
        "name": "Welcome inn Viseu",
        "tourism": "hotel"
      }
    },
    {
      "type": "Feature",
      "geometry": {
        "type": "Point",
        "coordinates": [
          -7.9132832,
          40.6582818
        ]
      },
      "properties": {
        "id": 5981620647,
        "osm_type": "node",
        "name": "BeMyGuest by Besolution",
        "tourism": "guest_house"
      }
    },
    {
      "type": "Feature",
      "geometry": {
        "type": "Point",
        "coordinates": [
          -7.9119506,
          40.6591968
        ]
      },
      "properties": {
        "id": 5981643812,
        "osm_type": "node",
        "name": "Casa da Sé",
        "tourism": "hotel"
      }
    },
    {
      "type": "Feature",
      "geometry": {
        "type": "Point",
        "coordinates": [
          -8.0912843,
          40.4814167
        ]
      },
      "properties": {
        "id": 6005535901,
        "osm_type": "node",
        "name": "Kualquer Koisa",
        "tourism": "hotel"
      }
    },
    {
      "type": "Feature",
      "geometry": {
        "type": "Point",
        "coordinates": [
          -7.9675347,
          40.5264751
        ]
      },
      "properties": {
        "id": 6005535903,
        "osm_type": "node",
        "name": "Hotel Beira Dão",
        "tourism": "hotel",
        "phone": "+351 232 957 313;+351 232 952 361",
        "website": "https://www.hotelbeiradao.com/"
      }
    },
    {
      "type": "Feature",
      "geometry": {
        "type": "Point",
        "coordinates": [
          -8.1564743,
          40.5437694
        ]
      },
      "properties": {
        "id": 6005535908,
        "osm_type": "node",
        "name": "Casa do Cabeço",
        "tourism": "guest_house",
        "website": "https://casadocabeco.pt"
      }
    },
    {
      "type": "Feature",
      "geometry": {
        "type": "Point",
        "coordinates": [
          -8.2026001,
          40.53666
        ]
      },
      "properties": {
        "id": 6005535909,
        "osm_type": "node",
        "name": "Casa do Lagar Miradoyro",
        "tourism": "hotel",
        "phone": "+351 232 871 045;+351 232 095 203",
        "website": "https://www.casadolagarmiradoyro.pt/"
      }
    },
    {
      "type": "Feature",
      "geometry": {
        "type": "Point",
        "coordinates": [
          -8.0573956,
          40.4996916
        ]
      },
      "properties": {
        "id": 6005535910,
        "osm_type": "node",
        "name": "Lugar do Pego",
        "tourism": "guest_house",
        "website": "https://lugardopego.com/"
      }
    },
    {
      "type": "Feature",
      "geometry": {
        "type": "Point",
        "coordinates": [
          -8.0556506,
          40.4831502
        ]
      },
      "properties": {
        "id": 6005535912,
        "osm_type": "node",
        "name": "No’Clock - Country House",
        "tourism": "guest_house",
        "website": "http://noclock.pt"
      }
    },
    {
      "type": "Feature",
      "geometry": {
        "type": "Point",
        "coordinates": [
          -8.165906,
          40.5715151
        ]
      },
      "properties": {
        "id": 6005535913,
        "osm_type": "node",
        "name": "Casa dos Arcos",
        "tourism": "guest_house",
        "phone": "+351 232 868 232"
      }
    },
    {
      "type": "Feature",
      "geometry": {
        "type": "Point",
        "coordinates": [
          -7.9895789,
          40.5760138
        ]
      },
      "properties": {
        "id": 6005535914,
        "osm_type": "node",
        "name": "Casa dos Três Rios",
        "tourism": "guest_house",
        "phone": "+351 232 959 189",
        "website": "https://www.minola.co.uk/"
      }
    },
    {
      "type": "Feature",
      "geometry": {
        "type": "Point",
        "coordinates": [
          -8.0660591,
          40.4805454
        ]
      },
      "properties": {
        "id": 6010484630,
        "osm_type": "node",
        "name": "Casa da Câmara",
        "tourism": "guest_house",
        "phone": "N/A",
        "website": "https://www.casadacamara.pt"
      }
    },
    {
      "type": "Feature",
      "geometry": {
        "type": "Point",
        "coordinates": [
          -8.2749235,
          40.5448773
        ]
      },
      "properties": {
        "id": 6055687169,
        "osm_type": "node",
        "name": "Quinta da Melroa",
        "tourism": "guest_house"
      }
    },
    {
      "type": "Feature",
      "geometry": {
        "type": "Point",
        "coordinates": [
          -7.4947695,
          40.900915
        ]
      },
      "properties": {
        "id": 6784626830,
        "osm_type": "node",
        "name": "Casa do Castelo",
        "tourism": "guest_house",
        "contact:phone": "+351 929 301 330"
      }
    },
    {
      "type": "Feature",
      "geometry": {
        "type": "Point",
        "coordinates": [
          -8.2301069,
          41.0702207
        ]
      },
      "properties": {
        "id": 6840706078,
        "osm_type": "node",
        "name": "Parque de Autocaravanismo de Souselo",
        "tourism": "caravan_site",
        "opening_hours": "24/7"
      }
    },
    {
      "type": "Feature",
      "geometry": {
        "type": "Point",
        "coordinates": [
          -7.8001415,
          41.1472144
        ]
      },
      "properties": {
        "id": 7606115975,
        "osm_type": "node",
        "name": "Casa Vale do Douro",
        "tourism": "apartment",
        "phone": "+351 96 678 0738",
        "website": "www.casavaledodouro.pt"
      }
    },
    {
      "type": "Feature",
      "geometry": {
        "type": "Point",
        "coordinates": [
          -7.8004029,
          41.1469878
        ]
      },
      "properties": {
        "id": 7606178946,
        "osm_type": "node",
        "name": "Casa Quinta da Adega do Chão",
        "tourism": "apartment",
        "phone": "+351 96 678 0738",
        "website": "www.casaadegadochao.pt"
      }
    },
    {
      "type": "Feature",
      "geometry": {
        "type": "Point",
        "coordinates": [
          -7.745441,
          41.0635465
        ]
      },
      "properties": {
        "id": 7606817325,
        "osm_type": "node",
        "name": "Turismo Rural Cascata do Varosa",
        "tourism": "guest_house",
        "phone": "+351 254 677 381",
        "website": "https://cascatadovarosa.pt/"
      }
    },
    {
      "type": "Feature",
      "geometry": {
        "type": "Point",
        "coordinates": [
          -8.2004123,
          41.0826525
        ]
      },
      "properties": {
        "id": 8417745903,
        "osm_type": "node",
        "name": "Casa Altamira",
        "tourism": "hotel"
      }
    },
    {
      "type": "Feature",
      "geometry": {
        "type": "Point",
        "coordinates": [
          -8.1752136,
          40.7316934
        ]
      },
      "properties": {
        "id": 8455692178,
        "osm_type": "node",
        "name": "Pensão Avenida",
        "tourism": "hotel"
      }
    },
    {
      "type": "Feature",
      "geometry": {
        "type": "Point",
        "coordinates": [
          -8.1719705,
          40.7281168
        ]
      },
      "properties": {
        "id": 8455912247,
        "osm_type": "node",
        "name": "Hotel Ulveira",
        "tourism": "hotel"
      }
    },
    {
      "type": "Feature",
      "geometry": {
        "type": "Point",
        "coordinates": [
          -7.6082058,
          41.0840139
        ]
      },
      "properties": {
        "id": 8518908014,
        "osm_type": "node",
        "name": "Quinta da Moita",
        "tourism": "guest_house"
      }
    },
    {
      "type": "Feature",
      "geometry": {
        "type": "Point",
        "coordinates": [
          -8.3137122,
          40.7328293
        ]
      },
      "properties": {
        "id": 8537314939,
        "osm_type": "node",
        "tourism": "guest_house"
      }
    },
    {
      "type": "Feature",
      "geometry": {
        "type": "Point",
        "coordinates": [
          -7.5529956,
          41.157276
        ]
      },
      "properties": {
        "id": 8676746017,
        "osm_type": "node",
        "name": "Casa Cimeira",
        "tourism": "guest_house",
        "opening_hours": "24/7",
        "phone": "+351 91 455 0477",
        "website": "http://casacimeira-douro.com"
      }
    },
    {
      "type": "Feature",
      "geometry": {
        "type": "Point",
        "coordinates": [
          -8.1273676,
          41.0779074
        ]
      },
      "properties": {
        "id": 8944557842,
        "osm_type": "node",
        "name": "A Padaria Farmhouse",
        "tourism": "hotel"
      }
    },
    {
      "type": "Feature",
      "geometry": {
        "type": "Point",
        "coordinates": [
          -7.3972399,
          40.990755
        ]
      },
      "properties": {
        "id": 9125183943,
        "osm_type": "node",
        "name": "Flora",
        "tourism": "hotel",
        "contact:phone": "+351 254 504 411;+351 927 053 895;+351 968 960 626"
      }
    },
    {
      "type": "Feature",
      "geometry": {
        "type": "Point",
        "coordinates": [
          -7.9150531,
          40.6569853
        ]
      },
      "properties": {
        "id": 9163394568,
        "osm_type": "node",
        "name": "Hotel Avenida",
        "tourism": "hotel",
        "phone": "+351 232 423 432",
        "website": "https://www.avenidaboutiquehotel.pt/PT/",
        "check_date": "2024-08-14"
      }
    },
    {
      "type": "Feature",
      "geometry": {
        "type": "Point",
        "coordinates": [
          -7.9999383,
          40.4364008
        ]
      },
      "properties": {
        "id": 9554926660,
        "osm_type": "node",
        "name": "Parque de autocaravanismo António Freitas - Carregal do Sal.",
        "tourism": "caravan_site"
      }
    },
    {
      "type": "Feature",
      "geometry": {
        "type": "Point",
        "coordinates": [
          -7.9185283,
          40.4725734
        ]
      },
      "properties": {
        "id": 9741584612,
        "osm_type": "node",
        "name": "Casas do Lupo",
        "tourism": "guest_house",
        "phone": "+351232673441"
      }
    },
    {
      "type": "Feature",
      "geometry": {
        "type": "Point",
        "coordinates": [
          -7.5340508,
          41.0995326
        ]
      },
      "properties": {
        "id": 9788235506,
        "osm_type": "node",
        "name": "Douro House",
        "tourism": "apartment"
      }
    },
    {
      "type": "Feature",
      "geometry": {
        "type": "Point",
        "coordinates": [
          -7.9105345,
          40.6590221
        ]
      },
      "properties": {
        "id": 9811384314,
        "osm_type": "node",
        "name": "Ryokan",
        "tourism": "hotel"
      }
    },
    {
      "type": "Feature",
      "geometry": {
        "type": "Point",
        "coordinates": [
          -7.8097911,
          41.0967816
        ]
      },
      "properties": {
        "id": 9871926294,
        "osm_type": "node",
        "name": "Huga Home",
        "tourism": "guest_house"
      }
    },
    {
      "type": "Feature",
      "geometry": {
        "type": "Point",
        "coordinates": [
          -7.9920956,
          41.098492
        ]
      },
      "properties": {
        "id": 9874020218,
        "osm_type": "node",
        "name": "Casas do Monte",
        "tourism": "guest_house"
      }
    },
    {
      "type": "Feature",
      "geometry": {
        "type": "Point",
        "coordinates": [
          -8.0398032,
          40.7452814
        ]
      },
      "properties": {
        "id": 9917864183,
        "osm_type": "node",
        "name": "Quinta da Comenda",
        "tourism": "guest_house",
        "contact:phone": "+351 915 174 727",
        "contact:website": "https://quintadacomenda.net/"
      }
    },
    {
      "type": "Feature",
      "geometry": {
        "type": "Point",
        "coordinates": [
          -8.1268808,
          41.0697528
        ]
      },
      "properties": {
        "id": 9936824268,
        "osm_type": "node",
        "name": "Casa de Ferreira",
        "tourism": "chalet"
      }
    },
    {
      "type": "Feature",
      "geometry": {
        "type": "Point",
        "coordinates": [
          -8.0867429,
          40.7403338
        ]
      },
      "properties": {
        "id": 9939084917,
        "osm_type": "node",
        "tourism": "caravan_site",
        "opening_hours": "24/7"
      }
    },
    {
      "type": "Feature",
      "geometry": {
        "type": "Point",
        "coordinates": [
          -7.8146354,
          41.0996213
        ]
      },
      "properties": {
        "id": 9939719217,
        "osm_type": "node",
        "name": "Casa da Real Companhia",
        "tourism": "guest_house"
      }
    },
    {
      "type": "Feature",
      "geometry": {
        "type": "Point",
        "coordinates": [
          -7.6107764,
          40.9814566
        ]
      },
      "properties": {
        "id": 10036736407,
        "osm_type": "node",
        "name": "Solar dos Correia Alves",
        "tourism": "hotel",
        "opening_hours": "ondemand",
        "phone": "+351 938 964 555",
        "website": "https://www.cm-moimenta.pt/pages/1365?poi_id=12/",
        "check_date": "2022-09-19"
      }
    },
    {
      "type": "Feature",
      "geometry": {
        "type": "Point",
        "coordinates": [
          -8.1729629,
          40.5697918
        ]
      },
      "properties": {
        "id": 10117380556,
        "osm_type": "node",
        "tourism": "caravan_site",
        "opening_hours": "24/7"
      }
    },
    {
      "type": "Feature",
      "geometry": {
        "type": "Point",
        "coordinates": [
          -8.2364412,
          40.3886871
        ]
      },
      "properties": {
        "id": 10117382418,
        "osm_type": "node",
        "tourism": "caravan_site",
        "opening_hours": "24/7"
      }
    },
    {
      "type": "Feature",
      "geometry": {
        "type": "Point",
        "coordinates": [
          -7.4736179,
          41.1660078
        ]
      },
      "properties": {
        "id": 10121506618,
        "osm_type": "node",
        "name": "Ventozelo Hotel and Restaurant",
        "tourism": "hotel",
        "phone": "+351 254 249 670"
      }
    },
    {
      "type": "Feature",
      "geometry": {
        "type": "Point",
        "coordinates": [
          -7.775841,
          40.635128
        ]
      },
      "properties": {
        "id": 10167526017,
        "osm_type": "node",
        "name": "Quinta do Rio Dao",
        "tourism": "alpine_hut"
      }
    },
    {
      "type": "Feature",
      "geometry": {
        "type": "Point",
        "coordinates": [
          -7.5991614,
          40.966068
        ]
      },
      "properties": {
        "id": 10773306835,
        "osm_type": "node",
        "name": "Hôtel Verdeal",
        "tourism": "hotel"
      }
    },
    {
      "type": "Feature",
      "geometry": {
        "type": "Point",
        "coordinates": [
          -8.1582868,
          40.6871714
        ]
      },
      "properties": {
        "id": 10811701294,
        "osm_type": "node",
        "tourism": "caravan_site",
        "opening_hours": "24/7"
      }
    },
    {
      "type": "Feature",
      "geometry": {
        "type": "Point",
        "coordinates": [
          -7.579041,
          41.1316681
        ]
      },
      "properties": {
        "id": 10811712591,
        "osm_type": "node",
        "tourism": "caravan_site"
      }
    },
    {
      "type": "Feature",
      "geometry": {
        "type": "Point",
        "coordinates": [
          -7.5830066,
          41.1281039
        ]
      },
      "properties": {
        "id": 10811756115,
        "osm_type": "node",
        "name": "Quinta da Padrela",
        "tourism": "caravan_site",
        "opening_hours": "24/7"
      }
    },
    {
      "type": "Feature",
      "geometry": {
        "type": "Point",
        "coordinates": [
          -8.1229989,
          41.0851603
        ]
      },
      "properties": {
        "id": 11035470007,
        "osm_type": "node",
        "name": "Parque de campismo de Mourilhe",
        "tourism": "camp_site"
      }
    },
    {
      "type": "Feature",
      "geometry": {
        "type": "Point",
        "coordinates": [
          -8.168653,
          40.5675041
        ]
      },
      "properties": {
        "id": 11048458494,
        "osm_type": "node",
        "name": "Inn Caramulo Hotel",
        "tourism": "hotel",
        "phone": "+351232862060",
        "website": "https://inncaramulohotel.pt/"
      }
    },
    {
      "type": "Feature",
      "geometry": {
        "type": "Point",
        "coordinates": [
          -7.9119913,
          40.6585886
        ]
      },
      "properties": {
        "id": 11698947009,
        "osm_type": "node",
        "name": "Torre Medieval",
        "tourism": "apartment"
      }
    },
    {
      "type": "Feature",
      "geometry": {
        "type": "Point",
        "coordinates": [
          -7.9120839,
          40.658876
        ]
      },
      "properties": {
        "id": 11698947015,
        "osm_type": "node",
        "name": "Vishostel",
        "tourism": "apartment"
      }
    },
    {
      "type": "Feature",
      "geometry": {
        "type": "Point",
        "coordinates": [
          -7.5391341,
          41.1702403
        ]
      },
      "properties": {
        "id": 11937459869,
        "osm_type": "node",
        "name": "Casa Dona Eufémia",
        "tourism": "guest_house"
      }
    },
    {
      "type": "Feature",
      "geometry": {
        "type": "Point",
        "coordinates": [
          -7.4351944,
          41.0814583
        ]
      },
      "properties": {
        "id": 11957786476,
        "osm_type": "node",
        "name": "DOURO APARTMENT",
        "tourism": "apartment",
        "phone": "+351 934 913 767"
      }
    },
    {
      "type": "Feature",
      "geometry": {
        "type": "Point",
        "coordinates": [
          -7.7974994,
          41.1556357
        ]
      },
      "properties": {
        "id": 12029742373,
        "osm_type": "node",
        "name": "Quinta da Pacheca",
        "tourism": "hotel",
        "website": "https://quintadapacheca.com"
      }
    },
    {
      "type": "Feature",
      "geometry": {
        "type": "Point",
        "coordinates": [
          -7.8663414,
          40.8167206
        ]
      },
      "properties": {
        "id": 12066229856,
        "osm_type": "node",
        "name": "Albergue de Peregrinhos",
        "tourism": "hostel"
      }
    },
    {
      "type": "Feature",
      "geometry": {
        "type": "Point",
        "coordinates": [
          -7.9126857,
          40.9535141
        ]
      },
      "properties": {
        "id": 12066236920,
        "osm_type": "node",
        "name": "Albergue de Moura Morta",
        "tourism": "hostel"
      }
    },
    {
      "type": "Feature",
      "geometry": {
        "type": "Point",
        "coordinates": [
          -7.8076422,
          41.0977058
        ]
      },
      "properties": {
        "id": 12066261030,
        "osm_type": "node",
        "name": "Casa Recanto do Teatro",
        "tourism": "hotel"
      }
    },
    {
      "type": "Feature",
      "geometry": {
        "type": "Point",
        "coordinates": [
          -7.9098996,
          40.6608293
        ]
      },
      "properties": {
        "id": 12265839178,
        "osm_type": "node",
        "name": "Vigia'S Guest House",
        "tourism": "apartment"
      }
    },
    {
      "type": "Feature",
      "geometry": {
        "type": "Point",
        "coordinates": [
          -8.0570302,
          40.7589773
        ]
      },
      "properties": {
        "id": 12600796712,
        "osm_type": "node",
        "name": "Ínsua Hostel",
        "tourism": "hostel",
        "website": "https://insuahostel.pt/"
      }
    },
    {
      "type": "Feature",
      "geometry": {
        "type": "Point",
        "coordinates": [
          -7.7061584,
          40.6601419
        ]
      },
      "properties": {
        "id": 12620606641,
        "osm_type": "node",
        "tourism": "chalet",
        "check_date": "2025-02-23"
      }
    },
    {
      "type": "Feature",
      "geometry": {
        "type": "Point",
        "coordinates": [
          -7.8684184,
          40.4857162
        ]
      },
      "properties": {
        "id": 12858100410,
        "osm_type": "node",
        "tourism": "caravan_site"
      }
    },
    {
      "type": "Feature",
      "geometry": {
        "type": "Point",
        "coordinates": [
          -7.7949676,
          41.1475131
        ]
      },
      "properties": {
        "id": 12868330097,
        "osm_type": "node",
        "name": "Quinta da Salada",
        "tourism": "guest_house",
        "phone": "+351 926427132",
        "website": "https://www.quintadasalada.com"
      }
    },
    {
      "type": "Feature",
      "geometry": {
        "type": "Point",
        "coordinates": [
          -7.9174803,
          40.6647329
        ]
      },
      "properties": {
        "id": 12869466044,
        "osm_type": "node",
        "name": "ASA - Área de Serviço de Autocaravanas de Viseu",
        "tourism": "caravan_site"
      }
    },
    {
      "type": "Feature",
      "geometry": {
        "type": "Point",
        "coordinates": [
          -7.9333471,
          40.9012297
        ]
      },
      "properties": {
        "id": 12959665602,
        "osm_type": "node",
        "name": "Vitoria",
        "tourism": "hotel",
        "phone": "+351967653073"
      }
    },
    {
      "type": "Feature",
      "geometry": {
        "type": "Point",
        "coordinates": [
          -7.8314665,
          40.7170671
        ]
      },
      "properties": {
        "id": 13005042010,
        "osm_type": "node",
        "tourism": "hotel"
      }
    },
    {
      "type": "Feature",
      "geometry": {
        "type": "Point",
        "coordinates": [
          -8.1033732,
          40.3893756
        ]
      },
      "properties": {
        "id": 13081539465,
        "osm_type": "node",
        "name": "Casas Vale Martinho",
        "tourism": "hotel",
        "phone": "+351232882622",
        "website": "https://valemartinho.pt/"
      }
    },
    {
      "type": "Feature",
      "geometry": {
        "type": "Point",
        "coordinates": [
          -7.9229197,
          40.6652841
        ]
      },
      "properties": {
        "id": 13127652083,
        "osm_type": "node",
        "name": "Futura Área de Serviço de Autocaravanas",
        "tourism": "caravan_site"
      }
    },
    {
      "type": "Feature",
      "geometry": {
        "type": "Point",
        "coordinates": [
          -7.8004035,
          41.0602382
        ]
      },
      "properties": {
        "id": 13160147142,
        "osm_type": "node",
        "name": "Casa da Quinta da Boavista",
        "tourism": "guest_house"
      }
    },
    {
      "type": "Feature",
      "geometry": {
        "type": "Point",
        "coordinates": [
          -7.7919829,
          41.0634347
        ]
      },
      "properties": {
        "id": 13160634801,
        "osm_type": "node",
        "name": "Residencial Polo Norte",
        "tourism": "guest_house"
      }
    },
    {
      "type": "Feature",
      "geometry": {
        "type": "Point",
        "coordinates": [
          -7.7711574,
          41.0682047
        ]
      },
      "properties": {
        "id": 13160654230,
        "osm_type": "node",
        "name": "Casa dos Viscondes da Várzea",
        "tourism": "hotel"
      }
    },
    {
      "type": "Feature",
      "geometry": {
        "type": "Point",
        "coordinates": [
          -7.7643798,
          41.0655176
        ]
      },
      "properties": {
        "id": 13162415836,
        "osm_type": "node",
        "name": "Quinta dos Padres Santos",
        "tourism": "hotel"
      }
    },
    {
      "type": "Feature",
      "geometry": {
        "type": "Point",
        "coordinates": [
          -7.7588969,
          41.0696036
        ]
      },
      "properties": {
        "id": 13162956822,
        "osm_type": "node",
        "name": "Hotel Villa Ildefonso Cascata",
        "tourism": "hotel"
      }
    },
    {
      "type": "Feature",
      "geometry": {
        "type": "Point",
        "coordinates": [
          -7.7329876,
          41.1045924
        ]
      },
      "properties": {
        "id": 13166795950,
        "osm_type": "node",
        "name": "Quinta da Barroca",
        "tourism": "hotel"
      }
    },
    {
      "type": "Feature",
      "geometry": {
        "type": "Point",
        "coordinates": [
          -7.7245223,
          41.1084353
        ]
      },
      "properties": {
        "id": 13167253804,
        "osm_type": "node",
        "name": "Quinta do Olival",
        "tourism": "guest_house"
      }
    },
    {
      "type": "Feature",
      "geometry": {
        "type": "Point",
        "coordinates": [
          -7.7111822,
          41.1073566
        ]
      },
      "properties": {
        "id": 13167960914,
        "osm_type": "node",
        "name": "Quinta dos Morangueiros",
        "tourism": "guest_house"
      }
    },
    {
      "type": "Feature",
      "geometry": {
        "type": "Point",
        "coordinates": [
          -7.7173744,
          41.1184627
        ]
      },
      "properties": {
        "id": 13172129344,
        "osm_type": "node",
        "name": "Quinta do Gato",
        "tourism": "guest_house"
      }
    },
    {
      "type": "Feature",
      "geometry": {
        "type": "Point",
        "coordinates": [
          -7.7161859,
          41.1174407
        ]
      },
      "properties": {
        "id": 13172129352,
        "osm_type": "node",
        "name": "Casa São Miguel Douro",
        "tourism": "guest_house"
      }
    },
    {
      "type": "Feature",
      "geometry": {
        "type": "Point",
        "coordinates": [
          -7.7158815,
          41.1172944
        ]
      },
      "properties": {
        "id": 13172129361,
        "osm_type": "node",
        "name": "Melro Cottage House",
        "tourism": "guest_house"
      }
    },
    {
      "type": "Feature",
      "geometry": {
        "type": "Point",
        "coordinates": [
          -7.7122872,
          41.1132295
        ]
      },
      "properties": {
        "id": 13173262495,
        "osm_type": "node",
        "name": "Quinta da Pereira",
        "tourism": "guest_house"
      }
    },
    {
      "type": "Feature",
      "geometry": {
        "type": "Point",
        "coordinates": [
          -7.8933317,
          40.6622886
        ]
      },
      "properties": {
        "id": 13250788888,
        "osm_type": "node",
        "name": "Casa da Avó",
        "tourism": "apartment"
      }
    },
    {
      "type": "Feature",
      "geometry": {
        "type": "Point",
        "coordinates": [
          -8.0398386,
          40.4069177
        ]
      },
      "properties": {
        "id": 13336192544,
        "osm_type": "node",
        "name": "Quinta Vale do Fojo",
        "tourism": "guest_house",
        "phone": "+351925340516;+32486663654",
        "website": "https://www.vale-do-fojo.com/"
      }
    },
    {
      "type": "Feature",
      "geometry": {
        "type": "Point",
        "coordinates": [
          -7.4713983,
          41.1897342
        ]
      },
      "properties": {
        "id": 13432298065,
        "osm_type": "node",
        "name": "Quinta da Gricha",
        "tourism": "guest_house"
      }
    },
    {
      "type": "Feature",
      "geometry": {
        "type": "Point",
        "coordinates": [
          -7.8127621,
          41.1441716
        ]
      },
      "properties": {
        "id": 13521089221,
        "osm_type": "node",
        "name": "Six Senses Douro Valley",
        "tourism": "hotel"
      }
    },
    {
      "type": "Feature",
      "geometry": {
        "type": "Point",
        "coordinates": [
          -7.6553692,
          41.0981334
        ]
      },
      "properties": {
        "id": 104688518,
        "osm_type": "way",
        "name": "Outros Tempos - Turismo de Aldeia",
        "tourism": "hotel",
        "website": "https://www.outrostempos.com/"
      }
    },
    {
      "type": "Feature",
      "geometry": {
        "type": "Point",
        "coordinates": [
          -7.6555513,
          41.0972682
        ]
      },
      "properties": {
        "id": 104688526,
        "osm_type": "way",
        "name": "Outros Tempos - Turismo de Aldeia",
        "tourism": "hotel",
        "website": "https://www.outrostempos.com/"
      }
    },
    {
      "type": "Feature",
      "geometry": {
        "type": "Point",
        "coordinates": [
          -7.6544076,
          41.1002447
        ]
      },
      "properties": {
        "id": 104688531,
        "osm_type": "way",
        "name": "Outros Tempos - Turismo de Aldeia",
        "tourism": "hotel",
        "website": "https://www.outrostempos.com/"
      }
    },
    {
      "type": "Feature",
      "geometry": {
        "type": "Point",
        "coordinates": [
          -8.1036083,
          41.0859263
        ]
      },
      "properties": {
        "id": 107822802,
        "osm_type": "way",
        "name": "Ecocentro de Cinfães",
        "tourism": "apartment",
        "opening_hours": "Mo-Fr 13:30-17:00, 17:30-21:00; Sa 13:00-18:00",
        "contact:phone": "+351 939 559 190;+351 254 680 000;+351 800 210 230",
        "contact:website": "www.resinorte.pt"
      }
    },
    {
      "type": "Feature",
      "geometry": {
        "type": "Point",
        "coordinates": [
          -7.7988126,
          41.1014337
        ]
      },
      "properties": {
        "id": 122318479,
        "osm_type": "way",
        "name": "Hotel Lamego",
        "tourism": "hotel",
        "check_date": "2024-06-25"
      }
    },
    {
      "type": "Feature",
      "geometry": {
        "type": "Point",
        "coordinates": [
          -7.6405231,
          41.1568191
        ]
      },
      "properties": {
        "id": 134793473,
        "osm_type": "way",
        "name": "Quinta do Tedo",
        "tourism": "guest_house"
      }
    },
    {
      "type": "Feature",
      "geometry": {
        "type": "Point",
        "coordinates": [
          -7.611996,
          40.975751
        ]
      },
      "properties": {
        "id": 145478693,
        "osm_type": "way",
        "tourism": "motel"
      }
    },
    {
      "type": "Feature",
      "geometry": {
        "type": "Point",
        "coordinates": [
          -8.1856289,
          41.0065111
        ]
      },
      "properties": {
        "id": 167324003,
        "osm_type": "way",
        "name": "A.S. Social de Nespereira",
        "tourism": "guest_house"
      }
    },
    {
      "type": "Feature",
      "geometry": {
        "type": "Point",
        "coordinates": [
          -7.7642608,
          41.0655212
        ]
      },
      "properties": {
        "id": 179162376,
        "osm_type": "way",
        "name": "Quinta dos Padres Santos",
        "tourism": "hotel"
      }
    },
    {
      "type": "Feature",
      "geometry": {
        "type": "Point",
        "coordinates": [
          -7.5293415,
          40.9375326
        ]
      },
      "properties": {
        "id": 183092108,
        "osm_type": "way",
        "name": "Hotel Rural do Freixinho",
        "tourism": "hotel"
      }
    },
    {
      "type": "Feature",
      "geometry": {
        "type": "Point",
        "coordinates": [
          -7.8644799,
          40.6441461
        ]
      },
      "properties": {
        "id": 200180437,
        "osm_type": "way",
        "name": "Onix",
        "tourism": "hotel"
      }
    },
    {
      "type": "Feature",
      "geometry": {
        "type": "Point",
        "coordinates": [
          -7.8651406,
          40.6441285
        ]
      },
      "properties": {
        "id": 200180439,
        "osm_type": "way",
        "name": "Hotel Rubi",
        "tourism": "hotel",
        "phone": "+351 232 479 511",
        "website": "https://www.hotelrubi.pt"
      }
    },
    {
      "type": "Feature",
      "geometry": {
        "type": "Point",
        "coordinates": [
          -7.8922462,
          40.5132251
        ]
      },
      "properties": {
        "id": 213883768,
        "osm_type": "way",
        "name": "Hotel Urgeiriça",
        "tourism": "hotel",
        "check_date": "2024-12-26"
      }
    },
    {
      "type": "Feature",
      "geometry": {
        "type": "Point",
        "coordinates": [
          -7.9009832,
          40.501483
        ]
      },
      "properties": {
        "id": 213885664,
        "osm_type": "way",
        "name": "Residencial Rossio",
        "tourism": "guest_house"
      }
    },
    {
      "type": "Feature",
      "geometry": {
        "type": "Point",
        "coordinates": [
          -7.3451812,
          41.1436685
        ]
      },
      "properties": {
        "id": 243915115,
        "osm_type": "way",
        "tourism": "chalet",
        "website": "http://loja.douro.biz/epages/270985.sf/pt_PT/?ObjectPath=/Shops/270985/Categories/Casas"
      }
    },
    {
      "type": "Feature",
      "geometry": {
        "type": "Point",
        "coordinates": [
          -7.9158243,
          40.6922308
        ]
      },
      "properties": {
        "id": 272126264,
        "osm_type": "way",
        "name": "Viseu Garden Hotel",
        "tourism": "hotel",
        "contact:website": "http://www.viseugardenhotel.com/"
      }
    },
    {
      "type": "Feature",
      "geometry": {
        "type": "Point",
        "coordinates": [
          -7.9978816,
          40.4334929
        ]
      },
      "properties": {
        "id": 288540089,
        "osm_type": "way",
        "name": "Casas Do Zagão - Turismo Rural",
        "tourism": "apartment",
        "website": "https://casasdozagao.com/"
      }
    },
    {
      "type": "Feature",
      "geometry": {
        "type": "Point",
        "coordinates": [
          -8.1307778,
          40.7558569
        ]
      },
      "properties": {
        "id": 289313501,
        "osm_type": "way",
        "name": "Quinta Quatro Lagares",
        "tourism": "hotel"
      }
    },
    {
      "type": "Feature",
      "geometry": {
        "type": "Point",
        "coordinates": [
          -7.5748148,
          40.8703824
        ]
      },
      "properties": {
        "id": 292382887,
        "osm_type": "way",
        "name": "Casa Aldeia da Lapa",
        "tourism": "hotel",
        "phone": "+351 232 687 293"
      }
    },
    {
      "type": "Feature",
      "geometry": {
        "type": "Point",
        "coordinates": [
          -7.5115937,
          40.9109213
        ]
      },
      "properties": {
        "id": 292382915,
        "osm_type": "way",
        "tourism": "hostel"
      }
    },
    {
      "type": "Feature",
      "geometry": {
        "type": "Point",
        "coordinates": [
          -7.4945032,
          40.8998299
        ]
      },
      "properties": {
        "id": 292382940,
        "osm_type": "way",
        "name": "Casa de Malta",
        "tourism": "guest_house"
      }
    },
    {
      "type": "Feature",
      "geometry": {
        "type": "Point",
        "coordinates": [
          -7.9127135,
          40.6591107
        ]
      },
      "properties": {
        "id": 292475894,
        "osm_type": "way",
        "name": "Palácio dos Melos",
        "tourism": "hotel"
      }
    },
    {
      "type": "Feature",
      "geometry": {
        "type": "Point",
        "coordinates": [
          -7.9170314,
          40.6206768
        ]
      },
      "properties": {
        "id": 340363145,
        "osm_type": "way",
        "name": "Motel ***",
        "tourism": "motel"
      }
    },
    {
      "type": "Feature",
      "geometry": {
        "type": "Point",
        "coordinates": [
          -7.4054259,
          41.1470223
        ]
      },
      "properties": {
        "id": 348987595,
        "osm_type": "way",
        "name": "Hotel Pesqdouro",
        "tourism": "hotel"
      }
    },
    {
      "type": "Feature",
      "geometry": {
        "type": "Point",
        "coordinates": [
          -7.4345925,
          41.0806571
        ]
      },
      "properties": {
        "id": 350400761,
        "osm_type": "way",
        "name": "O Casarão",
        "tourism": "hotel"
      }
    },
    {
      "type": "Feature",
      "geometry": {
        "type": "Point",
        "coordinates": [
          -7.9351243,
          40.8516736
        ]
      },
      "properties": {
        "id": 360433584,
        "osm_type": "way",
        "name": "Hotel Montemuro",
        "tourism": "hotel"
      }
    },
    {
      "type": "Feature",
      "geometry": {
        "type": "Point",
        "coordinates": [
          -8.1898826,
          40.3466077
        ]
      },
      "properties": {
        "id": 361995673,
        "osm_type": "way",
        "name": "Montebelo Aguieira Lake Resort & Spa",
        "tourism": "hotel",
        "phone": "+351 231 927 060",
        "website": "https://www.montebeloaguieira.pt/"
      }
    },
    {
      "type": "Feature",
      "geometry": {
        "type": "Point",
        "coordinates": [
          -7.7345622,
          40.8383047
        ]
      },
      "properties": {
        "id": 387127212,
        "osm_type": "way",
        "name": "Estalagem Mira Paiva",
        "tourism": "hotel"
      }
    },
    {
      "type": "Feature",
      "geometry": {
        "type": "Point",
        "coordinates": [
          -8.0929076,
          40.7177208
        ]
      },
      "properties": {
        "id": 403970379,
        "osm_type": "way",
        "name": "Parque de Campismo de Vouzela",
        "tourism": "camp_site",
        "tents": "yes",
        "phone": "+351 232 740 020"
      }
    },
    {
      "type": "Feature",
      "geometry": {
        "type": "Point",
        "coordinates": [
          -8.0813361,
          40.5117628
        ]
      },
      "properties": {
        "id": 424181819,
        "osm_type": "way",
        "name": "Hotel Severino José",
        "tourism": "hotel"
      }
    },
    {
      "type": "Feature",
      "geometry": {
        "type": "Point",
        "coordinates": [
          -7.8612824,
          40.4886416
        ]
      },
      "properties": {
        "id": 464216778,
        "osm_type": "way",
        "tourism": "apartment"
      }
    },
    {
      "type": "Feature",
      "geometry": {
        "type": "Point",
        "coordinates": [
          -7.9260668,
          40.655662
        ]
      },
      "properties": {
        "id": 483080412,
        "osm_type": "way",
        "name": "Montebelo Viseu Congress Hotel & Spa",
        "tourism": "hotel",
        "website": "https://montebelohotels.com/montebelo-viseu-congress-hotel/pt/home"
      }
    },
    {
      "type": "Feature",
      "geometry": {
        "type": "Point",
        "coordinates": [
          -7.9019582,
          40.6554352
        ]
      },
      "properties": {
        "id": 511128923,
        "osm_type": "way",
        "name": "Viseu Guest Inn",
        "tourism": "apartment"
      }
    },
    {
      "type": "Feature",
      "geometry": {
        "type": "Point",
        "coordinates": [
          -7.9002275,
          40.6547324
        ]
      },
      "properties": {
        "id": 521103125,
        "osm_type": "way",
        "name": "House Near Fontelo",
        "tourism": "apartment"
      }
    },
    {
      "type": "Feature",
      "geometry": {
        "type": "Point",
        "coordinates": [
          -7.9046361,
          40.6604516
        ]
      },
      "properties": {
        "id": 521254743,
        "osm_type": "way",
        "name": "Pousada de Juventude",
        "tourism": "hostel",
        "phone": "+351232413342",
        "website": "https://adamastor.org.pt/hiviseu/"
      }
    },
    {
      "type": "Feature",
      "geometry": {
        "type": "Point",
        "coordinates": [
          -7.917281,
          40.6694527
        ]
      },
      "properties": {
        "id": 527145820,
        "osm_type": "way",
        "name": "Garden Place Alojamento",
        "tourism": "guest_house"
      }
    },
    {
      "type": "Feature",
      "geometry": {
        "type": "Point",
        "coordinates": [
          -7.9133344,
          40.6579229
        ]
      },
      "properties": {
        "id": 543860610,
        "osm_type": "way",
        "name": "Pensão do Rossio",
        "tourism": "guest_house"
      }
    },
    {
      "type": "Feature",
      "geometry": {
        "type": "Point",
        "coordinates": [
          -8.1289534,
          40.4016482
        ]
      },
      "properties": {
        "id": 559801227,
        "osm_type": "way",
        "name": "A Casa Branca",
        "tourism": "guest_house"
      }
    },
    {
      "type": "Feature",
      "geometry": {
        "type": "Point",
        "coordinates": [
          -7.9100548,
          40.661935
        ]
      },
      "properties": {
        "id": 565454117,
        "osm_type": "way",
        "tourism": "hotel"
      }
    },
    {
      "type": "Feature",
      "geometry": {
        "type": "Point",
        "coordinates": [
          -7.8140376,
          41.0996351
        ]
      },
      "properties": {
        "id": 614306364,
        "osm_type": "way",
        "name": "Casa da Real Companhia",
        "tourism": "hotel"
      }
    },
    {
      "type": "Feature",
      "geometry": {
        "type": "Point",
        "coordinates": [
          -7.9078635,
          40.6310628
        ]
      },
      "properties": {
        "id": 664536122,
        "osm_type": "way",
        "name": "Hotel Príncipe Perfeito",
        "tourism": "hotel"
      }
    },
    {
      "type": "Feature",
      "geometry": {
        "type": "Point",
        "coordinates": [
          -8.0860073,
          40.3907182
        ]
      },
      "properties": {
        "id": 668747360,
        "osm_type": "way",
        "name": "Terra de Iguanas",
        "tourism": "caravan_site",
        "website": "https://www.terra-de-iguanas.com/"
      }
    },
    {
      "type": "Feature",
      "geometry": {
        "type": "Point",
        "coordinates": [
          -7.913512,
          40.6558338
        ]
      },
      "properties": {
        "id": 669570755,
        "osm_type": "way",
        "name": "Hotel Grão Vasco",
        "tourism": "hotel",
        "phone": "+351 232 423 511",
        "website": "https://hotelgraovasco.pt"
      }
    },
    {
      "type": "Feature",
      "geometry": {
        "type": "Point",
        "coordinates": [
          -7.9121432,
          40.6543511
        ]
      },
      "properties": {
        "id": 677237120,
        "osm_type": "way",
        "name": "Pousada de Viseu",
        "tourism": "hostel",
        "phone": "+351 232 457 320"
      }
    },
    {
      "type": "Feature",
      "geometry": {
        "type": "Point",
        "coordinates": [
          -7.7465987,
          41.1197266
        ]
      },
      "properties": {
        "id": 738827420,
        "osm_type": "way",
        "name": "Parque de Campismo do Monte de São Domingos",
        "tourism": "camp_site",
        "website": "https://www.cm-armamar.pt/pages/688?poi_id=56"
      }
    },
    {
      "type": "Feature",
      "geometry": {
        "type": "Point",
        "coordinates": [
          -7.570254,
          41.1619938
        ]
      },
      "properties": {
        "id": 765143172,
        "osm_type": "way",
        "name": "Hotel Rural Quinta do Pégo",
        "tourism": "hotel"
      }
    },
    {
      "type": "Feature",
      "geometry": {
        "type": "Point",
        "coordinates": [
          -7.5474541,
          41.1633281
        ]
      },
      "properties": {
        "id": 787921298,
        "osm_type": "way",
        "name": "Quinta da Côrte",
        "tourism": "hotel"
      }
    },
    {
      "type": "Feature",
      "geometry": {
        "type": "Point",
        "coordinates": [
          -7.8640619,
          40.4890614
        ]
      },
      "properties": {
        "id": 816907059,
        "osm_type": "way",
        "name": "Casa dos Serpas",
        "tourism": "hotel"
      }
    },
    {
      "type": "Feature",
      "geometry": {
        "type": "Point",
        "coordinates": [
          -7.8642176,
          40.4888033
        ]
      },
      "properties": {
        "id": 816907060,
        "osm_type": "way",
        "name": "Pensão Moderna",
        "tourism": "hotel"
      }
    },
    {
      "type": "Feature",
      "geometry": {
        "type": "Point",
        "coordinates": [
          -7.8636519,
          40.4893478
        ]
      },
      "properties": {
        "id": 816907066,
        "osm_type": "way",
        "name": "Quinta do Castanheiro",
        "tourism": "guest_house"
      }
    },
    {
      "type": "Feature",
      "geometry": {
        "type": "Point",
        "coordinates": [
          -7.8646437,
          40.4890093
        ]
      },
      "properties": {
        "id": 816928678,
        "osm_type": "way",
        "name": "Hotel Apartamentos Pantanha",
        "tourism": "hotel"
      }
    },
    {
      "type": "Feature",
      "geometry": {
        "type": "Point",
        "coordinates": [
          -7.7439946,
          40.6114494
        ]
      },
      "properties": {
        "id": 829372946,
        "osm_type": "way",
        "name": "Hotel Senhora do Castelo",
        "tourism": "hotel",
        "phone": "+351 232619950",
        "website": "https://www.cotel.pt/"
      }
    },
    {
      "type": "Feature",
      "geometry": {
        "type": "Point",
        "coordinates": [
          -7.7848222,
          41.1537254
        ]
      },
      "properties": {
        "id": 847992087,
        "osm_type": "way",
        "name": "Hotel Vila Galé Collection Douro",
        "tourism": "hotel"
      }
    },
    {
      "type": "Feature",
      "geometry": {
        "type": "Point",
        "coordinates": [
          -8.1583747,
          40.8335063
        ]
      },
      "properties": {
        "id": 851866758,
        "osm_type": "way",
        "name": "Retiro da Fraguinha",
        "tourism": "camp_site",
        "website": "https://retiro-da-fraguinha8.webnode.pt/"
      }
    },
    {
      "type": "Feature",
      "geometry": {
        "type": "Point",
        "coordinates": [
          -8.1977178,
          41.0279823
        ]
      },
      "properties": {
        "id": 878684235,
        "osm_type": "way",
        "name": "Casa do Avô",
        "tourism": "apartment"
      }
    },
    {
      "type": "Feature",
      "geometry": {
        "type": "Point",
        "coordinates": [
          -8.1146396,
          40.7923799
        ]
      },
      "properties": {
        "id": 885047818,
        "osm_type": "way",
        "name": "Casa do Tavares",
        "tourism": "apartment"
      }
    },
    {
      "type": "Feature",
      "geometry": {
        "type": "Point",
        "coordinates": [
          -8.1194372,
          40.7733037
        ]
      },
      "properties": {
        "id": 885047819,
        "osm_type": "way",
        "name": "Casa do Rio Contença",
        "tourism": "apartment"
      }
    },
    {
      "type": "Feature",
      "geometry": {
        "type": "Point",
        "coordinates": [
          -8.1119717,
          40.8469742
        ]
      },
      "properties": {
        "id": 885180482,
        "osm_type": "way",
        "name": "Casa Margou",
        "tourism": "apartment"
      }
    },
    {
      "type": "Feature",
      "geometry": {
        "type": "Point",
        "coordinates": [
          -8.0231754,
          40.8887705
        ]
      },
      "properties": {
        "id": 885193307,
        "osm_type": "way",
        "name": "Casa Estevão",
        "tourism": "apartment"
      }
    },
    {
      "type": "Feature",
      "geometry": {
        "type": "Point",
        "coordinates": [
          -8.0939539,
          40.7382927
        ]
      },
      "properties": {
        "id": 907001296,
        "osm_type": "way",
        "name": "Hotel do Parque",
        "tourism": "hotel"
      }
    },
    {
      "type": "Feature",
      "geometry": {
        "type": "Point",
        "coordinates": [
          -7.6867467,
          41.0667129
        ]
      },
      "properties": {
        "id": 908050853,
        "osm_type": "way",
        "name": "Casa Dona Maria",
        "tourism": "guest_house"
      }
    },
    {
      "type": "Feature",
      "geometry": {
        "type": "Point",
        "coordinates": [
          -7.8156019,
          41.039602
        ]
      },
      "properties": {
        "id": 909004411,
        "osm_type": "way",
        "tourism": "apartment"
      }
    },
    {
      "type": "Feature",
      "geometry": {
        "type": "Point",
        "coordinates": [
          -7.9348102,
          40.8525403
        ]
      },
      "properties": {
        "id": 911589578,
        "osm_type": "way",
        "name": "Palace Hotel & Spa Astúrias",
        "tourism": "hotel"
      }
    },
    {
      "type": "Feature",
      "geometry": {
        "type": "Point",
        "coordinates": [
          -8.1291827,
          40.797475
        ]
      },
      "properties": {
        "id": 958120978,
        "osm_type": "way",
        "name": "Parque de Campismo do Bioparque",
        "tourism": "camp_site",
        "tents": "yes"
      }
    },
    {
      "type": "Feature",
      "geometry": {
        "type": "Point",
        "coordinates": [
          -8.1729779,
          40.7636631
        ]
      },
      "properties": {
        "id": 993006147,
        "osm_type": "way",
        "tourism": "guest_house"
      }
    },
    {
      "type": "Feature",
      "geometry": {
        "type": "Point",
        "coordinates": [
          -8.0920016,
          40.7386651
        ]
      },
      "properties": {
        "id": 1054163948,
        "osm_type": "way",
        "name": "Residencial Nunes Pinto",
        "tourism": "hotel"
      }
    },
    {
      "type": "Feature",
      "geometry": {
        "type": "Point",
        "coordinates": [
          -8.0935175,
          40.7394417
        ]
      },
      "properties": {
        "id": 1054163950,
        "osm_type": "way",
        "name": "Hotel Pintos",
        "tourism": "hotel",
        "phone": "+351 232 711 578",
        "website": "http://hotelpintos.com/"
      }
    },
    {
      "type": "Feature",
      "geometry": {
        "type": "Point",
        "coordinates": [
          -8.0929223,
          40.7395779
        ]
      },
      "properties": {
        "id": 1054163951,
        "osm_type": "way",
        "name": "Hotel Rural Villa do Banho",
        "tourism": "hotel"
      }
    },
    {
      "type": "Feature",
      "geometry": {
        "type": "Point",
        "coordinates": [
          -8.0933892,
          40.7395037
        ]
      },
      "properties": {
        "id": 1054172425,
        "osm_type": "way",
        "name": "Loureiro B&B",
        "tourism": "guest_house"
      }
    },
    {
      "type": "Feature",
      "geometry": {
        "type": "Point",
        "coordinates": [
          -8.089572,
          40.738712
        ]
      },
      "properties": {
        "id": 1054172427,
        "osm_type": "way",
        "name": "Inatel Palace",
        "tourism": "hotel"
      }
    },
    {
      "type": "Feature",
      "geometry": {
        "type": "Point",
        "coordinates": [
          -8.0902439,
          40.7402466
        ]
      },
      "properties": {
        "id": 1054284557,
        "osm_type": "way",
        "name": "Grande Hotel Thermas",
        "tourism": "hotel"
      }
    },
    {
      "type": "Feature",
      "geometry": {
        "type": "Point",
        "coordinates": [
          -8.0924957,
          40.740408
        ]
      },
      "properties": {
        "id": 1054284558,
        "osm_type": "way",
        "name": "Hotel Vouga",
        "tourism": "hotel"
      }
    },
    {
      "type": "Feature",
      "geometry": {
        "type": "Point",
        "coordinates": [
          -8.0936018,
          40.739066
        ]
      },
      "properties": {
        "id": 1063748611,
        "osm_type": "way",
        "name": "Alojamento Thermal Romano",
        "tourism": "guest_house"
      }
    },
    {
      "type": "Feature",
      "geometry": {
        "type": "Point",
        "coordinates": [
          -7.7412825,
          41.0615234
        ]
      },
      "properties": {
        "id": 1071041441,
        "osm_type": "way",
        "tourism": "hotel"
      }
    },
    {
      "type": "Feature",
      "geometry": {
        "type": "Point",
        "coordinates": [
          -7.8214601,
          41.0903961
        ]
      },
      "properties": {
        "id": 1085051544,
        "osm_type": "way",
        "name": "Camping Lamego",
        "tourism": "camp_site",
        "phone": "+351 969 021 408",
        "website": "https://campinglamego.wixsite.com/webpage"
      }
    },
    {
      "type": "Feature",
      "geometry": {
        "type": "Point",
        "coordinates": [
          -7.8310189,
          41.1428742
        ]
      },
      "properties": {
        "id": 1089660545,
        "osm_type": "way",
        "name": "Casa da Fonte",
        "tourism": "guest_house"
      }
    },
    {
      "type": "Feature",
      "geometry": {
        "type": "Point",
        "coordinates": [
          -7.7345958,
          40.8378642
        ]
      },
      "properties": {
        "id": 1131127727,
        "osm_type": "way",
        "tourism": "hotel"
      }
    },
    {
      "type": "Feature",
      "geometry": {
        "type": "Point",
        "coordinates": [
          -7.5692052,
          41.116953
        ]
      },
      "properties": {
        "id": 1146473811,
        "osm_type": "way",
        "name": "Hotel Douro Inn",
        "tourism": "hotel"
      }
    },
    {
      "type": "Feature",
      "geometry": {
        "type": "Point",
        "coordinates": [
          -7.9683489,
          40.5260227
        ]
      },
      "properties": {
        "id": 1164229730,
        "osm_type": "way",
        "name": "Casa das Termas",
        "tourism": "hotel",
        "phone": "+351 232 958 225",
        "website": "https://www.casadastermas.pt/"
      }
    },
    {
      "type": "Feature",
      "geometry": {
        "type": "Point",
        "coordinates": [
          -7.9752387,
          40.4710154
        ]
      },
      "properties": {
        "id": 1175968064,
        "osm_type": "way",
        "name": "Casa dos Chuchos",
        "tourism": "apartment",
        "website": "https://www.cabanaslodging.com/cabanas"
      }
    },
    {
      "type": "Feature",
      "geometry": {
        "type": "Point",
        "coordinates": [
          -7.8567723,
          40.5335431
        ]
      },
      "properties": {
        "id": 1187811920,
        "osm_type": "way",
        "name": "ASA de Nelas",
        "tourism": "caravan_site"
      }
    },
    {
      "type": "Feature",
      "geometry": {
        "type": "Point",
        "coordinates": [
          -7.6162138,
          41.1581493
        ]
      },
      "properties": {
        "id": 1216203789,
        "osm_type": "way",
        "name": "Quinta do Sao Luiz",
        "tourism": "hotel"
      }
    },
    {
      "type": "Feature",
      "geometry": {
        "type": "Point",
        "coordinates": [
          -7.7330426,
          41.1041312
        ]
      },
      "properties": {
        "id": 1221386484,
        "osm_type": "way",
        "tourism": "hotel"
      }
    },
    {
      "type": "Feature",
      "geometry": {
        "type": "Point",
        "coordinates": [
          -7.6867606,
          41.0667991
        ]
      },
      "properties": {
        "id": 1221586727,
        "osm_type": "way",
        "name": "Casa Dona Maria",
        "tourism": "guest_house"
      }
    },
    {
      "type": "Feature",
      "geometry": {
        "type": "Point",
        "coordinates": [
          -7.6079259,
          40.8548596
        ]
      },
      "properties": {
        "id": 1226220401,
        "osm_type": "way",
        "name": "Casas de Campo - Moinho da Lapa",
        "tourism": "apartment"
      }
    },
    {
      "type": "Feature",
      "geometry": {
        "type": "Point",
        "coordinates": [
          -7.8116284,
          41.143805
        ]
      },
      "properties": {
        "id": 1230682560,
        "osm_type": "way",
        "name": "Six Senses Douro Valley",
        "tourism": "hotel"
      }
    },
    {
      "type": "Feature",
      "geometry": {
        "type": "Point",
        "coordinates": [
          -7.7968179,
          41.1559149
        ]
      },
      "properties": {
        "id": 1230682612,
        "osm_type": "way",
        "tourism": "guest_house",
        "website": "https://quintadapacheca.com/pages/quinta-da-pacheca-wine-barrels"
      }
    },
    {
      "type": "Feature",
      "geometry": {
        "type": "Point",
        "coordinates": [
          -8.2287218,
          40.7591392
        ]
      },
      "properties": {
        "id": 1232644428,
        "osm_type": "way",
        "name": "Quinta da Né",
        "tourism": "apartment"
      }
    },
    {
      "type": "Feature",
      "geometry": {
        "type": "Point",
        "coordinates": [
          -8.0790616,
          41.0902821
        ]
      },
      "properties": {
        "id": 1246281122,
        "osm_type": "way",
        "name": "Douro Hotel Porto Antigo",
        "tourism": "hotel",
        "phone": "+351 255 560 150",
        "website": "https://www.dourohotelportoantigo.com/"
      }
    },
    {
      "type": "Feature",
      "geometry": {
        "type": "Point",
        "coordinates": [
          -8.2024323,
          40.3514143
        ]
      },
      "properties": {
        "id": 1254208069,
        "osm_type": "way",
        "name": "Hotel Monte Rio Aguieira",
        "tourism": "hotel"
      }
    },
    {
      "type": "Feature",
      "geometry": {
        "type": "Point",
        "coordinates": [
          -7.9054856,
          40.6594604
        ]
      },
      "properties": {
        "id": 1270393475,
        "osm_type": "way",
        "name": "Viseu Executive Hotel",
        "tourism": "hotel"
      }
    },
    {
      "type": "Feature",
      "geometry": {
        "type": "Point",
        "coordinates": [
          -7.8172591,
          40.6875715
        ]
      },
      "properties": {
        "id": 1282471312,
        "osm_type": "way",
        "name": "Quinta das Regueiras",
        "tourism": "apartment",
        "website": "https://quintadasregueiras.com/"
      }
    },
    {
      "type": "Feature",
      "geometry": {
        "type": "Point",
        "coordinates": [
          -8.0422818,
          40.4103226
        ]
      },
      "properties": {
        "id": 1291238050,
        "osm_type": "way",
        "name": "Parque de Campismo - Vitor M. P. Silva",
        "tourism": "camp_site",
        "tents": "yes",
        "phone": "+351232968469",
        "website": "https://camping.vmps.pt/"
      }
    },
    {
      "type": "Feature",
      "geometry": {
        "type": "Point",
        "coordinates": [
          -8.1223687,
          40.3950535
        ]
      },
      "properties": {
        "id": 1298959726,
        "osm_type": "way",
        "name": "Quinta Vale de Palheiros",
        "tourism": "apartment",
        "phone": "+351969957681",
        "website": "https://quintavaledepalheiros.com/"
      }
    },
    {
      "type": "Feature",
      "geometry": {
        "type": "Point",
        "coordinates": [
          -7.9298481,
          40.5398517
        ]
      },
      "properties": {
        "id": 1305132241,
        "osm_type": "way",
        "name": "Moinhos do Pisão",
        "tourism": "apartment",
        "website": "https://moinhospisao.pt/"
      }
    },
    {
      "type": "Feature",
      "geometry": {
        "type": "Point",
        "coordinates": [
          -8.0913872,
          40.7382602
        ]
      },
      "properties": {
        "id": 1313122206,
        "osm_type": "way",
        "name": "Pousada da Juventude",
        "tourism": "hostel"
      }
    },
    {
      "type": "Feature",
      "geometry": {
        "type": "Point",
        "coordinates": [
          -8.0924053,
          40.7378744
        ]
      },
      "properties": {
        "id": 1313122208,
        "osm_type": "way",
        "name": "Hotel Nossa Senhora da Saúde",
        "tourism": "hotel"
      }
    },
    {
      "type": "Feature",
      "geometry": {
        "type": "Point",
        "coordinates": [
          -8.0929676,
          40.740649
        ]
      },
      "properties": {
        "id": 1313123150,
        "osm_type": "way",
        "name": "Pensão David",
        "tourism": "guest_house"
      }
    },
    {
      "type": "Feature",
      "geometry": {
        "type": "Point",
        "coordinates": [
          -7.695595,
          41.1356165
        ]
      },
      "properties": {
        "id": 1348189447,
        "osm_type": "way",
        "name": "Quinta São José do Barrilário - Douro Wine Hotel & Spa",
        "tourism": "hotel",
        "website": "https://barrilario.com/"
      }
    },
    {
      "type": "Feature",
      "geometry": {
        "type": "Point",
        "coordinates": [
          -7.59875,
          40.9661833
        ]
      },
      "properties": {
        "id": 1366865498,
        "osm_type": "way",
        "name": "Hôtel Verdeal",
        "tourism": "hotel"
      }
    },
    {
      "type": "Feature",
      "geometry": {
        "type": "Point",
        "coordinates": [
          -7.8314299,
          41.0635242
        ]
      },
      "properties": {
        "id": 1431399580,
        "osm_type": "way",
        "name": "Casinha da Ti Augusta",
        "tourism": "guest_house"
      }
    },
    {
      "type": "Feature",
      "geometry": {
        "type": "Point",
        "coordinates": [
          -7.8004051,
          41.060201
        ]
      },
      "properties": {
        "id": 1431734894,
        "osm_type": "way",
        "name": "Casa da Quinta da Boavista",
        "tourism": "guest_house"
      }
    },
    {
      "type": "Feature",
      "geometry": {
        "type": "Point",
        "coordinates": [
          -7.7920575,
          41.0634259
        ]
      },
      "properties": {
        "id": 1431806349,
        "osm_type": "way",
        "name": "Residencial Polo Norte",
        "tourism": "guest_house"
      }
    },
    {
      "type": "Feature",
      "geometry": {
        "type": "Point",
        "coordinates": [
          -7.7705528,
          41.0685931
        ]
      },
      "properties": {
        "id": 1431814626,
        "osm_type": "way",
        "tourism": "hotel"
      }
    },
    {
      "type": "Feature",
      "geometry": {
        "type": "Point",
        "coordinates": [
          -7.7644176,
          41.0655224
        ]
      },
      "properties": {
        "id": 1432024522,
        "osm_type": "way",
        "name": "Quinta dos Padres Santos",
        "tourism": "hotel"
      }
    },
    {
      "type": "Feature",
      "geometry": {
        "type": "Point",
        "coordinates": [
          -7.7580994,
          41.0696356
        ]
      },
      "properties": {
        "id": 1432063621,
        "osm_type": "way",
        "name": "Hotel Villa Ildefonso Cascata",
        "tourism": "hotel"
      }
    },
    {
      "type": "Feature",
      "geometry": {
        "type": "Point",
        "coordinates": [
          -7.7453026,
          41.0636275
        ]
      },
      "properties": {
        "id": 1432148384,
        "osm_type": "way",
        "name": "Turismo Rural Cascata do Varosa",
        "tourism": "guest_house"
      }
    },
    {
      "type": "Feature",
      "geometry": {
        "type": "Point",
        "coordinates": [
          -7.7330451,
          41.1045402
        ]
      },
      "properties": {
        "id": 1432445246,
        "osm_type": "way",
        "name": "Quinta da Barroca",
        "tourism": "hotel"
      }
    },
    {
      "type": "Feature",
      "geometry": {
        "type": "Point",
        "coordinates": [
          -7.724489,
          41.1084549
        ]
      },
      "properties": {
        "id": 1432505889,
        "osm_type": "way",
        "tourism": "guest_house"
      }
    },
    {
      "type": "Feature",
      "geometry": {
        "type": "Point",
        "coordinates": [
          -7.7249647,
          41.1083048
        ]
      },
      "properties": {
        "id": 1432505892,
        "osm_type": "way",
        "name": "Quinta do Olival",
        "tourism": "guest_house"
      }
    },
    {
      "type": "Feature",
      "geometry": {
        "type": "Point",
        "coordinates": [
          -7.7110096,
          41.1072199
        ]
      },
      "properties": {
        "id": 1432594498,
        "osm_type": "way",
        "name": "Quinta dos Morangueiros",
        "tourism": "guest_house"
      }
    },
    {
      "type": "Feature",
      "geometry": {
        "type": "Point",
        "coordinates": [
          -7.7109382,
          41.1072061
        ]
      },
      "properties": {
        "id": 1432594499,
        "osm_type": "way",
        "name": "Quinta dos Morangueiros",
        "tourism": "guest_house"
      }
    },
    {
      "type": "Feature",
      "geometry": {
        "type": "Point",
        "coordinates": [
          -7.720381,
          41.1134392
        ]
      },
      "properties": {
        "id": 1432670410,
        "osm_type": "way",
        "name": "Casa do Cruzeiro - Quinta do Couto",
        "tourism": "guest_house"
      }
    },
    {
      "type": "Feature",
      "geometry": {
        "type": "Point",
        "coordinates": [
          -7.7189152,
          41.111604
        ]
      },
      "properties": {
        "id": 1432756687,
        "osm_type": "way",
        "name": "Casa da Capela",
        "tourism": "guest_house"
      }
    },
    {
      "type": "Feature",
      "geometry": {
        "type": "Point",
        "coordinates": [
          -7.7177374,
          41.1122605
        ]
      },
      "properties": {
        "id": 1432865736,
        "osm_type": "way",
        "tourism": "guest_house"
      }
    },
    {
      "type": "Feature",
      "geometry": {
        "type": "Point",
        "coordinates": [
          -7.7179021,
          41.1123357
        ]
      },
      "properties": {
        "id": 1432865738,
        "osm_type": "way",
        "tourism": "guest_house"
      }
    },
    {
      "type": "Feature",
      "geometry": {
        "type": "Point",
        "coordinates": [
          -7.7177328,
          41.1123767
        ]
      },
      "properties": {
        "id": 1432865743,
        "osm_type": "way",
        "name": "Casa da Avó",
        "tourism": "guest_house"
      }
    },
    {
      "type": "Feature",
      "geometry": {
        "type": "Point",
        "coordinates": [
          -7.7174289,
          41.1184255
        ]
      },
      "properties": {
        "id": 1433073448,
        "osm_type": "way",
        "name": "Quinta do Gato",
        "tourism": "guest_house"
      }
    },
    {
      "type": "Feature",
      "geometry": {
        "type": "Point",
        "coordinates": [
          -7.7209785,
          41.116939
        ]
      },
      "properties": {
        "id": 1433153372,
        "osm_type": "way",
        "name": "Quinta do Outono",
        "tourism": "guest_house"
      }
    },
    {
      "type": "Feature",
      "geometry": {
        "type": "Point",
        "coordinates": [
          -7.7209662,
          41.1169433
        ]
      },
      "properties": {
        "id": 1433153381,
        "osm_type": "way",
        "name": "Quinta do Outono",
        "tourism": "guest_house"
      }
    },
    {
      "type": "Feature",
      "geometry": {
        "type": "Point",
        "coordinates": [
          -7.7165396,
          41.1179437
        ]
      },
      "properties": {
        "id": 1433159391,
        "osm_type": "way",
        "name": "Casa São Miguel Douro",
        "tourism": "guest_house"
      }
    },
    {
      "type": "Feature",
      "geometry": {
        "type": "Point",
        "coordinates": [
          -7.7158407,
          41.1173192
        ]
      },
      "properties": {
        "id": 1433159392,
        "osm_type": "way",
        "name": "Melro Cottage House",
        "tourism": "guest_house"
      }
    },
    {
      "type": "Feature",
      "geometry": {
        "type": "Point",
        "coordinates": [
          -7.7205526,
          41.1133765
        ]
      },
      "properties": {
        "id": 1433190389,
        "osm_type": "way",
        "name": "Casa do Cruzeiro - Quinta do Couto",
        "tourism": "guest_house"
      }
    },
    {
      "type": "Feature",
      "geometry": {
        "type": "Point",
        "coordinates": [
          -7.712285,
          41.1132476
        ]
      },
      "properties": {
        "id": 1433296403,
        "osm_type": "way",
        "name": "Quinta da Pereira",
        "tourism": "guest_house"
      }
    },
    {
      "type": "Feature",
      "geometry": {
        "type": "Point",
        "coordinates": [
          -7.7293876,
          41.11878
        ]
      },
      "properties": {
        "id": 1433420806,
        "osm_type": "way",
        "name": "Douro Feels Like Home",
        "tourism": "guest_house"
      }
    },
    {
      "type": "Feature",
      "geometry": {
        "type": "Point",
        "coordinates": [
          -7.7321985,
          41.1231792
        ]
      },
      "properties": {
        "id": 1433896166,
        "osm_type": "way",
        "name": "Fontelo House",
        "tourism": "guest_house"
      }
    },
    {
      "type": "Feature",
      "geometry": {
        "type": "Point",
        "coordinates": [
          -7.72458,
          41.1214578
        ]
      },
      "properties": {
        "id": 1434647139,
        "osm_type": "way",
        "name": "Quinta do Cedro Azul",
        "tourism": "guest_house"
      }
    },
    {
      "type": "Feature",
      "geometry": {
        "type": "Point",
        "coordinates": [
          -7.7250128,
          41.1213097
        ]
      },
      "properties": {
        "id": 1434647142,
        "osm_type": "way",
        "name": "Quinta do Cedro Verde",
        "tourism": "guest_house"
      }
    },
    {
      "type": "Feature",
      "geometry": {
        "type": "Point",
        "coordinates": [
          -8.1191357,
          40.9019771
        ]
      },
      "properties": {
        "id": 1444759925,
        "osm_type": "way",
        "name": "Casa de Fragoselas",
        "tourism": "chalet"
      }
    },
    {
      "type": "Feature",
      "geometry": {
        "type": "Point",
        "coordinates": [
          -8.1216037,
          40.9287534
        ]
      },
      "properties": {
        "id": 1444793388,
        "osm_type": "way",
        "name": "Casa dos Avós 23",
        "tourism": "chalet"
      }
    },
    {
      "type": "Feature",
      "geometry": {
        "type": "Point",
        "coordinates": [
          -8.0394534,
          40.406721
        ]
      },
      "properties": {
        "id": 1454171244,
        "osm_type": "way",
        "tourism": "caravan_site",
        "website": "https://www.vale-do-fojo.com/camperplaatsen"
      }
    },
    {
      "type": "Feature",
      "geometry": {
        "type": "Point",
        "coordinates": [
          -7.6482985,
          41.1539722
        ]
      },
      "properties": {
        "id": 1456115845,
        "osm_type": "way",
        "name": "Vila Galé Douro Vineyards",
        "tourism": "hotel",
        "website": "https://www.vilagale.com"
      }
    },
    {
      "type": "Feature",
      "geometry": {
        "type": "Point",
        "coordinates": [
          -7.9214943,
          40.6731128
        ]
      },
      "properties": {
        "id": 10559559,
        "osm_type": "relation",
        "name": "Hotel Durão",
        "tourism": "hotel"
      }
    },
    {
      "type": "Feature",
      "geometry": {
        "type": "Point",
        "coordinates": [
          -7.7431209,
          40.6113339
        ]
      },
      "properties": {
        "id": 11340156,
        "osm_type": "relation",
        "tourism": "hotel"
      }
    },
    {
      "type": "Feature",
      "geometry": {
        "type": "Point",
        "coordinates": [
          -7.9100738,
          40.6621449
        ]
      },
      "properties": {
        "id": 13360797,
        "osm_type": "relation",
        "name": "Hotel Solar dos Pais",
        "tourism": "hotel"
      }
    },
    {
      "type": "Feature",
      "geometry": {
        "type": "Point",
        "coordinates": [
          -7.9550519,
          41.118127
        ]
      },
      "properties": {
        "id": 14554885,
        "osm_type": "relation",
        "name": "Casa da Figueira Velha",
        "tourism": "guest_house"
      }
    }
  ]
}