{
  "type": "FeatureCollection",
  "features": [
    {
      "type": "Feature",
      "geometry": {
        "type": "Point",
        "coordinates": [
          27.9620494,
          45.2631364
        ]
      },
      "properties": {
        "id": 367564380,
        "osm_type": "node",
        "name": "Taverna balcanică",
        "tourism": "hotel"
      }
    },
    {
      "type": "Feature",
      "geometry": {
        "type": "Point",
        "coordinates": [
          27.970545,
          45.2720736
        ]
      },
      "properties": {
        "id": 367611599,
        "osm_type": "node",
        "name": "Hotel Korona",
        "tourism": "hotel"
      }
    },
    {
      "type": "Feature",
      "geometry": {
        "type": "Point",
        "coordinates": [
          27.9747369,
          45.273106
        ]
      },
      "properties": {
        "id": 367648983,
        "osm_type": "node",
        "name": "Hotel Sport",
        "tourism": "hotel"
      }
    },
    {
      "type": "Feature",
      "geometry": {
        "type": "Point",
        "coordinates": [
          27.9736088,
          45.2728926
        ]
      },
      "properties": {
        "id": 369052175,
        "osm_type": "node",
        "name": "Hotel LMS",
        "tourism": "hotel"
      }
    },
    {
      "type": "Feature",
      "geometry": {
        "type": "Point",
        "coordinates": [
          27.9736941,
          45.2699243
        ]
      },
      "properties": {
        "id": 2188846832,
        "osm_type": "node",
        "name": "Hotel Paris",
        "tourism": "hotel"
      }
    },
    {
      "type": "Feature",
      "geometry": {
        "type": "Point",
        "coordinates": [
          27.9673153,
          45.2638223
        ]
      },
      "properties": {
        "id": 2192276129,
        "osm_type": "node",
        "name": "Hotel Tineret",
        "tourism": "hotel"
      }
    },
    {
      "type": "Feature",
      "geometry": {
        "type": "Point",
        "coordinates": [
          27.9769182,
          45.2702341
        ]
      },
      "properties": {
        "id": 2193058219,
        "osm_type": "node",
        "name": "Hotel Grand Orient",
        "tourism": "hotel"
      }
    },
    {
      "type": "Feature",
      "geometry": {
        "type": "Point",
        "coordinates": [
          27.9704677,
          45.2716153
        ]
      },
      "properties": {
        "id": 2193085954,
        "osm_type": "node",
        "name": "Hotel Regal",
        "tourism": "hotel",
        "phone": "+40239619650",
        "website": "https://www.hotelregalbraila.ro/",
        "check_date": "2026-02-17"
      }
    },
    {
      "type": "Feature",
      "geometry": {
        "type": "Point",
        "coordinates": [
          27.9710788,
          45.261797
        ]
      },
      "properties": {
        "id": 2193090829,
        "osm_type": "node",
        "name": "Hotel plutitor Camelia",
        "tourism": "hotel",
        "opening_hours": "24/7",
        "phone": "+40 734 068 431",
        "website": "https://www.hotelcamelia.ro/"
      }
    },
    {
      "type": "Feature",
      "geometry": {
        "type": "Point",
        "coordinates": [
          27.8663338,
          45.1630206
        ]
      },
      "properties": {
        "id": 2193173754,
        "osm_type": "node",
        "name": "Hotel LB Albina",
        "tourism": "hotel"
      }
    },
    {
      "type": "Feature",
      "geometry": {
        "type": "Point",
        "coordinates": [
          27.9550638,
          45.274136
        ]
      },
      "properties": {
        "id": 2844975129,
        "osm_type": "node",
        "name": "Motel Adriano",
        "tourism": "motel"
      }
    },
    {
      "type": "Feature",
      "geometry": {
        "type": "Point",
        "coordinates": [
          27.9506391,
          45.2588717
        ]
      },
      "properties": {
        "id": 4359141797,
        "osm_type": "node",
        "name": "Reset Club",
        "tourism": "hotel"
      }
    },
    {
      "type": "Feature",
      "geometry": {
        "type": "Point",
        "coordinates": [
          27.9612727,
          45.2809868
        ]
      },
      "properties": {
        "id": 4371837900,
        "osm_type": "node",
        "name": "ориент",
        "tourism": "hotel"
      }
    },
    {
      "type": "Feature",
      "geometry": {
        "type": "Point",
        "coordinates": [
          27.971893,
          45.2706435
        ]
      },
      "properties": {
        "id": 4977665924,
        "osm_type": "node",
        "tourism": "hotel"
      }
    },
    {
      "type": "Feature",
      "geometry": {
        "type": "Point",
        "coordinates": [
          27.9232361,
          45.2151089
        ]
      },
      "properties": {
        "id": 5777967353,
        "osm_type": "node",
        "name": "Camping donaris",
        "tourism": "camp_site"
      }
    },
    {
      "type": "Feature",
      "geometry": {
        "type": "Point",
        "coordinates": [
          27.5596813,
          45.1410499
        ]
      },
      "properties": {
        "id": 6897195197,
        "osm_type": "node",
        "name": "Popas Baragan",
        "tourism": "motel"
      }
    },
    {
      "type": "Feature",
      "geometry": {
        "type": "Point",
        "coordinates": [
          27.9387319,
          45.2485447
        ]
      },
      "properties": {
        "id": 6937613985,
        "osm_type": "node",
        "name": "B20",
        "tourism": "apartment"
      }
    },
    {
      "type": "Feature",
      "geometry": {
        "type": "Point",
        "coordinates": [
          27.953544,
          45.2657325
        ]
      },
      "properties": {
        "id": 7116639785,
        "osm_type": "node",
        "tourism": "chalet"
      }
    },
    {
      "type": "Feature",
      "geometry": {
        "type": "Point",
        "coordinates": [
          27.9600939,
          45.2597888
        ]
      },
      "properties": {
        "id": 7503442294,
        "osm_type": "node",
        "name": "Sc3",
        "tourism": "apartment"
      }
    },
    {
      "type": "Feature",
      "geometry": {
        "type": "Point",
        "coordinates": [
          27.9600622,
          45.2593228
        ]
      },
      "properties": {
        "id": 7503525285,
        "osm_type": "node",
        "name": "Sc1",
        "tourism": "apartment"
      }
    },
    {
      "type": "Feature",
      "geometry": {
        "type": "Point",
        "coordinates": [
          27.9457089,
          45.2441373
        ]
      },
      "properties": {
        "id": 7510509685,
        "osm_type": "node",
        "name": "Sc4",
        "tourism": "apartment"
      }
    },
    {
      "type": "Feature",
      "geometry": {
        "type": "Point",
        "coordinates": [
          27.9464437,
          45.2448294
        ]
      },
      "properties": {
        "id": 7510750386,
        "osm_type": "node",
        "name": "Sc3",
        "tourism": "apartment"
      }
    },
    {
      "type": "Feature",
      "geometry": {
        "type": "Point",
        "coordinates": [
          27.9440391,
          45.2454275
        ]
      },
      "properties": {
        "id": 7510753686,
        "osm_type": "node",
        "name": "Sc4",
        "tourism": "apartment"
      }
    },
    {
      "type": "Feature",
      "geometry": {
        "type": "Point",
        "coordinates": [
          27.9447747,
          45.2450718
        ]
      },
      "properties": {
        "id": 7510768185,
        "osm_type": "node",
        "name": "Sc1",
        "tourism": "apartment"
      }
    },
    {
      "type": "Feature",
      "geometry": {
        "type": "Point",
        "coordinates": [
          27.957902,
          45.2501767
        ]
      },
      "properties": {
        "id": 7511261585,
        "osm_type": "node",
        "name": "Sc1",
        "tourism": "apartment"
      }
    },
    {
      "type": "Feature",
      "geometry": {
        "type": "Point",
        "coordinates": [
          27.9581371,
          45.2708515
        ]
      },
      "properties": {
        "id": 7511794685,
        "osm_type": "node",
        "name": "Sc1",
        "tourism": "apartment"
      }
    },
    {
      "type": "Feature",
      "geometry": {
        "type": "Point",
        "coordinates": [
          27.9664826,
          45.3027052
        ]
      },
      "properties": {
        "id": 7511835185,
        "osm_type": "node",
        "name": "Sc1",
        "tourism": "apartment"
      }
    },
    {
      "type": "Feature",
      "geometry": {
        "type": "Point",
        "coordinates": [
          27.9675162,
          45.2949747
        ]
      },
      "properties": {
        "id": 7512247386,
        "osm_type": "node",
        "name": "Sc1",
        "tourism": "apartment"
      }
    },
    {
      "type": "Feature",
      "geometry": {
        "type": "Point",
        "coordinates": [
          27.9413181,
          45.2495038
        ]
      },
      "properties": {
        "id": 7514272985,
        "osm_type": "node",
        "name": "Sc3",
        "tourism": "apartment"
      }
    },
    {
      "type": "Feature",
      "geometry": {
        "type": "Point",
        "coordinates": [
          27.9409455,
          45.2490836
        ]
      },
      "properties": {
        "id": 7514272986,
        "osm_type": "node",
        "name": "Sc1",
        "tourism": "apartment"
      }
    },
    {
      "type": "Feature",
      "geometry": {
        "type": "Point",
        "coordinates": [
          27.9411326,
          45.2492834
        ]
      },
      "properties": {
        "id": 7514272987,
        "osm_type": "node",
        "name": "Sc2",
        "tourism": "apartment"
      }
    },
    {
      "type": "Feature",
      "geometry": {
        "type": "Point",
        "coordinates": [
          27.9350077,
          45.2471684
        ]
      },
      "properties": {
        "id": 7515145589,
        "osm_type": "node",
        "name": "Sc2",
        "tourism": "apartment"
      }
    },
    {
      "type": "Feature",
      "geometry": {
        "type": "Point",
        "coordinates": [
          27.934769,
          45.2468638
        ]
      },
      "properties": {
        "id": 7515159285,
        "osm_type": "node",
        "name": "A30Bis sc1",
        "tourism": "apartment"
      }
    },
    {
      "type": "Feature",
      "geometry": {
        "type": "Point",
        "coordinates": [
          27.9567894,
          45.2513109
        ]
      },
      "properties": {
        "id": 7515357185,
        "osm_type": "node",
        "name": "Sc1",
        "tourism": "apartment"
      }
    },
    {
      "type": "Feature",
      "geometry": {
        "type": "Point",
        "coordinates": [
          27.9653087,
          45.2597608
        ]
      },
      "properties": {
        "id": 7515425185,
        "osm_type": "node",
        "name": "Sc1",
        "tourism": "apartment"
      }
    },
    {
      "type": "Feature",
      "geometry": {
        "type": "Point",
        "coordinates": [
          27.9654961,
          45.260142
        ]
      },
      "properties": {
        "id": 7515425186,
        "osm_type": "node",
        "name": "F1 sc1",
        "tourism": "apartment"
      }
    },
    {
      "type": "Feature",
      "geometry": {
        "type": "Point",
        "coordinates": [
          27.9359604,
          45.2453632
        ]
      },
      "properties": {
        "id": 7515464885,
        "osm_type": "node",
        "name": "Sc3",
        "tourism": "apartment"
      }
    },
    {
      "type": "Feature",
      "geometry": {
        "type": "Point",
        "coordinates": [
          27.9495479,
          45.245503
        ]
      },
      "properties": {
        "id": 7515522685,
        "osm_type": "node",
        "name": "Sc1",
        "tourism": "apartment"
      }
    },
    {
      "type": "Feature",
      "geometry": {
        "type": "Point",
        "coordinates": [
          27.9600045,
          45.2809288
        ]
      },
      "properties": {
        "id": 7517386085,
        "osm_type": "node",
        "name": "Sc3",
        "tourism": "apartment"
      }
    },
    {
      "type": "Feature",
      "geometry": {
        "type": "Point",
        "coordinates": [
          27.9435021,
          45.2449896
        ]
      },
      "properties": {
        "id": 7517386185,
        "osm_type": "node",
        "name": "Sc4",
        "tourism": "apartment"
      }
    },
    {
      "type": "Feature",
      "geometry": {
        "type": "Point",
        "coordinates": [
          27.9500852,
          45.2510806
        ]
      },
      "properties": {
        "id": 7518803685,
        "osm_type": "node",
        "name": "Sc5",
        "tourism": "apartment"
      }
    },
    {
      "type": "Feature",
      "geometry": {
        "type": "Point",
        "coordinates": [
          27.9647142,
          45.3002524
        ]
      },
      "properties": {
        "id": 7518868685,
        "osm_type": "node",
        "name": "Sc4",
        "tourism": "apartment"
      }
    },
    {
      "type": "Feature",
      "geometry": {
        "type": "Point",
        "coordinates": [
          27.9494331,
          45.2503118
        ]
      },
      "properties": {
        "id": 7522205585,
        "osm_type": "node",
        "name": "Sc1",
        "tourism": "apartment"
      }
    },
    {
      "type": "Feature",
      "geometry": {
        "type": "Point",
        "coordinates": [
          27.9509253,
          45.250154
        ]
      },
      "properties": {
        "id": 7523914385,
        "osm_type": "node",
        "name": "Sc3",
        "tourism": "apartment"
      }
    },
    {
      "type": "Feature",
      "geometry": {
        "type": "Point",
        "coordinates": [
          27.9505611,
          45.2498134
        ]
      },
      "properties": {
        "id": 7523914485,
        "osm_type": "node",
        "name": "Sc1",
        "tourism": "apartment"
      }
    },
    {
      "type": "Feature",
      "geometry": {
        "type": "Point",
        "coordinates": [
          27.9463547,
          45.2415086
        ]
      },
      "properties": {
        "id": 7523914585,
        "osm_type": "node",
        "name": "Sc4",
        "tourism": "apartment"
      }
    },
    {
      "type": "Feature",
      "geometry": {
        "type": "Point",
        "coordinates": [
          27.9497683,
          45.2469523
        ]
      },
      "properties": {
        "id": 7525877491,
        "osm_type": "node",
        "name": "Sc1",
        "tourism": "apartment"
      }
    },
    {
      "type": "Feature",
      "geometry": {
        "type": "Point",
        "coordinates": [
          27.9469982,
          45.2482643
        ]
      },
      "properties": {
        "id": 7526592286,
        "osm_type": "node",
        "name": "Sc1",
        "tourism": "apartment"
      }
    },
    {
      "type": "Feature",
      "geometry": {
        "type": "Point",
        "coordinates": [
          27.9474839,
          45.2432906
        ]
      },
      "properties": {
        "id": 7531736285,
        "osm_type": "node",
        "name": "Sc4",
        "tourism": "apartment"
      }
    },
    {
      "type": "Feature",
      "geometry": {
        "type": "Point",
        "coordinates": [
          27.9560222,
          45.2727954
        ]
      },
      "properties": {
        "id": 7538139285,
        "osm_type": "node",
        "name": "Sc1",
        "tourism": "apartment"
      }
    },
    {
      "type": "Feature",
      "geometry": {
        "type": "Point",
        "coordinates": [
          27.9513328,
          45.2505093
        ]
      },
      "properties": {
        "id": 7542097885,
        "osm_type": "node",
        "name": "Sc4",
        "tourism": "apartment"
      }
    },
    {
      "type": "Feature",
      "geometry": {
        "type": "Point",
        "coordinates": [
          27.9466906,
          45.2457722
        ]
      },
      "properties": {
        "id": 7544618285,
        "osm_type": "node",
        "name": "Sc1",
        "tourism": "apartment"
      }
    },
    {
      "type": "Feature",
      "geometry": {
        "type": "Point",
        "coordinates": [
          27.9618021,
          45.2581624
        ]
      },
      "properties": {
        "id": 7548338186,
        "osm_type": "node",
        "name": "Sc1",
        "tourism": "apartment"
      }
    },
    {
      "type": "Feature",
      "geometry": {
        "type": "Point",
        "coordinates": [
          27.9615277,
          45.2581213
        ]
      },
      "properties": {
        "id": 7548356985,
        "osm_type": "node",
        "name": "Sc2",
        "tourism": "apartment"
      }
    },
    {
      "type": "Feature",
      "geometry": {
        "type": "Point",
        "coordinates": [
          27.9498967,
          45.250623
        ]
      },
      "properties": {
        "id": 7548382085,
        "osm_type": "node",
        "name": "Sc3",
        "tourism": "apartment"
      }
    },
    {
      "type": "Feature",
      "geometry": {
        "type": "Point",
        "coordinates": [
          27.950258,
          45.2503482
        ]
      },
      "properties": {
        "id": 7552284885,
        "osm_type": "node",
        "name": "Sc4",
        "tourism": "apartment"
      }
    },
    {
      "type": "Feature",
      "geometry": {
        "type": "Point",
        "coordinates": [
          27.9440095,
          45.2429129
        ]
      },
      "properties": {
        "id": 7560540885,
        "osm_type": "node",
        "name": "Sc1",
        "tourism": "apartment"
      }
    },
    {
      "type": "Feature",
      "geometry": {
        "type": "Point",
        "coordinates": [
          27.9470147,
          45.2456285
        ]
      },
      "properties": {
        "id": 7591545289,
        "osm_type": "node",
        "name": "Sc4",
        "tourism": "apartment"
      }
    },
    {
      "type": "Feature",
      "geometry": {
        "type": "Point",
        "coordinates": [
          27.9653867,
          45.3021625
        ]
      },
      "properties": {
        "id": 7602133485,
        "osm_type": "node",
        "name": "Sc1",
        "tourism": "apartment"
      }
    },
    {
      "type": "Feature",
      "geometry": {
        "type": "Point",
        "coordinates": [
          27.9419413,
          45.2418542
        ]
      },
      "properties": {
        "id": 7606209385,
        "osm_type": "node",
        "name": "Sc2",
        "tourism": "apartment"
      }
    },
    {
      "type": "Feature",
      "geometry": {
        "type": "Point",
        "coordinates": [
          27.939902,
          45.2500565
        ]
      },
      "properties": {
        "id": 7612527085,
        "osm_type": "node",
        "name": "Sc2",
        "tourism": "apartment"
      }
    },
    {
      "type": "Feature",
      "geometry": {
        "type": "Point",
        "coordinates": [
          27.9382251,
          45.2500038
        ]
      },
      "properties": {
        "id": 7617805090,
        "osm_type": "node",
        "name": "Sc1",
        "tourism": "apartment"
      }
    },
    {
      "type": "Feature",
      "geometry": {
        "type": "Point",
        "coordinates": [
          27.9447338,
          45.2479912
        ]
      },
      "properties": {
        "id": 7618467686,
        "osm_type": "node",
        "name": "Sc1",
        "tourism": "apartment"
      }
    },
    {
      "type": "Feature",
      "geometry": {
        "type": "Point",
        "coordinates": [
          27.9467089,
          45.2469534
        ]
      },
      "properties": {
        "id": 7620053588,
        "osm_type": "node",
        "name": "Sc1",
        "tourism": "apartment"
      }
    },
    {
      "type": "Feature",
      "geometry": {
        "type": "Point",
        "coordinates": [
          27.9417485,
          45.2442074
        ]
      },
      "properties": {
        "id": 7622888185,
        "osm_type": "node",
        "name": "Sc5",
        "tourism": "apartment"
      }
    },
    {
      "type": "Feature",
      "geometry": {
        "type": "Point",
        "coordinates": [
          27.9016985,
          45.1638566
        ]
      },
      "properties": {
        "id": 7632242709,
        "osm_type": "node",
        "name": "Balta Albina",
        "tourism": "hotel",
        "website": "http://pescuit-braila.ro/"
      }
    },
    {
      "type": "Feature",
      "geometry": {
        "type": "Point",
        "coordinates": [
          27.943019,
          45.245905
        ]
      },
      "properties": {
        "id": 7645561809,
        "osm_type": "node",
        "name": "Sc5",
        "tourism": "apartment"
      }
    },
    {
      "type": "Feature",
      "geometry": {
        "type": "Point",
        "coordinates": [
          28.1221496,
          44.8968937
        ]
      },
      "properties": {
        "id": 7730986708,
        "osm_type": "node",
        "name": "Pensiune Pescareasca",
        "tourism": "motel"
      }
    },
    {
      "type": "Feature",
      "geometry": {
        "type": "Point",
        "coordinates": [
          27.9640946,
          45.2717069
        ]
      },
      "properties": {
        "id": 7731115985,
        "osm_type": "node",
        "name": "ScA",
        "tourism": "apartment"
      }
    },
    {
      "type": "Feature",
      "geometry": {
        "type": "Point",
        "coordinates": [
          27.9657565,
          44.8354457
        ]
      },
      "properties": {
        "id": 7737964105,
        "osm_type": "node",
        "name": "Old Fane's Lodge",
        "tourism": "guest_house",
        "website": "https://www.lamosfane.ro/"
      }
    },
    {
      "type": "Feature",
      "geometry": {
        "type": "Point",
        "coordinates": [
          27.9667587,
          45.2948597
        ]
      },
      "properties": {
        "id": 7776270385,
        "osm_type": "node",
        "name": "Sc1",
        "tourism": "apartment"
      }
    },
    {
      "type": "Feature",
      "geometry": {
        "type": "Point",
        "coordinates": [
          27.963869,
          45.3034869
        ]
      },
      "properties": {
        "id": 7786847786,
        "osm_type": "node",
        "name": "Sc1",
        "tourism": "apartment"
      }
    },
    {
      "type": "Feature",
      "geometry": {
        "type": "Point",
        "coordinates": [
          27.9635619,
          45.3042767
        ]
      },
      "properties": {
        "id": 7786847787,
        "osm_type": "node",
        "name": "Sc5",
        "tourism": "apartment"
      }
    },
    {
      "type": "Feature",
      "geometry": {
        "type": "Point",
        "coordinates": [
          27.9551117,
          45.2583102
        ]
      },
      "properties": {
        "id": 7794355585,
        "osm_type": "node",
        "name": "Sc5",
        "tourism": "apartment"
      }
    },
    {
      "type": "Feature",
      "geometry": {
        "type": "Point",
        "coordinates": [
          27.949231,
          45.246934
        ]
      },
      "properties": {
        "id": 7796514387,
        "osm_type": "node",
        "name": "Sc1",
        "tourism": "apartment"
      }
    },
    {
      "type": "Feature",
      "geometry": {
        "type": "Point",
        "coordinates": [
          27.9460172,
          45.2483117
        ]
      },
      "properties": {
        "id": 7806870385,
        "osm_type": "node",
        "name": "Sc1",
        "tourism": "apartment"
      }
    },
    {
      "type": "Feature",
      "geometry": {
        "type": "Point",
        "coordinates": [
          27.9515381,
          45.2504119
        ]
      },
      "properties": {
        "id": 7814790285,
        "osm_type": "node",
        "name": "Sc1",
        "tourism": "apartment"
      }
    },
    {
      "type": "Feature",
      "geometry": {
        "type": "Point",
        "coordinates": [
          27.9453868,
          45.2483139
        ]
      },
      "properties": {
        "id": 7814859585,
        "osm_type": "node",
        "name": "Sc1",
        "tourism": "apartment"
      }
    },
    {
      "type": "Feature",
      "geometry": {
        "type": "Point",
        "coordinates": [
          27.9647431,
          45.2704336
        ]
      },
      "properties": {
        "id": 7887219385,
        "osm_type": "node",
        "name": "Bl F sc1",
        "tourism": "apartment"
      }
    },
    {
      "type": "Feature",
      "geometry": {
        "type": "Point",
        "coordinates": [
          27.9617933,
          45.2615368
        ]
      },
      "properties": {
        "id": 7887230185,
        "osm_type": "node",
        "name": "Sc3",
        "tourism": "apartment"
      }
    },
    {
      "type": "Feature",
      "geometry": {
        "type": "Point",
        "coordinates": [
          27.9438468,
          45.2437521
        ]
      },
      "properties": {
        "id": 7906193385,
        "osm_type": "node",
        "name": "Sc1",
        "tourism": "apartment"
      }
    },
    {
      "type": "Feature",
      "geometry": {
        "type": "Point",
        "coordinates": [
          27.9412227,
          45.2501229
        ]
      },
      "properties": {
        "id": 7920952186,
        "osm_type": "node",
        "name": "Sc1",
        "tourism": "apartment"
      }
    },
    {
      "type": "Feature",
      "geometry": {
        "type": "Point",
        "coordinates": [
          27.9483242,
          45.2457678
        ]
      },
      "properties": {
        "id": 8016558891,
        "osm_type": "node",
        "name": "Sc4",
        "tourism": "apartment"
      }
    },
    {
      "type": "Feature",
      "geometry": {
        "type": "Point",
        "coordinates": [
          27.9712494,
          45.2869598
        ]
      },
      "properties": {
        "id": 8077741130,
        "osm_type": "node",
        "name": "Sc1",
        "tourism": "apartment"
      }
    },
    {
      "type": "Feature",
      "geometry": {
        "type": "Point",
        "coordinates": [
          27.9433393,
          45.2463798
        ]
      },
      "properties": {
        "id": 8084869023,
        "osm_type": "node",
        "name": "Sc1",
        "tourism": "apartment"
      }
    },
    {
      "type": "Feature",
      "geometry": {
        "type": "Point",
        "coordinates": [
          27.9386552,
          45.2453657
        ]
      },
      "properties": {
        "id": 8143515017,
        "osm_type": "node",
        "name": "Sc1",
        "tourism": "apartment"
      }
    },
    {
      "type": "Feature",
      "geometry": {
        "type": "Point",
        "coordinates": [
          27.9529692,
          45.2608552
        ]
      },
      "properties": {
        "id": 8165130717,
        "osm_type": "node",
        "name": "Sc1",
        "tourism": "apartment"
      }
    },
    {
      "type": "Feature",
      "geometry": {
        "type": "Point",
        "coordinates": [
          27.9534019,
          45.2655757
        ]
      },
      "properties": {
        "id": 8173770117,
        "osm_type": "node",
        "name": "Sc1",
        "tourism": "apartment"
      }
    },
    {
      "type": "Feature",
      "geometry": {
        "type": "Point",
        "coordinates": [
          27.9561792,
          45.2720274
        ]
      },
      "properties": {
        "id": 8174132717,
        "osm_type": "node",
        "name": "Sc1",
        "tourism": "apartment"
      }
    },
    {
      "type": "Feature",
      "geometry": {
        "type": "Point",
        "coordinates": [
          27.9399019,
          45.2484956
        ]
      },
      "properties": {
        "id": 8174593917,
        "osm_type": "node",
        "name": "Sc1",
        "tourism": "apartment"
      }
    },
    {
      "type": "Feature",
      "geometry": {
        "type": "Point",
        "coordinates": [
          27.9499884,
          45.2516874
        ]
      },
      "properties": {
        "id": 8190995318,
        "osm_type": "node",
        "name": "Sc1",
        "tourism": "apartment"
      }
    },
    {
      "type": "Feature",
      "geometry": {
        "type": "Point",
        "coordinates": [
          27.9492771,
          45.250931
        ]
      },
      "properties": {
        "id": 8191051417,
        "osm_type": "node",
        "name": "Sc5",
        "tourism": "apartment"
      }
    },
    {
      "type": "Feature",
      "geometry": {
        "type": "Point",
        "coordinates": [
          27.9436312,
          45.2414389
        ]
      },
      "properties": {
        "id": 8191661417,
        "osm_type": "node",
        "name": "Sc1",
        "tourism": "apartment"
      }
    },
    {
      "type": "Feature",
      "geometry": {
        "type": "Point",
        "coordinates": [
          27.9441351,
          45.2460838
        ]
      },
      "properties": {
        "id": 8197054117,
        "osm_type": "node",
        "name": "Sc1",
        "tourism": "apartment"
      }
    },
    {
      "type": "Feature",
      "geometry": {
        "type": "Point",
        "coordinates": [
          27.9664551,
          45.2985937
        ]
      },
      "properties": {
        "id": 8198954717,
        "osm_type": "node",
        "name": "Sc3",
        "tourism": "apartment"
      }
    },
    {
      "type": "Feature",
      "geometry": {
        "type": "Point",
        "coordinates": [
          27.9510492,
          45.2600593
        ]
      },
      "properties": {
        "id": 8203085117,
        "osm_type": "node",
        "name": "Sc1",
        "tourism": "apartment"
      }
    },
    {
      "type": "Feature",
      "geometry": {
        "type": "Point",
        "coordinates": [
          27.9661599,
          45.2988991
        ]
      },
      "properties": {
        "id": 8220149317,
        "osm_type": "node",
        "name": "Sc5",
        "tourism": "apartment"
      }
    },
    {
      "type": "Feature",
      "geometry": {
        "type": "Point",
        "coordinates": [
          27.9532267,
          45.2706824
        ]
      },
      "properties": {
        "id": 8221824817,
        "osm_type": "node",
        "name": "Sc1",
        "tourism": "apartment"
      }
    },
    {
      "type": "Feature",
      "geometry": {
        "type": "Point",
        "coordinates": [
          27.964131,
          45.2609962
        ]
      },
      "properties": {
        "id": 8240388817,
        "osm_type": "node",
        "name": "Sc1",
        "tourism": "apartment"
      }
    },
    {
      "type": "Feature",
      "geometry": {
        "type": "Point",
        "coordinates": [
          27.9573282,
          45.2717981
        ]
      },
      "properties": {
        "id": 8242581417,
        "osm_type": "node",
        "name": "Sc B",
        "tourism": "apartment"
      }
    },
    {
      "type": "Feature",
      "geometry": {
        "type": "Point",
        "coordinates": [
          27.9424895,
          45.2449992
        ]
      },
      "properties": {
        "id": 8252654419,
        "osm_type": "node",
        "name": "Sc1",
        "tourism": "apartment"
      }
    },
    {
      "type": "Feature",
      "geometry": {
        "type": "Point",
        "coordinates": [
          27.9356179,
          45.2466024
        ]
      },
      "properties": {
        "id": 8262376919,
        "osm_type": "node",
        "name": "Bl25 Sc3",
        "tourism": "apartment"
      }
    },
    {
      "type": "Feature",
      "geometry": {
        "type": "Point",
        "coordinates": [
          27.9459112,
          45.2474494
        ]
      },
      "properties": {
        "id": 8266907718,
        "osm_type": "node",
        "name": "Sc7",
        "tourism": "apartment"
      }
    },
    {
      "type": "Feature",
      "geometry": {
        "type": "Point",
        "coordinates": [
          27.9336038,
          45.2447202
        ]
      },
      "properties": {
        "id": 8274498517,
        "osm_type": "node",
        "name": "Sc1",
        "tourism": "apartment"
      }
    },
    {
      "type": "Feature",
      "geometry": {
        "type": "Point",
        "coordinates": [
          27.9670532,
          45.2912388
        ]
      },
      "properties": {
        "id": 8284243917,
        "osm_type": "node",
        "name": "Sc5",
        "tourism": "apartment"
      }
    },
    {
      "type": "Feature",
      "geometry": {
        "type": "Point",
        "coordinates": [
          27.9644505,
          45.3041481
        ]
      },
      "properties": {
        "id": 8286398317,
        "osm_type": "node",
        "name": "Sc1",
        "tourism": "apartment"
      }
    },
    {
      "type": "Feature",
      "geometry": {
        "type": "Point",
        "coordinates": [
          27.9727643,
          45.2805618
        ]
      },
      "properties": {
        "id": 8289360518,
        "osm_type": "node",
        "name": "Sc1",
        "tourism": "apartment"
      }
    },
    {
      "type": "Feature",
      "geometry": {
        "type": "Point",
        "coordinates": [
          27.965307,
          45.2991018
        ]
      },
      "properties": {
        "id": 8297514817,
        "osm_type": "node",
        "name": "Sc1",
        "tourism": "apartment"
      }
    },
    {
      "type": "Feature",
      "geometry": {
        "type": "Point",
        "coordinates": [
          27.956837,
          45.270025
        ]
      },
      "properties": {
        "id": 8303728917,
        "osm_type": "node",
        "name": "Sc3",
        "tourism": "apartment"
      }
    },
    {
      "type": "Feature",
      "geometry": {
        "type": "Point",
        "coordinates": [
          27.9442494,
          45.2442547
        ]
      },
      "properties": {
        "id": 8306576717,
        "osm_type": "node",
        "name": "Sc3",
        "tourism": "apartment"
      }
    },
    {
      "type": "Feature",
      "geometry": {
        "type": "Point",
        "coordinates": [
          27.9477357,
          45.251128
        ]
      },
      "properties": {
        "id": 8307077117,
        "osm_type": "node",
        "name": "Sc5",
        "tourism": "apartment"
      }
    },
    {
      "type": "Feature",
      "geometry": {
        "type": "Point",
        "coordinates": [
          27.9455882,
          45.2465112
        ]
      },
      "properties": {
        "id": 8321630323,
        "osm_type": "node",
        "name": "Sc8",
        "tourism": "apartment"
      }
    },
    {
      "type": "Feature",
      "geometry": {
        "type": "Point",
        "coordinates": [
          27.953637,
          45.2606359
        ]
      },
      "properties": {
        "id": 8327552517,
        "osm_type": "node",
        "name": "Sc1",
        "tourism": "apartment"
      }
    },
    {
      "type": "Feature",
      "geometry": {
        "type": "Point",
        "coordinates": [
          27.9453629,
          45.2459662
        ]
      },
      "properties": {
        "id": 8327552617,
        "osm_type": "node",
        "name": "Sc7",
        "tourism": "apartment"
      }
    },
    {
      "type": "Feature",
      "geometry": {
        "type": "Point",
        "coordinates": [
          27.9521989,
          45.2672975
        ]
      },
      "properties": {
        "id": 8358579117,
        "osm_type": "node",
        "name": "Sc1",
        "tourism": "apartment"
      }
    },
    {
      "type": "Feature",
      "geometry": {
        "type": "Point",
        "coordinates": [
          27.9374631,
          45.2486405
        ]
      },
      "properties": {
        "id": 8358579118,
        "osm_type": "node",
        "name": "ScC A12",
        "tourism": "apartment"
      }
    },
    {
      "type": "Feature",
      "geometry": {
        "type": "Point",
        "coordinates": [
          27.9677535,
          45.2674132
        ]
      },
      "properties": {
        "id": 8371078717,
        "osm_type": "node",
        "name": "Sc1",
        "tourism": "apartment"
      }
    },
    {
      "type": "Feature",
      "geometry": {
        "type": "Point",
        "coordinates": [
          27.9730604,
          45.2780179
        ]
      },
      "properties": {
        "id": 8371185117,
        "osm_type": "node",
        "name": "Sc1",
        "tourism": "apartment"
      }
    },
    {
      "type": "Feature",
      "geometry": {
        "type": "Point",
        "coordinates": [
          27.9445895,
          45.2446279
        ]
      },
      "properties": {
        "id": 8375945322,
        "osm_type": "node",
        "name": "Sc3",
        "tourism": "apartment"
      }
    },
    {
      "type": "Feature",
      "geometry": {
        "type": "Point",
        "coordinates": [
          27.942489,
          45.2428014
        ]
      },
      "properties": {
        "id": 8376223117,
        "osm_type": "node",
        "name": "Sc4",
        "tourism": "apartment"
      }
    },
    {
      "type": "Feature",
      "geometry": {
        "type": "Point",
        "coordinates": [
          27.9539353,
          45.2504868
        ]
      },
      "properties": {
        "id": 8381049517,
        "osm_type": "node",
        "name": "Sc1",
        "tourism": "apartment"
      }
    },
    {
      "type": "Feature",
      "geometry": {
        "type": "Point",
        "coordinates": [
          27.9456164,
          45.244905
        ]
      },
      "properties": {
        "id": 8399326317,
        "osm_type": "node",
        "name": "Sc2",
        "tourism": "apartment"
      }
    },
    {
      "type": "Feature",
      "geometry": {
        "type": "Point",
        "coordinates": [
          27.9729761,
          45.2724696
        ]
      },
      "properties": {
        "id": 8408868617,
        "osm_type": "node",
        "name": "Bloc A1 sc1",
        "tourism": "apartment"
      }
    },
    {
      "type": "Feature",
      "geometry": {
        "type": "Point",
        "coordinates": [
          27.935432,
          45.2456413
        ]
      },
      "properties": {
        "id": 8418584517,
        "osm_type": "node",
        "name": "Sc1",
        "tourism": "apartment"
      }
    },
    {
      "type": "Feature",
      "geometry": {
        "type": "Point",
        "coordinates": [
          27.9596365,
          45.2628464
        ]
      },
      "properties": {
        "id": 8418691217,
        "osm_type": "node",
        "name": "Sc1",
        "tourism": "apartment"
      }
    },
    {
      "type": "Feature",
      "geometry": {
        "type": "Point",
        "coordinates": [
          27.941828,
          45.2453146
        ]
      },
      "properties": {
        "id": 8420236817,
        "osm_type": "node",
        "name": "Sc1",
        "tourism": "apartment"
      }
    },
    {
      "type": "Feature",
      "geometry": {
        "type": "Point",
        "coordinates": [
          27.9632845,
          45.3026364
        ]
      },
      "properties": {
        "id": 8422544217,
        "osm_type": "node",
        "name": "Sc3",
        "tourism": "apartment"
      }
    },
    {
      "type": "Feature",
      "geometry": {
        "type": "Point",
        "coordinates": [
          27.962818,
          45.3029851
        ]
      },
      "properties": {
        "id": 8422544218,
        "osm_type": "node",
        "name": "Sc1",
        "tourism": "apartment"
      }
    },
    {
      "type": "Feature",
      "geometry": {
        "type": "Point",
        "coordinates": [
          27.9536736,
          45.2662359
        ]
      },
      "properties": {
        "id": 8438873517,
        "osm_type": "node",
        "name": "Sc5",
        "tourism": "apartment"
      }
    },
    {
      "type": "Feature",
      "geometry": {
        "type": "Point",
        "coordinates": [
          27.9412971,
          45.2434024
        ]
      },
      "properties": {
        "id": 8448676117,
        "osm_type": "node",
        "name": "Sc1",
        "tourism": "apartment"
      }
    },
    {
      "type": "Feature",
      "geometry": {
        "type": "Point",
        "coordinates": [
          27.9464946,
          45.2451034
        ]
      },
      "properties": {
        "id": 8449522417,
        "osm_type": "node",
        "name": "Sc4",
        "tourism": "apartment"
      }
    },
    {
      "type": "Feature",
      "geometry": {
        "type": "Point",
        "coordinates": [
          27.9602589,
          45.2630976
        ]
      },
      "properties": {
        "id": 8458662517,
        "osm_type": "node",
        "name": "A37",
        "tourism": "apartment"
      }
    },
    {
      "type": "Feature",
      "geometry": {
        "type": "Point",
        "coordinates": [
          27.9575418,
          45.2514976
        ]
      },
      "properties": {
        "id": 8493964218,
        "osm_type": "node",
        "name": "Mesteacan Sc3",
        "tourism": "apartment"
      }
    },
    {
      "type": "Feature",
      "geometry": {
        "type": "Point",
        "coordinates": [
          27.957632,
          45.2509087
        ]
      },
      "properties": {
        "id": 8493979017,
        "osm_type": "node",
        "name": "Artar sc3",
        "tourism": "apartment"
      }
    },
    {
      "type": "Feature",
      "geometry": {
        "type": "Point",
        "coordinates": [
          27.9615622,
          45.2598409
        ]
      },
      "properties": {
        "id": 8511475717,
        "osm_type": "node",
        "name": "Sc1",
        "tourism": "apartment"
      }
    },
    {
      "type": "Feature",
      "geometry": {
        "type": "Point",
        "coordinates": [
          27.9510727,
          45.2511243
        ]
      },
      "properties": {
        "id": 8755323021,
        "osm_type": "node",
        "name": "Sc 1",
        "tourism": "apartment"
      }
    },
    {
      "type": "Feature",
      "geometry": {
        "type": "Point",
        "coordinates": [
          27.9496862,
          45.2512519
        ]
      },
      "properties": {
        "id": 8755347717,
        "osm_type": "node",
        "name": "Sc 2",
        "tourism": "apartment"
      }
    },
    {
      "type": "Feature",
      "geometry": {
        "type": "Point",
        "coordinates": [
          27.9491408,
          45.2509938
        ]
      },
      "properties": {
        "id": 8756228217,
        "osm_type": "node",
        "name": "Sc 4",
        "tourism": "apartment"
      }
    },
    {
      "type": "Feature",
      "geometry": {
        "type": "Point",
        "coordinates": [
          27.9494795,
          45.251306
        ]
      },
      "properties": {
        "id": 8756228218,
        "osm_type": "node",
        "name": "Sc 3",
        "tourism": "apartment"
      }
    },
    {
      "type": "Feature",
      "geometry": {
        "type": "Point",
        "coordinates": [
          27.944385,
          45.240721
        ]
      },
      "properties": {
        "id": 8856093882,
        "osm_type": "node",
        "name": "Sc1",
        "tourism": "apartment"
      }
    },
    {
      "type": "Feature",
      "geometry": {
        "type": "Point",
        "coordinates": [
          27.9686664,
          45.2900123
        ]
      },
      "properties": {
        "id": 8856118682,
        "osm_type": "node",
        "name": "Sc1",
        "tourism": "apartment"
      }
    },
    {
      "type": "Feature",
      "geometry": {
        "type": "Point",
        "coordinates": [
          27.9697233,
          45.2901012
        ]
      },
      "properties": {
        "id": 8856133560,
        "osm_type": "node",
        "name": "Sc5",
        "tourism": "apartment"
      }
    },
    {
      "type": "Feature",
      "geometry": {
        "type": "Point",
        "coordinates": [
          27.9156455,
          45.2155349
        ]
      },
      "properties": {
        "id": 9094557432,
        "osm_type": "node",
        "name": "Hotel Rebis",
        "tourism": "hotel",
        "check_date": "2023-07-23"
      }
    },
    {
      "type": "Feature",
      "geometry": {
        "type": "Point",
        "coordinates": [
          27.9184081,
          45.2155093
        ]
      },
      "properties": {
        "id": 10302072940,
        "osm_type": "node",
        "name": "Alma Health and Spa Retreat",
        "tourism": "hotel",
        "phone": "0339 733 306",
        "website": "https://almaretreat.ro/",
        "check_date": "2023-07-23"
      }
    },
    {
      "type": "Feature",
      "geometry": {
        "type": "Point",
        "coordinates": [
          28.008094,
          45.3873569
        ]
      },
      "properties": {
        "id": 11519340869,
        "osm_type": "node",
        "tourism": "apartment"
      }
    },
    {
      "type": "Feature",
      "geometry": {
        "type": "Point",
        "coordinates": [
          28.0087241,
          45.3872693
        ]
      },
      "properties": {
        "id": 11530854069,
        "osm_type": "node",
        "tourism": "apartment"
      }
    },
    {
      "type": "Feature",
      "geometry": {
        "type": "Point",
        "coordinates": [
          27.960399,
          45.3055405
        ]
      },
      "properties": {
        "id": 11578621169,
        "osm_type": "node",
        "name": "Bloc H3",
        "tourism": "apartment"
      }
    },
    {
      "type": "Feature",
      "geometry": {
        "type": "Point",
        "coordinates": [
          27.9619157,
          45.2710905
        ]
      },
      "properties": {
        "id": 11880046269,
        "osm_type": "node",
        "tourism": "apartment"
      }
    },
    {
      "type": "Feature",
      "geometry": {
        "type": "Point",
        "coordinates": [
          27.964453,
          45.2594551
        ]
      },
      "properties": {
        "id": 11886857569,
        "osm_type": "node",
        "tourism": "apartment"
      }
    },
    {
      "type": "Feature",
      "geometry": {
        "type": "Point",
        "coordinates": [
          27.971495,
          45.2795706
        ]
      },
      "properties": {
        "id": 11973874869,
        "osm_type": "node",
        "tourism": "apartment"
      }
    },
    {
      "type": "Feature",
      "geometry": {
        "type": "Point",
        "coordinates": [
          27.9616306,
          45.2667835
        ]
      },
      "properties": {
        "id": 11982611969,
        "osm_type": "node",
        "name": "Bloc App",
        "tourism": "apartment"
      }
    },
    {
      "type": "Feature",
      "geometry": {
        "type": "Point",
        "coordinates": [
          27.9631238,
          45.2671422
        ]
      },
      "properties": {
        "id": 11982613369,
        "osm_type": "node",
        "name": "Bloc Bpp",
        "tourism": "apartment"
      }
    },
    {
      "type": "Feature",
      "geometry": {
        "type": "Point",
        "coordinates": [
          27.9602901,
          45.3056518
        ]
      },
      "properties": {
        "id": 11990154569,
        "osm_type": "node",
        "name": "Bloc H3",
        "tourism": "apartment"
      }
    },
    {
      "type": "Feature",
      "geometry": {
        "type": "Point",
        "coordinates": [
          27.9576048,
          45.2485072
        ]
      },
      "properties": {
        "id": 12282826802,
        "osm_type": "node",
        "name": "bloc concifor",
        "tourism": "apartment"
      }
    },
    {
      "type": "Feature",
      "geometry": {
        "type": "Point",
        "coordinates": [
          27.9606314,
          45.306259
        ]
      },
      "properties": {
        "id": 12353476701,
        "osm_type": "node",
        "name": "bloc 14",
        "tourism": "apartment"
      }
    },
    {
      "type": "Feature",
      "geometry": {
        "type": "Point",
        "coordinates": [
          27.9611333,
          45.3062049
        ]
      },
      "properties": {
        "id": 12353476702,
        "osm_type": "node",
        "name": "Bloc 14",
        "tourism": "apartment"
      }
    },
    {
      "type": "Feature",
      "geometry": {
        "type": "Point",
        "coordinates": [
          27.9660455,
          45.2770581
        ]
      },
      "properties": {
        "id": 12396156401,
        "osm_type": "node",
        "name": "Bloc 39",
        "tourism": "apartment"
      }
    },
    {
      "type": "Feature",
      "geometry": {
        "type": "Point",
        "coordinates": [
          27.9661013,
          45.2672295
        ]
      },
      "properties": {
        "id": 12420005201,
        "osm_type": "node",
        "name": "Scara1",
        "tourism": "apartment"
      }
    },
    {
      "type": "Feature",
      "geometry": {
        "type": "Point",
        "coordinates": [
          27.9661964,
          45.2670526
        ]
      },
      "properties": {
        "id": 12420006601,
        "osm_type": "node",
        "name": "scara 2",
        "tourism": "apartment"
      }
    },
    {
      "type": "Feature",
      "geometry": {
        "type": "Point",
        "coordinates": [
          27.9664726,
          45.2664552
        ]
      },
      "properties": {
        "id": 12420006602,
        "osm_type": "node",
        "name": "scara5",
        "tourism": "apartment"
      }
    },
    {
      "type": "Feature",
      "geometry": {
        "type": "Point",
        "coordinates": [
          27.9662753,
          45.2668874
        ]
      },
      "properties": {
        "id": 12420009801,
        "osm_type": "node",
        "name": "scara3",
        "tourism": "apartment"
      }
    },
    {
      "type": "Feature",
      "geometry": {
        "type": "Point",
        "coordinates": [
          27.9664068,
          45.2665983
        ]
      },
      "properties": {
        "id": 12420013801,
        "osm_type": "node",
        "name": "scara4",
        "tourism": "apartment"
      }
    },
    {
      "type": "Feature",
      "geometry": {
        "type": "Point",
        "coordinates": [
          27.9641879,
          45.2598041
        ]
      },
      "properties": {
        "id": 12480983901,
        "osm_type": "node",
        "name": "scara3",
        "tourism": "apartment"
      }
    },
    {
      "type": "Feature",
      "geometry": {
        "type": "Point",
        "coordinates": [
          27.9503329,
          45.2516032
        ]
      },
      "properties": {
        "id": 12614681001,
        "osm_type": "node",
        "name": "scara 6",
        "tourism": "apartment"
      }
    },
    {
      "type": "Feature",
      "geometry": {
        "type": "Point",
        "coordinates": [
          27.9552998,
          45.2492724
        ]
      },
      "properties": {
        "id": 12629947501,
        "osm_type": "node",
        "name": "Bloc G3",
        "tourism": "apartment"
      }
    },
    {
      "type": "Feature",
      "geometry": {
        "type": "Point",
        "coordinates": [
          27.9552073,
          45.2496198
        ]
      },
      "properties": {
        "id": 12629947502,
        "osm_type": "node",
        "name": "Bloc G2",
        "tourism": "apartment"
      }
    },
    {
      "type": "Feature",
      "geometry": {
        "type": "Point",
        "coordinates": [
          27.9581592,
          45.2508794
        ]
      },
      "properties": {
        "id": 12695192401,
        "osm_type": "node",
        "name": "SNB1",
        "tourism": "apartment"
      }
    },
    {
      "type": "Feature",
      "geometry": {
        "type": "Point",
        "coordinates": [
          27.9559223,
          45.27177
        ]
      },
      "properties": {
        "id": 12750506601,
        "osm_type": "node",
        "name": "Bloc P+10",
        "tourism": "apartment"
      }
    },
    {
      "type": "Feature",
      "geometry": {
        "type": "Point",
        "coordinates": [
          27.9580438,
          45.2508919
        ]
      },
      "properties": {
        "id": 12775594601,
        "osm_type": "node",
        "name": "Bloc Snb",
        "tourism": "apartment"
      }
    },
    {
      "type": "Feature",
      "geometry": {
        "type": "Point",
        "coordinates": [
          27.9544207,
          45.2686407
        ]
      },
      "properties": {
        "id": 13078570101,
        "osm_type": "node",
        "name": "Bl R7",
        "tourism": "apartment"
      }
    },
    {
      "type": "Feature",
      "geometry": {
        "type": "Point",
        "coordinates": [
          27.9496229,
          45.2508295
        ]
      },
      "properties": {
        "id": 13078570201,
        "osm_type": "node",
        "name": "scara 2",
        "tourism": "apartment"
      }
    },
    {
      "type": "Feature",
      "geometry": {
        "type": "Point",
        "coordinates": [
          27.9565553,
          45.250629
        ]
      },
      "properties": {
        "id": 13078570301,
        "osm_type": "node",
        "name": "Bloc B12",
        "tourism": "apartment"
      }
    },
    {
      "type": "Feature",
      "geometry": {
        "type": "Point",
        "coordinates": [
          27.9574029,
          45.2836214
        ]
      },
      "properties": {
        "id": 13100942001,
        "osm_type": "node",
        "name": "Bloc 28 camere",
        "tourism": "apartment"
      }
    },
    {
      "type": "Feature",
      "geometry": {
        "type": "Point",
        "coordinates": [
          27.9571291,
          45.2837459
        ]
      },
      "properties": {
        "id": 13100942601,
        "osm_type": "node",
        "name": "Bloc 28 camere",
        "tourism": "apartment"
      }
    },
    {
      "type": "Feature",
      "geometry": {
        "type": "Point",
        "coordinates": [
          27.9501799,
          45.2510335
        ]
      },
      "properties": {
        "id": 13156810501,
        "osm_type": "node",
        "name": "scara 4",
        "tourism": "apartment"
      }
    },
    {
      "type": "Feature",
      "geometry": {
        "type": "Point",
        "coordinates": [
          27.9498842,
          45.2510952
        ]
      },
      "properties": {
        "id": 13156811601,
        "osm_type": "node",
        "name": "scara 5",
        "tourism": "apartment"
      }
    },
    {
      "type": "Feature",
      "geometry": {
        "type": "Point",
        "coordinates": [
          27.9459579,
          45.2460583
        ]
      },
      "properties": {
        "id": 13190700001,
        "osm_type": "node",
        "name": "Sc1",
        "tourism": "apartment"
      }
    },
    {
      "type": "Feature",
      "geometry": {
        "type": "Point",
        "coordinates": [
          27.9660594,
          45.2708562
        ]
      },
      "properties": {
        "id": 13202921001,
        "osm_type": "node",
        "name": "Bloc Express",
        "tourism": "apartment"
      }
    },
    {
      "type": "Feature",
      "geometry": {
        "type": "Point",
        "coordinates": [
          27.9563705,
          45.2565441
        ]
      },
      "properties": {
        "id": 13302015901,
        "osm_type": "node",
        "name": "Bloc A1",
        "tourism": "apartment"
      }
    },
    {
      "type": "Feature",
      "geometry": {
        "type": "Point",
        "coordinates": [
          27.954604,
          45.2575697
        ]
      },
      "properties": {
        "id": 13372715801,
        "osm_type": "node",
        "name": "A4",
        "tourism": "apartment"
      }
    },
    {
      "type": "Feature",
      "geometry": {
        "type": "Point",
        "coordinates": [
          27.9116094,
          45.2152927
        ]
      },
      "properties": {
        "id": 13392814756,
        "osm_type": "node",
        "name": "Pensiunea Sabrina",
        "tourism": "hotel"
      }
    },
    {
      "type": "Feature",
      "geometry": {
        "type": "Point",
        "coordinates": [
          27.9573036,
          45.2699962
        ]
      },
      "properties": {
        "id": 13429877901,
        "osm_type": "node",
        "name": "Garsoniere o singura scara",
        "tourism": "apartment"
      }
    },
    {
      "type": "Feature",
      "geometry": {
        "type": "Point",
        "coordinates": [
          27.9619858,
          45.2664762
        ]
      },
      "properties": {
        "id": 13474597701,
        "osm_type": "node",
        "name": "Bloc D",
        "tourism": "apartment"
      }
    },
    {
      "type": "Feature",
      "geometry": {
        "type": "Point",
        "coordinates": [
          27.9718887,
          45.2857732
        ]
      },
      "properties": {
        "id": 13481392801,
        "osm_type": "node",
        "name": "scara 5",
        "tourism": "apartment"
      }
    },
    {
      "type": "Feature",
      "geometry": {
        "type": "Point",
        "coordinates": [
          27.9714696,
          45.2853769
        ]
      },
      "properties": {
        "id": 13481392803,
        "osm_type": "node",
        "name": "scara 2",
        "tourism": "apartment"
      }
    },
    {
      "type": "Feature",
      "geometry": {
        "type": "Point",
        "coordinates": [
          27.971602,
          45.285793
        ]
      },
      "properties": {
        "id": 13481393401,
        "osm_type": "node",
        "name": "scara 4",
        "tourism": "apartment"
      }
    },
    {
      "type": "Feature",
      "geometry": {
        "type": "Point",
        "coordinates": [
          27.9715082,
          45.2852486
        ]
      },
      "properties": {
        "id": 13481394301,
        "osm_type": "node",
        "name": "scara 3",
        "tourism": "apartment"
      }
    },
    {
      "type": "Feature",
      "geometry": {
        "type": "Point",
        "coordinates": [
          27.971414,
          45.2856585
        ]
      },
      "properties": {
        "id": 13481397701,
        "osm_type": "node",
        "name": "scara 1",
        "tourism": "apartment"
      }
    },
    {
      "type": "Feature",
      "geometry": {
        "type": "Point",
        "coordinates": [
          27.9585888,
          45.2518891
        ]
      },
      "properties": {
        "id": 13484959001,
        "osm_type": "node",
        "name": "Bloc P+2",
        "tourism": "apartment"
      }
    },
    {
      "type": "Feature",
      "geometry": {
        "type": "Point",
        "coordinates": [
          27.9576395,
          45.2519396
        ]
      },
      "properties": {
        "id": 13652290501,
        "osm_type": "node",
        "name": "Bloc 2 Str odessa",
        "tourism": "apartment"
      }
    },
    {
      "type": "Feature",
      "geometry": {
        "type": "Point",
        "coordinates": [
          27.955731,
          45.2534286
        ]
      },
      "properties": {
        "id": 84759688,
        "osm_type": "way",
        "name": "Hotel Triumph",
        "tourism": "hotel",
        "check_date": "2023-07-24"
      }
    },
    {
      "type": "Feature",
      "geometry": {
        "type": "Point",
        "coordinates": [
          27.9612684,
          45.2809867
        ]
      },
      "properties": {
        "id": 91776625,
        "osm_type": "way",
        "name": "Hotel Orient",
        "tourism": "hotel"
      }
    },
    {
      "type": "Feature",
      "geometry": {
        "type": "Point",
        "coordinates": [
          27.9551592,
          45.2716729
        ]
      },
      "properties": {
        "id": 92700185,
        "osm_type": "way",
        "name": "Hotel GBC",
        "tourism": "hotel"
      }
    },
    {
      "type": "Feature",
      "geometry": {
        "type": "Point",
        "coordinates": [
          27.9758927,
          45.2719935
        ]
      },
      "properties": {
        "id": 93044436,
        "osm_type": "way",
        "name": "Hotel Traian",
        "tourism": "hotel"
      }
    },
    {
      "type": "Feature",
      "geometry": {
        "type": "Point",
        "coordinates": [
          27.9694169,
          45.2626972
        ]
      },
      "properties": {
        "id": 93044478,
        "osm_type": "way",
        "name": "Hotel Belvedere",
        "tourism": "hotel"
      }
    },
    {
      "type": "Feature",
      "geometry": {
        "type": "Point",
        "coordinates": [
          27.9134678,
          45.2151487
        ]
      },
      "properties": {
        "id": 210109157,
        "osm_type": "way",
        "name": "Vila Nufărul",
        "tourism": "hotel",
        "check_date": "2023-07-23"
      }
    },
    {
      "type": "Feature",
      "geometry": {
        "type": "Point",
        "coordinates": [
          27.9173891,
          45.2153481
        ]
      },
      "properties": {
        "id": 210109607,
        "osm_type": "way",
        "name": "Hotel Perla",
        "tourism": "hotel",
        "website": "https://perlahotel.ro/",
        "check_date": "2023-07-22"
      }
    },
    {
      "type": "Feature",
      "geometry": {
        "type": "Point",
        "coordinates": [
          27.9269363,
          45.2702235
        ]
      },
      "properties": {
        "id": 210256213,
        "osm_type": "way",
        "name": "Hotel",
        "tourism": "hotel"
      }
    },
    {
      "type": "Feature",
      "geometry": {
        "type": "Point",
        "coordinates": [
          27.9747226,
          45.2731339
        ]
      },
      "properties": {
        "id": 494435425,
        "osm_type": "way",
        "name": "Hotel SPORT - DJS Brăila",
        "tourism": "hotel",
        "phone": "0239/611346"
      }
    },
    {
      "type": "Feature",
      "geometry": {
        "type": "Point",
        "coordinates": [
          27.9787383,
          45.2723375
        ]
      },
      "properties": {
        "id": 494435431,
        "osm_type": "way",
        "name": "Saint Germain",
        "tourism": "hotel",
        "opening_hours": "24/7",
        "phone": "+40 339 800 900",
        "website": "https://www.hotelsg.ro/"
      }
    },
    {
      "type": "Feature",
      "geometry": {
        "type": "Point",
        "coordinates": [
          27.4782053,
          45.1350937
        ]
      },
      "properties": {
        "id": 736669559,
        "osm_type": "way",
        "tourism": "hotel"
      }
    },
    {
      "type": "Feature",
      "geometry": {
        "type": "Point",
        "coordinates": [
          27.5196145,
          45.1370891
        ]
      },
      "properties": {
        "id": 736674320,
        "osm_type": "way",
        "name": "Pensiunea Mușatini",
        "tourism": "guest_house"
      }
    },
    {
      "type": "Feature",
      "geometry": {
        "type": "Point",
        "coordinates": [
          27.9169379,
          45.2150668
        ]
      },
      "properties": {
        "id": 775580770,
        "osm_type": "way",
        "name": "Hotel Mara",
        "tourism": "hotel",
        "website": "https://hotelmaralacusarat.ro",
        "check_date": "2023-07-22"
      }
    },
    {
      "type": "Feature",
      "geometry": {
        "type": "Point",
        "coordinates": [
          28.1759373,
          45.1288158
        ]
      },
      "properties": {
        "id": 827367775,
        "osm_type": "way",
        "name": "Casa de vacanță mocănița",
        "tourism": "chalet",
        "opening_hours": "Sa - Su 24/7"
      }
    },
    {
      "type": "Feature",
      "geometry": {
        "type": "Point",
        "coordinates": [
          27.9582481,
          45.2399416
        ]
      },
      "properties": {
        "id": 829246441,
        "osm_type": "way",
        "name": "Nemo",
        "tourism": "hotel"
      }
    },
    {
      "type": "Feature",
      "geometry": {
        "type": "Point",
        "coordinates": [
          27.975902,
          45.2718356
        ]
      },
      "properties": {
        "id": 1092947011,
        "osm_type": "way",
        "tourism": "hotel"
      }
    },
    {
      "type": "Feature",
      "geometry": {
        "type": "Point",
        "coordinates": [
          27.9171438,
          45.2162157
        ]
      },
      "properties": {
        "id": 1126645631,
        "osm_type": "way",
        "name": "Camping Rebis",
        "tourism": "camp_site",
        "check_date": "2023-07-23"
      }
    },
    {
      "type": "Feature",
      "geometry": {
        "type": "Point",
        "coordinates": [
          27.9617426,
          45.2814799
        ]
      },
      "properties": {
        "id": 1475059193,
        "osm_type": "way",
        "name": "Express Residence",
        "tourism": "hotel",
        "phone": "+40747289114",
        "website": "https://www.hotelorientbraila.ro/express-residence/"
      }
    }
  ]
}