{
  "type": "FeatureCollection",
  "features": [
    {
      "type": "Feature",
      "geometry": {
        "type": "Point",
        "coordinates": [
          17.2282231,
          45.5974398
        ]
      },
      "properties": {
        "id": 600213757,
        "osm_type": "node",
        "name": "Hotel Termal",
        "tourism": "hotel"
      }
    },
    {
      "type": "Feature",
      "geometry": {
        "type": "Point",
        "coordinates": [
          17.2271802,
          45.5929105
        ]
      },
      "properties": {
        "id": 600213758,
        "osm_type": "node",
        "name": "Hotel Mladimir",
        "tourism": "hotel"
      }
    },
    {
      "type": "Feature",
      "geometry": {
        "type": "Point",
        "coordinates": [
          16.7707744,
          45.6397613
        ]
      },
      "properties": {
        "id": 676832157,
        "osm_type": "node",
        "name": "Vila Garić",
        "tourism": "hotel"
      }
    },
    {
      "type": "Feature",
      "geometry": {
        "type": "Point",
        "coordinates": [
          16.6718034,
          45.6823078
        ]
      },
      "properties": {
        "id": 4430817551,
        "osm_type": "node",
        "name": "Planiniarski dom Pleterac",
        "tourism": "alpine_hut"
      }
    },
    {
      "type": "Feature",
      "geometry": {
        "type": "Point",
        "coordinates": [
          16.8468662,
          46.0837674
        ]
      },
      "properties": {
        "id": 8859386574,
        "osm_type": "node",
        "name": "Anin vrh",
        "tourism": "alpine_hut"
      }
    },
    {
      "type": "Feature",
      "geometry": {
        "type": "Point",
        "coordinates": [
          17.223873,
          45.5921523
        ]
      },
      "properties": {
        "id": 9122522672,
        "osm_type": "node",
        "name": "Sobe Slavonija",
        "tourism": "hotel"
      }
    },
    {
      "type": "Feature",
      "geometry": {
        "type": "Point",
        "coordinates": [
          16.8599717,
          45.8888137
        ]
      },
      "properties": {
        "id": 9693957968,
        "osm_type": "node",
        "name": "Apartments-rooms Ivana Bjelovar",
        "tourism": "guest_house"
      }
    },
    {
      "type": "Feature",
      "geometry": {
        "type": "Point",
        "coordinates": [
          16.8952933,
          45.9244189
        ]
      },
      "properties": {
        "id": 10840455434,
        "osm_type": "node",
        "name": "Apartment Vinia",
        "tourism": "apartment"
      }
    },
    {
      "type": "Feature",
      "geometry": {
        "type": "Point",
        "coordinates": [
          16.6122294,
          45.7487889
        ]
      },
      "properties": {
        "id": 10924238270,
        "osm_type": "node",
        "name": "Apartman Infinity",
        "tourism": "apartment"
      }
    },
    {
      "type": "Feature",
      "geometry": {
        "type": "Point",
        "coordinates": [
          16.8903167,
          45.9438336
        ]
      },
      "properties": {
        "id": 11361613205,
        "osm_type": "node",
        "name": "Sobe Baron",
        "tourism": "apartment"
      }
    },
    {
      "type": "Feature",
      "geometry": {
        "type": "Point",
        "coordinates": [
          16.7855707,
          45.9294375
        ]
      },
      "properties": {
        "id": 11846693728,
        "osm_type": "node",
        "name": "Lovrić",
        "tourism": "apartment"
      }
    },
    {
      "type": "Feature",
      "geometry": {
        "type": "Point",
        "coordinates": [
          16.851141,
          45.8990834
        ]
      },
      "properties": {
        "id": 11910899311,
        "osm_type": "node",
        "name": "Treasure Hunters Academy",
        "tourism": "apartment"
      }
    },
    {
      "type": "Feature",
      "geometry": {
        "type": "Point",
        "coordinates": [
          16.8430713,
          45.8999612
        ]
      },
      "properties": {
        "id": 11919815677,
        "osm_type": "node",
        "name": "Central Park",
        "tourism": "apartment"
      }
    },
    {
      "type": "Feature",
      "geometry": {
        "type": "Point",
        "coordinates": [
          16.8551213,
          45.912409
        ]
      },
      "properties": {
        "id": 11985214195,
        "osm_type": "node",
        "name": "Turniški HQ",
        "tourism": "guest_house"
      }
    },
    {
      "type": "Feature",
      "geometry": {
        "type": "Point",
        "coordinates": [
          16.7275906,
          45.9428294
        ]
      },
      "properties": {
        "id": 12038111448,
        "osm_type": "node",
        "name": "Raiva",
        "tourism": "apartment"
      }
    },
    {
      "type": "Feature",
      "geometry": {
        "type": "Point",
        "coordinates": [
          16.8344908,
          45.8974563
        ]
      },
      "properties": {
        "id": 12477014711,
        "osm_type": "node",
        "name": "Apartman Vita",
        "tourism": "apartment"
      }
    },
    {
      "type": "Feature",
      "geometry": {
        "type": "Point",
        "coordinates": [
          16.8467699,
          45.8985594
        ]
      },
      "properties": {
        "id": 12477014712,
        "osm_type": "node",
        "name": "Varadero Studio Apartman",
        "tourism": "apartment"
      }
    },
    {
      "type": "Feature",
      "geometry": {
        "type": "Point",
        "coordinates": [
          16.8409937,
          45.8975516
        ]
      },
      "properties": {
        "id": 12543712342,
        "osm_type": "node",
        "name": "Apartman H8",
        "tourism": "apartment"
      }
    },
    {
      "type": "Feature",
      "geometry": {
        "type": "Point",
        "coordinates": [
          16.840419,
          45.8978014
        ]
      },
      "properties": {
        "id": 12543712343,
        "osm_type": "node",
        "name": "Apartman 19-14",
        "tourism": "apartment"
      }
    },
    {
      "type": "Feature",
      "geometry": {
        "type": "Point",
        "coordinates": [
          16.8403111,
          45.8937005
        ]
      },
      "properties": {
        "id": 12856840587,
        "osm_type": "node",
        "name": "Roko",
        "tourism": "apartment"
      }
    },
    {
      "type": "Feature",
      "geometry": {
        "type": "Point",
        "coordinates": [
          16.8338628,
          45.8970586
        ]
      },
      "properties": {
        "id": 12913395250,
        "osm_type": "node",
        "name": "Barbara",
        "tourism": "apartment"
      }
    },
    {
      "type": "Feature",
      "geometry": {
        "type": "Point",
        "coordinates": [
          16.6146854,
          45.749476
        ]
      },
      "properties": {
        "id": 12921964584,
        "osm_type": "node",
        "name": "Lea",
        "tourism": "apartment"
      }
    },
    {
      "type": "Feature",
      "geometry": {
        "type": "Point",
        "coordinates": [
          16.602042,
          45.7479866
        ]
      },
      "properties": {
        "id": 12925923526,
        "osm_type": "node",
        "name": "Oaza",
        "tourism": "apartment"
      }
    },
    {
      "type": "Feature",
      "geometry": {
        "type": "Point",
        "coordinates": [
          16.8361211,
          45.901282
        ]
      },
      "properties": {
        "id": 12992968355,
        "osm_type": "node",
        "name": "Apartman \"House of Tea\"",
        "tourism": "apartment"
      }
    },
    {
      "type": "Feature",
      "geometry": {
        "type": "Point",
        "coordinates": [
          17.0698943,
          45.8020417
        ]
      },
      "properties": {
        "id": 13019342903,
        "osm_type": "node",
        "name": "DadoIra",
        "tourism": "apartment"
      }
    },
    {
      "type": "Feature",
      "geometry": {
        "type": "Point",
        "coordinates": [
          16.899581,
          46.0181582
        ]
      },
      "properties": {
        "id": 13403248742,
        "osm_type": "node",
        "name": "Bed&Breakfast Vinarija Coner",
        "tourism": "guest_house"
      }
    },
    {
      "type": "Feature",
      "geometry": {
        "type": "Point",
        "coordinates": [
          16.858088,
          45.9068022
        ]
      },
      "properties": {
        "id": 13410628924,
        "osm_type": "node",
        "name": "Kuća za odmor \"Starlight\"",
        "tourism": "apartment"
      }
    },
    {
      "type": "Feature",
      "geometry": {
        "type": "Point",
        "coordinates": [
          16.8417637,
          45.90422
        ]
      },
      "properties": {
        "id": 13414494617,
        "osm_type": "node",
        "name": "Apartman Kod mlina",
        "tourism": "apartment"
      }
    },
    {
      "type": "Feature",
      "geometry": {
        "type": "Point",
        "coordinates": [
          16.8422165,
          45.8969626
        ]
      },
      "properties": {
        "id": 13414494618,
        "osm_type": "node",
        "name": "Apartman Korzo",
        "tourism": "apartment"
      }
    },
    {
      "type": "Feature",
      "geometry": {
        "type": "Point",
        "coordinates": [
          17.2233152,
          45.5922067
        ]
      },
      "properties": {
        "id": 94258524,
        "osm_type": "way",
        "name": "Hotel Balise",
        "tourism": "hotel"
      }
    },
    {
      "type": "Feature",
      "geometry": {
        "type": "Point",
        "coordinates": [
          16.8431397,
          45.8972208
        ]
      },
      "properties": {
        "id": 300536159,
        "osm_type": "way",
        "name": "Hotel \"Central\" Art’aeria",
        "tourism": "hotel"
      }
    },
    {
      "type": "Feature",
      "geometry": {
        "type": "Point",
        "coordinates": [
          16.9416071,
          45.9101718
        ]
      },
      "properties": {
        "id": 326018327,
        "osm_type": "way",
        "name": "Planinarski dom Kamenitovac",
        "tourism": "alpine_hut"
      }
    },
    {
      "type": "Feature",
      "geometry": {
        "type": "Point",
        "coordinates": [
          17.3128527,
          45.5886543
        ]
      },
      "properties": {
        "id": 326019686,
        "osm_type": "way",
        "name": "Planinarski dom Petrov vrh",
        "tourism": "alpine_hut"
      }
    },
    {
      "type": "Feature",
      "geometry": {
        "type": "Point",
        "coordinates": [
          16.6206758,
          45.7499524
        ]
      },
      "properties": {
        "id": 784538063,
        "osm_type": "way",
        "name": "Apartman Tea",
        "tourism": "apartment"
      }
    },
    {
      "type": "Feature",
      "geometry": {
        "type": "Point",
        "coordinates": [
          16.6137395,
          45.7476249
        ]
      },
      "properties": {
        "id": 784554777,
        "osm_type": "way",
        "name": "Motel Ana",
        "tourism": "motel"
      }
    },
    {
      "type": "Feature",
      "geometry": {
        "type": "Point",
        "coordinates": [
          16.8551436,
          45.9101639
        ]
      },
      "properties": {
        "id": 1036247386,
        "osm_type": "way",
        "name": "Place 4 You",
        "tourism": "apartment"
      }
    },
    {
      "type": "Feature",
      "geometry": {
        "type": "Point",
        "coordinates": [
          16.8500493,
          45.9112402
        ]
      },
      "properties": {
        "id": 1036269493,
        "osm_type": "way",
        "name": "Apartman Murić - Ena",
        "tourism": "apartment"
      }
    },
    {
      "type": "Feature",
      "geometry": {
        "type": "Point",
        "coordinates": [
          16.8417198,
          45.9035226
        ]
      },
      "properties": {
        "id": 1036811990,
        "osm_type": "way",
        "name": "Apartmani Matic",
        "tourism": "apartment"
      }
    },
    {
      "type": "Feature",
      "geometry": {
        "type": "Point",
        "coordinates": [
          16.8575526,
          45.9045184
        ]
      },
      "properties": {
        "id": 1040276226,
        "osm_type": "way",
        "name": "Sobe Zorić",
        "tourism": "apartment"
      }
    },
    {
      "type": "Feature",
      "geometry": {
        "type": "Point",
        "coordinates": [
          16.8259915,
          45.8909109
        ]
      },
      "properties": {
        "id": 1066224963,
        "osm_type": "way",
        "name": "KM therooms",
        "tourism": "apartment"
      }
    },
    {
      "type": "Feature",
      "geometry": {
        "type": "Point",
        "coordinates": [
          16.8373348,
          45.9051264
        ]
      },
      "properties": {
        "id": 1075474613,
        "osm_type": "way",
        "name": "Apartmani Borik",
        "tourism": "apartment"
      }
    },
    {
      "type": "Feature",
      "geometry": {
        "type": "Point",
        "coordinates": [
          16.8251431,
          45.889474
        ]
      },
      "properties": {
        "id": 1091069972,
        "osm_type": "way",
        "name": "Sobe Prišlin",
        "tourism": "hotel"
      }
    },
    {
      "type": "Feature",
      "geometry": {
        "type": "Point",
        "coordinates": [
          16.8228029,
          45.911625
        ]
      },
      "properties": {
        "id": 1120315217,
        "osm_type": "way",
        "name": "Apartman Matea",
        "tourism": "apartment"
      }
    },
    {
      "type": "Feature",
      "geometry": {
        "type": "Point",
        "coordinates": [
          16.8237839,
          45.9114078
        ]
      },
      "properties": {
        "id": 1158543192,
        "osm_type": "way",
        "name": "Apartmani Kočiš",
        "tourism": "apartment"
      }
    },
    {
      "type": "Feature",
      "geometry": {
        "type": "Point",
        "coordinates": [
          16.8255441,
          45.9128285
        ]
      },
      "properties": {
        "id": 1158543232,
        "osm_type": "way",
        "name": "Apartmani Marušić",
        "tourism": "apartment"
      }
    },
    {
      "type": "Feature",
      "geometry": {
        "type": "Point",
        "coordinates": [
          16.8693962,
          45.8797203
        ]
      },
      "properties": {
        "id": 1160618157,
        "osm_type": "way",
        "name": "Sobe Mrak",
        "tourism": "apartment"
      }
    },
    {
      "type": "Feature",
      "geometry": {
        "type": "Point",
        "coordinates": [
          16.86988,
          45.8794929
        ]
      },
      "properties": {
        "id": 1160618162,
        "osm_type": "way",
        "name": "Apartman Tušek",
        "tourism": "apartment"
      }
    },
    {
      "type": "Feature",
      "geometry": {
        "type": "Point",
        "coordinates": [
          16.8693063,
          45.8805227
        ]
      },
      "properties": {
        "id": 1160618185,
        "osm_type": "way",
        "name": "Apartman Agava-Vaclavek",
        "tourism": "apartment"
      }
    },
    {
      "type": "Feature",
      "geometry": {
        "type": "Point",
        "coordinates": [
          16.8734197,
          45.8770217
        ]
      },
      "properties": {
        "id": 1160621248,
        "osm_type": "way",
        "name": "Happiness",
        "tourism": "apartment"
      }
    },
    {
      "type": "Feature",
      "geometry": {
        "type": "Point",
        "coordinates": [
          16.7658376,
          45.8610037
        ]
      },
      "properties": {
        "id": 1196826138,
        "osm_type": "way",
        "name": "Kuća za odmor Marof",
        "tourism": "apartment"
      }
    },
    {
      "type": "Feature",
      "geometry": {
        "type": "Point",
        "coordinates": [
          16.9414401,
          45.5734631
        ]
      },
      "properties": {
        "id": 1212772465,
        "osm_type": "way",
        "name": "Hotel Garić",
        "tourism": "hotel"
      }
    },
    {
      "type": "Feature",
      "geometry": {
        "type": "Point",
        "coordinates": [
          17.1735716,
          45.7017879
        ]
      },
      "properties": {
        "id": 1221261419,
        "osm_type": "way",
        "name": "Hotel Bilogora",
        "tourism": "hotel"
      }
    },
    {
      "type": "Feature",
      "geometry": {
        "type": "Point",
        "coordinates": [
          16.8465291,
          45.901433
        ]
      },
      "properties": {
        "id": 1223635171,
        "osm_type": "way",
        "name": "Sobe Matić",
        "tourism": "apartment"
      }
    },
    {
      "type": "Feature",
      "geometry": {
        "type": "Point",
        "coordinates": [
          16.9572578,
          45.9282724
        ]
      },
      "properties": {
        "id": 1224872923,
        "osm_type": "way",
        "name": "Kuća za odmor Ziva",
        "tourism": "apartment"
      }
    },
    {
      "type": "Feature",
      "geometry": {
        "type": "Point",
        "coordinates": [
          16.9385304,
          45.9060566
        ]
      },
      "properties": {
        "id": 1224873577,
        "osm_type": "way",
        "name": "Marinac",
        "tourism": "apartment"
      }
    },
    {
      "type": "Feature",
      "geometry": {
        "type": "Point",
        "coordinates": [
          16.8905267,
          45.9487584
        ]
      },
      "properties": {
        "id": 1225166439,
        "osm_type": "way",
        "name": "Kuća za odmor Krolo",
        "tourism": "apartment"
      }
    },
    {
      "type": "Feature",
      "geometry": {
        "type": "Point",
        "coordinates": [
          16.8725533,
          45.8780453
        ]
      },
      "properties": {
        "id": 1239123797,
        "osm_type": "way",
        "name": "Lidija",
        "tourism": "apartment"
      }
    },
    {
      "type": "Feature",
      "geometry": {
        "type": "Point",
        "coordinates": [
          16.7262677,
          45.9444055
        ]
      },
      "properties": {
        "id": 1239369167,
        "osm_type": "way",
        "name": "Pukec",
        "tourism": "apartment"
      }
    },
    {
      "type": "Feature",
      "geometry": {
        "type": "Point",
        "coordinates": [
          16.8956546,
          45.9251563
        ]
      },
      "properties": {
        "id": 1389863147,
        "osm_type": "way",
        "name": "Kamp Vinia",
        "tourism": "caravan_site"
      }
    },
    {
      "type": "Feature",
      "geometry": {
        "type": "Point",
        "coordinates": [
          16.9330712,
          45.9099819
        ]
      },
      "properties": {
        "id": 1393230310,
        "osm_type": "way",
        "name": "Vila Matić",
        "tourism": "apartment"
      }
    },
    {
      "type": "Feature",
      "geometry": {
        "type": "Point",
        "coordinates": [
          16.9332646,
          45.9100634
        ]
      },
      "properties": {
        "id": 1393230311,
        "osm_type": "way",
        "name": "Vila Matić",
        "tourism": "apartment"
      }
    },
    {
      "type": "Feature",
      "geometry": {
        "type": "Point",
        "coordinates": [
          16.9334674,
          45.9101494
        ]
      },
      "properties": {
        "id": 1393230312,
        "osm_type": "way",
        "name": "Vila Matić",
        "tourism": "apartment"
      }
    },
    {
      "type": "Feature",
      "geometry": {
        "type": "Point",
        "coordinates": [
          16.9336499,
          45.9102369
        ]
      },
      "properties": {
        "id": 1393230313,
        "osm_type": "way",
        "name": "Vila Matić",
        "tourism": "apartment"
      }
    },
    {
      "type": "Feature",
      "geometry": {
        "type": "Point",
        "coordinates": [
          16.7809378,
          45.9410325
        ]
      },
      "properties": {
        "id": 1396579215,
        "osm_type": "way",
        "tourism": "hotel"
      }
    }
  ]
}