{
  "type": "FeatureCollection",
  "features": [
    {
      "type": "Feature",
      "geometry": {
        "type": "Point",
        "coordinates": [
          31.05994,
          39.3549471
        ]
      },
      "properties": {
        "id": 1309356099,
        "osm_type": "node",
        "name": "Başla",
        "tourism": "camp_site"
      }
    },
    {
      "type": "Feature",
      "geometry": {
        "type": "Point",
        "coordinates": [
          30.5177981,
          39.7780573
        ]
      },
      "properties": {
        "id": 3686774364,
        "osm_type": "node",
        "name": "Hoteleski",
        "tourism": "hostel",
        "phone": "+90 505 204 8060",
        "website": "https://www.eskisehirhostel.com/"
      }
    },
    {
      "type": "Feature",
      "geometry": {
        "type": "Point",
        "coordinates": [
          30.5204048,
          39.7755661
        ]
      },
      "properties": {
        "id": 3755864015,
        "osm_type": "node",
        "name": "Bulvar Hotel",
        "tourism": "hostel",
        "phone": "+90 222 335 05 15",
        "website": "http://bulvarhostel.com"
      }
    },
    {
      "type": "Feature",
      "geometry": {
        "type": "Point",
        "coordinates": [
          30.4970637,
          39.7835777
        ]
      },
      "properties": {
        "id": 3882431309,
        "osm_type": "node",
        "name": "Ramazan Plaza by Wyndham",
        "tourism": "hotel"
      }
    },
    {
      "type": "Feature",
      "geometry": {
        "type": "Point",
        "coordinates": [
          30.7015461,
          39.2301382
        ]
      },
      "properties": {
        "id": 4061414040,
        "osm_type": "node",
        "name": "MIdashan",
        "tourism": "hostel"
      }
    },
    {
      "type": "Feature",
      "geometry": {
        "type": "Point",
        "coordinates": [
          30.6739993,
          39.4358145
        ]
      },
      "properties": {
        "id": 4432652999,
        "osm_type": "node",
        "name": "Santral Park Bungalovları",
        "tourism": "chalet"
      }
    },
    {
      "type": "Feature",
      "geometry": {
        "type": "Point",
        "coordinates": [
          30.6150879,
          39.450796
        ]
      },
      "properties": {
        "id": 4434854639,
        "osm_type": "node",
        "tourism": "hostel"
      }
    },
    {
      "type": "Feature",
      "geometry": {
        "type": "Point",
        "coordinates": [
          30.5091164,
          39.7846687
        ]
      },
      "properties": {
        "id": 4996937121,
        "osm_type": "node",
        "tourism": "hotel",
        "website": "http://www.arwenresidence.com/"
      }
    },
    {
      "type": "Feature",
      "geometry": {
        "type": "Point",
        "coordinates": [
          30.7013463,
          39.2301502
        ]
      },
      "properties": {
        "id": 5030101635,
        "osm_type": "node",
        "name": "Midas Han",
        "tourism": "camp_site"
      }
    },
    {
      "type": "Feature",
      "geometry": {
        "type": "Point",
        "coordinates": [
          30.5169471,
          39.7783179
        ]
      },
      "properties": {
        "id": 5216164187,
        "osm_type": "node",
        "name": "Castillo Otel",
        "tourism": "hotel",
        "phone": "+90 222 320 0303",
        "website": "http://www.castillootel.com/"
      }
    },
    {
      "type": "Feature",
      "geometry": {
        "type": "Point",
        "coordinates": [
          30.5167804,
          39.7768168
        ]
      },
      "properties": {
        "id": 6174673896,
        "osm_type": "node",
        "tourism": "hotel"
      }
    },
    {
      "type": "Feature",
      "geometry": {
        "type": "Point",
        "coordinates": [
          30.5165527,
          39.7768157
        ]
      },
      "properties": {
        "id": 6174673897,
        "osm_type": "node",
        "tourism": "hotel"
      }
    },
    {
      "type": "Feature",
      "geometry": {
        "type": "Point",
        "coordinates": [
          30.5660428,
          39.5977034
        ]
      },
      "properties": {
        "id": 6248674188,
        "osm_type": "node",
        "tourism": "alpine_hut"
      }
    },
    {
      "type": "Feature",
      "geometry": {
        "type": "Point",
        "coordinates": [
          30.508859,
          39.7792595
        ]
      },
      "properties": {
        "id": 6722367250,
        "osm_type": "node",
        "name": "Olcaylar Otel",
        "tourism": "hotel",
        "phone": "+902222218943"
      }
    },
    {
      "type": "Feature",
      "geometry": {
        "type": "Point",
        "coordinates": [
          30.5181932,
          39.7972878
        ]
      },
      "properties": {
        "id": 7764808560,
        "osm_type": "node",
        "name": "Eskişehir Polis Evi",
        "tourism": "guest_house",
        "website": "https://www.polisevi.com/eskisehir-polisevi/"
      }
    },
    {
      "type": "Feature",
      "geometry": {
        "type": "Point",
        "coordinates": [
          30.5309062,
          39.7903353
        ]
      },
      "properties": {
        "id": 8543906518,
        "osm_type": "node",
        "tourism": "camp_site"
      }
    },
    {
      "type": "Feature",
      "geometry": {
        "type": "Point",
        "coordinates": [
          30.5189904,
          39.7774651
        ]
      },
      "properties": {
        "id": 8791564520,
        "osm_type": "node",
        "name": "manzara otel",
        "tourism": "hotel"
      }
    },
    {
      "type": "Feature",
      "geometry": {
        "type": "Point",
        "coordinates": [
          30.5101132,
          39.7785114
        ]
      },
      "properties": {
        "id": 8813483443,
        "osm_type": "node",
        "name": "Deeps",
        "tourism": "hostel",
        "contact:website": "https://www.bihostel.com/ankara/"
      }
    },
    {
      "type": "Feature",
      "geometry": {
        "type": "Point",
        "coordinates": [
          30.6739021,
          39.351287
        ]
      },
      "properties": {
        "id": 9775109563,
        "osm_type": "node",
        "tourism": "camp_site"
      }
    },
    {
      "type": "Feature",
      "geometry": {
        "type": "Point",
        "coordinates": [
          30.5239708,
          39.7742197
        ]
      },
      "properties": {
        "id": 9914764218,
        "osm_type": "node",
        "name": "Hotel Soyiç",
        "tourism": "hotel"
      }
    },
    {
      "type": "Feature",
      "geometry": {
        "type": "Point",
        "coordinates": [
          31.2421421,
          39.5143515
        ]
      },
      "properties": {
        "id": 9953649531,
        "osm_type": "node",
        "name": "Karakayalar Kamp Alanı",
        "tourism": "camp_site"
      }
    },
    {
      "type": "Feature",
      "geometry": {
        "type": "Point",
        "coordinates": [
          30.517586,
          39.7698229
        ]
      },
      "properties": {
        "id": 10001289763,
        "osm_type": "node",
        "name": "The Breeze Otel",
        "tourism": "hotel",
        "phone": "+90 222 220 69 09",
        "website": "https://www.brzhotel.com/"
      }
    },
    {
      "type": "Feature",
      "geometry": {
        "type": "Point",
        "coordinates": [
          30.5192701,
          39.7742624
        ]
      },
      "properties": {
        "id": 10134545517,
        "osm_type": "node",
        "name": "Defa termal otel",
        "tourism": "hotel"
      }
    },
    {
      "type": "Feature",
      "geometry": {
        "type": "Point",
        "coordinates": [
          30.5031748,
          39.7669586
        ]
      },
      "properties": {
        "id": 10572333455,
        "osm_type": "node",
        "name": "Leto City Hotel",
        "tourism": "hotel",
        "check_date": "2023-01-21"
      }
    },
    {
      "type": "Feature",
      "geometry": {
        "type": "Point",
        "coordinates": [
          30.4996414,
          39.7851511
        ]
      },
      "properties": {
        "id": 10573275394,
        "osm_type": "node",
        "tourism": "apartment",
        "check_date": "2023-01-21"
      }
    },
    {
      "type": "Feature",
      "geometry": {
        "type": "Point",
        "coordinates": [
          30.5125353,
          39.7830372
        ]
      },
      "properties": {
        "id": 11058167256,
        "osm_type": "node",
        "name": "Yenilik Suit",
        "tourism": "hotel",
        "phone": "+905456990526",
        "website": "instagram.com/yenilik_suit"
      }
    },
    {
      "type": "Feature",
      "geometry": {
        "type": "Point",
        "coordinates": [
          30.5161,
          39.7800587
        ]
      },
      "properties": {
        "id": 11058170575,
        "osm_type": "node",
        "name": "Black Hotel",
        "tourism": "hotel"
      }
    },
    {
      "type": "Feature",
      "geometry": {
        "type": "Point",
        "coordinates": [
          30.5126191,
          39.782993
        ]
      },
      "properties": {
        "id": 11059364837,
        "osm_type": "node",
        "tourism": "hotel"
      }
    },
    {
      "type": "Feature",
      "geometry": {
        "type": "Point",
        "coordinates": [
          30.5029137,
          39.7846818
        ]
      },
      "properties": {
        "id": 11059910051,
        "osm_type": "node",
        "name": "Modernity ****",
        "tourism": "hotel"
      }
    },
    {
      "type": "Feature",
      "geometry": {
        "type": "Point",
        "coordinates": [
          30.5199734,
          39.7767902
        ]
      },
      "properties": {
        "id": 11061192442,
        "osm_type": "node",
        "name": "Lost Angels Residence",
        "tourism": "hotel"
      }
    },
    {
      "type": "Feature",
      "geometry": {
        "type": "Point",
        "coordinates": [
          31.5543559,
          39.4521624
        ]
      },
      "properties": {
        "id": 11563820442,
        "osm_type": "node",
        "name": "Sivrihisar Kamp Alanı",
        "tourism": "camp_site",
        "tents": "yes"
      }
    },
    {
      "type": "Feature",
      "geometry": {
        "type": "Point",
        "coordinates": [
          30.707615,
          39.194994
        ]
      },
      "properties": {
        "id": 11611477969,
        "osm_type": "node",
        "tourism": "camp_site"
      }
    },
    {
      "type": "Feature",
      "geometry": {
        "type": "Point",
        "coordinates": [
          31.5389433,
          39.4485375
        ]
      },
      "properties": {
        "id": 12023251470,
        "osm_type": "node",
        "name": "Çini otel",
        "tourism": "hotel"
      }
    },
    {
      "type": "Feature",
      "geometry": {
        "type": "Point",
        "coordinates": [
          30.4238546,
          39.7711836
        ]
      },
      "properties": {
        "id": 12110501508,
        "osm_type": "node",
        "name": "Velesbid Eskişehir Bisiklet Derneği",
        "tourism": "camp_site",
        "opening_hours": "24/7",
        "tents": "yes",
        "website": "https://www.velesbid.org/"
      }
    },
    {
      "type": "Feature",
      "geometry": {
        "type": "Point",
        "coordinates": [
          30.5215398,
          39.784827
        ]
      },
      "properties": {
        "id": 12519679902,
        "osm_type": "node",
        "name": "مصطفى عباس",
        "tourism": "apartment"
      }
    },
    {
      "type": "Feature",
      "geometry": {
        "type": "Point",
        "coordinates": [
          30.5215149,
          39.7848266
        ]
      },
      "properties": {
        "id": 12519683401,
        "osm_type": "node",
        "name": "مصطفى عباس",
        "tourism": "apartment"
      }
    },
    {
      "type": "Feature",
      "geometry": {
        "type": "Point",
        "coordinates": [
          30.5207396,
          39.7849596
        ]
      },
      "properties": {
        "id": 12519683501,
        "osm_type": "node",
        "name": "Mustafa Abbas",
        "tourism": "apartment"
      }
    },
    {
      "type": "Feature",
      "geometry": {
        "type": "Point",
        "coordinates": [
          30.5207246,
          39.7849986
        ]
      },
      "properties": {
        "id": 12519683601,
        "osm_type": "node",
        "name": "Mustafa Abbas",
        "tourism": "apartment"
      }
    },
    {
      "type": "Feature",
      "geometry": {
        "type": "Point",
        "coordinates": [
          30.5030048,
          39.7849038
        ]
      },
      "properties": {
        "id": 12768629940,
        "osm_type": "node",
        "name": "Sam Royal Hotel",
        "tourism": "hotel",
        "check_date": "2025-04-19"
      }
    },
    {
      "type": "Feature",
      "geometry": {
        "type": "Point",
        "coordinates": [
          30.5842173,
          39.9871555
        ]
      },
      "properties": {
        "id": 13159433888,
        "osm_type": "node",
        "name": "Hotel Adones",
        "tourism": "hotel"
      }
    },
    {
      "type": "Feature",
      "geometry": {
        "type": "Point",
        "coordinates": [
          30.5862246,
          39.9873276
        ]
      },
      "properties": {
        "id": 13159441956,
        "osm_type": "node",
        "name": "Sakarı Ilıca Kaplıcaları Tatil Köyü",
        "tourism": "apartment"
      }
    },
    {
      "type": "Feature",
      "geometry": {
        "type": "Point",
        "coordinates": [
          31.7414802,
          39.5474296
        ]
      },
      "properties": {
        "id": 13234363801,
        "osm_type": "node",
        "tourism": "camp_site"
      }
    },
    {
      "type": "Feature",
      "geometry": {
        "type": "Point",
        "coordinates": [
          31.6671565,
          39.5013698
        ]
      },
      "properties": {
        "id": 13236012201,
        "osm_type": "node",
        "tourism": "camp_site"
      }
    },
    {
      "type": "Feature",
      "geometry": {
        "type": "Point",
        "coordinates": [
          31.6743946,
          39.4441376
        ]
      },
      "properties": {
        "id": 13236283402,
        "osm_type": "node",
        "tourism": "camp_site"
      }
    },
    {
      "type": "Feature",
      "geometry": {
        "type": "Point",
        "coordinates": [
          31.6254053,
          39.4122131
        ]
      },
      "properties": {
        "id": 13236620101,
        "osm_type": "node",
        "tourism": "camp_site"
      }
    },
    {
      "type": "Feature",
      "geometry": {
        "type": "Point",
        "coordinates": [
          30.5079071,
          39.7879985
        ]
      },
      "properties": {
        "id": 13765475302,
        "osm_type": "node",
        "name": "Inn Town Hotel",
        "tourism": "hotel",
        "website": "https://inntownhotel.com",
        "check_date": "2026-04-27"
      }
    },
    {
      "type": "Feature",
      "geometry": {
        "type": "Point",
        "coordinates": [
          30.4770972,
          39.7817766
        ]
      },
      "properties": {
        "id": 275252831,
        "osm_type": "way",
        "name": "Anemon Hotel",
        "tourism": "hotel"
      }
    },
    {
      "type": "Feature",
      "geometry": {
        "type": "Point",
        "coordinates": [
          30.5195018,
          39.7754313
        ]
      },
      "properties": {
        "id": 275252834,
        "osm_type": "way",
        "name": "Porsuk Butik Otel",
        "tourism": "hotel",
        "phone": "+90 222 322 1100",
        "website": "http://www.porsukbutikotel.com/"
      }
    },
    {
      "type": "Feature",
      "geometry": {
        "type": "Point",
        "coordinates": [
          30.5129452,
          39.7805892
        ]
      },
      "properties": {
        "id": 278687614,
        "osm_type": "way",
        "name": "Ibis",
        "tourism": "hotel"
      }
    },
    {
      "type": "Feature",
      "geometry": {
        "type": "Point",
        "coordinates": [
          30.5235461,
          39.7578363
        ]
      },
      "properties": {
        "id": 326688428,
        "osm_type": "way",
        "name": "Tasigo Eskişehir Hotel",
        "tourism": "hotel"
      }
    },
    {
      "type": "Feature",
      "geometry": {
        "type": "Point",
        "coordinates": [
          30.506558,
          39.7885395
        ]
      },
      "properties": {
        "id": 326701493,
        "osm_type": "way",
        "name": "Sör Otel",
        "tourism": "hotel"
      }
    },
    {
      "type": "Feature",
      "geometry": {
        "type": "Point",
        "coordinates": [
          30.4991276,
          39.7829131
        ]
      },
      "properties": {
        "id": 369043571,
        "osm_type": "way",
        "name": "The Merlot Hotel",
        "tourism": "hotel",
        "phone": "+90 222 310 05 00",
        "website": "https://merlot.com.tr/"
      }
    },
    {
      "type": "Feature",
      "geometry": {
        "type": "Point",
        "coordinates": [
          30.4978553,
          39.7899458
        ]
      },
      "properties": {
        "id": 374591227,
        "osm_type": "way",
        "name": "Otel Anadolu",
        "tourism": "hotel"
      }
    },
    {
      "type": "Feature",
      "geometry": {
        "type": "Point",
        "coordinates": [
          30.6744133,
          39.4355006
        ]
      },
      "properties": {
        "id": 445920830,
        "osm_type": "way",
        "name": "Santral Park",
        "tourism": "camp_site"
      }
    },
    {
      "type": "Feature",
      "geometry": {
        "type": "Point",
        "coordinates": [
          30.3358962,
          39.6153193
        ]
      },
      "properties": {
        "id": 551724152,
        "osm_type": "way",
        "name": "Kızılay Gençlik Kampı",
        "tourism": "camp_site"
      }
    },
    {
      "type": "Feature",
      "geometry": {
        "type": "Point",
        "coordinates": [
          30.4801487,
          39.7487165
        ]
      },
      "properties": {
        "id": 699411988,
        "osm_type": "way",
        "name": "Misafirhane",
        "tourism": "hotel"
      }
    },
    {
      "type": "Feature",
      "geometry": {
        "type": "Point",
        "coordinates": [
          30.4820017,
          39.7493335
        ]
      },
      "properties": {
        "id": 699411989,
        "osm_type": "way",
        "name": "Uygulama Oteli",
        "tourism": "hotel"
      }
    },
    {
      "type": "Feature",
      "geometry": {
        "type": "Point",
        "coordinates": [
          30.4992426,
          39.7586696
        ]
      },
      "properties": {
        "id": 700564915,
        "osm_type": "way",
        "name": "Park Dedeman Otel Eskişehir",
        "tourism": "hotel",
        "website": "https://www.dedeman.com/oteller/park-dedeman-eskisehir",
        "check_date": "2024-08-30"
      }
    },
    {
      "type": "Feature",
      "geometry": {
        "type": "Point",
        "coordinates": [
          30.5116583,
          39.7658647
        ]
      },
      "properties": {
        "id": 713337903,
        "osm_type": "way",
        "name": "Öğretmen Evi",
        "tourism": "hotel"
      }
    },
    {
      "type": "Feature",
      "geometry": {
        "type": "Point",
        "coordinates": [
          30.5261251,
          39.7636103
        ]
      },
      "properties": {
        "id": 927372114,
        "osm_type": "way",
        "name": "Arasta Konak Butik Otel",
        "tourism": "hotel"
      }
    },
    {
      "type": "Feature",
      "geometry": {
        "type": "Point",
        "coordinates": [
          30.5000212,
          39.785151
        ]
      },
      "properties": {
        "id": 982789478,
        "osm_type": "way",
        "name": "Hilton Garden Inn Eskişehir",
        "tourism": "hotel",
        "phone": "+90 222 217 8888",
        "website": "https://www.hilton.com/en/hotels/eskesgi-hilton-garden-inn-eskisehir/"
      }
    },
    {
      "type": "Feature",
      "geometry": {
        "type": "Point",
        "coordinates": [
          31.0369275,
          39.3735085
        ]
      },
      "properties": {
        "id": 1058371799,
        "osm_type": "way",
        "name": "Çifteler Öğretmenevi",
        "tourism": "guest_house"
      }
    },
    {
      "type": "Feature",
      "geometry": {
        "type": "Point",
        "coordinates": [
          30.4796616,
          39.7883168
        ]
      },
      "properties": {
        "id": 1060205575,
        "osm_type": "way",
        "name": "Ali Güven Uygulama Oteli",
        "tourism": "hotel"
      }
    },
    {
      "type": "Feature",
      "geometry": {
        "type": "Point",
        "coordinates": [
          31.4955729,
          39.8658947
        ]
      },
      "properties": {
        "id": 1237617094,
        "osm_type": "way",
        "name": "Ş. Ömer Halisdemir Konukevi",
        "tourism": "guest_house"
      }
    },
    {
      "type": "Feature",
      "geometry": {
        "type": "Point",
        "coordinates": [
          31.4956909,
          39.8657273
        ]
      },
      "properties": {
        "id": 1237617602,
        "osm_type": "way",
        "name": "Mihalıççık Belediye Misafirhanesi",
        "tourism": "apartment"
      }
    },
    {
      "type": "Feature",
      "geometry": {
        "type": "Point",
        "coordinates": [
          30.5094738,
          39.7780286
        ]
      },
      "properties": {
        "id": 1374860999,
        "osm_type": "way",
        "name": "Madame Tadia Otel",
        "tourism": "hotel"
      }
    },
    {
      "type": "Feature",
      "geometry": {
        "type": "Point",
        "coordinates": [
          30.5024147,
          39.7850168
        ]
      },
      "properties": {
        "id": 1374861378,
        "osm_type": "way",
        "name": "Dedepark Otel",
        "tourism": "hotel",
        "opening_hours": "24/7",
        "check_date": "2025-04-19"
      }
    },
    {
      "type": "Feature",
      "geometry": {
        "type": "Point",
        "coordinates": [
          30.5062534,
          39.7832072
        ]
      },
      "properties": {
        "id": 1374861438,
        "osm_type": "way",
        "name": "Capella Otel",
        "tourism": "hotel"
      }
    }
  ]
}