{
  "type": "FeatureCollection",
  "features": [
    {
      "type": "Feature",
      "geometry": {
        "type": "Point",
        "coordinates": [
          23.2168547,
          43.3892972
        ]
      },
      "properties": {
        "id": 773939852,
        "osm_type": "node",
        "name": "Ринг",
        "tourism": "hotel"
      }
    },
    {
      "type": "Feature",
      "geometry": {
        "type": "Point",
        "coordinates": [
          23.2160436,
          43.3892389
        ]
      },
      "properties": {
        "id": 773939869,
        "osm_type": "node",
        "name": "Аугуста",
        "tourism": "hotel"
      }
    },
    {
      "type": "Feature",
      "geometry": {
        "type": "Point",
        "coordinates": [
          23.0807016,
          43.1889675
        ]
      },
      "properties": {
        "id": 1177297597,
        "osm_type": "node",
        "name": "х.Ком (нова)",
        "tourism": "alpine_hut",
        "website": "http://www.bulgarian-mountains.com/Huts/Stara/KomNova"
      }
    },
    {
      "type": "Feature",
      "geometry": {
        "type": "Point",
        "coordinates": [
          23.07859,
          43.181885
        ]
      },
      "properties": {
        "id": 1177368214,
        "osm_type": "node",
        "name": "х.Ком (стара)",
        "tourism": "alpine_hut",
        "website": "http://www.bulgarian-mountains.com/Huts/Stara/KomStara"
      }
    },
    {
      "type": "Feature",
      "geometry": {
        "type": "Point",
        "coordinates": [
          22.8609777,
          43.327344
        ]
      },
      "properties": {
        "id": 4679561422,
        "osm_type": "node",
        "name": "х. Копрен",
        "tourism": "alpine_hut"
      }
    },
    {
      "type": "Feature",
      "geometry": {
        "type": "Point",
        "coordinates": [
          23.0886488,
          43.2323386
        ]
      },
      "properties": {
        "id": 4798930454,
        "osm_type": "node",
        "name": "Бунгала \"Здравец\"",
        "tourism": "chalet"
      }
    },
    {
      "type": "Feature",
      "geometry": {
        "type": "Point",
        "coordinates": [
          23.2387464,
          43.8223248
        ]
      },
      "properties": {
        "id": 5787567754,
        "osm_type": "node",
        "name": "Славянка",
        "tourism": "hotel"
      }
    },
    {
      "type": "Feature",
      "geometry": {
        "type": "Point",
        "coordinates": [
          22.9744297,
          43.43376
        ]
      },
      "properties": {
        "id": 6356256089,
        "osm_type": "node",
        "name": "Сухин дол",
        "tourism": "hotel"
      }
    },
    {
      "type": "Feature",
      "geometry": {
        "type": "Point",
        "coordinates": [
          23.2168881,
          43.1387358
        ]
      },
      "properties": {
        "id": 6416354224,
        "osm_type": "node",
        "tourism": "alpine_hut"
      }
    },
    {
      "type": "Feature",
      "geometry": {
        "type": "Point",
        "coordinates": [
          23.0166042,
          43.3764547
        ]
      },
      "properties": {
        "id": 6450054976,
        "osm_type": "node",
        "name": "Комплекс Под Чардака",
        "tourism": "hotel"
      }
    },
    {
      "type": "Feature",
      "geometry": {
        "type": "Point",
        "coordinates": [
          23.2362649,
          43.8276316
        ]
      },
      "properties": {
        "id": 6573740629,
        "osm_type": "node",
        "name": "Moskwa",
        "tourism": "hotel"
      }
    },
    {
      "type": "Feature",
      "geometry": {
        "type": "Point",
        "coordinates": [
          23.1220922,
          43.2286748
        ]
      },
      "properties": {
        "id": 6673445088,
        "osm_type": "node",
        "name": "Komhotel",
        "tourism": "hotel",
        "phone": "+359 88 688 3804"
      }
    },
    {
      "type": "Feature",
      "geometry": {
        "type": "Point",
        "coordinates": [
          22.9914326,
          43.7722338
        ]
      },
      "properties": {
        "id": 7761548437,
        "osm_type": "node",
        "name": "Motel Werner Ertl",
        "tourism": "motel",
        "phone": "+359 89 737 0710"
      }
    },
    {
      "type": "Feature",
      "geometry": {
        "type": "Point",
        "coordinates": [
          22.9741752,
          43.4336891
        ]
      },
      "properties": {
        "id": 8899961316,
        "osm_type": "node",
        "name": "Сухин дол",
        "tourism": "hotel"
      }
    },
    {
      "type": "Feature",
      "geometry": {
        "type": "Point",
        "coordinates": [
          23.2928115,
          43.1890953
        ]
      },
      "properties": {
        "id": 10140527484,
        "osm_type": "node",
        "name": "Елина",
        "tourism": "guest_house"
      }
    },
    {
      "type": "Feature",
      "geometry": {
        "type": "Point",
        "coordinates": [
          23.2963257,
          43.1925239
        ]
      },
      "properties": {
        "id": 10140544229,
        "osm_type": "node",
        "name": "Панорама",
        "tourism": "guest_house"
      }
    },
    {
      "type": "Feature",
      "geometry": {
        "type": "Point",
        "coordinates": [
          23.292451,
          43.1940973
        ]
      },
      "properties": {
        "id": 10140544948,
        "osm_type": "node",
        "name": "Хисаря",
        "tourism": "guest_house"
      }
    },
    {
      "type": "Feature",
      "geometry": {
        "type": "Point",
        "coordinates": [
          22.8784103,
          43.3812089
        ]
      },
      "properties": {
        "id": 10875207448,
        "osm_type": "node",
        "name": "Кипро",
        "tourism": "guest_house",
        "website": "https://kiprobg.com",
        "check_date": "2023-05-07"
      }
    },
    {
      "type": "Feature",
      "geometry": {
        "type": "Point",
        "coordinates": [
          23.1871035,
          43.3881152
        ]
      },
      "properties": {
        "id": 11715893708,
        "osm_type": "node",
        "name": "Почивна станция на ОД на МВР",
        "tourism": "chalet"
      }
    },
    {
      "type": "Feature",
      "geometry": {
        "type": "Point",
        "coordinates": [
          23.1318519,
          43.2345654
        ]
      },
      "properties": {
        "id": 11765918913,
        "osm_type": "node",
        "name": "Green Hill",
        "tourism": "guest_house",
        "phone": "+359 886 898 164",
        "website": "https://www.green-hill.bg/"
      }
    },
    {
      "type": "Feature",
      "geometry": {
        "type": "Point",
        "coordinates": [
          22.8538636,
          43.328019
        ]
      },
      "properties": {
        "id": 11775185495,
        "osm_type": "node",
        "name": "Даяница",
        "tourism": "guest_house",
        "check_date": "2024-03-31"
      }
    },
    {
      "type": "Feature",
      "geometry": {
        "type": "Point",
        "coordinates": [
          23.0807345,
          43.3878407
        ]
      },
      "properties": {
        "id": 118718947,
        "osm_type": "way",
        "name": "Балова Шума",
        "tourism": "hotel"
      }
    },
    {
      "type": "Feature",
      "geometry": {
        "type": "Point",
        "coordinates": [
          22.8562245,
          43.3302829
        ]
      },
      "properties": {
        "id": 236260510,
        "osm_type": "way",
        "name": "Сталин",
        "tourism": "hostel"
      }
    },
    {
      "type": "Feature",
      "geometry": {
        "type": "Point",
        "coordinates": [
          23.2858957,
          43.1921367
        ]
      },
      "properties": {
        "id": 291796878,
        "osm_type": "way",
        "name": "СПА хотел Съни Гардън",
        "tourism": "hotel"
      }
    },
    {
      "type": "Feature",
      "geometry": {
        "type": "Point",
        "coordinates": [
          23.2875861,
          43.1932435
        ]
      },
      "properties": {
        "id": 291796879,
        "osm_type": "way",
        "name": "Хотел Тинтява",
        "tourism": "hotel"
      }
    },
    {
      "type": "Feature",
      "geometry": {
        "type": "Point",
        "coordinates": [
          23.2838392,
          43.1905952
        ]
      },
      "properties": {
        "id": 291800005,
        "osm_type": "way",
        "tourism": "hotel"
      }
    },
    {
      "type": "Feature",
      "geometry": {
        "type": "Point",
        "coordinates": [
          23.2824149,
          43.190245
        ]
      },
      "properties": {
        "id": 291800007,
        "osm_type": "way",
        "name": "Комплекс Чинарите",
        "tourism": "hotel"
      }
    },
    {
      "type": "Feature",
      "geometry": {
        "type": "Point",
        "coordinates": [
          23.2799666,
          43.1849847
        ]
      },
      "properties": {
        "id": 291806750,
        "osm_type": "way",
        "name": "Къща за гости Св. Георги",
        "tourism": "hotel"
      }
    },
    {
      "type": "Feature",
      "geometry": {
        "type": "Point",
        "coordinates": [
          23.2809947,
          43.1860951
        ]
      },
      "properties": {
        "id": 291806751,
        "osm_type": "way",
        "name": "СПА хотел \"АТА\"",
        "tourism": "hotel"
      }
    },
    {
      "type": "Feature",
      "geometry": {
        "type": "Point",
        "coordinates": [
          22.8325193,
          43.3649005
        ]
      },
      "properties": {
        "id": 300558987,
        "osm_type": "way",
        "name": "х. Явор",
        "tourism": "alpine_hut"
      }
    },
    {
      "type": "Feature",
      "geometry": {
        "type": "Point",
        "coordinates": [
          23.3046837,
          43.1520391
        ]
      },
      "properties": {
        "id": 304949528,
        "osm_type": "way",
        "name": "Бялата вода",
        "tourism": "alpine_hut"
      }
    },
    {
      "type": "Feature",
      "geometry": {
        "type": "Point",
        "coordinates": [
          23.237654,
          43.1766712
        ]
      },
      "properties": {
        "id": 428755131,
        "osm_type": "way",
        "name": "Минкови Бани",
        "tourism": "hotel"
      }
    },
    {
      "type": "Feature",
      "geometry": {
        "type": "Point",
        "coordinates": [
          23.2377701,
          43.1763879
        ]
      },
      "properties": {
        "id": 428895589,
        "osm_type": "way",
        "tourism": "hotel"
      }
    },
    {
      "type": "Feature",
      "geometry": {
        "type": "Point",
        "coordinates": [
          23.2240016,
          43.4091297
        ]
      },
      "properties": {
        "id": 431896324,
        "osm_type": "way",
        "name": "Парк-хотел Житомир",
        "tourism": "hotel"
      }
    },
    {
      "type": "Feature",
      "geometry": {
        "type": "Point",
        "coordinates": [
          23.1280342,
          43.2390956
        ]
      },
      "properties": {
        "id": 438618480,
        "osm_type": "way",
        "name": "Кръстева къща",
        "tourism": "guest_house"
      }
    },
    {
      "type": "Feature",
      "geometry": {
        "type": "Point",
        "coordinates": [
          23.1270124,
          43.1192755
        ]
      },
      "properties": {
        "id": 461163421,
        "osm_type": "way",
        "name": "Петрохански кристал",
        "tourism": "guest_house",
        "phone": "+359899643022",
        "check_date": "2025-06-02"
      }
    },
    {
      "type": "Feature",
      "geometry": {
        "type": "Point",
        "coordinates": [
          23.2813194,
          43.1883539
        ]
      },
      "properties": {
        "id": 496192371,
        "osm_type": "way",
        "name": "Хотел Вършец",
        "tourism": "hotel"
      }
    },
    {
      "type": "Feature",
      "geometry": {
        "type": "Point",
        "coordinates": [
          23.2910894,
          43.198778
        ]
      },
      "properties": {
        "id": 496192401,
        "osm_type": "way",
        "name": "Исаева къща",
        "tourism": "guest_house"
      }
    },
    {
      "type": "Feature",
      "geometry": {
        "type": "Point",
        "coordinates": [
          23.2842772,
          43.1905454
        ]
      },
      "properties": {
        "id": 496197614,
        "osm_type": "way",
        "name": "СПА хотел Медикус",
        "tourism": "hotel"
      }
    },
    {
      "type": "Feature",
      "geometry": {
        "type": "Point",
        "coordinates": [
          23.2895715,
          43.1964632
        ]
      },
      "properties": {
        "id": 496197616,
        "osm_type": "way",
        "name": "Къща за гости Лъчи",
        "tourism": "guest_house"
      }
    },
    {
      "type": "Feature",
      "geometry": {
        "type": "Point",
        "coordinates": [
          23.2900514,
          43.1972095
        ]
      },
      "properties": {
        "id": 496197617,
        "osm_type": "way",
        "tourism": "guest_house"
      }
    },
    {
      "type": "Feature",
      "geometry": {
        "type": "Point",
        "coordinates": [
          23.2370762,
          43.1751946
        ]
      },
      "properties": {
        "id": 512792843,
        "osm_type": "way",
        "name": "Тодорини кукли",
        "tourism": "hotel"
      }
    },
    {
      "type": "Feature",
      "geometry": {
        "type": "Point",
        "coordinates": [
          23.2324286,
          43.8323042
        ]
      },
      "properties": {
        "id": 610540828,
        "osm_type": "way",
        "name": "Трансимпекс",
        "tourism": "hotel"
      }
    },
    {
      "type": "Feature",
      "geometry": {
        "type": "Point",
        "coordinates": [
          23.2331542,
          43.8316783
        ]
      },
      "properties": {
        "id": 610540831,
        "osm_type": "way",
        "name": "Дунав",
        "tourism": "hotel"
      }
    },
    {
      "type": "Feature",
      "geometry": {
        "type": "Point",
        "coordinates": [
          23.233793,
          43.8313656
        ]
      },
      "properties": {
        "id": 610540837,
        "osm_type": "way",
        "name": "Калето",
        "tourism": "hotel"
      }
    },
    {
      "type": "Feature",
      "geometry": {
        "type": "Point",
        "coordinates": [
          23.2247385,
          43.8311202
        ]
      },
      "properties": {
        "id": 611234169,
        "osm_type": "way",
        "name": "Принцеса",
        "tourism": "hotel",
        "phone": "+359 87 898 7128"
      }
    },
    {
      "type": "Feature",
      "geometry": {
        "type": "Point",
        "coordinates": [
          22.8800485,
          43.3839521
        ]
      },
      "properties": {
        "id": 612005282,
        "osm_type": "way",
        "name": "Кипровец",
        "tourism": "hotel"
      }
    },
    {
      "type": "Feature",
      "geometry": {
        "type": "Point",
        "coordinates": [
          22.8808864,
          43.3846981
        ]
      },
      "properties": {
        "id": 612008008,
        "osm_type": "way",
        "name": "Ставровата къща",
        "tourism": "hotel"
      }
    },
    {
      "type": "Feature",
      "geometry": {
        "type": "Point",
        "coordinates": [
          22.8302721,
          43.355044
        ]
      },
      "properties": {
        "id": 612351527,
        "osm_type": "way",
        "name": "х. \"Козарнице\"",
        "tourism": "alpine_hut"
      }
    },
    {
      "type": "Feature",
      "geometry": {
        "type": "Point",
        "coordinates": [
          23.1229116,
          43.2158991
        ]
      },
      "properties": {
        "id": 615550804,
        "osm_type": "way",
        "name": "Ашиклар-Еко хотел",
        "tourism": "hotel"
      }
    },
    {
      "type": "Feature",
      "geometry": {
        "type": "Point",
        "coordinates": [
          23.1266837,
          43.2367129
        ]
      },
      "properties": {
        "id": 615573380,
        "osm_type": "way",
        "name": "Къщата на генерала",
        "tourism": "hotel"
      }
    },
    {
      "type": "Feature",
      "geometry": {
        "type": "Point",
        "coordinates": [
          23.1264177,
          43.239993
        ]
      },
      "properties": {
        "id": 615586452,
        "osm_type": "way",
        "name": "Воденицата",
        "tourism": "hotel",
        "phone": "+359897992118"
      }
    },
    {
      "type": "Feature",
      "geometry": {
        "type": "Point",
        "coordinates": [
          23.1284734,
          43.2359344
        ]
      },
      "properties": {
        "id": 615802429,
        "osm_type": "way",
        "name": "Гелов",
        "tourism": "hotel"
      }
    },
    {
      "type": "Feature",
      "geometry": {
        "type": "Point",
        "coordinates": [
          23.1326162,
          43.2329118
        ]
      },
      "properties": {
        "id": 615813812,
        "osm_type": "way",
        "name": "Деметра",
        "tourism": "hotel",
        "phone": "+359 884 430292;+359 888 579104",
        "website": "https://hotel-demetra.com/"
      }
    },
    {
      "type": "Feature",
      "geometry": {
        "type": "Point",
        "coordinates": [
          23.2277866,
          43.4086506
        ]
      },
      "properties": {
        "id": 685967438,
        "osm_type": "way",
        "name": "Огоста",
        "tourism": "hotel"
      }
    },
    {
      "type": "Feature",
      "geometry": {
        "type": "Point",
        "coordinates": [
          23.1165533,
          43.4094765
        ]
      },
      "properties": {
        "id": 686348426,
        "osm_type": "way",
        "name": "Бисерната къща",
        "tourism": "guest_house"
      }
    },
    {
      "type": "Feature",
      "geometry": {
        "type": "Point",
        "coordinates": [
          23.2265723,
          43.4120455
        ]
      },
      "properties": {
        "id": 689482837,
        "osm_type": "way",
        "name": "Монтана",
        "tourism": "hotel"
      }
    },
    {
      "type": "Feature",
      "geometry": {
        "type": "Point",
        "coordinates": [
          23.0575387,
          43.3978458
        ]
      },
      "properties": {
        "id": 1306748901,
        "osm_type": "way",
        "tourism": "hotel"
      }
    },
    {
      "type": "Feature",
      "geometry": {
        "type": "Point",
        "coordinates": [
          23.1742374,
          43.2095726
        ]
      },
      "properties": {
        "id": 1502611683,
        "osm_type": "way",
        "tourism": "camp_site"
      }
    }
  ]
}