{
  "type": "FeatureCollection",
  "features": [
    {
      "type": "Feature",
      "geometry": {
        "type": "Point",
        "coordinates": [
          28.138049,
          38.4892284
        ]
      },
      "properties": {
        "id": 3944853564,
        "osm_type": "node",
        "name": "Akgül Otel",
        "tourism": "hotel"
      }
    },
    {
      "type": "Feature",
      "geometry": {
        "type": "Point",
        "coordinates": [
          27.4283913,
          38.6142011
        ]
      },
      "properties": {
        "id": 3970062981,
        "osm_type": "node",
        "name": "Arma Otel",
        "tourism": "hotel"
      }
    },
    {
      "type": "Feature",
      "geometry": {
        "type": "Point",
        "coordinates": [
          28.5231463,
          38.3463265
        ]
      },
      "properties": {
        "id": 4506057391,
        "osm_type": "node",
        "tourism": "guest_house"
      }
    },
    {
      "type": "Feature",
      "geometry": {
        "type": "Point",
        "coordinates": [
          27.3545865,
          38.5914401
        ]
      },
      "properties": {
        "id": 5079043030,
        "osm_type": "node",
        "name": "Spilos",
        "tourism": "hotel"
      }
    },
    {
      "type": "Feature",
      "geometry": {
        "type": "Point",
        "coordinates": [
          27.3676377,
          38.6063906
        ]
      },
      "properties": {
        "id": 5156435821,
        "osm_type": "node",
        "tourism": "hotel"
      }
    },
    {
      "type": "Feature",
      "geometry": {
        "type": "Point",
        "coordinates": [
          27.3996431,
          38.6150371
        ]
      },
      "properties": {
        "id": 7793763563,
        "osm_type": "node",
        "name": "Manisa Polis Evi",
        "tourism": "guest_house",
        "website": "https://www.polisevi.com/manisa-polisevi/"
      }
    },
    {
      "type": "Feature",
      "geometry": {
        "type": "Point",
        "coordinates": [
          27.3618761,
          38.6065083
        ]
      },
      "properties": {
        "id": 7968485848,
        "osm_type": "node",
        "name": "Anemon Manisa Otel",
        "tourism": "hotel",
        "phone": "+90 236 233 41 41"
      }
    },
    {
      "type": "Feature",
      "geometry": {
        "type": "Point",
        "coordinates": [
          27.709677,
          38.500632
        ]
      },
      "properties": {
        "id": 8442530790,
        "osm_type": "node",
        "name": "Park Otel Turgutlu",
        "tourism": "hotel",
        "phone": "+90 236 313 62 00"
      }
    },
    {
      "type": "Feature",
      "geometry": {
        "type": "Point",
        "coordinates": [
          27.4347317,
          38.6135527
        ]
      },
      "properties": {
        "id": 8697782084,
        "osm_type": "node",
        "name": "Looks",
        "tourism": "hotel",
        "website": "https://www.lookshotel.com.tr/"
      }
    },
    {
      "type": "Feature",
      "geometry": {
        "type": "Point",
        "coordinates": [
          27.6534749,
          38.4914187
        ]
      },
      "properties": {
        "id": 9342710113,
        "osm_type": "node",
        "name": "Bulut Park Hotels",
        "tourism": "hotel"
      }
    },
    {
      "type": "Feature",
      "geometry": {
        "type": "Point",
        "coordinates": [
          27.4417555,
          38.619034
        ]
      },
      "properties": {
        "id": 10833474986,
        "osm_type": "node",
        "name": "Şehit Makbule Hanım Kız Konuk Evi",
        "tourism": "hostel"
      }
    },
    {
      "type": "Feature",
      "geometry": {
        "type": "Point",
        "coordinates": [
          27.8179398,
          38.9073353
        ]
      },
      "properties": {
        "id": 11281284063,
        "osm_type": "node",
        "name": "Akhisar Sahra Apart",
        "tourism": "motel"
      }
    },
    {
      "type": "Feature",
      "geometry": {
        "type": "Point",
        "coordinates": [
          27.7978858,
          38.9139821
        ]
      },
      "properties": {
        "id": 11519797249,
        "osm_type": "node",
        "name": "FAYTON HOTEL",
        "tourism": "hotel"
      }
    },
    {
      "type": "Feature",
      "geometry": {
        "type": "Point",
        "coordinates": [
          28.9356421,
          38.7326946
        ]
      },
      "properties": {
        "id": 11648911318,
        "osm_type": "node",
        "name": "Selendi Beypınar Kamp Alanı",
        "tourism": "camp_site"
      }
    },
    {
      "type": "Feature",
      "geometry": {
        "type": "Point",
        "coordinates": [
          28.9387019,
          38.7342742
        ]
      },
      "properties": {
        "id": 11648911319,
        "osm_type": "node",
        "name": "Selendi Karavan Park Alanı",
        "tourism": "caravan_site"
      }
    },
    {
      "type": "Feature",
      "geometry": {
        "type": "Point",
        "coordinates": [
          28.8238939,
          38.7058789
        ]
      },
      "properties": {
        "id": 12628758799,
        "osm_type": "node",
        "name": "Şato Köyevi",
        "tourism": "hotel"
      }
    },
    {
      "type": "Feature",
      "geometry": {
        "type": "Point",
        "coordinates": [
          28.8243659,
          38.7061803
        ]
      },
      "properties": {
        "id": 12628758800,
        "osm_type": "node",
        "name": "Şato Kamp Tesisi",
        "tourism": "camp_site"
      }
    },
    {
      "type": "Feature",
      "geometry": {
        "type": "Point",
        "coordinates": [
          27.8131191,
          38.9119267
        ]
      },
      "properties": {
        "id": 13261617101,
        "osm_type": "node",
        "tourism": "caravan_site"
      }
    },
    {
      "type": "Feature",
      "geometry": {
        "type": "Point",
        "coordinates": [
          28.1328863,
          38.4832743
        ]
      },
      "properties": {
        "id": 13348230503,
        "osm_type": "node",
        "name": "Cumhuriyet Otel",
        "tourism": "hotel"
      }
    },
    {
      "type": "Feature",
      "geometry": {
        "type": "Point",
        "coordinates": [
          27.6683767,
          39.1386801
        ]
      },
      "properties": {
        "id": 13479190201,
        "osm_type": "node",
        "name": "Manisa Gençlik Kampı",
        "tourism": "camp_site"
      }
    },
    {
      "type": "Feature",
      "geometry": {
        "type": "Point",
        "coordinates": [
          28.637598,
          38.5263196
        ]
      },
      "properties": {
        "id": 13673877049,
        "osm_type": "node",
        "name": "Manisa Kula Genclik Kampı",
        "tourism": "camp_site"
      }
    },
    {
      "type": "Feature",
      "geometry": {
        "type": "Point",
        "coordinates": [
          28.5993346,
          38.5663129
        ]
      },
      "properties": {
        "id": 389009471,
        "osm_type": "way",
        "name": "Villa Estet Bağ",
        "tourism": "hotel",
        "website": "https://www.yanikulke.com/villa-estet-bag-oteli"
      }
    },
    {
      "type": "Feature",
      "geometry": {
        "type": "Point",
        "coordinates": [
          27.6106541,
          39.1870302
        ]
      },
      "properties": {
        "id": 444517218,
        "osm_type": "way",
        "name": "Öğretmen Evi",
        "tourism": "hotel"
      }
    },
    {
      "type": "Feature",
      "geometry": {
        "type": "Point",
        "coordinates": [
          27.4285647,
          38.6207502
        ]
      },
      "properties": {
        "id": 781308901,
        "osm_type": "way",
        "name": "Manisa Öğretmenevi",
        "tourism": "hotel",
        "phone": "+90 236 231 18 43",
        "website": "https://manisaogretmenevi.com.tr/",
        "check_date": "2026-01-31"
      }
    },
    {
      "type": "Feature",
      "geometry": {
        "type": "Point",
        "coordinates": [
          28.1485365,
          38.4789464
        ]
      },
      "properties": {
        "id": 981993509,
        "osm_type": "way",
        "name": "Salihli Öğretmen Evi ve Akşam Sanat Okulu",
        "tourism": "hotel",
        "check_date": "2025-07-27"
      }
    },
    {
      "type": "Feature",
      "geometry": {
        "type": "Point",
        "coordinates": [
          28.5729067,
          38.3299969
        ]
      },
      "properties": {
        "id": 1056810646,
        "osm_type": "way",
        "name": "Pia Mya",
        "tourism": "hotel"
      }
    },
    {
      "type": "Feature",
      "geometry": {
        "type": "Point",
        "coordinates": [
          27.3987991,
          38.6161374
        ]
      },
      "properties": {
        "id": 1207850739,
        "osm_type": "way",
        "name": "DoubleTree by Hilton Manisa",
        "tourism": "hotel",
        "opening_hours": "24/7",
        "phone": "+90 236 999 11 11",
        "website": "https://www.hilton.com/en/hotels/adbmadi-doubletree-manisa"
      }
    },
    {
      "type": "Feature",
      "geometry": {
        "type": "Point",
        "coordinates": [
          28.9453835,
          38.7609559
        ]
      },
      "properties": {
        "id": 1287291318,
        "osm_type": "way",
        "tourism": "camp_site"
      }
    },
    {
      "type": "Feature",
      "geometry": {
        "type": "Point",
        "coordinates": [
          28.9440311,
          38.7595693
        ]
      },
      "properties": {
        "id": 1287291319,
        "osm_type": "way",
        "name": "Çinan Kamp Alanı",
        "tourism": "camp_site"
      }
    },
    {
      "type": "Feature",
      "geometry": {
        "type": "Point",
        "coordinates": [
          27.3544382,
          38.5914955
        ]
      },
      "properties": {
        "id": 1341111322,
        "osm_type": "way",
        "tourism": "hotel"
      }
    }
  ]
}