{
  "type": "FeatureCollection",
  "features": [
    {
      "type": "Feature",
      "geometry": {
        "type": "Point",
        "coordinates": [
          17.7003368,
          45.167218
        ]
      },
      "properties": {
        "id": 287141308,
        "osm_type": "node",
        "name": "Kereković",
        "tourism": "guest_house"
      }
    },
    {
      "type": "Feature",
      "geometry": {
        "type": "Point",
        "coordinates": [
          18.0121733,
          45.1535312
        ]
      },
      "properties": {
        "id": 829986809,
        "osm_type": "node",
        "name": "Savus",
        "tourism": "hotel",
        "contact:phone": "+38535405888",
        "website": "https://savus-hotel.com/"
      }
    },
    {
      "type": "Feature",
      "geometry": {
        "type": "Point",
        "coordinates": [
          18.0187896,
          45.1545781
        ]
      },
      "properties": {
        "id": 844864394,
        "osm_type": "node",
        "name": "Central",
        "tourism": "hotel",
        "website": "http://www.hotelcentralsb.hr/"
      }
    },
    {
      "type": "Feature",
      "geometry": {
        "type": "Point",
        "coordinates": [
          17.9493308,
          45.2337493
        ]
      },
      "properties": {
        "id": 979948749,
        "osm_type": "node",
        "name": "Planinarska kuća Pljuskara",
        "tourism": "alpine_hut"
      }
    },
    {
      "type": "Feature",
      "geometry": {
        "type": "Point",
        "coordinates": [
          17.7017271,
          45.1631246
        ]
      },
      "properties": {
        "id": 1394636127,
        "osm_type": "node",
        "name": "Lukoil",
        "tourism": "motel"
      }
    },
    {
      "type": "Feature",
      "geometry": {
        "type": "Point",
        "coordinates": [
          18.1552634,
          45.1853915
        ]
      },
      "properties": {
        "id": 1943185746,
        "osm_type": "node",
        "name": "Selna",
        "tourism": "motel",
        "opening_hours": "24/7"
      }
    },
    {
      "type": "Feature",
      "geometry": {
        "type": "Point",
        "coordinates": [
          18.0145264,
          45.1526919
        ]
      },
      "properties": {
        "id": 1987452176,
        "osm_type": "node",
        "name": "Apartmani na Savi",
        "tourism": "guest_house",
        "phone": "+38535411160",
        "website": "http://www.apartmani-na-savi.com.hr/"
      }
    },
    {
      "type": "Feature",
      "geometry": {
        "type": "Point",
        "coordinates": [
          18.010485,
          45.1890741
        ]
      },
      "properties": {
        "id": 1987522950,
        "osm_type": "node",
        "name": "Pansion Antonio",
        "tourism": "guest_house",
        "phone": "+38535415522",
        "website": "http://www.pansion-antonio.hr/"
      }
    },
    {
      "type": "Feature",
      "geometry": {
        "type": "Point",
        "coordinates": [
          17.7488012,
          45.1669558
        ]
      },
      "properties": {
        "id": 3196087801,
        "osm_type": "node",
        "name": "prenoćište",
        "tourism": "guest_house"
      }
    },
    {
      "type": "Feature",
      "geometry": {
        "type": "Point",
        "coordinates": [
          18.011135,
          45.1533172
        ]
      },
      "properties": {
        "id": 3600497830,
        "osm_type": "node",
        "name": "Hostel Levicki",
        "tourism": "hostel",
        "contact:phone": "+385 98 365 000",
        "contact:website": "http://www.hostel-levicki.hr/"
      }
    },
    {
      "type": "Feature",
      "geometry": {
        "type": "Point",
        "coordinates": [
          18.0349346,
          45.1674628
        ]
      },
      "properties": {
        "id": 3642870793,
        "osm_type": "node",
        "name": "Apartment \"Dina\"",
        "tourism": "guest_house"
      }
    },
    {
      "type": "Feature",
      "geometry": {
        "type": "Point",
        "coordinates": [
          18.012447,
          45.1533855
        ]
      },
      "properties": {
        "id": 3673203120,
        "osm_type": "node",
        "name": "Sobe Levicki",
        "tourism": "guest_house",
        "contact:phone": "+385 98 365 000",
        "contact:website": "http://www.sobe-levicki.com/"
      }
    },
    {
      "type": "Feature",
      "geometry": {
        "type": "Point",
        "coordinates": [
          18.4826203,
          45.0855097
        ]
      },
      "properties": {
        "id": 3787793333,
        "osm_type": "node",
        "name": "villa Matija",
        "tourism": "motel"
      }
    },
    {
      "type": "Feature",
      "geometry": {
        "type": "Point",
        "coordinates": [
          18.0038299,
          45.1845741
        ]
      },
      "properties": {
        "id": 4343327630,
        "osm_type": "node",
        "name": "Hotel Garten",
        "tourism": "hotel",
        "phone": "+385 35 465 072",
        "website": "https://www.garten.hr/"
      }
    },
    {
      "type": "Feature",
      "geometry": {
        "type": "Point",
        "coordinates": [
          17.5170826,
          45.2164913
        ]
      },
      "properties": {
        "id": 4376840772,
        "osm_type": "node",
        "name": "Restoran i prenoćište TURIST",
        "tourism": "motel",
        "opening_hours": "24/7",
        "contact:phone": "+385 35 387 010",
        "contact:website": "www.turist.com.hr",
        "check_date": "2025-08-09"
      }
    },
    {
      "type": "Feature",
      "geometry": {
        "type": "Point",
        "coordinates": [
          17.3789738,
          45.2554927
        ]
      },
      "properties": {
        "id": 4685810418,
        "osm_type": "node",
        "name": "Slavonski biser",
        "tourism": "motel"
      }
    },
    {
      "type": "Feature",
      "geometry": {
        "type": "Point",
        "coordinates": [
          18.0213025,
          45.1607626
        ]
      },
      "properties": {
        "id": 4895887898,
        "osm_type": "node",
        "name": "Apartment Val",
        "tourism": "guest_house"
      }
    },
    {
      "type": "Feature",
      "geometry": {
        "type": "Point",
        "coordinates": [
          17.3850024,
          45.2588297
        ]
      },
      "properties": {
        "id": 5018387126,
        "osm_type": "node",
        "name": "Maksimilijan Restoran & Hostel",
        "tourism": "hostel",
        "phone": "0919825858",
        "website": "http://www.maksimilijan.eu"
      }
    },
    {
      "type": "Feature",
      "geometry": {
        "type": "Point",
        "coordinates": [
          17.864365,
          45.1836367
        ]
      },
      "properties": {
        "id": 5194628521,
        "osm_type": "node",
        "tourism": "guest_house"
      }
    },
    {
      "type": "Feature",
      "geometry": {
        "type": "Point",
        "coordinates": [
          18.024332,
          45.1640968
        ]
      },
      "properties": {
        "id": 5879264357,
        "osm_type": "node",
        "tourism": "guest_house"
      }
    },
    {
      "type": "Feature",
      "geometry": {
        "type": "Point",
        "coordinates": [
          18.1912235,
          45.1768354
        ]
      },
      "properties": {
        "id": 7357342385,
        "osm_type": "node",
        "tourism": "guest_house"
      }
    },
    {
      "type": "Feature",
      "geometry": {
        "type": "Point",
        "coordinates": [
          18.0194308,
          45.1519404
        ]
      },
      "properties": {
        "id": 8868702734,
        "osm_type": "node",
        "name": "Villa Herbarium",
        "tourism": "guest_house",
        "phone": "+385035442200",
        "website": "https://villaherbarium.hr/"
      }
    },
    {
      "type": "Feature",
      "geometry": {
        "type": "Point",
        "coordinates": [
          17.3935452,
          45.2907694
        ]
      },
      "properties": {
        "id": 9064344878,
        "osm_type": "node",
        "name": "Seljačko domaćinstvo \"Opođe\"",
        "tourism": "hostel"
      }
    },
    {
      "type": "Feature",
      "geometry": {
        "type": "Point",
        "coordinates": [
          18.0225787,
          45.1582506
        ]
      },
      "properties": {
        "id": 9089434911,
        "osm_type": "node",
        "name": "Apartmani Peyton",
        "tourism": "apartment"
      }
    },
    {
      "type": "Feature",
      "geometry": {
        "type": "Point",
        "coordinates": [
          17.3241238,
          45.3113779
        ]
      },
      "properties": {
        "id": 10872896628,
        "osm_type": "node",
        "name": "Slavonija point",
        "tourism": "hostel",
        "phone": "+385 91 3691 391",
        "website": "https://slavonia-point.com/"
      }
    },
    {
      "type": "Feature",
      "geometry": {
        "type": "Point",
        "coordinates": [
          17.7882108,
          45.1791037
        ]
      },
      "properties": {
        "id": 176989243,
        "osm_type": "way",
        "name": "Zdjelarević",
        "tourism": "hotel",
        "website": "http://zdjelarevic.hr"
      }
    },
    {
      "type": "Feature",
      "geometry": {
        "type": "Point",
        "coordinates": [
          18.0400395,
          45.1805703
        ]
      },
      "properties": {
        "id": 186895373,
        "osm_type": "way",
        "name": "Zvjezdane noći",
        "tourism": "guest_house",
        "phone": "+385 35 260 108"
      }
    },
    {
      "type": "Feature",
      "geometry": {
        "type": "Point",
        "coordinates": [
          17.9507541,
          45.1699049
        ]
      },
      "properties": {
        "id": 187765920,
        "osm_type": "way",
        "name": "Zovko",
        "tourism": "hotel",
        "phone": "+38535210100",
        "check_date": "2025-04-26"
      }
    },
    {
      "type": "Feature",
      "geometry": {
        "type": "Point",
        "coordinates": [
          17.3802261,
          45.3480804
        ]
      },
      "properties": {
        "id": 326019685,
        "osm_type": "way",
        "tourism": "alpine_hut"
      }
    },
    {
      "type": "Feature",
      "geometry": {
        "type": "Point",
        "coordinates": [
          18.0032796,
          45.1892951
        ]
      },
      "properties": {
        "id": 326020449,
        "osm_type": "way",
        "name": "Planinarski dom Đuro Pilar",
        "tourism": "alpine_hut"
      }
    },
    {
      "type": "Feature",
      "geometry": {
        "type": "Point",
        "coordinates": [
          18.0187184,
          45.156999
        ]
      },
      "properties": {
        "id": 335868843,
        "osm_type": "way",
        "name": "Art",
        "tourism": "hotel",
        "website": "http://www.art-hotel.hr/"
      }
    },
    {
      "type": "Feature",
      "geometry": {
        "type": "Point",
        "coordinates": [
          17.3806448,
          45.3484697
        ]
      },
      "properties": {
        "id": 618102201,
        "osm_type": "way",
        "name": "Planinarska kuća Strmac",
        "tourism": "alpine_hut",
        "website": "https://www.hps.hr/info/planinarske-kuce/planinarska-kuca-strmac/"
      }
    },
    {
      "type": "Feature",
      "geometry": {
        "type": "Point",
        "coordinates": [
          17.1839235,
          45.3513192
        ]
      },
      "properties": {
        "id": 659924227,
        "osm_type": "way",
        "tourism": "motel"
      }
    },
    {
      "type": "Feature",
      "geometry": {
        "type": "Point",
        "coordinates": [
          17.6383252,
          45.2071461
        ]
      },
      "properties": {
        "id": 974111369,
        "osm_type": "way",
        "name": "Croatia Cottage",
        "tourism": "chalet"
      }
    }
  ]
}