{
  "type": "FeatureCollection",
  "features": [
    {
      "type": "Feature",
      "geometry": {
        "type": "Point",
        "coordinates": [
          40.5016923,
          38.885849
        ]
      },
      "properties": {
        "id": 7794411975,
        "osm_type": "node",
        "name": "Bingöl Polis Evi",
        "tourism": "guest_house",
        "website": "https://www.polisevi.com/bingol-polis-evi/"
      }
    },
    {
      "type": "Feature",
      "geometry": {
        "type": "Point",
        "coordinates": [
          40.5069114,
          38.8935581
        ]
      },
      "properties": {
        "id": 8504658935,
        "osm_type": "node",
        "name": "Dsi misafirhane",
        "tourism": "guest_house"
      }
    },
    {
      "type": "Feature",
      "geometry": {
        "type": "Point",
        "coordinates": [
          40.5262481,
          38.9018495
        ]
      },
      "properties": {
        "id": 10141306451,
        "osm_type": "node",
        "name": "Grand Hotel Berti",
        "tourism": "hotel"
      }
    },
    {
      "type": "Feature",
      "geometry": {
        "type": "Point",
        "coordinates": [
          40.4940189,
          38.8972873
        ]
      },
      "properties": {
        "id": 427483292,
        "osm_type": "way",
        "name": "Konuk Evi",
        "tourism": "guest_house"
      }
    },
    {
      "type": "Feature",
      "geometry": {
        "type": "Point",
        "coordinates": [
          40.5521566,
          38.7483283
        ]
      },
      "properties": {
        "id": 953917311,
        "osm_type": "way",
        "name": "Genç Öğretmenevi ve Akşam Sanat Okulu",
        "tourism": "hotel",
        "phone": "+904264112208",
        "website": "https://gencogretmenevi.meb.k12.tr/"
      }
    },
    {
      "type": "Feature",
      "geometry": {
        "type": "Point",
        "coordinates": [
          40.6725747,
          38.9879579
        ]
      },
      "properties": {
        "id": 1283865248,
        "osm_type": "way",
        "name": "Bingöl Üniversitesi Ilıcalar Uygulama Oteli ve Termal Tesisleri",
        "tourism": "hotel",
        "phone": "+90 426 252 50 04",
        "website": "https://ilicalar.bingol.edu.tr/"
      }
    }
  ]
}