{
  "type": "FeatureCollection",
  "features": [
    {
      "type": "Feature",
      "geometry": {
        "type": "Point",
        "coordinates": [
          33.1794837,
          37.1866254
        ]
      },
      "properties": {
        "id": 1935208585,
        "osm_type": "node",
        "name": "Grand Mesut Hotel",
        "tourism": "hotel"
      }
    },
    {
      "type": "Feature",
      "geometry": {
        "type": "Point",
        "coordinates": [
          32.9832145,
          37.1576194
        ]
      },
      "properties": {
        "id": 2423152159,
        "osm_type": "node",
        "name": "Emirma Park Alanı",
        "tourism": "camp_site"
      }
    },
    {
      "type": "Feature",
      "geometry": {
        "type": "Point",
        "coordinates": [
          32.8220989,
          37.157008
        ]
      },
      "properties": {
        "id": 4346580190,
        "osm_type": "node",
        "name": "Karadut",
        "tourism": "alpine_hut"
      }
    },
    {
      "type": "Feature",
      "geometry": {
        "type": "Point",
        "coordinates": [
          32.9688707,
          37.0131673
        ]
      },
      "properties": {
        "id": 4346592589,
        "osm_type": "node",
        "tourism": "alpine_hut"
      }
    },
    {
      "type": "Feature",
      "geometry": {
        "type": "Point",
        "coordinates": [
          33.2284075,
          37.1867322
        ]
      },
      "properties": {
        "id": 6860511686,
        "osm_type": "node",
        "name": "Kızılay Öğrenci Yurdu",
        "tourism": "hostel"
      }
    },
    {
      "type": "Feature",
      "geometry": {
        "type": "Point",
        "coordinates": [
          33.22982,
          37.1871624
        ]
      },
      "properties": {
        "id": 6860515887,
        "osm_type": "node",
        "name": "Hamidiye kız yurdu",
        "tourism": "hostel"
      }
    },
    {
      "type": "Feature",
      "geometry": {
        "type": "Point",
        "coordinates": [
          33.2271938,
          37.1868163
        ]
      },
      "properties": {
        "id": 6937243785,
        "osm_type": "node",
        "name": "Cedit Öğrenci Yurdu",
        "tourism": "guest_house"
      }
    },
    {
      "type": "Feature",
      "geometry": {
        "type": "Point",
        "coordinates": [
          33.2292204,
          37.1888279
        ]
      },
      "properties": {
        "id": 7764880570,
        "osm_type": "node",
        "name": "Karaman Polis Evi",
        "tourism": "guest_house",
        "website": "https://www.polisevi.com/karaman-polisevi/"
      }
    },
    {
      "type": "Feature",
      "geometry": {
        "type": "Point",
        "coordinates": [
          33.2192857,
          37.1845751
        ]
      },
      "properties": {
        "id": 7883373737,
        "osm_type": "node",
        "name": "Karaman Kent Otel",
        "tourism": "hotel",
        "phone": "+90 338 212 49 49"
      }
    },
    {
      "type": "Feature",
      "geometry": {
        "type": "Point",
        "coordinates": [
          33.2208846,
          37.1826798
        ]
      },
      "properties": {
        "id": 7883401443,
        "osm_type": "node",
        "name": "Aydoğdu Otel",
        "tourism": "hotel"
      }
    },
    {
      "type": "Feature",
      "geometry": {
        "type": "Point",
        "coordinates": [
          33.1788158,
          37.1870371
        ]
      },
      "properties": {
        "id": 9961088743,
        "osm_type": "node",
        "name": "GRAND KARAMAN OTEL &SUPA",
        "tourism": "hotel"
      }
    },
    {
      "type": "Feature",
      "geometry": {
        "type": "Point",
        "coordinates": [
          33.1740545,
          37.1870771
        ]
      },
      "properties": {
        "id": 9961090130,
        "osm_type": "node",
        "tourism": "hotel"
      }
    },
    {
      "type": "Feature",
      "geometry": {
        "type": "Point",
        "coordinates": [
          32.9042534,
          36.6282093
        ]
      },
      "properties": {
        "id": 101356437,
        "osm_type": "way",
        "name": "Selcuklu Hotel",
        "tourism": "hotel",
        "phone": "+90 338 716 4080",
        "website": "www.selcukluotel.com"
      }
    },
    {
      "type": "Feature",
      "geometry": {
        "type": "Point",
        "coordinates": [
          33.2587466,
          37.158261
        ]
      },
      "properties": {
        "id": 309899657,
        "osm_type": "way",
        "name": "Osmanlı Prestij Otel (***)",
        "tourism": "hotel"
      }
    },
    {
      "type": "Feature",
      "geometry": {
        "type": "Point",
        "coordinates": [
          33.2462657,
          37.1797827
        ]
      },
      "properties": {
        "id": 386119420,
        "osm_type": "way",
        "name": "Uygulama Oteli",
        "tourism": "guest_house"
      }
    },
    {
      "type": "Feature",
      "geometry": {
        "type": "Point",
        "coordinates": [
          33.2193455,
          37.1860719
        ]
      },
      "properties": {
        "id": 386168214,
        "osm_type": "way",
        "name": "Öğretmenevi",
        "tourism": "hotel"
      }
    },
    {
      "type": "Feature",
      "geometry": {
        "type": "Point",
        "coordinates": [
          32.8883894,
          36.6392108
        ]
      },
      "properties": {
        "id": 1187667456,
        "osm_type": "way",
        "name": "Konerkon Otel Plaza",
        "tourism": "hotel",
        "phone": "+90 332 404 01 37",
        "website": "https://www.konerkonhotel.com/"
      }
    },
    {
      "type": "Feature",
      "geometry": {
        "type": "Point",
        "coordinates": [
          33.2259046,
          37.1767039
        ]
      },
      "properties": {
        "id": 1302825912,
        "osm_type": "way",
        "name": "Demosan Hotel",
        "tourism": "hotel",
        "phone": "+90 3382137000"
      }
    }
  ]
}