{
  "type": "FeatureCollection",
  "features": [
    {
      "type": "Feature",
      "geometry": {
        "type": "Point",
        "coordinates": [
          38.8119413,
          37.9191279
        ]
      },
      "properties": {
        "id": 679757043,
        "osm_type": "node",
        "tourism": "camp_site"
      }
    },
    {
      "type": "Feature",
      "geometry": {
        "type": "Point",
        "coordinates": [
          38.760572,
          37.9399085
        ]
      },
      "properties": {
        "id": 3114874777,
        "osm_type": "node",
        "name": "Kervanserai Hotel",
        "tourism": "hotel"
      }
    },
    {
      "type": "Feature",
      "geometry": {
        "type": "Point",
        "coordinates": [
          38.6549609,
          37.9171837
        ]
      },
      "properties": {
        "id": 3254418465,
        "osm_type": "node",
        "name": "Camping Damlacık",
        "tourism": "camp_site",
        "tents": "yes"
      }
    },
    {
      "type": "Feature",
      "geometry": {
        "type": "Point",
        "coordinates": [
          38.2768831,
          37.7605966
        ]
      },
      "properties": {
        "id": 3956225474,
        "osm_type": "node",
        "tourism": "hotel"
      }
    },
    {
      "type": "Feature",
      "geometry": {
        "type": "Point",
        "coordinates": [
          38.2796365,
          37.7601249
        ]
      },
      "properties": {
        "id": 3956270554,
        "osm_type": "node",
        "name": "Yolaç Otel",
        "tourism": "hotel"
      }
    },
    {
      "type": "Feature",
      "geometry": {
        "type": "Point",
        "coordinates": [
          38.2570121,
          37.7583914
        ]
      },
      "properties": {
        "id": 4788502522,
        "osm_type": "node",
        "name": "Bozdoğan Otel",
        "tourism": "hotel"
      }
    },
    {
      "type": "Feature",
      "geometry": {
        "type": "Point",
        "coordinates": [
          38.2791939,
          37.7653124
        ]
      },
      "properties": {
        "id": 4788502523,
        "osm_type": "node",
        "name": "Tuğra Otel",
        "tourism": "hotel"
      }
    },
    {
      "type": "Feature",
      "geometry": {
        "type": "Point",
        "coordinates": [
          38.6073269,
          37.933592
        ]
      },
      "properties": {
        "id": 4862050727,
        "osm_type": "node",
        "tourism": "guest_house",
        "phone": "+905317111773"
      }
    },
    {
      "type": "Feature",
      "geometry": {
        "type": "Point",
        "coordinates": [
          38.6066529,
          37.9338777
        ]
      },
      "properties": {
        "id": 4862088721,
        "osm_type": "node",
        "tourism": "camp_site",
        "phone": "+905317111773"
      }
    },
    {
      "type": "Feature",
      "geometry": {
        "type": "Point",
        "coordinates": [
          37.6446009,
          37.7849207
        ]
      },
      "properties": {
        "id": 5251570321,
        "osm_type": "node",
        "name": "Serhat ***",
        "tourism": "hotel"
      }
    },
    {
      "type": "Feature",
      "geometry": {
        "type": "Point",
        "coordinates": [
          38.7820587,
          37.9309502
        ]
      },
      "properties": {
        "id": 6411063593,
        "osm_type": "node",
        "name": "Otel Karadut",
        "tourism": "camp_site"
      }
    },
    {
      "type": "Feature",
      "geometry": {
        "type": "Point",
        "coordinates": [
          38.3059412,
          37.7665488
        ]
      },
      "properties": {
        "id": 6548526978,
        "osm_type": "node",
        "name": "Hilton Garden Inn Adiyaman",
        "tourism": "hotel",
        "phone": "+90 416 219 10 00",
        "website": "https://www.hilton.com/en/hotels/adfgigi-hilton-garden-inn-adiyaman/"
      }
    },
    {
      "type": "Feature",
      "geometry": {
        "type": "Point",
        "coordinates": [
          38.7616272,
          37.9388816
        ]
      },
      "properties": {
        "id": 7848566285,
        "osm_type": "node",
        "tourism": "hotel"
      }
    },
    {
      "type": "Feature",
      "geometry": {
        "type": "Point",
        "coordinates": [
          38.3056938,
          37.7663619
        ]
      },
      "properties": {
        "id": 8763373117,
        "osm_type": "node",
        "tourism": "hotel"
      }
    },
    {
      "type": "Feature",
      "geometry": {
        "type": "Point",
        "coordinates": [
          38.615958,
          37.7881887
        ]
      },
      "properties": {
        "id": 9695697118,
        "osm_type": "node",
        "tourism": "hotel"
      }
    },
    {
      "type": "Feature",
      "geometry": {
        "type": "Point",
        "coordinates": [
          38.2276063,
          37.7386428
        ]
      },
      "properties": {
        "id": 9886708583,
        "osm_type": "node",
        "name": "Ramada By Wyndham Adıyaman",
        "tourism": "hotel",
        "phone": "+90 416 202 01 02"
      }
    },
    {
      "type": "Feature",
      "geometry": {
        "type": "Point",
        "coordinates": [
          37.650587,
          37.7826023
        ]
      },
      "properties": {
        "id": 10068634217,
        "osm_type": "node",
        "tourism": "guest_house"
      }
    },
    {
      "type": "Feature",
      "geometry": {
        "type": "Point",
        "coordinates": [
          38.2960077,
          37.7567812
        ]
      },
      "properties": {
        "id": 10101947823,
        "osm_type": "node",
        "tourism": "hostel"
      }
    },
    {
      "type": "Feature",
      "geometry": {
        "type": "Point",
        "coordinates": [
          38.7293209,
          37.9700661
        ]
      },
      "properties": {
        "id": 10132881717,
        "osm_type": "node",
        "tourism": "caravan_site"
      }
    },
    {
      "type": "Feature",
      "geometry": {
        "type": "Point",
        "coordinates": [
          38.7852411,
          37.9297814
        ]
      },
      "properties": {
        "id": 10235759509,
        "osm_type": "node",
        "name": "Nemrut Dağı işik",
        "tourism": "hotel"
      }
    },
    {
      "type": "Feature",
      "geometry": {
        "type": "Point",
        "coordinates": [
          38.7178574,
          37.9763437
        ]
      },
      "properties": {
        "id": 10860319906,
        "osm_type": "node",
        "tourism": "camp_site"
      }
    },
    {
      "type": "Feature",
      "geometry": {
        "type": "Point",
        "coordinates": [
          38.7256653,
          37.9793427
        ]
      },
      "properties": {
        "id": 10860320008,
        "osm_type": "node",
        "tourism": "camp_site"
      }
    },
    {
      "type": "Feature",
      "geometry": {
        "type": "Point",
        "coordinates": [
          38.7293167,
          37.97983
        ]
      },
      "properties": {
        "id": 10860320009,
        "osm_type": "node",
        "tourism": "camp_site"
      }
    },
    {
      "type": "Feature",
      "geometry": {
        "type": "Point",
        "coordinates": [
          38.6557973,
          37.9436609
        ]
      },
      "properties": {
        "id": 10860320205,
        "osm_type": "node",
        "tourism": "camp_site"
      }
    },
    {
      "type": "Feature",
      "geometry": {
        "type": "Point",
        "coordinates": [
          38.7621037,
          37.9394362
        ]
      },
      "properties": {
        "id": 11009608205,
        "osm_type": "node",
        "tourism": "hotel"
      }
    },
    {
      "type": "Feature",
      "geometry": {
        "type": "Point",
        "coordinates": [
          38.7621611,
          37.9394461
        ]
      },
      "properties": {
        "id": 11009642305,
        "osm_type": "node",
        "tourism": "hotel"
      }
    },
    {
      "type": "Feature",
      "geometry": {
        "type": "Point",
        "coordinates": [
          38.7381371,
          37.9766446
        ]
      },
      "properties": {
        "id": 12182161588,
        "osm_type": "node",
        "tourism": "camp_site"
      }
    },
    {
      "type": "Feature",
      "geometry": {
        "type": "Point",
        "coordinates": [
          38.7016301,
          37.9443634
        ]
      },
      "properties": {
        "id": 12618579201,
        "osm_type": "node",
        "name": "Kayadibi Cafe kahvaltı pansiyon",
        "tourism": "alpine_hut",
        "phone": "+90 538 817 15 52; +90 539 525 41 54"
      }
    },
    {
      "type": "Feature",
      "geometry": {
        "type": "Point",
        "coordinates": [
          38.3016825,
          37.7632984
        ]
      },
      "properties": {
        "id": 12812262701,
        "osm_type": "node",
        "name": "White star",
        "tourism": "hotel"
      }
    },
    {
      "type": "Feature",
      "geometry": {
        "type": "Point",
        "coordinates": [
          38.7294972,
          37.9699304
        ]
      },
      "properties": {
        "id": 13027216802,
        "osm_type": "node",
        "tourism": "camp_site"
      }
    },
    {
      "type": "Feature",
      "geometry": {
        "type": "Point",
        "coordinates": [
          38.2794138,
          37.762845
        ]
      },
      "properties": {
        "id": 295922750,
        "osm_type": "way",
        "name": "Öğretmen Evi",
        "tourism": "guest_house"
      }
    },
    {
      "type": "Feature",
      "geometry": {
        "type": "Point",
        "coordinates": [
          38.291566,
          37.762815
        ]
      },
      "properties": {
        "id": 297111244,
        "osm_type": "way",
        "name": "Samos Otel",
        "tourism": "hotel",
        "phone": "+904162147373",
        "website": "http://hotelsamos.com.tr"
      }
    },
    {
      "type": "Feature",
      "geometry": {
        "type": "Point",
        "coordinates": [
          37.6436109,
          37.7842178
        ]
      },
      "properties": {
        "id": 323012801,
        "osm_type": "way",
        "name": "Güney Palas Otel",
        "tourism": "hotel"
      }
    },
    {
      "type": "Feature",
      "geometry": {
        "type": "Point",
        "coordinates": [
          38.2786481,
          37.7600926
        ]
      },
      "properties": {
        "id": 392401030,
        "osm_type": "way",
        "name": "Ünal Otel",
        "tourism": "hotel"
      }
    },
    {
      "type": "Feature",
      "geometry": {
        "type": "Point",
        "coordinates": [
          38.2964579,
          37.7626037
        ]
      },
      "properties": {
        "id": 392405611,
        "osm_type": "way",
        "name": "Beyazsaray Otel",
        "tourism": "hotel",
        "phone": "+90 416 225 04 39"
      }
    },
    {
      "type": "Feature",
      "geometry": {
        "type": "Point",
        "coordinates": [
          38.6142495,
          37.7904878
        ]
      },
      "properties": {
        "id": 470318801,
        "osm_type": "way",
        "name": "Kahta Öğretmenevi",
        "tourism": "hotel"
      }
    },
    {
      "type": "Feature",
      "geometry": {
        "type": "Point",
        "coordinates": [
          38.3009036,
          37.7633368
        ]
      },
      "properties": {
        "id": 512130815,
        "osm_type": "way",
        "name": "Otel Antiochos",
        "tourism": "hotel",
        "phone": "+90 416 225 02 82"
      }
    },
    {
      "type": "Feature",
      "geometry": {
        "type": "Point",
        "coordinates": [
          38.2282939,
          37.7407546
        ]
      },
      "properties": {
        "id": 558784649,
        "osm_type": "way",
        "name": "Dedeoğlu Hotel",
        "tourism": "hotel"
      }
    }
  ]
}