{
  "type": "FeatureCollection",
  "features": [
    {
      "type": "Feature",
      "geometry": {
        "type": "Point",
        "coordinates": [
          42.7276978,
          41.5096382
        ]
      },
      "properties": {
        "id": 3105002259,
        "osm_type": "node",
        "name": "Otel Ateş",
        "tourism": "hotel"
      }
    },
    {
      "type": "Feature",
      "geometry": {
        "type": "Point",
        "coordinates": [
          42.705242,
          41.1082508
        ]
      },
      "properties": {
        "id": 3762667302,
        "osm_type": "node",
        "name": "İpekyolu",
        "tourism": "hotel"
      }
    },
    {
      "type": "Feature",
      "geometry": {
        "type": "Point",
        "coordinates": [
          42.6692934,
          41.0975734
        ]
      },
      "properties": {
        "id": 4272108390,
        "osm_type": "node",
        "name": "Kuzey Yildizi",
        "tourism": "hotel"
      }
    },
    {
      "type": "Feature",
      "geometry": {
        "type": "Point",
        "coordinates": [
          43.2426893,
          41.1006638
        ]
      },
      "properties": {
        "id": 6017925086,
        "osm_type": "node",
        "name": "Bungalov",
        "tourism": "apartment"
      }
    },
    {
      "type": "Feature",
      "geometry": {
        "type": "Point",
        "coordinates": [
          42.7060369,
          41.1067989
        ]
      },
      "properties": {
        "id": 6631915633,
        "osm_type": "node",
        "name": "Anatolia Hotel",
        "tourism": "hotel"
      }
    },
    {
      "type": "Feature",
      "geometry": {
        "type": "Point",
        "coordinates": [
          42.7055283,
          41.1090551
        ]
      },
      "properties": {
        "id": 7274580744,
        "osm_type": "node",
        "name": "Kafkas Arı",
        "tourism": "hotel"
      }
    },
    {
      "type": "Feature",
      "geometry": {
        "type": "Point",
        "coordinates": [
          42.7023891,
          41.1130961
        ]
      },
      "properties": {
        "id": 7794383946,
        "osm_type": "node",
        "name": "Ardahan Polis Evi",
        "tourism": "guest_house",
        "website": "https://www.polisevi.com/ardahan-polis-evi/"
      }
    },
    {
      "type": "Feature",
      "geometry": {
        "type": "Point",
        "coordinates": [
          42.7262056,
          41.5089176
        ]
      },
      "properties": {
        "id": 10768547805,
        "osm_type": "node",
        "name": "Ardahan Posof Ogretmenevi",
        "tourism": "guest_house",
        "phone": "+90  478 511 22 69"
      }
    },
    {
      "type": "Feature",
      "geometry": {
        "type": "Point",
        "coordinates": [
          42.7259028,
          41.1180775
        ]
      },
      "properties": {
        "id": 10886298807,
        "osm_type": "node",
        "tourism": "camp_site"
      }
    },
    {
      "type": "Feature",
      "geometry": {
        "type": "Point",
        "coordinates": [
          42.7054483,
          41.1176869
        ]
      },
      "properties": {
        "id": 10886319105,
        "osm_type": "node",
        "tourism": "camp_site"
      }
    },
    {
      "type": "Feature",
      "geometry": {
        "type": "Point",
        "coordinates": [
          42.7039233,
          41.1112571
        ]
      },
      "properties": {
        "id": 11010933859,
        "osm_type": "node",
        "name": "Butik Ardahan Otel",
        "tourism": "hotel"
      }
    },
    {
      "type": "Feature",
      "geometry": {
        "type": "Point",
        "coordinates": [
          42.8380748,
          41.3414984
        ]
      },
      "properties": {
        "id": 12168084401,
        "osm_type": "node",
        "name": "Belediye Konuk Evi",
        "tourism": "hotel"
      }
    },
    {
      "type": "Feature",
      "geometry": {
        "type": "Point",
        "coordinates": [
          43.1293105,
          41.1045251
        ]
      },
      "properties": {
        "id": 1062391827,
        "osm_type": "way",
        "tourism": "hotel",
        "phone": "+90 530 911 9771",
        "website": "https://cildirkonak.com/"
      }
    },
    {
      "type": "Feature",
      "geometry": {
        "type": "Point",
        "coordinates": [
          42.7797224,
          41.1351708
        ]
      },
      "properties": {
        "id": 1456552913,
        "osm_type": "way",
        "name": "Konukevi",
        "tourism": "guest_house"
      }
    }
  ]
}