{
  "type": "FeatureCollection",
  "features": [
    {
      "type": "Feature",
      "geometry": {
        "type": "Point",
        "coordinates": [
          34.7897954,
          39.8169509
        ]
      },
      "properties": {
        "id": 1787804027,
        "osm_type": "node",
        "name": "Grand Ser",
        "tourism": "hotel"
      }
    },
    {
      "type": "Feature",
      "geometry": {
        "type": "Point",
        "coordinates": [
          35.376965,
          39.4956367
        ]
      },
      "properties": {
        "id": 6652622287,
        "osm_type": "node",
        "name": "kaplica oteli",
        "tourism": "hotel"
      }
    },
    {
      "type": "Feature",
      "geometry": {
        "type": "Point",
        "coordinates": [
          34.6112637,
          39.6944148
        ]
      },
      "properties": {
        "id": 7055068988,
        "osm_type": "node",
        "name": "Uygulama Oteli",
        "tourism": "hotel",
        "phone": "+90 354 558 11 01"
      }
    },
    {
      "type": "Feature",
      "geometry": {
        "type": "Point",
        "coordinates": [
          34.8259685,
          39.8249923
        ]
      },
      "properties": {
        "id": 7794248289,
        "osm_type": "node",
        "name": "Yozgat Polis evi",
        "tourism": "guest_house",
        "website": "https://www.polisevi.com/yozgat-polisevi/"
      }
    },
    {
      "type": "Feature",
      "geometry": {
        "type": "Point",
        "coordinates": [
          34.8577983,
          39.8325565
        ]
      },
      "properties": {
        "id": 10108620282,
        "osm_type": "node",
        "name": "DSİ Yozgat Misafirhanesi",
        "tourism": "hotel"
      }
    },
    {
      "type": "Feature",
      "geometry": {
        "type": "Point",
        "coordinates": [
          34.8399794,
          39.8282849
        ]
      },
      "properties": {
        "id": 10108625805,
        "osm_type": "node",
        "name": "Anıl Erkek Öğrenci Evleri",
        "tourism": "hostel"
      }
    },
    {
      "type": "Feature",
      "geometry": {
        "type": "Point",
        "coordinates": [
          34.8409178,
          39.8281727
        ]
      },
      "properties": {
        "id": 10108625806,
        "osm_type": "node",
        "name": "Sabancı Öğrenci Yurdu",
        "tourism": "hostel"
      }
    },
    {
      "type": "Feature",
      "geometry": {
        "type": "Point",
        "coordinates": [
          34.8327136,
          39.822733
        ]
      },
      "properties": {
        "id": 10108625944,
        "osm_type": "node",
        "name": "Surmely Yozgat",
        "tourism": "hotel"
      }
    },
    {
      "type": "Feature",
      "geometry": {
        "type": "Point",
        "coordinates": [
          34.8326537,
          39.8245037
        ]
      },
      "properties": {
        "id": 10108626055,
        "osm_type": "node",
        "name": "Yozgat Selimiye Talebe Yurdu",
        "tourism": "hostel"
      }
    },
    {
      "type": "Feature",
      "geometry": {
        "type": "Point",
        "coordinates": [
          34.9499408,
          39.8572869
        ]
      },
      "properties": {
        "id": 10109082111,
        "osm_type": "node",
        "name": "Saffron Hotel Yozgat",
        "tourism": "hotel"
      }
    },
    {
      "type": "Feature",
      "geometry": {
        "type": "Point",
        "coordinates": [
          35.2085082,
          39.8034622
        ]
      },
      "properties": {
        "id": 303753961,
        "osm_type": "way",
        "name": "Sorgun Büyük Termal Otel",
        "tourism": "hotel"
      }
    },
    {
      "type": "Feature",
      "geometry": {
        "type": "Point",
        "coordinates": [
          34.8170484,
          39.8080736
        ]
      },
      "properties": {
        "id": 317769393,
        "osm_type": "way",
        "name": "Galata Hotel",
        "tourism": "hotel",
        "website": "galatahotel.com"
      }
    },
    {
      "type": "Feature",
      "geometry": {
        "type": "Point",
        "coordinates": [
          34.8080413,
          39.8204328
        ]
      },
      "properties": {
        "id": 317779881,
        "osm_type": "way",
        "name": "Yilmaz Hotel",
        "tourism": "hotel",
        "phone": "+90 354 212 110",
        "website": "http://yilmazotel.com.tr"
      }
    },
    {
      "type": "Feature",
      "geometry": {
        "type": "Point",
        "coordinates": [
          35.1896928,
          39.1952435
        ]
      },
      "properties": {
        "id": 388432751,
        "osm_type": "way",
        "name": "Boğazlıyan Kaplıcaları",
        "tourism": "hotel"
      }
    },
    {
      "type": "Feature",
      "geometry": {
        "type": "Point",
        "coordinates": [
          35.2070581,
          39.1945216
        ]
      },
      "properties": {
        "id": 388484012,
        "osm_type": "way",
        "name": "Kartaş Termal",
        "tourism": "hotel",
        "phone": "+90 354 645 1548"
      }
    },
    {
      "type": "Feature",
      "geometry": {
        "type": "Point",
        "coordinates": [
          35.2467949,
          39.1923059
        ]
      },
      "properties": {
        "id": 546148438,
        "osm_type": "way",
        "name": "Boğazlıyan Öğretmen Evi",
        "tourism": "hotel"
      }
    },
    {
      "type": "Feature",
      "geometry": {
        "type": "Point",
        "coordinates": [
          34.469157,
          39.6372135
        ]
      },
      "properties": {
        "id": 987642828,
        "osm_type": "way",
        "name": "Yerköy Öğretmenevi",
        "tourism": "hotel"
      }
    }
  ]
}