{
  "type": "FeatureCollection",
  "features": [
    {
      "type": "Feature",
      "geometry": {
        "type": "Point",
        "coordinates": [
          23.4774736,
          43.1622873
        ]
      },
      "properties": {
        "id": 766836260,
        "osm_type": "node",
        "name": "пб Горски дом",
        "tourism": "hotel"
      }
    },
    {
      "type": "Feature",
      "geometry": {
        "type": "Point",
        "coordinates": [
          23.5370803,
          43.1911864
        ]
      },
      "properties": {
        "id": 2138288766,
        "osm_type": "node",
        "name": "хотел Чайка",
        "tourism": "hotel",
        "phone": "+359 92 621 369",
        "website": "https://chaika.net/"
      }
    },
    {
      "type": "Feature",
      "geometry": {
        "type": "Point",
        "coordinates": [
          23.8775133,
          43.7406166
        ]
      },
      "properties": {
        "id": 2393837469,
        "osm_type": "node",
        "name": "Rai",
        "tourism": "motel"
      }
    },
    {
      "type": "Feature",
      "geometry": {
        "type": "Point",
        "coordinates": [
          23.7155595,
          43.1427809
        ]
      },
      "properties": {
        "id": 2675554224,
        "osm_type": "node",
        "name": "Родина",
        "tourism": "hotel"
      }
    },
    {
      "type": "Feature",
      "geometry": {
        "type": "Point",
        "coordinates": [
          23.9279423,
          43.144851
        ]
      },
      "properties": {
        "id": 2907806302,
        "osm_type": "node",
        "name": "Гилзата",
        "tourism": "hotel"
      }
    },
    {
      "type": "Feature",
      "geometry": {
        "type": "Point",
        "coordinates": [
          23.4893822,
          43.2048172
        ]
      },
      "properties": {
        "id": 3026633355,
        "osm_type": "node",
        "name": "xижа Леденика",
        "tourism": "alpine_hut"
      }
    },
    {
      "type": "Feature",
      "geometry": {
        "type": "Point",
        "coordinates": [
          23.4748264,
          43.1772621
        ]
      },
      "properties": {
        "id": 3411359021,
        "osm_type": "node",
        "name": "Почивна база Оазис",
        "tourism": "camp_site"
      }
    },
    {
      "type": "Feature",
      "geometry": {
        "type": "Point",
        "coordinates": [
          23.6698986,
          43.0786305
        ]
      },
      "properties": {
        "id": 3683377632,
        "osm_type": "node",
        "name": "Хотел Чановете",
        "tourism": "hotel"
      }
    },
    {
      "type": "Feature",
      "geometry": {
        "type": "Point",
        "coordinates": [
          23.6159365,
          43.0935423
        ]
      },
      "properties": {
        "id": 4172041647,
        "osm_type": "node",
        "name": "Хаджидимовата къща",
        "tourism": "chalet"
      }
    },
    {
      "type": "Feature",
      "geometry": {
        "type": "Point",
        "coordinates": [
          23.7272227,
          43.7783611
        ]
      },
      "properties": {
        "id": 4300591477,
        "osm_type": "node",
        "name": "Hotel Zora",
        "tourism": "hotel"
      }
    },
    {
      "type": "Feature",
      "geometry": {
        "type": "Point",
        "coordinates": [
          23.9548719,
          43.4759256
        ]
      },
      "properties": {
        "id": 4766647122,
        "osm_type": "node",
        "tourism": "caravan_site"
      }
    },
    {
      "type": "Feature",
      "geometry": {
        "type": "Point",
        "coordinates": [
          23.7133446,
          43.1444003
        ]
      },
      "properties": {
        "id": 4829283015,
        "osm_type": "node",
        "name": "Комплекс Перла",
        "tourism": "guest_house",
        "phone": "+359 88 828 6970"
      }
    },
    {
      "type": "Feature",
      "geometry": {
        "type": "Point",
        "coordinates": [
          23.551626,
          43.2015802
        ]
      },
      "properties": {
        "id": 5102665338,
        "osm_type": "node",
        "name": "Rade I.",
        "tourism": "hotel"
      }
    },
    {
      "type": "Feature",
      "geometry": {
        "type": "Point",
        "coordinates": [
          23.7090942,
          43.0655645
        ]
      },
      "properties": {
        "id": 5730403956,
        "osm_type": "node",
        "name": "Липите",
        "tourism": "hotel"
      }
    },
    {
      "type": "Feature",
      "geometry": {
        "type": "Point",
        "coordinates": [
          23.7077156,
          43.1337404
        ]
      },
      "properties": {
        "id": 5730412214,
        "osm_type": "node",
        "tourism": "motel"
      }
    },
    {
      "type": "Feature",
      "geometry": {
        "type": "Point",
        "coordinates": [
          23.566517,
          43.2027296
        ]
      },
      "properties": {
        "id": 5923559041,
        "osm_type": "node",
        "name": "Олимпийски надежди",
        "tourism": "hotel",
        "phone": "+359 92 665 882"
      }
    },
    {
      "type": "Feature",
      "geometry": {
        "type": "Point",
        "coordinates": [
          23.5570906,
          43.200096
        ]
      },
      "properties": {
        "id": 5923886135,
        "osm_type": "node",
        "name": "Фламинго",
        "tourism": "hotel"
      }
    },
    {
      "type": "Feature",
      "geometry": {
        "type": "Point",
        "coordinates": [
          23.5564557,
          43.2002164
        ]
      },
      "properties": {
        "id": 5923886144,
        "osm_type": "node",
        "name": "Класик",
        "tourism": "hotel"
      }
    },
    {
      "type": "Feature",
      "geometry": {
        "type": "Point",
        "coordinates": [
          23.5776375,
          43.195452
        ]
      },
      "properties": {
        "id": 7131603245,
        "osm_type": "node",
        "tourism": "hostel",
        "phone": "+359 88 821 4321",
        "website": "https://www.montagi.com/en/hostels/vratsa-hostel"
      }
    },
    {
      "type": "Feature",
      "geometry": {
        "type": "Point",
        "coordinates": [
          23.5205262,
          43.1904887
        ]
      },
      "properties": {
        "id": 7564927379,
        "osm_type": "node",
        "name": "Кариерата",
        "tourism": "camp_site",
        "tents": "yes"
      }
    },
    {
      "type": "Feature",
      "geometry": {
        "type": "Point",
        "coordinates": [
          23.5580805,
          43.2010739
        ]
      },
      "properties": {
        "id": 9710745818,
        "osm_type": "node",
        "name": "Мира",
        "tourism": "hotel",
        "phone": "+359 89 855 8658",
        "website": "https://www.mirahotel.eu/"
      }
    },
    {
      "type": "Feature",
      "geometry": {
        "type": "Point",
        "coordinates": [
          23.7374074,
          43.775818
        ]
      },
      "properties": {
        "id": 10039671285,
        "osm_type": "node",
        "name": "Valchevi",
        "tourism": "guest_house"
      }
    },
    {
      "type": "Feature",
      "geometry": {
        "type": "Point",
        "coordinates": [
          23.7074276,
          43.0444497
        ]
      },
      "properties": {
        "id": 11301695858,
        "osm_type": "node",
        "name": "Wild camp",
        "tourism": "camp_site"
      }
    },
    {
      "type": "Feature",
      "geometry": {
        "type": "Point",
        "coordinates": [
          23.6803156,
          43.7982836
        ]
      },
      "properties": {
        "id": 12012360396,
        "osm_type": "node",
        "tourism": "camp_site"
      }
    },
    {
      "type": "Feature",
      "geometry": {
        "type": "Point",
        "coordinates": [
          23.9433629,
          43.4742736
        ]
      },
      "properties": {
        "id": 232203177,
        "osm_type": "way",
        "name": "Сарая Макади",
        "tourism": "motel",
        "phone": "+359 88 801 1632;+359 915 83 090;+359 88 760 7831"
      }
    },
    {
      "type": "Feature",
      "geometry": {
        "type": "Point",
        "coordinates": [
          23.9398716,
          43.4760059
        ]
      },
      "properties": {
        "id": 236243557,
        "osm_type": "way",
        "tourism": "motel"
      }
    },
    {
      "type": "Feature",
      "geometry": {
        "type": "Point",
        "coordinates": [
          23.480321,
          43.1764323
        ]
      },
      "properties": {
        "id": 333643132,
        "osm_type": "way",
        "name": "Хотел \"Кипарис\"",
        "tourism": "hotel"
      }
    },
    {
      "type": "Feature",
      "geometry": {
        "type": "Point",
        "coordinates": [
          23.4803579,
          43.1807619
        ]
      },
      "properties": {
        "id": 334056234,
        "osm_type": "way",
        "name": "Хотел Тева",
        "tourism": "hotel"
      }
    },
    {
      "type": "Feature",
      "geometry": {
        "type": "Point",
        "coordinates": [
          23.4763951,
          43.1020659
        ]
      },
      "properties": {
        "id": 359545205,
        "osm_type": "way",
        "tourism": "guest_house"
      }
    },
    {
      "type": "Feature",
      "geometry": {
        "type": "Point",
        "coordinates": [
          23.5922304,
          43.1780602
        ]
      },
      "properties": {
        "id": 367502532,
        "osm_type": "way",
        "name": "Нотел Хъшове",
        "tourism": "hotel",
        "phone": "+359 916 61 349;+359 92 660 369",
        "website": "http://hashovevraca.com/eng/"
      }
    },
    {
      "type": "Feature",
      "geometry": {
        "type": "Point",
        "coordinates": [
          23.5479725,
          43.2020562
        ]
      },
      "properties": {
        "id": 442069525,
        "osm_type": "way",
        "name": "Хемус",
        "tourism": "hotel"
      }
    },
    {
      "type": "Feature",
      "geometry": {
        "type": "Point",
        "coordinates": [
          23.5649528,
          43.1936217
        ]
      },
      "properties": {
        "id": 627544009,
        "osm_type": "way",
        "tourism": "hostel"
      }
    },
    {
      "type": "Feature",
      "geometry": {
        "type": "Point",
        "coordinates": [
          23.570403,
          43.1967201
        ]
      },
      "properties": {
        "id": 627557503,
        "osm_type": "way",
        "name": "White house",
        "tourism": "guest_house",
        "phone": "+359 87 826 6597"
      }
    },
    {
      "type": "Feature",
      "geometry": {
        "type": "Point",
        "coordinates": [
          23.5660252,
          43.1966366
        ]
      },
      "properties": {
        "id": 778950595,
        "osm_type": "way",
        "name": "Studio Zlati Hotel",
        "tourism": "hotel",
        "phone": "+359 88 988 4508",
        "website": "https://www.booking.com/hotel/bg/studio-za-gosti-quot-zlati-quot.bg.html"
      }
    },
    {
      "type": "Feature",
      "geometry": {
        "type": "Point",
        "coordinates": [
          23.5648455,
          43.0769201
        ]
      },
      "properties": {
        "id": 1125675156,
        "osm_type": "way",
        "name": "Комплекс Оазис",
        "tourism": "hotel"
      }
    },
    {
      "type": "Feature",
      "geometry": {
        "type": "Point",
        "coordinates": [
          23.5645919,
          43.1964452
        ]
      },
      "properties": {
        "id": 1182325984,
        "osm_type": "way",
        "name": "Семеен арт-хотел Зора",
        "tourism": "hotel",
        "phone": "+359 92 623 231",
        "website": "https://hotelzora.eu"
      }
    },
    {
      "type": "Feature",
      "geometry": {
        "type": "Point",
        "coordinates": [
          23.749826,
          43.131516
        ]
      },
      "properties": {
        "id": 1232211443,
        "osm_type": "way",
        "name": "Брусен Хил Къмпинг и Бунгала",
        "tourism": "camp_site",
        "opening_hours": "24/7",
        "tents": "yes",
        "phone": "+359 89 677 6949",
        "website": "https://www.brusenhillcamping.com"
      }
    },
    {
      "type": "Feature",
      "geometry": {
        "type": "Point",
        "coordinates": [
          23.7495389,
          43.1317369
        ]
      },
      "properties": {
        "id": 1393541196,
        "osm_type": "way",
        "name": "Брусен Хил",
        "tourism": "chalet"
      }
    },
    {
      "type": "Feature",
      "geometry": {
        "type": "Point",
        "coordinates": [
          23.7495592,
          43.1315356
        ]
      },
      "properties": {
        "id": 1393541197,
        "osm_type": "way",
        "name": "Брусен Хил",
        "tourism": "chalet"
      }
    },
    {
      "type": "Feature",
      "geometry": {
        "type": "Point",
        "coordinates": [
          23.7498059,
          43.1315208
        ]
      },
      "properties": {
        "id": 1393541198,
        "osm_type": "way",
        "name": "Брусен Хил",
        "tourism": "chalet"
      }
    },
    {
      "type": "Feature",
      "geometry": {
        "type": "Point",
        "coordinates": [
          23.7498064,
          43.1317156
        ]
      },
      "properties": {
        "id": 1393541199,
        "osm_type": "way",
        "name": "Брусен Хил",
        "tourism": "chalet"
      }
    },
    {
      "type": "Feature",
      "geometry": {
        "type": "Point",
        "coordinates": [
          23.5517056,
          43.1980703
        ]
      },
      "properties": {
        "id": 1443940346,
        "osm_type": "way",
        "name": "х. Вестителят",
        "tourism": "alpine_hut"
      }
    },
    {
      "type": "Feature",
      "geometry": {
        "type": "Point",
        "coordinates": [
          23.7274163,
          43.7799573
        ]
      },
      "properties": {
        "id": 1458378408,
        "osm_type": "way",
        "tourism": "hotel"
      }
    }
  ]
}