{
  "type": "FeatureCollection",
  "features": [
    {
      "type": "Feature",
      "geometry": {
        "type": "Point",
        "coordinates": [
          20.9561897,
          44.3729377
        ]
      },
      "properties": {
        "id": 3782208959,
        "osm_type": "node",
        "name": "Kao kod kuce",
        "tourism": "hotel"
      }
    },
    {
      "type": "Feature",
      "geometry": {
        "type": "Point",
        "coordinates": [
          21.0562302,
          44.409389
        ]
      },
      "properties": {
        "id": 4059506956,
        "osm_type": "node",
        "name": "Motel „Krnjevo”",
        "tourism": "motel"
      }
    },
    {
      "type": "Feature",
      "geometry": {
        "type": "Point",
        "coordinates": [
          21.1168307,
          44.2370746
        ]
      },
      "properties": {
        "id": 5612317523,
        "osm_type": "node",
        "tourism": "camp_site"
      }
    },
    {
      "type": "Feature",
      "geometry": {
        "type": "Point",
        "coordinates": [
          20.924625,
          44.6663073
        ]
      },
      "properties": {
        "id": 5666271819,
        "osm_type": "node",
        "name": "Apartment Centar Smederevo",
        "tourism": "apartment"
      }
    },
    {
      "type": "Feature",
      "geometry": {
        "type": "Point",
        "coordinates": [
          21.1212779,
          44.2373528
        ]
      },
      "properties": {
        "id": 6011898170,
        "osm_type": "node",
        "name": "Hotel Medaljon",
        "tourism": "hotel",
        "phone": "+381 63 602532"
      }
    },
    {
      "type": "Feature",
      "geometry": {
        "type": "Point",
        "coordinates": [
          21.0554254,
          44.3326092
        ]
      },
      "properties": {
        "id": 7884461066,
        "osm_type": "node",
        "name": "Tocak",
        "tourism": "camp_site"
      }
    },
    {
      "type": "Feature",
      "geometry": {
        "type": "Point",
        "coordinates": [
          21.0376291,
          44.4678121
        ]
      },
      "properties": {
        "id": 9724626271,
        "osm_type": "node",
        "name": "Lozovicka Cesma",
        "tourism": "hotel",
        "opening_hours": "Mo-Su 06:00-12:00"
      }
    },
    {
      "type": "Feature",
      "geometry": {
        "type": "Point",
        "coordinates": [
          20.8338228,
          44.6543821
        ]
      },
      "properties": {
        "id": 13515469571,
        "osm_type": "node",
        "name": "Sobe i apartmani Terasa",
        "tourism": "guest_house"
      }
    },
    {
      "type": "Feature",
      "geometry": {
        "type": "Point",
        "coordinates": [
          21.1168676,
          44.2376709
        ]
      },
      "properties": {
        "id": 285231204,
        "osm_type": "way",
        "name": "Stari hrast",
        "tourism": "motel",
        "phone": "+381 26 4861021",
        "website": "https://www.motelstarihrast.rs/"
      }
    },
    {
      "type": "Feature",
      "geometry": {
        "type": "Point",
        "coordinates": [
          20.8175501,
          44.5832389
        ]
      },
      "properties": {
        "id": 320196982,
        "osm_type": "way",
        "name": "Мотел Јерина",
        "tourism": "hotel"
      }
    },
    {
      "type": "Feature",
      "geometry": {
        "type": "Point",
        "coordinates": [
          21.0790662,
          44.3434179
        ]
      },
      "properties": {
        "id": 479681676,
        "osm_type": "way",
        "name": "New Moment",
        "tourism": "hotel"
      }
    },
    {
      "type": "Feature",
      "geometry": {
        "type": "Point",
        "coordinates": [
          20.9663841,
          44.3551381
        ]
      },
      "properties": {
        "id": 639959749,
        "osm_type": "way",
        "name": "Кисељак",
        "tourism": "hotel"
      }
    },
    {
      "type": "Feature",
      "geometry": {
        "type": "Point",
        "coordinates": [
          21.0553467,
          44.3096297
        ]
      },
      "properties": {
        "id": 715909601,
        "osm_type": "way",
        "name": "Плана",
        "tourism": "hotel"
      }
    },
    {
      "type": "Feature",
      "geometry": {
        "type": "Point",
        "coordinates": [
          20.9678247,
          44.6730697
        ]
      },
      "properties": {
        "id": 723270441,
        "osm_type": "way",
        "name": "Dragović",
        "tourism": "hotel",
        "phone": "+381 26 4150555",
        "website": "https://dragovictransport.rs"
      }
    },
    {
      "type": "Feature",
      "geometry": {
        "type": "Point",
        "coordinates": [
          20.8560655,
          44.6562896
        ]
      },
      "properties": {
        "id": 850860515,
        "osm_type": "way",
        "tourism": "guest_house"
      }
    },
    {
      "type": "Feature",
      "geometry": {
        "type": "Point",
        "coordinates": [
          20.9317081,
          44.6553618
        ]
      },
      "properties": {
        "id": 850869430,
        "osm_type": "way",
        "name": "Цар",
        "tourism": "hotel"
      }
    }
  ]
}