{
  "type": "FeatureCollection",
  "features": [
    {
      "type": "Feature",
      "geometry": {
        "type": "Point",
        "coordinates": [
          37.3250328,
          40.397308
        ]
      },
      "properties": {
        "id": 2048896211,
        "osm_type": "node",
        "name": "Doğa Termal Otel",
        "tourism": "hotel",
        "website": "http://www.resadiyedogatermal.com/"
      }
    },
    {
      "type": "Feature",
      "geometry": {
        "type": "Point",
        "coordinates": [
          36.5282275,
          40.3334374
        ]
      },
      "properties": {
        "id": 3073294971,
        "osm_type": "node",
        "name": "Grand Ballıca",
        "tourism": "hotel"
      }
    },
    {
      "type": "Feature",
      "geometry": {
        "type": "Point",
        "coordinates": [
          36.9534008,
          40.5803566
        ]
      },
      "properties": {
        "id": 3129659860,
        "osm_type": "node",
        "name": "Ayvaz Park Otel",
        "tourism": "hotel"
      }
    },
    {
      "type": "Feature",
      "geometry": {
        "type": "Point",
        "coordinates": [
          36.9755381,
          40.6375154
        ]
      },
      "properties": {
        "id": 3331760465,
        "osm_type": "node",
        "name": "Niksar Kamping",
        "tourism": "camp_site"
      }
    },
    {
      "type": "Feature",
      "geometry": {
        "type": "Point",
        "coordinates": [
          36.5521803,
          40.3254412
        ]
      },
      "properties": {
        "id": 4917803323,
        "osm_type": "node",
        "name": "Esin Pansiyon",
        "tourism": "hostel"
      }
    },
    {
      "type": "Feature",
      "geometry": {
        "type": "Point",
        "coordinates": [
          36.8953429,
          40.3794092
        ]
      },
      "properties": {
        "id": 6166766811,
        "osm_type": "node",
        "tourism": "guest_house"
      }
    },
    {
      "type": "Feature",
      "geometry": {
        "type": "Point",
        "coordinates": [
          36.5517635,
          40.315663
        ]
      },
      "properties": {
        "id": 6709200185,
        "osm_type": "node",
        "tourism": "hotel"
      }
    },
    {
      "type": "Feature",
      "geometry": {
        "type": "Point",
        "coordinates": [
          36.078862,
          40.3862694
        ]
      },
      "properties": {
        "id": 8194493783,
        "osm_type": "node",
        "name": "Misafirhane",
        "tourism": "guest_house"
      }
    },
    {
      "type": "Feature",
      "geometry": {
        "type": "Point",
        "coordinates": [
          36.0538942,
          40.3741335
        ]
      },
      "properties": {
        "id": 8230981086,
        "osm_type": "node",
        "name": "Talebe Yurdu",
        "tourism": "guest_house"
      }
    },
    {
      "type": "Feature",
      "geometry": {
        "type": "Point",
        "coordinates": [
          36.0820647,
          40.3865168
        ]
      },
      "properties": {
        "id": 8891527086,
        "osm_type": "node",
        "name": "Aksu Pansiyon",
        "tourism": "hotel"
      }
    },
    {
      "type": "Feature",
      "geometry": {
        "type": "Point",
        "coordinates": [
          36.0864873,
          40.3870492
        ]
      },
      "properties": {
        "id": 9932471118,
        "osm_type": "node",
        "name": "Hotel Teknal",
        "tourism": "hotel"
      }
    },
    {
      "type": "Feature",
      "geometry": {
        "type": "Point",
        "coordinates": [
          36.0883226,
          40.3918747
        ]
      },
      "properties": {
        "id": 10173736313,
        "osm_type": "node",
        "name": "Yeşilırmak",
        "tourism": "hotel"
      }
    },
    {
      "type": "Feature",
      "geometry": {
        "type": "Point",
        "coordinates": [
          36.9746795,
          40.638013
        ]
      },
      "properties": {
        "id": 12965932806,
        "osm_type": "node",
        "tourism": "camp_site"
      }
    },
    {
      "type": "Feature",
      "geometry": {
        "type": "Point",
        "coordinates": [
          36.9750582,
          40.6381083
        ]
      },
      "properties": {
        "id": 12965932807,
        "osm_type": "node",
        "tourism": "camp_site"
      }
    },
    {
      "type": "Feature",
      "geometry": {
        "type": "Point",
        "coordinates": [
          36.9745149,
          40.6375994
        ]
      },
      "properties": {
        "id": 12965932808,
        "osm_type": "node",
        "tourism": "camp_site"
      }
    },
    {
      "type": "Feature",
      "geometry": {
        "type": "Point",
        "coordinates": [
          36.9748565,
          40.6376464
        ]
      },
      "properties": {
        "id": 12965932809,
        "osm_type": "node",
        "tourism": "camp_site"
      }
    },
    {
      "type": "Feature",
      "geometry": {
        "type": "Point",
        "coordinates": [
          36.9746211,
          40.63835
        ]
      },
      "properties": {
        "id": 12965932810,
        "osm_type": "node",
        "tourism": "camp_site"
      }
    },
    {
      "type": "Feature",
      "geometry": {
        "type": "Point",
        "coordinates": [
          36.5527764,
          40.3198699
        ]
      },
      "properties": {
        "id": 229413707,
        "osm_type": "way",
        "name": "Tokat Öğretmenevi",
        "tourism": "hotel",
        "phone": "+90 356 214 2705"
      }
    },
    {
      "type": "Feature",
      "geometry": {
        "type": "Point",
        "coordinates": [
          36.544965,
          40.337651
        ]
      },
      "properties": {
        "id": 569655230,
        "osm_type": "way",
        "name": "Dedeman Tokat",
        "tourism": "hotel",
        "phone": "+90 356 228 66 00",
        "website": "https://www.dedeman.com/oteller/dedeman-tokat",
        "check_date": "2024-08-30"
      }
    },
    {
      "type": "Feature",
      "geometry": {
        "type": "Point",
        "coordinates": [
          36.483785,
          40.3296637
        ]
      },
      "properties": {
        "id": 592821298,
        "osm_type": "way",
        "name": "Konukevi",
        "tourism": "guest_house"
      }
    },
    {
      "type": "Feature",
      "geometry": {
        "type": "Point",
        "coordinates": [
          36.937491,
          40.5913719
        ]
      },
      "properties": {
        "id": 760510538,
        "osm_type": "way",
        "name": "Niksar Polis evi",
        "tourism": "guest_house",
        "website": "https://www.polisevi.com/tokat-polisevi/"
      }
    },
    {
      "type": "Feature",
      "geometry": {
        "type": "Point",
        "coordinates": [
          36.0635607,
          40.3807094
        ]
      },
      "properties": {
        "id": 880285091,
        "osm_type": "way",
        "name": "Turhal Polisevi",
        "tourism": "hotel"
      }
    },
    {
      "type": "Feature",
      "geometry": {
        "type": "Point",
        "coordinates": [
          36.5519229,
          40.6817535
        ]
      },
      "properties": {
        "id": 1306443136,
        "osm_type": "way",
        "name": "Başak Otel",
        "tourism": "hotel"
      }
    },
    {
      "type": "Feature",
      "geometry": {
        "type": "Point",
        "coordinates": [
          36.9763073,
          40.6377245
        ]
      },
      "properties": {
        "id": 1411098558,
        "osm_type": "way",
        "tourism": "caravan_site"
      }
    },
    {
      "type": "Feature",
      "geometry": {
        "type": "Point",
        "coordinates": [
          36.9764495,
          40.637594
        ]
      },
      "properties": {
        "id": 1411098559,
        "osm_type": "way",
        "tourism": "caravan_site"
      }
    },
    {
      "type": "Feature",
      "geometry": {
        "type": "Point",
        "coordinates": [
          36.9762734,
          40.6379585
        ]
      },
      "properties": {
        "id": 1411098560,
        "osm_type": "way",
        "tourism": "caravan_site"
      }
    }
  ]
}