{
  "type": "FeatureCollection",
  "features": [
    {
      "type": "Feature",
      "geometry": {
        "type": "Point",
        "coordinates": [
          36.3361208,
          41.2874477
        ]
      },
      "properties": {
        "id": 2883951301,
        "osm_type": "node",
        "name": "Ferhat Otel",
        "tourism": "hotel",
        "contact:phone": "+90 362 432 68 52",
        "contact:website": "www.ferhatotel.net"
      }
    },
    {
      "type": "Feature",
      "geometry": {
        "type": "Point",
        "coordinates": [
          36.3722473,
          41.2710227
        ]
      },
      "properties": {
        "id": 2977230296,
        "osm_type": "node",
        "tourism": "camp_site"
      }
    },
    {
      "type": "Feature",
      "geometry": {
        "type": "Point",
        "coordinates": [
          36.1736523,
          41.415952
        ]
      },
      "properties": {
        "id": 3824808850,
        "osm_type": "node",
        "name": "Kadhırga Otel",
        "tourism": "hotel"
      }
    },
    {
      "type": "Feature",
      "geometry": {
        "type": "Point",
        "coordinates": [
          36.9433968,
          41.2131423
        ]
      },
      "properties": {
        "id": 4559999389,
        "osm_type": "node",
        "name": "Motel",
        "tourism": "motel"
      }
    },
    {
      "type": "Feature",
      "geometry": {
        "type": "Point",
        "coordinates": [
          36.333256,
          41.2833519
        ]
      },
      "properties": {
        "id": 4579352489,
        "osm_type": "node",
        "tourism": "guest_house"
      }
    },
    {
      "type": "Feature",
      "geometry": {
        "type": "Point",
        "coordinates": [
          36.2805456,
          41.3214316
        ]
      },
      "properties": {
        "id": 4603932191,
        "osm_type": "node",
        "tourism": "hostel"
      }
    },
    {
      "type": "Feature",
      "geometry": {
        "type": "Point",
        "coordinates": [
          36.2351235,
          41.3556314
        ]
      },
      "properties": {
        "id": 4960431226,
        "osm_type": "node",
        "name": "Yeşil Süit",
        "tourism": "guest_house",
        "phone": "+90 541 713 59 61"
      }
    },
    {
      "type": "Feature",
      "geometry": {
        "type": "Point",
        "coordinates": [
          36.3352379,
          41.2795333
        ]
      },
      "properties": {
        "id": 4967922722,
        "osm_type": "node",
        "name": "Favzy çakmak",
        "tourism": "hotel"
      }
    },
    {
      "type": "Feature",
      "geometry": {
        "type": "Point",
        "coordinates": [
          37.0391509,
          41.1821959
        ]
      },
      "properties": {
        "id": 5073352725,
        "osm_type": "node",
        "name": "Samsun Büyükşehir Belediyesi Miliç Camping",
        "tourism": "camp_site"
      }
    },
    {
      "type": "Feature",
      "geometry": {
        "type": "Point",
        "coordinates": [
          36.3585623,
          41.2746475
        ]
      },
      "properties": {
        "id": 5305021423,
        "osm_type": "node",
        "name": "مول بيازة",
        "tourism": "hostel"
      }
    },
    {
      "type": "Feature",
      "geometry": {
        "type": "Point",
        "coordinates": [
          36.2964102,
          41.325322
        ]
      },
      "properties": {
        "id": 5306949222,
        "osm_type": "node",
        "tourism": "hostel"
      }
    },
    {
      "type": "Feature",
      "geometry": {
        "type": "Point",
        "coordinates": [
          36.3334758,
          41.2869269
        ]
      },
      "properties": {
        "id": 5307018322,
        "osm_type": "node",
        "name": "محطة مترو جمهورية الميدان",
        "tourism": "hostel"
      }
    },
    {
      "type": "Feature",
      "geometry": {
        "type": "Point",
        "coordinates": [
          35.6581047,
          40.9706133
        ]
      },
      "properties": {
        "id": 5546787586,
        "osm_type": "node",
        "name": "Ancere Thermal Hotel",
        "tourism": "hotel"
      }
    },
    {
      "type": "Feature",
      "geometry": {
        "type": "Point",
        "coordinates": [
          35.6587914,
          40.9708502
        ]
      },
      "properties": {
        "id": 5546795957,
        "osm_type": "node",
        "name": "Beyaz Kosk Hotel",
        "tourism": "hotel"
      }
    },
    {
      "type": "Feature",
      "geometry": {
        "type": "Point",
        "coordinates": [
          36.1465079,
          41.1597925
        ]
      },
      "properties": {
        "id": 5838196239,
        "osm_type": "node",
        "name": "Taşhan Otel",
        "tourism": "hotel"
      }
    },
    {
      "type": "Feature",
      "geometry": {
        "type": "Point",
        "coordinates": [
          36.3329187,
          41.2951738
        ]
      },
      "properties": {
        "id": 6237525489,
        "osm_type": "node",
        "tourism": "hotel"
      }
    },
    {
      "type": "Feature",
      "geometry": {
        "type": "Point",
        "coordinates": [
          36.3365387,
          41.2879844
        ]
      },
      "properties": {
        "id": 6518580185,
        "osm_type": "node",
        "tourism": "hotel"
      }
    },
    {
      "type": "Feature",
      "geometry": {
        "type": "Point",
        "coordinates": [
          36.2380713,
          41.3544308
        ]
      },
      "properties": {
        "id": 6644840885,
        "osm_type": "node",
        "name": "Aripsas hotel",
        "tourism": "hotel",
        "opening_hours": "24/7"
      }
    },
    {
      "type": "Feature",
      "geometry": {
        "type": "Point",
        "coordinates": [
          35.766189,
          41.6303647
        ]
      },
      "properties": {
        "id": 6646071608,
        "osm_type": "node",
        "name": "hurdöz",
        "tourism": "chalet"
      }
    },
    {
      "type": "Feature",
      "geometry": {
        "type": "Point",
        "coordinates": [
          36.2346519,
          41.3604865
        ]
      },
      "properties": {
        "id": 6651603285,
        "osm_type": "node",
        "name": "B&C HOTEL",
        "tourism": "hotel"
      }
    },
    {
      "type": "Feature",
      "geometry": {
        "type": "Point",
        "coordinates": [
          36.33874,
          41.2873038
        ]
      },
      "properties": {
        "id": 7793951384,
        "osm_type": "node",
        "name": "Samsun Polis Evi",
        "tourism": "guest_house",
        "website": "https://www.polisevi.com/samsun-polisevi/"
      }
    },
    {
      "type": "Feature",
      "geometry": {
        "type": "Point",
        "coordinates": [
          36.345989,
          41.2768269
        ]
      },
      "properties": {
        "id": 7881574786,
        "osm_type": "node",
        "tourism": "guest_house"
      }
    },
    {
      "type": "Feature",
      "geometry": {
        "type": "Point",
        "coordinates": [
          35.2299303,
          41.2530823
        ]
      },
      "properties": {
        "id": 7990439585,
        "osm_type": "node",
        "tourism": "camp_site"
      }
    },
    {
      "type": "Feature",
      "geometry": {
        "type": "Point",
        "coordinates": [
          36.1960364,
          41.399892
        ]
      },
      "properties": {
        "id": 8046289768,
        "osm_type": "node",
        "name": "Kanarya Camping",
        "tourism": "camp_site"
      }
    },
    {
      "type": "Feature",
      "geometry": {
        "type": "Point",
        "coordinates": [
          36.2274138,
          41.3721917
        ]
      },
      "properties": {
        "id": 8464139917,
        "osm_type": "node",
        "name": "Kampüs Pension",
        "tourism": "guest_house"
      }
    },
    {
      "type": "Feature",
      "geometry": {
        "type": "Point",
        "coordinates": [
          36.3332991,
          41.2923172
        ]
      },
      "properties": {
        "id": 9904687817,
        "osm_type": "node",
        "name": "Otel Necmi",
        "tourism": "hotel"
      }
    },
    {
      "type": "Feature",
      "geometry": {
        "type": "Point",
        "coordinates": [
          36.180617,
          41.4161263
        ]
      },
      "properties": {
        "id": 9929600917,
        "osm_type": "node",
        "tourism": "caravan_site"
      }
    },
    {
      "type": "Feature",
      "geometry": {
        "type": "Point",
        "coordinates": [
          36.1935974,
          41.3976158
        ]
      },
      "properties": {
        "id": 10013049917,
        "osm_type": "node",
        "tourism": "camp_site"
      }
    },
    {
      "type": "Feature",
      "geometry": {
        "type": "Point",
        "coordinates": [
          36.3722308,
          41.2711209
        ]
      },
      "properties": {
        "id": 10034672576,
        "osm_type": "node",
        "name": "Samsun Karavan Park ##### doppelt ######",
        "tourism": "caravan_site"
      }
    },
    {
      "type": "Feature",
      "geometry": {
        "type": "Point",
        "coordinates": [
          36.3721881,
          41.2712696
        ]
      },
      "properties": {
        "id": 10034672583,
        "osm_type": "node",
        "name": "Samsun Karavan Kamp",
        "tourism": "camp_site",
        "tents": "yes"
      }
    },
    {
      "type": "Feature",
      "geometry": {
        "type": "Point",
        "coordinates": [
          36.3553206,
          41.2760846
        ]
      },
      "properties": {
        "id": 10034672734,
        "osm_type": "node",
        "name": "Anemon Samsun Otel",
        "tourism": "hotel"
      }
    },
    {
      "type": "Feature",
      "geometry": {
        "type": "Point",
        "coordinates": [
          35.8962086,
          40.9242973
        ]
      },
      "properties": {
        "id": 10114109835,
        "osm_type": "node",
        "name": "Ladik Otel",
        "tourism": "hotel"
      }
    },
    {
      "type": "Feature",
      "geometry": {
        "type": "Point",
        "coordinates": [
          36.3397403,
          41.2848825
        ]
      },
      "properties": {
        "id": 11124922205,
        "osm_type": "node",
        "name": "سكني سامسون",
        "tourism": "guest_house"
      }
    },
    {
      "type": "Feature",
      "geometry": {
        "type": "Point",
        "coordinates": [
          36.1263378,
          41.1723204
        ]
      },
      "properties": {
        "id": 11141716805,
        "osm_type": "node",
        "name": "Simisso Kasaba",
        "tourism": "hotel",
        "phone": "+90 362 749 00 77"
      }
    },
    {
      "type": "Feature",
      "geometry": {
        "type": "Point",
        "coordinates": [
          36.3310142,
          41.2993104
        ]
      },
      "properties": {
        "id": 12015346476,
        "osm_type": "node",
        "name": "Grand Delux",
        "tourism": "hotel",
        "check_date": "2024-06-27"
      }
    },
    {
      "type": "Feature",
      "geometry": {
        "type": "Point",
        "coordinates": [
          37.0569262,
          41.1699472
        ]
      },
      "properties": {
        "id": 12016449221,
        "osm_type": "node",
        "name": "Okumus",
        "tourism": "motel",
        "check_date": "2024-06-28"
      }
    },
    {
      "type": "Feature",
      "geometry": {
        "type": "Point",
        "coordinates": [
          36.3370727,
          41.2880461
        ]
      },
      "properties": {
        "id": 12068674769,
        "osm_type": "node",
        "name": "My House otel",
        "tourism": "hotel"
      }
    },
    {
      "type": "Feature",
      "geometry": {
        "type": "Point",
        "coordinates": [
          35.5294789,
          41.6332582
        ]
      },
      "properties": {
        "id": 12139381193,
        "osm_type": "node",
        "name": "Otel Sukru Kara",
        "tourism": "hotel",
        "phone": "+90 3626113737",
        "website": "https://otelsukrukara.com/"
      }
    },
    {
      "type": "Feature",
      "geometry": {
        "type": "Point",
        "coordinates": [
          36.3205379,
          41.2916963
        ]
      },
      "properties": {
        "id": 12399986501,
        "osm_type": "node",
        "tourism": "caravan_site"
      }
    },
    {
      "type": "Feature",
      "geometry": {
        "type": "Point",
        "coordinates": [
          35.613351,
          41.634777
        ]
      },
      "properties": {
        "id": 13098687101,
        "osm_type": "node",
        "tourism": "camp_site"
      }
    },
    {
      "type": "Feature",
      "geometry": {
        "type": "Point",
        "coordinates": [
          36.3310542,
          41.2892631
        ]
      },
      "properties": {
        "id": 103123589,
        "osm_type": "way",
        "name": "Samsun Öğretmenevi",
        "tourism": "hotel",
        "phone": "+90 362 432 3836",
        "website": "https://samsunogretmenevi.com.tr/"
      }
    },
    {
      "type": "Feature",
      "geometry": {
        "type": "Point",
        "coordinates": [
          36.3350539,
          41.2908273
        ]
      },
      "properties": {
        "id": 103188885,
        "osm_type": "way",
        "name": "Simisso Hotel",
        "tourism": "hotel"
      }
    },
    {
      "type": "Feature",
      "geometry": {
        "type": "Point",
        "coordinates": [
          36.4305298,
          41.2251277
        ]
      },
      "properties": {
        "id": 317073646,
        "osm_type": "way",
        "name": "Hampton by Hilton Samsun",
        "tourism": "hotel",
        "phone": "+90 362 311 07 07",
        "website": "https://www.hilton.com/en/hotels/szfhxhx-hampton-samsun/"
      }
    },
    {
      "type": "Feature",
      "geometry": {
        "type": "Point",
        "coordinates": [
          36.9695489,
          41.2102162
        ]
      },
      "properties": {
        "id": 421636494,
        "osm_type": "way",
        "name": "Terme Öğretmenevi ve Akşam Sanat Okulu",
        "tourism": "hotel",
        "phone": "+90 362 876 2411",
        "website": "https://termeogretmenevi.meb.k12.tr/"
      }
    },
    {
      "type": "Feature",
      "geometry": {
        "type": "Point",
        "coordinates": [
          35.9063498,
          40.8772766
        ]
      },
      "properties": {
        "id": 550733735,
        "osm_type": "way",
        "tourism": "hotel"
      }
    },
    {
      "type": "Feature",
      "geometry": {
        "type": "Point",
        "coordinates": [
          36.460008,
          41.2132987
        ]
      },
      "properties": {
        "id": 553628239,
        "osm_type": "way",
        "name": "Tekkeköy Öğretmenevi",
        "tourism": "hotel"
      }
    },
    {
      "type": "Feature",
      "geometry": {
        "type": "Point",
        "coordinates": [
          36.1990191,
          41.397031
        ]
      },
      "properties": {
        "id": 676053448,
        "osm_type": "way",
        "name": "Çamlık Büfe",
        "tourism": "chalet"
      }
    },
    {
      "type": "Feature",
      "geometry": {
        "type": "Point",
        "coordinates": [
          36.2058647,
          41.3910508
        ]
      },
      "properties": {
        "id": 676053975,
        "osm_type": "way",
        "name": "Huzur Plajı tatil evleri",
        "tourism": "chalet"
      }
    },
    {
      "type": "Feature",
      "geometry": {
        "type": "Point",
        "coordinates": [
          36.0877148,
          41.525587
        ]
      },
      "properties": {
        "id": 679505176,
        "osm_type": "way",
        "tourism": "caravan_site"
      }
    },
    {
      "type": "Feature",
      "geometry": {
        "type": "Point",
        "coordinates": [
          36.2374216,
          41.35498
        ]
      },
      "properties": {
        "id": 807584029,
        "osm_type": "way",
        "name": "Grand Atakum Hotel",
        "tourism": "hotel",
        "phone": "+90 362 439 05 55",
        "website": "http://www.grandatakumhotel.com/"
      }
    },
    {
      "type": "Feature",
      "geometry": {
        "type": "Point",
        "coordinates": [
          36.2371156,
          41.354744
        ]
      },
      "properties": {
        "id": 807584035,
        "osm_type": "way",
        "name": "Konaks Otel",
        "tourism": "hotel",
        "phone": "+90 362 437 46 37",
        "website": "https://www.konaksotel.com/"
      }
    },
    {
      "type": "Feature",
      "geometry": {
        "type": "Point",
        "coordinates": [
          35.9547195,
          41.3505748
        ]
      },
      "properties": {
        "id": 817715829,
        "osm_type": "way",
        "tourism": "camp_site"
      }
    },
    {
      "type": "Feature",
      "geometry": {
        "type": "Point",
        "coordinates": [
          35.9799592,
          41.4232968
        ]
      },
      "properties": {
        "id": 819990793,
        "osm_type": "way",
        "tourism": "camp_site"
      }
    },
    {
      "type": "Feature",
      "geometry": {
        "type": "Point",
        "coordinates": [
          36.2196598,
          41.3793111
        ]
      },
      "properties": {
        "id": 863697949,
        "osm_type": "way",
        "name": "Omtel",
        "tourism": "hotel"
      }
    },
    {
      "type": "Feature",
      "geometry": {
        "type": "Point",
        "coordinates": [
          36.3344949,
          41.2914019
        ]
      },
      "properties": {
        "id": 888222989,
        "osm_type": "way",
        "tourism": "hostel"
      }
    },
    {
      "type": "Feature",
      "geometry": {
        "type": "Point",
        "coordinates": [
          36.3322773,
          41.3026914
        ]
      },
      "properties": {
        "id": 1125012665,
        "osm_type": "way",
        "name": "Ramada Plaza by Wyndham Samsun",
        "tourism": "hotel"
      }
    },
    {
      "type": "Feature",
      "geometry": {
        "type": "Point",
        "coordinates": [
          36.3052316,
          41.3267535
        ]
      },
      "properties": {
        "id": 1125189278,
        "osm_type": "way",
        "tourism": "hotel"
      }
    },
    {
      "type": "Feature",
      "geometry": {
        "type": "Point",
        "coordinates": [
          36.3376001,
          41.3133664
        ]
      },
      "properties": {
        "id": 1125267484,
        "osm_type": "way",
        "name": "Sheraton Grand",
        "tourism": "hotel"
      }
    },
    {
      "type": "Feature",
      "geometry": {
        "type": "Point",
        "coordinates": [
          36.3588546,
          41.2775807
        ]
      },
      "properties": {
        "id": 1125776040,
        "osm_type": "way",
        "name": "Anakent Butik Otel",
        "tourism": "hotel"
      }
    },
    {
      "type": "Feature",
      "geometry": {
        "type": "Point",
        "coordinates": [
          36.3580585,
          41.2771204
        ]
      },
      "properties": {
        "id": 1125782569,
        "osm_type": "way",
        "name": "Anakent Sosyal Tesisleri",
        "tourism": "motel"
      }
    },
    {
      "type": "Feature",
      "geometry": {
        "type": "Point",
        "coordinates": [
          36.1142885,
          41.5131193
        ]
      },
      "properties": {
        "id": 1428941509,
        "osm_type": "way",
        "name": "Kızılırmak Butik Otel",
        "tourism": "hotel"
      }
    }
  ]
}