{
  "type": "FeatureCollection",
  "features": [
    {
      "type": "Feature",
      "geometry": {
        "type": "Point",
        "coordinates": [
          24.5525079,
          42.8272958
        ]
      },
      "properties": {
        "id": 267051117,
        "osm_type": "node",
        "name": "Балкан",
        "tourism": "hotel",
        "phone": "+359 885 000111",
        "website": "https://www.balkanhotel.eu/",
        "check_date": "2027-05-30"
      }
    },
    {
      "type": "Feature",
      "geometry": {
        "type": "Point",
        "coordinates": [
          24.7443016,
          42.7696604
        ]
      },
      "properties": {
        "id": 274090044,
        "osm_type": "node",
        "name": "КИП Нешковци",
        "tourism": "alpine_hut"
      }
    },
    {
      "type": "Feature",
      "geometry": {
        "type": "Point",
        "coordinates": [
          24.7785804,
          42.7554345
        ]
      },
      "properties": {
        "id": 274090049,
        "osm_type": "node",
        "name": "х.Амбарица",
        "tourism": "alpine_hut"
      }
    },
    {
      "type": "Feature",
      "geometry": {
        "type": "Point",
        "coordinates": [
          24.519867,
          42.806996
        ]
      },
      "properties": {
        "id": 274090114,
        "osm_type": "node",
        "name": "х.Хижа 02",
        "tourism": "chalet"
      }
    },
    {
      "type": "Feature",
      "geometry": {
        "type": "Point",
        "coordinates": [
          24.3452367,
          42.7819717
        ]
      },
      "properties": {
        "id": 274090128,
        "osm_type": "node",
        "name": "х.Бенковски",
        "tourism": "alpine_hut"
      }
    },
    {
      "type": "Feature",
      "geometry": {
        "type": "Point",
        "coordinates": [
          24.5251719,
          42.8062511
        ]
      },
      "properties": {
        "id": 274090131,
        "osm_type": "node",
        "name": "х.Хайдушка песен",
        "tourism": "alpine_hut"
      }
    },
    {
      "type": "Feature",
      "geometry": {
        "type": "Point",
        "coordinates": [
          24.8957131,
          42.7497909
        ]
      },
      "properties": {
        "id": 274090160,
        "osm_type": "node",
        "name": "х.Плевен",
        "tourism": "alpine_hut"
      }
    },
    {
      "type": "Feature",
      "geometry": {
        "type": "Point",
        "coordinates": [
          24.51911,
          42.809172
        ]
      },
      "properties": {
        "id": 274090197,
        "osm_type": "node",
        "name": "х.Хижа 01",
        "tourism": "chalet"
      }
    },
    {
      "type": "Feature",
      "geometry": {
        "type": "Point",
        "coordinates": [
          24.481354,
          42.775072
        ]
      },
      "properties": {
        "id": 274090344,
        "osm_type": "node",
        "name": "х. Ехо",
        "tourism": "alpine_hut"
      }
    },
    {
      "type": "Feature",
      "geometry": {
        "type": "Point",
        "coordinates": [
          24.6286473,
          42.7952843
        ]
      },
      "properties": {
        "id": 291177210,
        "osm_type": "node",
        "name": "Вила Елма",
        "tourism": "chalet"
      }
    },
    {
      "type": "Feature",
      "geometry": {
        "type": "Point",
        "coordinates": [
          24.7180192,
          42.8873692
        ]
      },
      "properties": {
        "id": 443782835,
        "osm_type": "node",
        "name": "Парк хотел „Троян“",
        "tourism": "hotel",
        "phone": "+359 878 30 39 39",
        "website": "https://phtroyan.net/",
        "check_date": "2027-05-30"
      }
    },
    {
      "type": "Feature",
      "geometry": {
        "type": "Point",
        "coordinates": [
          24.7180096,
          42.88571
        ]
      },
      "properties": {
        "id": 443788818,
        "osm_type": "node",
        "name": "Къпина 2",
        "tourism": "hostel"
      }
    },
    {
      "type": "Feature",
      "geometry": {
        "type": "Point",
        "coordinates": [
          24.716479,
          42.8831069
        ]
      },
      "properties": {
        "id": 443788822,
        "osm_type": "node",
        "name": "Туристически дом „Никола Габровски“",
        "tourism": "hostel"
      }
    },
    {
      "type": "Feature",
      "geometry": {
        "type": "Point",
        "coordinates": [
          24.7206381,
          42.8786555
        ]
      },
      "properties": {
        "id": 443788826,
        "osm_type": "node",
        "name": "Резиденция \"Къпинчо\"",
        "tourism": "hostel"
      }
    },
    {
      "type": "Feature",
      "geometry": {
        "type": "Point",
        "coordinates": [
          24.9423233,
          42.8177833
        ]
      },
      "properties": {
        "id": 476263342,
        "osm_type": "node",
        "name": "Тихият кът",
        "tourism": "hotel",
        "phone": "+359 695 83 363",
        "website": "http://tihiatkat.com"
      }
    },
    {
      "type": "Feature",
      "geometry": {
        "type": "Point",
        "coordinates": [
          24.9175424,
          42.8438589
        ]
      },
      "properties": {
        "id": 476270588,
        "osm_type": "node",
        "name": "Априлци",
        "tourism": "hotel"
      }
    },
    {
      "type": "Feature",
      "geometry": {
        "type": "Point",
        "coordinates": [
          24.9523923,
          42.8197455
        ]
      },
      "properties": {
        "id": 478550788,
        "osm_type": "node",
        "name": "Мара Гидик",
        "tourism": "hotel"
      }
    },
    {
      "type": "Feature",
      "geometry": {
        "type": "Point",
        "coordinates": [
          24.0682735,
          43.1988555
        ]
      },
      "properties": {
        "id": 517329159,
        "osm_type": "node",
        "name": "Провъртеник",
        "tourism": "guest_house"
      }
    },
    {
      "type": "Feature",
      "geometry": {
        "type": "Point",
        "coordinates": [
          24.3582778,
          42.8448653
        ]
      },
      "properties": {
        "id": 707965973,
        "osm_type": "node",
        "name": "Рибарица",
        "tourism": "hotel"
      }
    },
    {
      "type": "Feature",
      "geometry": {
        "type": "Point",
        "coordinates": [
          24.7612419,
          42.8893477
        ]
      },
      "properties": {
        "id": 1153228714,
        "osm_type": "node",
        "name": "Хотел Виа",
        "tourism": "guest_house",
        "opening_hours": "24/7",
        "phone": "+359 88 857 8519",
        "website": "https://www.hotelvia.eu"
      }
    },
    {
      "type": "Feature",
      "geometry": {
        "type": "Point",
        "coordinates": [
          24.2980296,
          42.9292363
        ]
      },
      "properties": {
        "id": 1325181023,
        "osm_type": "node",
        "name": "Вила Червен",
        "tourism": "hotel"
      }
    },
    {
      "type": "Feature",
      "geometry": {
        "type": "Point",
        "coordinates": [
          24.9221488,
          42.8044956
        ]
      },
      "properties": {
        "id": 1389926750,
        "osm_type": "node",
        "name": "Вила Райски Кът",
        "tourism": "guest_house"
      }
    },
    {
      "type": "Feature",
      "geometry": {
        "type": "Point",
        "coordinates": [
          24.554464,
          42.8269601
        ]
      },
      "properties": {
        "id": 1447666507,
        "osm_type": "node",
        "name": "Вълеви къщи",
        "tourism": "guest_house"
      }
    },
    {
      "type": "Feature",
      "geometry": {
        "type": "Point",
        "coordinates": [
          24.639129,
          42.8747552
        ]
      },
      "properties": {
        "id": 1680610339,
        "osm_type": "node",
        "name": "Азарея",
        "tourism": "guest_house",
        "phone": "+359 88 644 7943",
        "website": "https://azareiya.com/"
      }
    },
    {
      "type": "Feature",
      "geometry": {
        "type": "Point",
        "coordinates": [
          24.48209,
          42.8803422
        ]
      },
      "properties": {
        "id": 1780588744,
        "osm_type": "node",
        "name": "хижа Васильов",
        "tourism": "alpine_hut"
      }
    },
    {
      "type": "Feature",
      "geometry": {
        "type": "Point",
        "coordinates": [
          24.5248766,
          42.8828736
        ]
      },
      "properties": {
        "id": 1780588775,
        "osm_type": "node",
        "name": "Къща за гости \"Вени\"",
        "tourism": "guest_house"
      }
    },
    {
      "type": "Feature",
      "geometry": {
        "type": "Point",
        "coordinates": [
          24.3507974,
          42.8538175
        ]
      },
      "properties": {
        "id": 1827408723,
        "osm_type": "node",
        "name": "Вила Рай",
        "tourism": "guest_house"
      }
    },
    {
      "type": "Feature",
      "geometry": {
        "type": "Point",
        "coordinates": [
          24.5584175,
          42.9037477
        ]
      },
      "properties": {
        "id": 1891687728,
        "osm_type": "node",
        "name": "х. Коман (стара, изоставена)",
        "tourism": "alpine_hut"
      }
    },
    {
      "type": "Feature",
      "geometry": {
        "type": "Point",
        "coordinates": [
          24.5546249,
          42.8998614
        ]
      },
      "properties": {
        "id": 1891687733,
        "osm_type": "node",
        "name": "х. Коман (нова)",
        "tourism": "alpine_hut"
      }
    },
    {
      "type": "Feature",
      "geometry": {
        "type": "Point",
        "coordinates": [
          24.7693444,
          42.8833786
        ]
      },
      "properties": {
        "id": 1918529288,
        "osm_type": "node",
        "name": "Guesthouse SLAVI",
        "tourism": "guest_house"
      }
    },
    {
      "type": "Feature",
      "geometry": {
        "type": "Point",
        "coordinates": [
          24.7174665,
          43.1375089
        ]
      },
      "properties": {
        "id": 1934975833,
        "osm_type": "node",
        "name": "Presidivm Palace",
        "tourism": "hotel",
        "check_date": "2023-03-04"
      }
    },
    {
      "type": "Feature",
      "geometry": {
        "type": "Point",
        "coordinates": [
          24.7163535,
          43.133195
        ]
      },
      "properties": {
        "id": 1934975837,
        "osm_type": "node",
        "name": "Хотел \"Ловеч\"",
        "tourism": "hotel"
      }
    },
    {
      "type": "Feature",
      "geometry": {
        "type": "Point",
        "coordinates": [
          24.1625946,
          43.2060847
        ]
      },
      "properties": {
        "id": 2286864632,
        "osm_type": "node",
        "name": "Diplomat Plaza Hotel & Resort",
        "tourism": "hotel",
        "phone": "+359 885205252",
        "website": "https://diplomatplaza.com/"
      }
    },
    {
      "type": "Feature",
      "geometry": {
        "type": "Point",
        "coordinates": [
          24.9252625,
          42.7780202
        ]
      },
      "properties": {
        "id": 2323438137,
        "osm_type": "node",
        "tourism": "camp_site"
      }
    },
    {
      "type": "Feature",
      "geometry": {
        "type": "Point",
        "coordinates": [
          24.6490236,
          42.861338
        ]
      },
      "properties": {
        "id": 2338268095,
        "osm_type": "node",
        "name": "Къщи за гости \"В бурето\"",
        "tourism": "guest_house",
        "phone": "+359 89 981 8784"
      }
    },
    {
      "type": "Feature",
      "geometry": {
        "type": "Point",
        "coordinates": [
          24.9183263,
          42.8431162
        ]
      },
      "properties": {
        "id": 2377115065,
        "osm_type": "node",
        "name": "Yavor",
        "tourism": "guest_house"
      }
    },
    {
      "type": "Feature",
      "geometry": {
        "type": "Point",
        "coordinates": [
          24.7151609,
          43.1303162
        ]
      },
      "properties": {
        "id": 2427818181,
        "osm_type": "node",
        "name": "Oasis",
        "tourism": "hotel"
      }
    },
    {
      "type": "Feature",
      "geometry": {
        "type": "Point",
        "coordinates": [
          24.2065955,
          42.8067959
        ]
      },
      "properties": {
        "id": 3066750951,
        "osm_type": "node",
        "name": "Паскалска ливада",
        "tourism": "alpine_hut"
      }
    },
    {
      "type": "Feature",
      "geometry": {
        "type": "Point",
        "coordinates": [
          24.2046051,
          42.7901853
        ]
      },
      "properties": {
        "id": 3066763343,
        "osm_type": "node",
        "name": "х. Анкова бичкия",
        "tourism": "alpine_hut"
      }
    },
    {
      "type": "Feature",
      "geometry": {
        "type": "Point",
        "coordinates": [
          24.2307653,
          42.7833613
        ]
      },
      "properties": {
        "id": 3066763344,
        "osm_type": "node",
        "name": "хижа Комитски валог",
        "tourism": "alpine_hut"
      }
    },
    {
      "type": "Feature",
      "geometry": {
        "type": "Point",
        "coordinates": [
          24.2332109,
          42.7824122
        ]
      },
      "properties": {
        "id": 3066763345,
        "osm_type": "node",
        "name": "хижа Момина поляна",
        "tourism": "alpine_hut",
        "phone": "+359 88 982 4081;0894694586;0889824081",
        "check_date": "2025-06-12"
      }
    },
    {
      "type": "Feature",
      "geometry": {
        "type": "Point",
        "coordinates": [
          24.666654,
          42.855561
        ]
      },
      "properties": {
        "id": 3797765525,
        "osm_type": "node",
        "name": "Хотелски комплекс Край реката",
        "tourism": "hotel",
        "phone": "+359 88 460 0301",
        "website": "https://krayrekata.com/",
        "check_date": "2025-02-05"
      }
    },
    {
      "type": "Feature",
      "geometry": {
        "type": "Point",
        "coordinates": [
          24.6280113,
          42.7969837
        ]
      },
      "properties": {
        "id": 3872415658,
        "osm_type": "node",
        "name": "Виа Траяна",
        "tourism": "hotel",
        "phone": "+359 6969 22 82",
        "website": "https://viatrayana.net",
        "check_date": "2025-10-07"
      }
    },
    {
      "type": "Feature",
      "geometry": {
        "type": "Point",
        "coordinates": [
          24.9298754,
          42.8116009
        ]
      },
      "properties": {
        "id": 4056030383,
        "osm_type": "node",
        "name": "Самостоятелни стаи \"Райска тишина\"",
        "tourism": "hotel",
        "phone": "+359 89 732 2717"
      }
    },
    {
      "type": "Feature",
      "geometry": {
        "type": "Point",
        "coordinates": [
          24.640635,
          42.8689136
        ]
      },
      "properties": {
        "id": 4066310051,
        "osm_type": "node",
        "name": "Къща за гости Вила Колор Троян",
        "tourism": "hotel",
        "phone": "+359 88 869 5288;+359 87 869 5288;+359 89 669 5288",
        "website": "https://www.villacolour.com/"
      }
    },
    {
      "type": "Feature",
      "geometry": {
        "type": "Point",
        "coordinates": [
          24.1872117,
          42.8667153
        ]
      },
      "properties": {
        "id": 4086365306,
        "osm_type": "node",
        "name": "Къща за гости Дъскот",
        "tourism": "hotel"
      }
    },
    {
      "type": "Feature",
      "geometry": {
        "type": "Point",
        "coordinates": [
          24.6536004,
          42.8606064
        ]
      },
      "properties": {
        "id": 4087871727,
        "osm_type": "node",
        "name": "Къща за Гости Къщата на баба",
        "tourism": "hotel",
        "phone": "+359 88 524 8647;+359 87 824 9647",
        "website": "https://kashtatanababa.com/"
      }
    },
    {
      "type": "Feature",
      "geometry": {
        "type": "Point",
        "coordinates": [
          24.3595904,
          42.84798
        ]
      },
      "properties": {
        "id": 4183141521,
        "osm_type": "node",
        "name": "Вили Янкови Рибарица",
        "tourism": "hotel",
        "phone": "+359 88 769 5316;+359 88 769 5340",
        "website": "https://yankovi.net/"
      }
    },
    {
      "type": "Feature",
      "geometry": {
        "type": "Point",
        "coordinates": [
          24.1411587,
          43.1637371
        ]
      },
      "properties": {
        "id": 4261353920,
        "osm_type": "node",
        "name": "Guest House Kontrasti 3*",
        "tourism": "guest_house"
      }
    },
    {
      "type": "Feature",
      "geometry": {
        "type": "Point",
        "coordinates": [
          24.4030879,
          42.972425
        ]
      },
      "properties": {
        "id": 4280990808,
        "osm_type": "node",
        "name": "Лесидрен резиденс",
        "tourism": "guest_house"
      }
    },
    {
      "type": "Feature",
      "geometry": {
        "type": "Point",
        "coordinates": [
          24.6263532,
          42.7912089
        ]
      },
      "properties": {
        "id": 4329293890,
        "osm_type": "node",
        "name": "Хотел Сима",
        "tourism": "hotel"
      }
    },
    {
      "type": "Feature",
      "geometry": {
        "type": "Point",
        "coordinates": [
          24.2795714,
          43.1417624
        ]
      },
      "properties": {
        "id": 4432958579,
        "osm_type": "node",
        "name": "В.И.Т",
        "tourism": "guest_house"
      }
    },
    {
      "type": "Feature",
      "geometry": {
        "type": "Point",
        "coordinates": [
          24.7819847,
          42.8680378
        ]
      },
      "properties": {
        "id": 4434233589,
        "osm_type": "node",
        "name": "При орехите",
        "tourism": "guest_house"
      }
    },
    {
      "type": "Feature",
      "geometry": {
        "type": "Point",
        "coordinates": [
          24.5533805,
          42.8267436
        ]
      },
      "properties": {
        "id": 4583098190,
        "osm_type": "node",
        "name": "При Кумовете",
        "tourism": "guest_house"
      }
    },
    {
      "type": "Feature",
      "geometry": {
        "type": "Point",
        "coordinates": [
          24.1405949,
          43.1635481
        ]
      },
      "properties": {
        "id": 4696746709,
        "osm_type": "node",
        "name": "къща за гости Миша",
        "tourism": "guest_house"
      }
    },
    {
      "type": "Feature",
      "geometry": {
        "type": "Point",
        "coordinates": [
          24.713772,
          42.8862459
        ]
      },
      "properties": {
        "id": 4745673948,
        "osm_type": "node",
        "name": "Троян Плаза",
        "tourism": "hotel",
        "phone": "+359 670 643 99",
        "website": "https://troyanplaza.com/",
        "check_date": "2027-05-30"
      }
    },
    {
      "type": "Feature",
      "geometry": {
        "type": "Point",
        "coordinates": [
          24.1691275,
          43.1993298
        ]
      },
      "properties": {
        "id": 4798895637,
        "osm_type": "node",
        "name": "Амигос",
        "tourism": "hotel"
      }
    },
    {
      "type": "Feature",
      "geometry": {
        "type": "Point",
        "coordinates": [
          24.7193598,
          43.133716
        ]
      },
      "properties": {
        "id": 4801146776,
        "osm_type": "node",
        "name": "Хотел LIANI",
        "tourism": "hotel",
        "phone": "+359 88 481 8750;+359 68 586 499",
        "website": "https://hotelliani.com/httphotelliani-com/",
        "check_date": "2023-03-05"
      }
    },
    {
      "type": "Feature",
      "geometry": {
        "type": "Point",
        "coordinates": [
          24.7219781,
          43.1363004
        ]
      },
      "properties": {
        "id": 4801176885,
        "osm_type": "node",
        "name": "Парк Хотел \"Стратеш\"",
        "tourism": "hotel",
        "phone": "+359 88 829 1616",
        "website": "http://www.stratesh.com"
      }
    },
    {
      "type": "Feature",
      "geometry": {
        "type": "Point",
        "coordinates": [
          24.9384956,
          42.8135716
        ]
      },
      "properties": {
        "id": 4809688622,
        "osm_type": "node",
        "name": "Вила Цветина",
        "tourism": "guest_house"
      }
    },
    {
      "type": "Feature",
      "geometry": {
        "type": "Point",
        "coordinates": [
          24.137456,
          43.1902962
        ]
      },
      "properties": {
        "id": 4946809024,
        "osm_type": "node",
        "name": "Поляна",
        "tourism": "camp_site"
      }
    },
    {
      "type": "Feature",
      "geometry": {
        "type": "Point",
        "coordinates": [
          24.0710074,
          43.180483
        ]
      },
      "properties": {
        "id": 5541144604,
        "osm_type": "node",
        "name": "Пещерен дом „Петър Трантеев“",
        "tourism": "alpine_hut"
      }
    },
    {
      "type": "Feature",
      "geometry": {
        "type": "Point",
        "coordinates": [
          25.0353391,
          43.253799
        ]
      },
      "properties": {
        "id": 5601813778,
        "osm_type": "node",
        "name": "Къща ГУГОВИ- самостоятелни стаи",
        "tourism": "hotel",
        "phone": "+359 88 815 0379",
        "website": "https://gugovi.alle.bg/"
      }
    },
    {
      "type": "Feature",
      "geometry": {
        "type": "Point",
        "coordinates": [
          24.3497232,
          42.8556655
        ]
      },
      "properties": {
        "id": 5651298963,
        "osm_type": "node",
        "name": "Къща за гости Магнолия",
        "tourism": "guest_house",
        "phone": "+359 88 505 4370"
      }
    },
    {
      "type": "Feature",
      "geometry": {
        "type": "Point",
        "coordinates": [
          24.1858647,
          42.8568432
        ]
      },
      "properties": {
        "id": 6035995863,
        "osm_type": "node",
        "name": "къщи Бояна - houses Boiana",
        "tourism": "guest_house",
        "phone": "+359 88 658 0115",
        "website": "https://www.boyanahouses.eu/"
      }
    },
    {
      "type": "Feature",
      "geometry": {
        "type": "Point",
        "coordinates": [
          24.1774325,
          42.9189
        ]
      },
      "properties": {
        "id": 6251324835,
        "osm_type": "node",
        "name": "Хижа Роси",
        "tourism": "alpine_hut",
        "phone": "+359 89 860 7297"
      }
    },
    {
      "type": "Feature",
      "geometry": {
        "type": "Point",
        "coordinates": [
          25.0346392,
          43.2485905
        ]
      },
      "properties": {
        "id": 6439460625,
        "osm_type": "node",
        "name": "Cattleya",
        "tourism": "hotel",
        "phone": "+359 87 671 7799",
        "website": "https://www.hotelcattleya.bg/"
      }
    },
    {
      "type": "Feature",
      "geometry": {
        "type": "Point",
        "coordinates": [
          24.5560698,
          42.8267692
        ]
      },
      "properties": {
        "id": 7016578099,
        "osm_type": "node",
        "name": "Парк Хотел Фея",
        "tourism": "hotel",
        "phone": "+359 87 852 5680",
        "website": "https://www.fairyhotel.com/",
        "check_date": "2029-12-10"
      }
    },
    {
      "type": "Feature",
      "geometry": {
        "type": "Point",
        "coordinates": [
          24.9247942,
          42.8323651
        ]
      },
      "properties": {
        "id": 7572648623,
        "osm_type": "node",
        "name": "Хотел - Механа Сватовете",
        "tourism": "hotel"
      }
    },
    {
      "type": "Feature",
      "geometry": {
        "type": "Point",
        "coordinates": [
          24.578502,
          42.8324547
        ]
      },
      "properties": {
        "id": 7683216138,
        "osm_type": "node",
        "name": "Вила Кокиче",
        "tourism": "hotel"
      }
    },
    {
      "type": "Feature",
      "geometry": {
        "type": "Point",
        "coordinates": [
          24.5532549,
          42.8272081
        ]
      },
      "properties": {
        "id": 8506830138,
        "osm_type": "node",
        "name": "Alfaresort Thermal Chiflika",
        "tourism": "hotel",
        "phone": "+359 89 367 8261",
        "website": "https://thermal.alfaresort.bg/"
      }
    },
    {
      "type": "Feature",
      "geometry": {
        "type": "Point",
        "coordinates": [
          24.5549754,
          42.8274822
        ]
      },
      "properties": {
        "id": 8506830178,
        "osm_type": "node",
        "name": "Alfaresort Chiflika Palace",
        "tourism": "hotel",
        "phone": "+359 89 700 3023",
        "website": "https://palace.alfaresort.bg/"
      }
    },
    {
      "type": "Feature",
      "geometry": {
        "type": "Point",
        "coordinates": [
          24.552917,
          42.8269122
        ]
      },
      "properties": {
        "id": 8506830202,
        "osm_type": "node",
        "name": "Alfaresort Chiflika Park",
        "tourism": "guest_house",
        "phone": "+359 88 750 5656",
        "website": "https://park.alfaresort.bg/"
      }
    },
    {
      "type": "Feature",
      "geometry": {
        "type": "Point",
        "coordinates": [
          24.8984975,
          43.221178
        ]
      },
      "properties": {
        "id": 9064028645,
        "osm_type": "node",
        "name": "Nikola's",
        "tourism": "guest_house"
      }
    },
    {
      "type": "Feature",
      "geometry": {
        "type": "Point",
        "coordinates": [
          25.0069101,
          43.2266563
        ]
      },
      "properties": {
        "id": 9069823079,
        "osm_type": "node",
        "name": "Ongal Houses",
        "tourism": "guest_house",
        "contact:phone": "+359 88 770 0753",
        "website": "https://www.ongal.bg/"
      }
    },
    {
      "type": "Feature",
      "geometry": {
        "type": "Point",
        "coordinates": [
          24.9455017,
          42.8217856
        ]
      },
      "properties": {
        "id": 10016713046,
        "osm_type": "node",
        "name": "Par Avion",
        "tourism": "hotel"
      }
    },
    {
      "type": "Feature",
      "geometry": {
        "type": "Point",
        "coordinates": [
          24.4666639,
          42.9853995
        ]
      },
      "properties": {
        "id": 10170765883,
        "osm_type": "node",
        "name": "Мирела",
        "tourism": "guest_house"
      }
    },
    {
      "type": "Feature",
      "geometry": {
        "type": "Point",
        "coordinates": [
          24.3447509,
          42.8627408
        ]
      },
      "properties": {
        "id": 10170831259,
        "osm_type": "node",
        "name": "Вежен",
        "tourism": "hotel"
      }
    },
    {
      "type": "Feature",
      "geometry": {
        "type": "Point",
        "coordinates": [
          24.2836063,
          42.9123229
        ]
      },
      "properties": {
        "id": 10170834101,
        "osm_type": "node",
        "name": "Вавилон",
        "tourism": "hotel"
      }
    },
    {
      "type": "Feature",
      "geometry": {
        "type": "Point",
        "coordinates": [
          24.6664465,
          42.8262448
        ]
      },
      "properties": {
        "id": 10170843450,
        "osm_type": "node",
        "name": "Балканетте",
        "tourism": "guest_house"
      }
    },
    {
      "type": "Feature",
      "geometry": {
        "type": "Point",
        "coordinates": [
          24.2743144,
          42.9142105
        ]
      },
      "properties": {
        "id": 10170848551,
        "osm_type": "node",
        "name": "Лори",
        "tourism": "guest_house"
      }
    },
    {
      "type": "Feature",
      "geometry": {
        "type": "Point",
        "coordinates": [
          24.2639941,
          42.9146638
        ]
      },
      "properties": {
        "id": 10170852888,
        "osm_type": "node",
        "name": "Здравец",
        "tourism": "hotel"
      }
    },
    {
      "type": "Feature",
      "geometry": {
        "type": "Point",
        "coordinates": [
          24.5569881,
          42.8800147
        ]
      },
      "properties": {
        "id": 10170853028,
        "osm_type": "node",
        "name": "Памир",
        "tourism": "guest_house"
      }
    },
    {
      "type": "Feature",
      "geometry": {
        "type": "Point",
        "coordinates": [
          24.276413,
          42.9138352
        ]
      },
      "properties": {
        "id": 10170853031,
        "osm_type": "node",
        "name": "Еница",
        "tourism": "hotel"
      }
    },
    {
      "type": "Feature",
      "geometry": {
        "type": "Point",
        "coordinates": [
          24.465503,
          42.9943343
        ]
      },
      "properties": {
        "id": 10170853235,
        "osm_type": "node",
        "name": "Райския залив",
        "tourism": "hotel"
      }
    },
    {
      "type": "Feature",
      "geometry": {
        "type": "Point",
        "coordinates": [
          24.6686447,
          42.8305091
        ]
      },
      "properties": {
        "id": 10170854470,
        "osm_type": "node",
        "name": "Българче",
        "tourism": "guest_house"
      }
    },
    {
      "type": "Feature",
      "geometry": {
        "type": "Point",
        "coordinates": [
          24.6666981,
          42.8503654
        ]
      },
      "properties": {
        "id": 10170855248,
        "osm_type": "node",
        "name": "Планинска среща",
        "tourism": "guest_house"
      }
    },
    {
      "type": "Feature",
      "geometry": {
        "type": "Point",
        "coordinates": [
          24.3134302,
          42.9038138
        ]
      },
      "properties": {
        "id": 10170855249,
        "osm_type": "node",
        "name": "Наневи",
        "tourism": "guest_house"
      }
    },
    {
      "type": "Feature",
      "geometry": {
        "type": "Point",
        "coordinates": [
          24.4574637,
          42.9743633
        ]
      },
      "properties": {
        "id": 10170855633,
        "osm_type": "node",
        "name": "Ранчото",
        "tourism": "guest_house"
      }
    },
    {
      "type": "Feature",
      "geometry": {
        "type": "Point",
        "coordinates": [
          24.2703484,
          42.9160476
        ]
      },
      "properties": {
        "id": 10170858182,
        "osm_type": "node",
        "name": "Тетевен",
        "tourism": "hotel"
      }
    },
    {
      "type": "Feature",
      "geometry": {
        "type": "Point",
        "coordinates": [
          24.5279341,
          42.8825393
        ]
      },
      "properties": {
        "id": 10170858697,
        "osm_type": "node",
        "name": "Русалка",
        "tourism": "guest_house"
      }
    },
    {
      "type": "Feature",
      "geometry": {
        "type": "Point",
        "coordinates": [
          24.564695,
          42.8818295
        ]
      },
      "properties": {
        "id": 10170858698,
        "osm_type": "node",
        "name": "Импресия",
        "tourism": "guest_house"
      }
    },
    {
      "type": "Feature",
      "geometry": {
        "type": "Point",
        "coordinates": [
          24.3598122,
          42.8476867
        ]
      },
      "properties": {
        "id": 10170858702,
        "osm_type": "node",
        "name": "Марина",
        "tourism": "guest_house"
      }
    },
    {
      "type": "Feature",
      "geometry": {
        "type": "Point",
        "coordinates": [
          24.5286561,
          42.8824677
        ]
      },
      "properties": {
        "id": 10170860228,
        "osm_type": "node",
        "name": "Мечта",
        "tourism": "guest_house"
      }
    },
    {
      "type": "Feature",
      "geometry": {
        "type": "Point",
        "coordinates": [
          24.0663683,
          43.1978008
        ]
      },
      "properties": {
        "id": 10180727830,
        "osm_type": "node",
        "name": "На Искъра",
        "tourism": "guest_house"
      }
    },
    {
      "type": "Feature",
      "geometry": {
        "type": "Point",
        "coordinates": [
          24.6595831,
          42.8610185
        ]
      },
      "properties": {
        "id": 10220995060,
        "osm_type": "node",
        "name": "Детелини",
        "tourism": "guest_house"
      }
    },
    {
      "type": "Feature",
      "geometry": {
        "type": "Point",
        "coordinates": [
          24.7585501,
          42.8856601
        ]
      },
      "properties": {
        "id": 10220995061,
        "osm_type": "node",
        "name": "При братята",
        "tourism": "guest_house"
      }
    },
    {
      "type": "Feature",
      "geometry": {
        "type": "Point",
        "coordinates": [
          24.8038918,
          42.9009265
        ]
      },
      "properties": {
        "id": 10220995064,
        "osm_type": "node",
        "name": "Вижън",
        "tourism": "guest_house"
      }
    },
    {
      "type": "Feature",
      "geometry": {
        "type": "Point",
        "coordinates": [
          24.769127,
          42.8271589
        ]
      },
      "properties": {
        "id": 10220995066,
        "osm_type": "node",
        "name": "Стойчовата къща",
        "tourism": "guest_house"
      }
    },
    {
      "type": "Feature",
      "geometry": {
        "type": "Point",
        "coordinates": [
          24.7709235,
          42.8411617
        ]
      },
      "properties": {
        "id": 10221020092,
        "osm_type": "node",
        "name": "Почивка",
        "tourism": "guest_house"
      }
    },
    {
      "type": "Feature",
      "geometry": {
        "type": "Point",
        "coordinates": [
          24.7617561,
          42.8232579
        ]
      },
      "properties": {
        "id": 10221020094,
        "osm_type": "node",
        "name": "Динеа",
        "tourism": "guest_house"
      }
    },
    {
      "type": "Feature",
      "geometry": {
        "type": "Point",
        "coordinates": [
          24.774537,
          42.8796596
        ]
      },
      "properties": {
        "id": 10221053203,
        "osm_type": "node",
        "name": "Троеручица",
        "tourism": "guest_house"
      }
    },
    {
      "type": "Feature",
      "geometry": {
        "type": "Point",
        "coordinates": [
          24.7419938,
          42.8810807
        ]
      },
      "properties": {
        "id": 10221067727,
        "osm_type": "node",
        "name": "Чанове",
        "tourism": "guest_house"
      }
    },
    {
      "type": "Feature",
      "geometry": {
        "type": "Point",
        "coordinates": [
          24.7748413,
          42.8510923
        ]
      },
      "properties": {
        "id": 10221067728,
        "osm_type": "node",
        "name": "Ариранг",
        "tourism": "guest_house"
      }
    },
    {
      "type": "Feature",
      "geometry": {
        "type": "Point",
        "coordinates": [
          24.8588744,
          42.8335027
        ]
      },
      "properties": {
        "id": 10221067729,
        "osm_type": "node",
        "name": "Вербена",
        "tourism": "guest_house"
      }
    },
    {
      "type": "Feature",
      "geometry": {
        "type": "Point",
        "coordinates": [
          24.7725981,
          42.8101377
        ]
      },
      "properties": {
        "id": 10221067732,
        "osm_type": "node",
        "name": "Орейте",
        "tourism": "camp_site"
      }
    },
    {
      "type": "Feature",
      "geometry": {
        "type": "Point",
        "coordinates": [
          24.8678719,
          42.8806216
        ]
      },
      "properties": {
        "id": 10221068541,
        "osm_type": "node",
        "name": "Дива",
        "tourism": "guest_house"
      }
    },
    {
      "type": "Feature",
      "geometry": {
        "type": "Point",
        "coordinates": [
          24.7417781,
          42.8814533
        ]
      },
      "properties": {
        "id": 10221070105,
        "osm_type": "node",
        "name": "При чичо Митко",
        "tourism": "guest_house"
      }
    },
    {
      "type": "Feature",
      "geometry": {
        "type": "Point",
        "coordinates": [
          24.7735411,
          42.847369
        ]
      },
      "properties": {
        "id": 10221070106,
        "osm_type": "node",
        "name": "Дъга",
        "tourism": "guest_house"
      }
    },
    {
      "type": "Feature",
      "geometry": {
        "type": "Point",
        "coordinates": [
          24.8681486,
          42.8807035
        ]
      },
      "properties": {
        "id": 10221070108,
        "osm_type": "node",
        "name": "При водопада",
        "tourism": "guest_house"
      }
    },
    {
      "type": "Feature",
      "geometry": {
        "type": "Point",
        "coordinates": [
          24.7596302,
          42.8999746
        ]
      },
      "properties": {
        "id": 10221070109,
        "osm_type": "node",
        "name": "Божана",
        "tourism": "guest_house"
      }
    },
    {
      "type": "Feature",
      "geometry": {
        "type": "Point",
        "coordinates": [
          24.7722881,
          42.8489741
        ]
      },
      "properties": {
        "id": 10221079450,
        "osm_type": "node",
        "name": "Маги",
        "tourism": "guest_house"
      }
    },
    {
      "type": "Feature",
      "geometry": {
        "type": "Point",
        "coordinates": [
          24.7591232,
          42.8854559
        ]
      },
      "properties": {
        "id": 10221080324,
        "osm_type": "node",
        "name": "Де-Ян",
        "tourism": "guest_house"
      }
    },
    {
      "type": "Feature",
      "geometry": {
        "type": "Point",
        "coordinates": [
          24.7774697,
          42.8499438
        ]
      },
      "properties": {
        "id": 10221080325,
        "osm_type": "node",
        "name": "Релакс",
        "tourism": "guest_house"
      }
    },
    {
      "type": "Feature",
      "geometry": {
        "type": "Point",
        "coordinates": [
          24.6799337,
          42.7838196
        ]
      },
      "properties": {
        "id": 10221083485,
        "osm_type": "node",
        "name": "Хижа Чучул",
        "tourism": "alpine_hut"
      }
    },
    {
      "type": "Feature",
      "geometry": {
        "type": "Point",
        "coordinates": [
          24.7640443,
          42.8809123
        ]
      },
      "properties": {
        "id": 10221084158,
        "osm_type": "node",
        "name": "Лабади",
        "tourism": "guest_house"
      }
    },
    {
      "type": "Feature",
      "geometry": {
        "type": "Point",
        "coordinates": [
          24.91426,
          42.8379683
        ]
      },
      "properties": {
        "id": 10221085229,
        "osm_type": "node",
        "name": "Рени",
        "tourism": "guest_house"
      }
    },
    {
      "type": "Feature",
      "geometry": {
        "type": "Point",
        "coordinates": [
          24.4583082,
          42.8274112
        ]
      },
      "properties": {
        "id": 10221085730,
        "osm_type": "node",
        "name": "Черна река",
        "tourism": "guest_house"
      }
    },
    {
      "type": "Feature",
      "geometry": {
        "type": "Point",
        "coordinates": [
          24.9149746,
          42.8415156
        ]
      },
      "properties": {
        "id": 10221086868,
        "osm_type": "node",
        "name": "Цоневски",
        "tourism": "guest_house"
      }
    },
    {
      "type": "Feature",
      "geometry": {
        "type": "Point",
        "coordinates": [
          24.9152192,
          42.8447428
        ]
      },
      "properties": {
        "id": 10221088903,
        "osm_type": "node",
        "name": "Бояджиеви",
        "tourism": "guest_house"
      }
    },
    {
      "type": "Feature",
      "geometry": {
        "type": "Point",
        "coordinates": [
          24.7741843,
          42.8799284
        ]
      },
      "properties": {
        "id": 10221090839,
        "osm_type": "node",
        "name": "Неделя",
        "tourism": "guest_house"
      }
    },
    {
      "type": "Feature",
      "geometry": {
        "type": "Point",
        "coordinates": [
          24.6274598,
          42.8406116
        ]
      },
      "properties": {
        "id": 10221091814,
        "osm_type": "node",
        "name": "Малчика",
        "tourism": "guest_house"
      }
    },
    {
      "type": "Feature",
      "geometry": {
        "type": "Point",
        "coordinates": [
          24.9166041,
          42.8397699
        ]
      },
      "properties": {
        "id": 10221091815,
        "osm_type": "node",
        "name": "При Сома",
        "tourism": "guest_house"
      }
    },
    {
      "type": "Feature",
      "geometry": {
        "type": "Point",
        "coordinates": [
          24.7692907,
          42.8282099
        ]
      },
      "properties": {
        "id": 10221091816,
        "osm_type": "node",
        "name": "Речен кът",
        "tourism": "guest_house"
      }
    },
    {
      "type": "Feature",
      "geometry": {
        "type": "Point",
        "coordinates": [
          24.7733839,
          42.8170182
        ]
      },
      "properties": {
        "id": 10221091856,
        "osm_type": "node",
        "name": "Иван",
        "tourism": "guest_house"
      }
    },
    {
      "type": "Feature",
      "geometry": {
        "type": "Point",
        "coordinates": [
          24.4059017,
          42.8266921
        ]
      },
      "properties": {
        "id": 10221093236,
        "osm_type": "node",
        "name": "Терасите",
        "tourism": "guest_house"
      }
    },
    {
      "type": "Feature",
      "geometry": {
        "type": "Point",
        "coordinates": [
          24.7144583,
          42.8885933
        ]
      },
      "properties": {
        "id": 10842083057,
        "osm_type": "node",
        "name": "Никол",
        "tourism": "guest_house"
      }
    },
    {
      "type": "Feature",
      "geometry": {
        "type": "Point",
        "coordinates": [
          24.3824017,
          42.833643
        ]
      },
      "properties": {
        "id": 11080536867,
        "osm_type": "node",
        "name": "Vila Omainiche Ribaritsa",
        "tourism": "guest_house",
        "phone": "+359887694449",
        "website": "https://www.vila-omainiche.com"
      }
    },
    {
      "type": "Feature",
      "geometry": {
        "type": "Point",
        "coordinates": [
          24.3258474,
          43.2178049
        ]
      },
      "properties": {
        "id": 11301669066,
        "osm_type": "node",
        "name": "Wild camp",
        "tourism": "camp_site",
        "tents": "yes"
      }
    },
    {
      "type": "Feature",
      "geometry": {
        "type": "Point",
        "coordinates": [
          24.3571786,
          42.8488305
        ]
      },
      "properties": {
        "id": 11616178603,
        "osm_type": "node",
        "name": "Хан Костина",
        "tourism": "guest_house"
      }
    },
    {
      "type": "Feature",
      "geometry": {
        "type": "Point",
        "coordinates": [
          24.2352669,
          43.0791779
        ]
      },
      "properties": {
        "id": 11616197506,
        "osm_type": "node",
        "name": "Wild camp place",
        "tourism": "camp_site"
      }
    },
    {
      "type": "Feature",
      "geometry": {
        "type": "Point",
        "coordinates": [
          24.88207,
          43.0652533
        ]
      },
      "properties": {
        "id": 11986138221,
        "osm_type": "node",
        "tourism": "camp_site"
      }
    },
    {
      "type": "Feature",
      "geometry": {
        "type": "Point",
        "coordinates": [
          24.3378195,
          42.8333659
        ]
      },
      "properties": {
        "id": 12068429349,
        "osm_type": "node",
        "name": "Тримата глупаци (The Three Fools)",
        "tourism": "hotel",
        "phone": "+359879009211"
      }
    },
    {
      "type": "Feature",
      "geometry": {
        "type": "Point",
        "coordinates": [
          24.0618335,
          43.0429073
        ]
      },
      "properties": {
        "id": 12919284201,
        "osm_type": "node",
        "name": "Звездобройна",
        "tourism": "guest_house",
        "phone": "+359889222035"
      }
    },
    {
      "type": "Feature",
      "geometry": {
        "type": "Point",
        "coordinates": [
          24.5519579,
          42.8257877
        ]
      },
      "properties": {
        "id": 13100990287,
        "osm_type": "node",
        "name": "Дива",
        "tourism": "hotel",
        "phone": "0885 838414",
        "website": "https://hoteldivachiflik.com",
        "check_date": "2027-05-30"
      }
    },
    {
      "type": "Feature",
      "geometry": {
        "type": "Point",
        "coordinates": [
          24.55209,
          42.82285
        ]
      },
      "properties": {
        "id": 13100990288,
        "osm_type": "node",
        "name": "Галакси",
        "tourism": "hotel",
        "phone": "+359 888 353 536",
        "website": "https://hotelgalaxy.bg/",
        "check_date": "2028-05-12"
      }
    },
    {
      "type": "Feature",
      "geometry": {
        "type": "Point",
        "coordinates": [
          24.2602372,
          42.9114752
        ]
      },
      "properties": {
        "id": 13175196408,
        "osm_type": "node",
        "name": "Арборетум",
        "tourism": "hotel",
        "website": "https://www.villa-arboretum.com/"
      }
    },
    {
      "type": "Feature",
      "geometry": {
        "type": "Point",
        "coordinates": [
          24.8452641,
          42.9610493
        ]
      },
      "properties": {
        "id": 13308199935,
        "osm_type": "node",
        "name": "Вила \"Симида\"",
        "tourism": "guest_house",
        "phone": "+359 88 432 4247",
        "website": "https://www.booking.com/hotel/bg/kshcha-za-gosti-simida-sdebnevo.bg.html",
        "check_date": "2025-11-19"
      }
    },
    {
      "type": "Feature",
      "geometry": {
        "type": "Point",
        "coordinates": [
          24.4684752,
          42.9144934
        ]
      },
      "properties": {
        "id": 13322110438,
        "osm_type": "node",
        "name": "Ловно стопанство „Напоя“",
        "tourism": "alpine_hut"
      }
    },
    {
      "type": "Feature",
      "geometry": {
        "type": "Point",
        "coordinates": [
          24.3806086,
          42.8356461
        ]
      },
      "properties": {
        "id": 144010655,
        "osm_type": "way",
        "name": "ПлаНината",
        "tourism": "hotel"
      }
    },
    {
      "type": "Feature",
      "geometry": {
        "type": "Point",
        "coordinates": [
          25.0049262,
          42.7502942
        ]
      },
      "properties": {
        "id": 204442281,
        "osm_type": "way",
        "name": "х. Мандрата",
        "tourism": "alpine_hut"
      }
    },
    {
      "type": "Feature",
      "geometry": {
        "type": "Point",
        "coordinates": [
          24.169705,
          43.2092935
        ]
      },
      "properties": {
        "id": 219538032,
        "osm_type": "way",
        "name": "Дипломат Парк",
        "tourism": "hotel"
      }
    },
    {
      "type": "Feature",
      "geometry": {
        "type": "Point",
        "coordinates": [
          24.9232312,
          42.8327167
        ]
      },
      "properties": {
        "id": 223297996,
        "osm_type": "way",
        "name": "Бащин дом",
        "tourism": "chalet"
      }
    },
    {
      "type": "Feature",
      "geometry": {
        "type": "Point",
        "coordinates": [
          24.6601279,
          42.863083
        ]
      },
      "properties": {
        "id": 234779846,
        "osm_type": "way",
        "name": "Ваканционен комплекс Острова",
        "tourism": "hotel",
        "website": "https://ostrova-bg.com/"
      }
    },
    {
      "type": "Feature",
      "geometry": {
        "type": "Point",
        "coordinates": [
          24.6808102,
          42.731432
        ]
      },
      "properties": {
        "id": 262603366,
        "osm_type": "way",
        "name": "х. Дерменка",
        "tourism": "alpine_hut"
      }
    },
    {
      "type": "Feature",
      "geometry": {
        "type": "Point",
        "coordinates": [
          24.9897319,
          42.7566014
        ]
      },
      "properties": {
        "id": 295331919,
        "osm_type": "way",
        "name": "Табите",
        "tourism": "hotel"
      }
    },
    {
      "type": "Feature",
      "geometry": {
        "type": "Point",
        "coordinates": [
          24.7611512,
          42.711149
        ]
      },
      "properties": {
        "id": 296688136,
        "osm_type": "way",
        "name": "Хижа Добрила",
        "tourism": "alpine_hut",
        "phone": "+359 88 410 2501",
        "website": "https://www.dobrila.eu/"
      }
    },
    {
      "type": "Feature",
      "geometry": {
        "type": "Point",
        "coordinates": [
          24.6269117,
          42.7964482
        ]
      },
      "properties": {
        "id": 302582625,
        "osm_type": "way",
        "name": "Беклемето",
        "tourism": "hotel"
      }
    },
    {
      "type": "Feature",
      "geometry": {
        "type": "Point",
        "coordinates": [
          24.709459,
          42.8889386
        ]
      },
      "properties": {
        "id": 356798218,
        "osm_type": "way",
        "name": "Хотел Шато Монтан",
        "tourism": "hotel",
        "contact:phone": "+359 670 68 900"
      }
    },
    {
      "type": "Feature",
      "geometry": {
        "type": "Point",
        "coordinates": [
          24.544246,
          42.8786229
        ]
      },
      "properties": {
        "id": 376513116,
        "osm_type": "way",
        "name": "Вила Орлица",
        "tourism": "hotel"
      }
    },
    {
      "type": "Feature",
      "geometry": {
        "type": "Point",
        "coordinates": [
          24.5370659,
          42.8796586
        ]
      },
      "properties": {
        "id": 376515846,
        "osm_type": "way",
        "name": "Почивна станция Релакс - Шипково",
        "tourism": "hotel"
      }
    },
    {
      "type": "Feature",
      "geometry": {
        "type": "Point",
        "coordinates": [
          24.5373988,
          42.8799731
        ]
      },
      "properties": {
        "id": 376516144,
        "osm_type": "way",
        "name": "Хотел Илинден",
        "tourism": "hotel"
      }
    },
    {
      "type": "Feature",
      "geometry": {
        "type": "Point",
        "coordinates": [
          24.5354879,
          42.8814976
        ]
      },
      "properties": {
        "id": 376632019,
        "osm_type": "way",
        "name": "Хотел Планински рай",
        "tourism": "hotel"
      }
    },
    {
      "type": "Feature",
      "geometry": {
        "type": "Point",
        "coordinates": [
          24.5407776,
          42.8789993
        ]
      },
      "properties": {
        "id": 376860878,
        "osm_type": "way",
        "name": "Вила Боровец с. Шипково",
        "tourism": "hotel"
      }
    },
    {
      "type": "Feature",
      "geometry": {
        "type": "Point",
        "coordinates": [
          24.9537312,
          42.8208548
        ]
      },
      "properties": {
        "id": 387590003,
        "osm_type": "way",
        "name": "Панорама",
        "tourism": "hotel"
      }
    },
    {
      "type": "Feature",
      "geometry": {
        "type": "Point",
        "coordinates": [
          24.9215509,
          42.7884972
        ]
      },
      "properties": {
        "id": 391783456,
        "osm_type": "way",
        "name": "Хотел Пандуков",
        "tourism": "hotel"
      }
    },
    {
      "type": "Feature",
      "geometry": {
        "type": "Point",
        "coordinates": [
          24.9120099,
          42.8437836
        ]
      },
      "properties": {
        "id": 400484783,
        "osm_type": "way",
        "name": "Къща за гости Събчеви",
        "tourism": "guest_house",
        "phone": "+359 88 785 7890"
      }
    },
    {
      "type": "Feature",
      "geometry": {
        "type": "Point",
        "coordinates": [
          25.0327706,
          43.2463932
        ]
      },
      "properties": {
        "id": 428567971,
        "osm_type": "way",
        "name": "Крушун",
        "tourism": "guest_house"
      }
    },
    {
      "type": "Feature",
      "geometry": {
        "type": "Point",
        "coordinates": [
          24.8065103,
          42.7787094
        ]
      },
      "properties": {
        "id": 453443946,
        "osm_type": "way",
        "name": "xижа Яворова лъка",
        "tourism": "alpine_hut"
      }
    },
    {
      "type": "Feature",
      "geometry": {
        "type": "Point",
        "coordinates": [
          24.7034375,
          43.1310792
        ]
      },
      "properties": {
        "id": 468421218,
        "osm_type": "way",
        "name": "Хостел",
        "tourism": "hostel"
      }
    },
    {
      "type": "Feature",
      "geometry": {
        "type": "Point",
        "coordinates": [
          24.717528,
          43.1314418
        ]
      },
      "properties": {
        "id": 487923527,
        "osm_type": "way",
        "name": "Цариана",
        "tourism": "hotel"
      }
    },
    {
      "type": "Feature",
      "geometry": {
        "type": "Point",
        "coordinates": [
          24.7316394,
          43.135814
        ]
      },
      "properties": {
        "id": 590738759,
        "osm_type": "way",
        "name": "Вила на Литекс Комерс",
        "tourism": "hotel"
      }
    },
    {
      "type": "Feature",
      "geometry": {
        "type": "Point",
        "coordinates": [
          24.727685,
          43.1354592
        ]
      },
      "properties": {
        "id": 590740025,
        "osm_type": "way",
        "name": "Вила на Спарки Елтос",
        "tourism": "hotel"
      }
    },
    {
      "type": "Feature",
      "geometry": {
        "type": "Point",
        "coordinates": [
          24.7221533,
          43.1346999
        ]
      },
      "properties": {
        "id": 590740028,
        "osm_type": "way",
        "name": "Туристичеси дом Стратеш",
        "tourism": "hotel"
      }
    },
    {
      "type": "Feature",
      "geometry": {
        "type": "Point",
        "coordinates": [
          24.7172088,
          43.1317528
        ]
      },
      "properties": {
        "id": 590756215,
        "osm_type": "way",
        "name": "Вароша",
        "tourism": "hotel"
      }
    },
    {
      "type": "Feature",
      "geometry": {
        "type": "Point",
        "coordinates": [
          24.7168276,
          43.1294349
        ]
      },
      "properties": {
        "id": 590756241,
        "osm_type": "way",
        "name": "Къща за гости \"Стариятъ Ловечъ\"",
        "tourism": "guest_house"
      }
    },
    {
      "type": "Feature",
      "geometry": {
        "type": "Point",
        "coordinates": [
          24.7150567,
          43.1301386
        ]
      },
      "properties": {
        "id": 590769270,
        "osm_type": "way",
        "name": "Иванчовата къща",
        "tourism": "guest_house"
      }
    },
    {
      "type": "Feature",
      "geometry": {
        "type": "Point",
        "coordinates": [
          24.7464643,
          43.0949018
        ]
      },
      "properties": {
        "id": 591849433,
        "osm_type": "way",
        "name": "Балкан",
        "tourism": "hotel"
      }
    },
    {
      "type": "Feature",
      "geometry": {
        "type": "Point",
        "coordinates": [
          24.1264982,
          42.9857972
        ]
      },
      "properties": {
        "id": 699734116,
        "osm_type": "way",
        "name": "Къщата на Билките",
        "tourism": "guest_house"
      }
    },
    {
      "type": "Feature",
      "geometry": {
        "type": "Point",
        "coordinates": [
          24.3304748,
          42.8840799
        ]
      },
      "properties": {
        "id": 734582050,
        "osm_type": "way",
        "name": "Комплекс Върбака",
        "tourism": "hotel"
      }
    },
    {
      "type": "Feature",
      "geometry": {
        "type": "Point",
        "coordinates": [
          24.6255033,
          42.7959251
        ]
      },
      "properties": {
        "id": 840087843,
        "osm_type": "way",
        "name": "Панорама",
        "tourism": "motel"
      }
    },
    {
      "type": "Feature",
      "geometry": {
        "type": "Point",
        "coordinates": [
          24.5529462,
          42.8268467
        ]
      },
      "properties": {
        "id": 915818647,
        "osm_type": "way",
        "name": "Alfaresort Chiflika Park",
        "tourism": "guest_house"
      }
    },
    {
      "type": "Feature",
      "geometry": {
        "type": "Point",
        "coordinates": [
          24.9677618,
          42.8290668
        ]
      },
      "properties": {
        "id": 1125607074,
        "osm_type": "way",
        "tourism": "guest_house"
      }
    },
    {
      "type": "Feature",
      "geometry": {
        "type": "Point",
        "coordinates": [
          24.9630726,
          42.8284726
        ]
      },
      "properties": {
        "id": 1125607129,
        "osm_type": "way",
        "tourism": "guest_house"
      }
    },
    {
      "type": "Feature",
      "geometry": {
        "type": "Point",
        "coordinates": [
          24.9031418,
          42.8455547
        ]
      },
      "properties": {
        "id": 1242964665,
        "osm_type": "way",
        "name": "xижа Зора",
        "tourism": "hotel"
      }
    },
    {
      "type": "Feature",
      "geometry": {
        "type": "Point",
        "coordinates": [
          24.9477411,
          42.825761
        ]
      },
      "properties": {
        "id": 1263063305,
        "osm_type": "way",
        "tourism": "hotel"
      }
    },
    {
      "type": "Feature",
      "geometry": {
        "type": "Point",
        "coordinates": [
          24.9390011,
          42.8319072
        ]
      },
      "properties": {
        "id": 1263063316,
        "osm_type": "way",
        "tourism": "hotel"
      }
    },
    {
      "type": "Feature",
      "geometry": {
        "type": "Point",
        "coordinates": [
          24.9385612,
          42.8373555
        ]
      },
      "properties": {
        "id": 1263063340,
        "osm_type": "way",
        "tourism": "hotel"
      }
    },
    {
      "type": "Feature",
      "geometry": {
        "type": "Point",
        "coordinates": [
          24.6643434,
          42.8525803
        ]
      },
      "properties": {
        "id": 1264918924,
        "osm_type": "way",
        "name": "Къща за гости „Алфа-Даниел“",
        "tourism": "guest_house"
      }
    },
    {
      "type": "Feature",
      "geometry": {
        "type": "Point",
        "coordinates": [
          24.6239804,
          42.7884644
        ]
      },
      "properties": {
        "id": 1265179808,
        "osm_type": "way",
        "tourism": "chalet"
      }
    },
    {
      "type": "Feature",
      "geometry": {
        "type": "Point",
        "coordinates": [
          24.6239908,
          42.788556
        ]
      },
      "properties": {
        "id": 1265179809,
        "osm_type": "way",
        "tourism": "chalet"
      }
    },
    {
      "type": "Feature",
      "geometry": {
        "type": "Point",
        "coordinates": [
          24.6239379,
          42.788667
        ]
      },
      "properties": {
        "id": 1265179810,
        "osm_type": "way",
        "tourism": "chalet"
      }
    },
    {
      "type": "Feature",
      "geometry": {
        "type": "Point",
        "coordinates": [
          24.6264417,
          42.7939893
        ]
      },
      "properties": {
        "id": 1265179823,
        "osm_type": "way",
        "name": "Почивна база на ИПЖЗ Беклемето",
        "tourism": "chalet"
      }
    },
    {
      "type": "Feature",
      "geometry": {
        "type": "Point",
        "coordinates": [
          25.0314729,
          43.2516211
        ]
      },
      "properties": {
        "id": 1266026413,
        "osm_type": "way",
        "name": "Завоя",
        "tourism": "guest_house",
        "website": "http://krushuna.com"
      }
    },
    {
      "type": "Feature",
      "geometry": {
        "type": "Point",
        "coordinates": [
          25.0303774,
          43.2527671
        ]
      },
      "properties": {
        "id": 1266026414,
        "osm_type": "way",
        "name": "Край потока",
        "tourism": "guest_house",
        "website": "http://krushuna.com"
      }
    },
    {
      "type": "Feature",
      "geometry": {
        "type": "Point",
        "coordinates": [
          24.3911144,
          42.7721853
        ]
      },
      "properties": {
        "id": 1292776808,
        "osm_type": "way",
        "name": "х. Вежен",
        "tourism": "alpine_hut"
      }
    },
    {
      "type": "Feature",
      "geometry": {
        "type": "Point",
        "coordinates": [
          24.897287,
          42.8459912
        ]
      },
      "properties": {
        "id": 1413123946,
        "osm_type": "way",
        "name": "Наш'та Къща",
        "tourism": "guest_house",
        "phone": "+359 89 792 0558",
        "website": "https://www.facebook.com/profile.php?id=61550600978155"
      }
    },
    {
      "type": "Feature",
      "geometry": {
        "type": "Point",
        "coordinates": [
          24.8983123,
          42.8463674
        ]
      },
      "properties": {
        "id": 1413123947,
        "osm_type": "way",
        "name": "Къща за гости Ореха",
        "tourism": "guest_house",
        "website": "https://www.booking.com/hotel/bg/kshcha-za-gosti-orekha.en-gb.html?force_referer=https%3A%2F%2Fwww.google.com%2F"
      }
    },
    {
      "type": "Feature",
      "geometry": {
        "type": "Point",
        "coordinates": [
          24.9019772,
          42.8408291
        ]
      },
      "properties": {
        "id": 1413862171,
        "osm_type": "way",
        "name": "Хотел 1876 Априлци",
        "tourism": "hotel",
        "phone": "+359 87 693 9063",
        "website": "https://hotel1876.bg/"
      }
    },
    {
      "type": "Feature",
      "geometry": {
        "type": "Point",
        "coordinates": [
          24.8972222,
          42.8493838
        ]
      },
      "properties": {
        "id": 1413862172,
        "osm_type": "way",
        "name": "Къща за гости Хитър Петър",
        "tourism": "guest_house"
      }
    },
    {
      "type": "Feature",
      "geometry": {
        "type": "Point",
        "coordinates": [
          24.912479,
          42.8448506
        ]
      },
      "properties": {
        "id": 1413862173,
        "osm_type": "way",
        "name": "Тринити Ритрийт Център",
        "tourism": "hotel",
        "phone": "+359 89 448 8804",
        "website": "https://www.trinityretreathouse.com/"
      }
    },
    {
      "type": "Feature",
      "geometry": {
        "type": "Point",
        "coordinates": [
          24.7903035,
          42.8821451
        ]
      },
      "properties": {
        "id": 1422123691,
        "osm_type": "way",
        "name": "Семеен Хотел - Ресторант \"Пламена\"",
        "tourism": "hotel",
        "website": "https://www.hotelplamena.com/"
      }
    }
  ]
}