{
  "type": "FeatureCollection",
  "features": [
    {
      "type": "Feature",
      "geometry": {
        "type": "Point",
        "coordinates": [
          -8.1035355,
          38.1839011
        ]
      },
      "properties": {
        "id": 26860446,
        "osm_type": "node",
        "name": "Markadia",
        "tourism": "camp_site",
        "tents": "yes"
      }
    },
    {
      "type": "Feature",
      "geometry": {
        "type": "Point",
        "coordinates": [
          -8.7918292,
          37.6535342
        ]
      },
      "properties": {
        "id": 1501157547,
        "osm_type": "node",
        "name": "Pousada de Juventude de Almograve",
        "tourism": "hostel",
        "phone": "+351 283640000"
      }
    },
    {
      "type": "Feature",
      "geometry": {
        "type": "Point",
        "coordinates": [
          -7.8628718,
          38.0123872
        ]
      },
      "properties": {
        "id": 1533108492,
        "osm_type": "node",
        "name": "Hotel Santa Bárbara",
        "tourism": "hotel",
        "phone": "+351 284312280",
        "website": "https://www.hotelsantabarbara.pt/",
        "check_date": "2025-10-10"
      }
    },
    {
      "type": "Feature",
      "geometry": {
        "type": "Point",
        "coordinates": [
          -8.7899627,
          37.725635
        ]
      },
      "properties": {
        "id": 1545210125,
        "osm_type": "node",
        "name": "Duna Park",
        "tourism": "hotel"
      }
    },
    {
      "type": "Feature",
      "geometry": {
        "type": "Point",
        "coordinates": [
          -7.5009265,
          37.6708329
        ]
      },
      "properties": {
        "id": 1944902066,
        "osm_type": "node",
        "name": "Pensão São Domingos",
        "tourism": "guest_house"
      }
    },
    {
      "type": "Feature",
      "geometry": {
        "type": "Point",
        "coordinates": [
          -8.7815937,
          37.7243942
        ]
      },
      "properties": {
        "id": 1962689339,
        "osm_type": "node",
        "name": "Casa Da Vila",
        "tourism": "guest_house",
        "website": "casadavila.com.pt",
        "check_date": "2025-02-10"
      }
    },
    {
      "type": "Feature",
      "geometry": {
        "type": "Point",
        "coordinates": [
          -8.7817624,
          37.7241208
        ]
      },
      "properties": {
        "id": 1962945656,
        "osm_type": "node",
        "name": "Mil Reis",
        "tourism": "guest_house",
        "check_date": "2025-02-10"
      }
    },
    {
      "type": "Feature",
      "geometry": {
        "type": "Point",
        "coordinates": [
          -8.7855855,
          37.7248283
        ]
      },
      "properties": {
        "id": 1962945657,
        "osm_type": "node",
        "name": "Palios da Vila",
        "tourism": "hotel"
      }
    },
    {
      "type": "Feature",
      "geometry": {
        "type": "Point",
        "coordinates": [
          -8.7823537,
          37.7234842
        ]
      },
      "properties": {
        "id": 2362411407,
        "osm_type": "node",
        "name": "Casa do Adro",
        "tourism": "hotel",
        "phone": "+351 283 997 102",
        "website": "https://www.casadoadro.com.pt/"
      }
    },
    {
      "type": "Feature",
      "geometry": {
        "type": "Point",
        "coordinates": [
          -7.4806395,
          38.0221601
        ]
      },
      "properties": {
        "id": 2392255965,
        "osm_type": "node",
        "name": "Bética - Hotel Rural",
        "tourism": "hostel"
      }
    },
    {
      "type": "Feature",
      "geometry": {
        "type": "Point",
        "coordinates": [
          -8.7778785,
          37.5849942
        ]
      },
      "properties": {
        "id": 2399375757,
        "osm_type": "node",
        "name": "Monte do Zeca",
        "tourism": "guest_house",
        "website": "https://montedozeca.com/"
      }
    },
    {
      "type": "Feature",
      "geometry": {
        "type": "Point",
        "coordinates": [
          -8.7866332,
          37.5265194
        ]
      },
      "properties": {
        "id": 2502964934,
        "osm_type": "node",
        "name": "Rosa dos Ventos",
        "tourism": "guest_house"
      }
    },
    {
      "type": "Feature",
      "geometry": {
        "type": "Point",
        "coordinates": [
          -8.4425533,
          37.5321843
        ]
      },
      "properties": {
        "id": 2503574609,
        "osm_type": "node",
        "name": "Quinta do Barranco da Estrada",
        "tourism": "guest_house"
      }
    },
    {
      "type": "Feature",
      "geometry": {
        "type": "Point",
        "coordinates": [
          -8.7846373,
          37.7255647
        ]
      },
      "properties": {
        "id": 2715609096,
        "osm_type": "node",
        "name": "Casa Augusta",
        "tourism": "apartment",
        "phone": "+351 969 851 835"
      }
    },
    {
      "type": "Feature",
      "geometry": {
        "type": "Point",
        "coordinates": [
          -8.7809117,
          37.7250579
        ]
      },
      "properties": {
        "id": 2896350965,
        "osm_type": "node",
        "name": "Sol Da Vila",
        "tourism": "hotel",
        "phone": "+351962574157"
      }
    },
    {
      "type": "Feature",
      "geometry": {
        "type": "Point",
        "coordinates": [
          -8.147386,
          38.1705063
        ]
      },
      "properties": {
        "id": 2923655222,
        "osm_type": "node",
        "name": "Hotel O Gato",
        "tourism": "hotel"
      }
    },
    {
      "type": "Feature",
      "geometry": {
        "type": "Point",
        "coordinates": [
          -8.6838528,
          37.5286754
        ]
      },
      "properties": {
        "id": 2936258575,
        "osm_type": "node",
        "name": "Orada Velha",
        "tourism": "hotel",
        "website": "https://www.orada.eu/",
        "check_date": "2016-09-29"
      }
    },
    {
      "type": "Feature",
      "geometry": {
        "type": "Point",
        "coordinates": [
          -8.7851095,
          37.7276563
        ]
      },
      "properties": {
        "id": 3016922468,
        "osm_type": "node",
        "name": "Apartamentos A Canga",
        "tourism": "apartment"
      }
    },
    {
      "type": "Feature",
      "geometry": {
        "type": "Point",
        "coordinates": [
          -7.862091,
          38.0134948
        ]
      },
      "properties": {
        "id": 3089077272,
        "osm_type": "node",
        "name": "Hostel Beja",
        "tourism": "hostel"
      }
    },
    {
      "type": "Feature",
      "geometry": {
        "type": "Point",
        "coordinates": [
          -8.7263984,
          37.4726899
        ]
      },
      "properties": {
        "id": 3349428282,
        "osm_type": "node",
        "name": "Teima SW",
        "tourism": "hotel"
      }
    },
    {
      "type": "Feature",
      "geometry": {
        "type": "Point",
        "coordinates": [
          -7.5131111,
          37.8108064
        ]
      },
      "properties": {
        "id": 3683495415,
        "osm_type": "node",
        "name": "Monte Besteiros",
        "tourism": "guest_house",
        "phone": "+351 284 595 445"
      }
    },
    {
      "type": "Feature",
      "geometry": {
        "type": "Point",
        "coordinates": [
          -7.5105577,
          37.8309685
        ]
      },
      "properties": {
        "id": 3683497575,
        "osm_type": "node",
        "name": "Cantar do Grilo",
        "tourism": "guest_house",
        "phone": "+351 284 595 415",
        "website": "http://www.cantardogrilo.com/"
      }
    },
    {
      "type": "Feature",
      "geometry": {
        "type": "Point",
        "coordinates": [
          -7.5110083,
          37.8292567
        ]
      },
      "properties": {
        "id": 3683503773,
        "osm_type": "node",
        "name": "Monte Val Melhanos",
        "tourism": "guest_house"
      }
    },
    {
      "type": "Feature",
      "geometry": {
        "type": "Point",
        "coordinates": [
          -7.4513956,
          38.1426081
        ]
      },
      "properties": {
        "id": 3827822173,
        "osm_type": "node",
        "name": "Hotel Santa Comba",
        "tourism": "hotel"
      }
    },
    {
      "type": "Feature",
      "geometry": {
        "type": "Point",
        "coordinates": [
          -7.4466019,
          38.1379407
        ]
      },
      "properties": {
        "id": 3827822174,
        "osm_type": "node",
        "name": "Hotel Passagem do Sol",
        "tourism": "hotel",
        "opening_hours": "24/7",
        "check_date": "2025-04-20"
      }
    },
    {
      "type": "Feature",
      "geometry": {
        "type": "Point",
        "coordinates": [
          -7.4482086,
          38.1400007
        ]
      },
      "properties": {
        "id": 3827822175,
        "osm_type": "node",
        "name": "Hotel de Moura",
        "tourism": "hotel",
        "check_date": "2025-04-20"
      }
    },
    {
      "type": "Feature",
      "geometry": {
        "type": "Point",
        "coordinates": [
          -7.4467656,
          38.1370768
        ]
      },
      "properties": {
        "id": 3827822176,
        "osm_type": "node",
        "name": "Residencial A Italiana",
        "tourism": "hotel",
        "check_date": "2025-04-20"
      }
    },
    {
      "type": "Feature",
      "geometry": {
        "type": "Point",
        "coordinates": [
          -7.9929344,
          38.2558025
        ]
      },
      "properties": {
        "id": 3933018367,
        "osm_type": "node",
        "name": "Hospedaria Dália",
        "tourism": "guest_house",
        "phone": "+351 284 485 352"
      }
    },
    {
      "type": "Feature",
      "geometry": {
        "type": "Point",
        "coordinates": [
          -8.7826592,
          37.7264936
        ]
      },
      "properties": {
        "id": 4064105304,
        "osm_type": "node",
        "tourism": "guest_house"
      }
    },
    {
      "type": "Feature",
      "geometry": {
        "type": "Point",
        "coordinates": [
          -8.7815331,
          37.7270799
        ]
      },
      "properties": {
        "id": 4202673023,
        "osm_type": "node",
        "name": "Hotel Casa-Amarela",
        "tourism": "hotel",
        "phone": "+ 351 93 420 46 10",
        "website": "http://www.casaamarelamilfontes.com"
      }
    },
    {
      "type": "Feature",
      "geometry": {
        "type": "Point",
        "coordinates": [
          -8.7279934,
          37.5521996
        ]
      },
      "properties": {
        "id": 4207932791,
        "osm_type": "node",
        "name": "Zambujeira do Mar - MEO Sudoeste",
        "tourism": "caravan_site",
        "website": "https://sudoeste.meo.pt/en"
      }
    },
    {
      "type": "Feature",
      "geometry": {
        "type": "Point",
        "coordinates": [
          -8.8097747,
          37.6043396
        ]
      },
      "properties": {
        "id": 4207987790,
        "osm_type": "node",
        "name": "Monte da Moita Nova",
        "tourism": "guest_house",
        "check_date": "2024-03-13"
      }
    },
    {
      "type": "Feature",
      "geometry": {
        "type": "Point",
        "coordinates": [
          -8.6661535,
          37.5779426
        ]
      },
      "properties": {
        "id": 4218810401,
        "osm_type": "node",
        "name": "Alojamento Local Boavistense",
        "tourism": "hostel"
      }
    },
    {
      "type": "Feature",
      "geometry": {
        "type": "Point",
        "coordinates": [
          -8.7860098,
          37.5235606
        ]
      },
      "properties": {
        "id": 4265629090,
        "osm_type": "node",
        "name": "Hakuna Matata Hostel",
        "tourism": "hostel"
      }
    },
    {
      "type": "Feature",
      "geometry": {
        "type": "Point",
        "coordinates": [
          -8.7812075,
          37.7258164
        ]
      },
      "properties": {
        "id": 4266853501,
        "osm_type": "node",
        "name": "Hike & Surf Lodge",
        "tourism": "hostel"
      }
    },
    {
      "type": "Feature",
      "geometry": {
        "type": "Point",
        "coordinates": [
          -7.7988323,
          38.209418
        ]
      },
      "properties": {
        "id": 4325154608,
        "osm_type": "node",
        "name": "Abrigo Dona Violante",
        "tourism": "guest_house"
      }
    },
    {
      "type": "Feature",
      "geometry": {
        "type": "Point",
        "coordinates": [
          -8.7006623,
          37.5774806
        ]
      },
      "properties": {
        "id": 4387309791,
        "osm_type": "node",
        "tourism": "guest_house"
      }
    },
    {
      "type": "Feature",
      "geometry": {
        "type": "Point",
        "coordinates": [
          -7.5257799,
          37.5563316
        ]
      },
      "properties": {
        "id": 4408154290,
        "osm_type": "node",
        "tourism": "caravan_site",
        "opening_hours": "24/7"
      }
    },
    {
      "type": "Feature",
      "geometry": {
        "type": "Point",
        "coordinates": [
          -7.6357347,
          38.1168627
        ]
      },
      "properties": {
        "id": 4414918227,
        "osm_type": "node",
        "name": "Alqueva Camping Car Park",
        "tourism": "camp_site",
        "phone": "+351934987954",
        "website": "www.dosdin.pt/camping"
      }
    },
    {
      "type": "Feature",
      "geometry": {
        "type": "Point",
        "coordinates": [
          -8.7197198,
          37.5830624
        ]
      },
      "properties": {
        "id": 4426250502,
        "osm_type": "node",
        "name": "Casa da Dina",
        "tourism": "guest_house"
      }
    },
    {
      "type": "Feature",
      "geometry": {
        "type": "Point",
        "coordinates": [
          -7.5957285,
          37.9415391
        ]
      },
      "properties": {
        "id": 4599722273,
        "osm_type": "node",
        "name": "Casa de Serpa",
        "tourism": "hotel"
      }
    },
    {
      "type": "Feature",
      "geometry": {
        "type": "Point",
        "coordinates": [
          -8.7469339,
          37.4193088
        ]
      },
      "properties": {
        "id": 4604695794,
        "osm_type": "node",
        "name": "Vida Pura",
        "tourism": "hotel",
        "website": "https://www.vida-pura.com/"
      }
    },
    {
      "type": "Feature",
      "geometry": {
        "type": "Point",
        "coordinates": [
          -8.6994881,
          37.6440064
        ]
      },
      "properties": {
        "id": 4729539596,
        "osm_type": "node",
        "tourism": "chalet"
      }
    },
    {
      "type": "Feature",
      "geometry": {
        "type": "Point",
        "coordinates": [
          -8.6431101,
          37.5984516
        ]
      },
      "properties": {
        "id": 4764084750,
        "osm_type": "node",
        "name": "Casa Viva",
        "tourism": "guest_house",
        "website": "https://de-de.facebook.com/casa.viva.odemira/"
      }
    },
    {
      "type": "Feature",
      "geometry": {
        "type": "Point",
        "coordinates": [
          -7.9920057,
          38.2578758
        ]
      },
      "properties": {
        "id": 4806551607,
        "osm_type": "node",
        "name": "Pousada Castelo de Alvito",
        "tourism": "guest_house",
        "phone": "+351 284 480 700"
      }
    },
    {
      "type": "Feature",
      "geometry": {
        "type": "Point",
        "coordinates": [
          -7.9922703,
          38.2572078
        ]
      },
      "properties": {
        "id": 4806552639,
        "osm_type": "node",
        "name": "A Varanda",
        "tourism": "guest_house",
        "phone": "+351 284 485 135"
      }
    },
    {
      "type": "Feature",
      "geometry": {
        "type": "Point",
        "coordinates": [
          -8.4022234,
          37.6408911
        ]
      },
      "properties": {
        "id": 5196260972,
        "osm_type": "node",
        "name": "Monte Maravilhas",
        "tourism": "apartment",
        "phone": "+351 283 925 397",
        "website": "https://www.montemaravilhas.com/"
      }
    },
    {
      "type": "Feature",
      "geometry": {
        "type": "Point",
        "coordinates": [
          -8.0716382,
          37.5122206
        ]
      },
      "properties": {
        "id": 5213117046,
        "osm_type": "node",
        "name": "Quinta Solar da Portela",
        "tourism": "hotel"
      }
    },
    {
      "type": "Feature",
      "geometry": {
        "type": "Point",
        "coordinates": [
          -8.0670176,
          37.5112928
        ]
      },
      "properties": {
        "id": 5213117068,
        "osm_type": "node",
        "name": "Residencial Apartamentos Camões",
        "tourism": "hotel",
        "phone": "+351 286 665 439",
        "website": "https://www.atcamoes.com.pt/"
      }
    },
    {
      "type": "Feature",
      "geometry": {
        "type": "Point",
        "coordinates": [
          -8.6844174,
          37.4210014
        ]
      },
      "properties": {
        "id": 5232285621,
        "osm_type": "node",
        "name": "Casas Novas de Palmeira",
        "tourism": "camp_site",
        "website": "https://www.casasnovasdapalmeira.com"
      }
    },
    {
      "type": "Feature",
      "geometry": {
        "type": "Point",
        "coordinates": [
          -8.7853494,
          37.7244637
        ]
      },
      "properties": {
        "id": 5236803883,
        "osm_type": "node",
        "name": "Atlantico",
        "tourism": "apartment",
        "check_date": "2025-02-10"
      }
    },
    {
      "type": "Feature",
      "geometry": {
        "type": "Point",
        "coordinates": [
          -8.7845179,
          37.7254114
        ]
      },
      "properties": {
        "id": 5236821703,
        "osm_type": "node",
        "name": "Areias de Milfontes",
        "tourism": "chalet"
      }
    },
    {
      "type": "Feature",
      "geometry": {
        "type": "Point",
        "coordinates": [
          -7.8951607,
          38.1647499
        ]
      },
      "properties": {
        "id": 5305127572,
        "osm_type": "node",
        "name": "Hospedaria Lula",
        "tourism": "guest_house"
      }
    },
    {
      "type": "Feature",
      "geometry": {
        "type": "Point",
        "coordinates": [
          -7.8942481,
          38.1653401
        ]
      },
      "properties": {
        "id": 5305541511,
        "osm_type": "node",
        "name": "Chave D'ouro",
        "tourism": "guest_house"
      }
    },
    {
      "type": "Feature",
      "geometry": {
        "type": "Point",
        "coordinates": [
          -8.7867573,
          37.5255849
        ]
      },
      "properties": {
        "id": 5318743721,
        "osm_type": "node",
        "name": "Alojamento da Rua da Fonte",
        "tourism": "guest_house",
        "website": "http://jgte.github.io/zambujeira/"
      }
    },
    {
      "type": "Feature",
      "geometry": {
        "type": "Point",
        "coordinates": [
          -8.0835612,
          37.7018179
        ]
      },
      "properties": {
        "id": 5324253048,
        "osm_type": "node",
        "name": "Hotel Esteva",
        "tourism": "hotel"
      }
    },
    {
      "type": "Feature",
      "geometry": {
        "type": "Point",
        "coordinates": [
          -8.0876897,
          37.697973
        ]
      },
      "properties": {
        "id": 5352680815,
        "osm_type": "node",
        "name": "Vila Verde Hotel",
        "tourism": "hotel"
      }
    },
    {
      "type": "Feature",
      "geometry": {
        "type": "Point",
        "coordinates": [
          -7.5923979,
          38.1820517
        ]
      },
      "properties": {
        "id": 5510909225,
        "osm_type": "node",
        "name": "Herdade do Sobroso",
        "tourism": "hotel",
        "phone": "+351 284 456 116",
        "website": "https://www.herdadedosobroso.pt/"
      }
    },
    {
      "type": "Feature",
      "geometry": {
        "type": "Point",
        "coordinates": [
          -7.8612646,
          38.01259
        ]
      },
      "properties": {
        "id": 5574660563,
        "osm_type": "node",
        "name": "Hospedaria Rocha",
        "tourism": "hotel"
      }
    },
    {
      "type": "Feature",
      "geometry": {
        "type": "Point",
        "coordinates": [
          -7.862835,
          38.0126621
        ]
      },
      "properties": {
        "id": 5574663576,
        "osm_type": "node",
        "name": "Bejense",
        "tourism": "hotel",
        "phone": "+351 284 311 570",
        "website": "https://hotelbejense.pt/"
      }
    },
    {
      "type": "Feature",
      "geometry": {
        "type": "Point",
        "coordinates": [
          -8.7857201,
          37.5253785
        ]
      },
      "properties": {
        "id": 5577148111,
        "osm_type": "node",
        "name": "Alojamento Sudoeste",
        "tourism": "hotel",
        "phone": "+351919207577",
        "website": "www.alojamentosudoeste.com"
      }
    },
    {
      "type": "Feature",
      "geometry": {
        "type": "Point",
        "coordinates": [
          -8.7858653,
          37.5256704
        ]
      },
      "properties": {
        "id": 5577156250,
        "osm_type": "node",
        "name": "Sol Dourado",
        "tourism": "guest_house"
      }
    },
    {
      "type": "Feature",
      "geometry": {
        "type": "Point",
        "coordinates": [
          -8.7846592,
          37.5259272
        ]
      },
      "properties": {
        "id": 5577175001,
        "osm_type": "node",
        "name": "Ondazul",
        "tourism": "guest_house",
        "check_date": "2024-12-06"
      }
    },
    {
      "type": "Feature",
      "geometry": {
        "type": "Point",
        "coordinates": [
          -7.5958405,
          37.9421936
        ]
      },
      "properties": {
        "id": 5580909148,
        "osm_type": "node",
        "name": "Apartamentos Beatriz",
        "tourism": "apartment"
      }
    },
    {
      "type": "Feature",
      "geometry": {
        "type": "Point",
        "coordinates": [
          -8.063702,
          38.2728823
        ]
      },
      "properties": {
        "id": 5630578087,
        "osm_type": "node",
        "name": "Monte da Moirana",
        "tourism": "guest_house",
        "phone": "+351 964 675 995 ; +351 916 111 328"
      }
    },
    {
      "type": "Feature",
      "geometry": {
        "type": "Point",
        "coordinates": [
          -7.8944003,
          38.1655646
        ]
      },
      "properties": {
        "id": 5729334309,
        "osm_type": "node",
        "name": "Hospedaria do Carmo",
        "tourism": "hotel"
      }
    },
    {
      "type": "Feature",
      "geometry": {
        "type": "Point",
        "coordinates": [
          -8.5317872,
          37.4746177
        ]
      },
      "properties": {
        "id": 5751506543,
        "osm_type": "node",
        "tourism": "apartment"
      }
    },
    {
      "type": "Feature",
      "geometry": {
        "type": "Point",
        "coordinates": [
          -7.6618467,
          37.644358
        ]
      },
      "properties": {
        "id": 5987121755,
        "osm_type": "node",
        "name": "Flor do Guadiana",
        "tourism": "hotel"
      }
    },
    {
      "type": "Feature",
      "geometry": {
        "type": "Point",
        "coordinates": [
          -7.9857556,
          38.2575666
        ]
      },
      "properties": {
        "id": 6041963765,
        "osm_type": "node",
        "name": "Horta de São Romão",
        "tourism": "guest_house",
        "phone": "+351 925 023 517"
      }
    },
    {
      "type": "Feature",
      "geometry": {
        "type": "Point",
        "coordinates": [
          -7.9922153,
          38.2583573
        ]
      },
      "properties": {
        "id": 6041963766,
        "osm_type": "node",
        "name": "Ramiro Álvares",
        "tourism": "guest_house",
        "phone": "+351 284 485 193"
      }
    },
    {
      "type": "Feature",
      "geometry": {
        "type": "Point",
        "coordinates": [
          -7.9816903,
          38.2570557
        ]
      },
      "properties": {
        "id": 6041963767,
        "osm_type": "node",
        "name": "Quinta da Esperança",
        "tourism": "guest_house"
      }
    },
    {
      "type": "Feature",
      "geometry": {
        "type": "Point",
        "coordinates": [
          -8.5385135,
          37.484315
        ]
      },
      "properties": {
        "id": 6178120474,
        "osm_type": "node",
        "name": "Corgo Da Vaca",
        "tourism": "apartment"
      }
    },
    {
      "type": "Feature",
      "geometry": {
        "type": "Point",
        "coordinates": [
          -8.7784505,
          37.5632039
        ]
      },
      "properties": {
        "id": 6216658371,
        "osm_type": "node",
        "name": "Herdade do Touril",
        "tourism": "guest_house",
        "website": "https://herdadedotouril.com/"
      }
    },
    {
      "type": "Feature",
      "geometry": {
        "type": "Point",
        "coordinates": [
          -7.5952099,
          37.9419892
        ]
      },
      "properties": {
        "id": 6297967310,
        "osm_type": "node",
        "name": "Residencial Beatriz",
        "tourism": "guest_house"
      }
    },
    {
      "type": "Feature",
      "geometry": {
        "type": "Point",
        "coordinates": [
          -7.5956082,
          37.9407348
        ]
      },
      "properties": {
        "id": 6297973532,
        "osm_type": "node",
        "name": "Virgínia",
        "tourism": "guest_house"
      }
    },
    {
      "type": "Feature",
      "geometry": {
        "type": "Point",
        "coordinates": [
          -7.5995632,
          37.9437406
        ]
      },
      "properties": {
        "id": 6298132102,
        "osm_type": "node",
        "name": "Casa da Muralha",
        "tourism": "guest_house"
      }
    },
    {
      "type": "Feature",
      "geometry": {
        "type": "Point",
        "coordinates": [
          -7.8572248,
          37.9654221
        ]
      },
      "properties": {
        "id": 6309410821,
        "osm_type": "node",
        "name": "Quinta de Dom João",
        "tourism": "guest_house"
      }
    },
    {
      "type": "Feature",
      "geometry": {
        "type": "Point",
        "coordinates": [
          -7.8049774,
          38.2106974
        ]
      },
      "properties": {
        "id": 6341718593,
        "osm_type": "node",
        "name": "Residência Santa Clara",
        "tourism": "guest_house",
        "phone": "+351 284 436 146",
        "website": "https://www.hotelsantaclaravidigueira.com/"
      }
    },
    {
      "type": "Feature",
      "geometry": {
        "type": "Point",
        "coordinates": [
          -7.4731036,
          38.1477739
        ]
      },
      "properties": {
        "id": 6397068892,
        "osm_type": "node",
        "name": "Horta de Torrejais",
        "tourism": "hotel"
      }
    },
    {
      "type": "Feature",
      "geometry": {
        "type": "Point",
        "coordinates": [
          -8.7693606,
          37.7409751
        ]
      },
      "properties": {
        "id": 6446057252,
        "osm_type": "node",
        "name": "Casazul",
        "tourism": "guest_house",
        "phone": "+351 917 848 269"
      }
    },
    {
      "type": "Feature",
      "geometry": {
        "type": "Point",
        "coordinates": [
          -8.7683812,
          37.7413033
        ]
      },
      "properties": {
        "id": 6495019994,
        "osm_type": "node",
        "name": "Alentejo Surf Camp",
        "tourism": "hostel",
        "phone": "+351 962 349 417",
        "website": "https://www.alentejosurfcamp.com/"
      }
    },
    {
      "type": "Feature",
      "geometry": {
        "type": "Point",
        "coordinates": [
          -7.8405515,
          38.2249688
        ]
      },
      "properties": {
        "id": 6496064911,
        "osm_type": "node",
        "name": "Quinta das Ratoeiras",
        "tourism": "guest_house",
        "phone": "+351 918 737 437",
        "website": "http://quintadasratoeiras.pt"
      }
    },
    {
      "type": "Feature",
      "geometry": {
        "type": "Point",
        "coordinates": [
          -7.8430999,
          38.2431573
        ]
      },
      "properties": {
        "id": 6496064968,
        "osm_type": "node",
        "name": "Herdade das Sesmarias - Agroturismo",
        "tourism": "guest_house",
        "phone": "+351 284 441 208"
      }
    },
    {
      "type": "Feature",
      "geometry": {
        "type": "Point",
        "coordinates": [
          -7.7661709,
          38.2126107
        ]
      },
      "properties": {
        "id": 6496107859,
        "osm_type": "node",
        "name": "Quinta da Fé",
        "tourism": "guest_house",
        "phone": "+351 284 434 105"
      }
    },
    {
      "type": "Feature",
      "geometry": {
        "type": "Point",
        "coordinates": [
          -7.8244117,
          38.2132941
        ]
      },
      "properties": {
        "id": 6498354081,
        "osm_type": "node",
        "name": "Casa de São Cucufate",
        "tourism": "guest_house",
        "phone": "+351 284 441 390",
        "website": "https://casascucufate.webnode.pt"
      }
    },
    {
      "type": "Feature",
      "geometry": {
        "type": "Point",
        "coordinates": [
          -7.646959,
          38.1191038
        ]
      },
      "properties": {
        "id": 6498354685,
        "osm_type": "node",
        "name": "Casa do Pedrogão",
        "tourism": "guest_house",
        "phone": "+351 284 544 558",
        "website": "http://www.casadepedrogao.com/"
      }
    },
    {
      "type": "Feature",
      "geometry": {
        "type": "Point",
        "coordinates": [
          -7.8035725,
          38.2081138
        ]
      },
      "properties": {
        "id": 6498354695,
        "osm_type": "node",
        "name": "Hospedaria São João",
        "tourism": "guest_house",
        "phone": "+351 284 436 161"
      }
    },
    {
      "type": "Feature",
      "geometry": {
        "type": "Point",
        "coordinates": [
          -7.8012621,
          38.20903
        ]
      },
      "properties": {
        "id": 6498354724,
        "osm_type": "node",
        "name": "Quartos São Rafael",
        "tourism": "guest_house",
        "phone": "+351 284 434 343"
      }
    },
    {
      "type": "Feature",
      "geometry": {
        "type": "Point",
        "coordinates": [
          -8.0684638,
          37.7754953
        ]
      },
      "properties": {
        "id": 6594643918,
        "osm_type": "node",
        "name": "Fontes Bárbaras Enoturismo",
        "tourism": "guest_house",
        "phone": "+351 937 980 118",
        "website": "https://www.fontesbarbaras.com/"
      }
    },
    {
      "type": "Feature",
      "geometry": {
        "type": "Point",
        "coordinates": [
          -8.299204,
          37.5668525
        ]
      },
      "properties": {
        "id": 6732170284,
        "osm_type": "node",
        "name": "Monte do Alento",
        "tourism": "hotel",
        "phone": "+351 910 695 378",
        "website": "https://www.alentohotels.com/"
      }
    },
    {
      "type": "Feature",
      "geometry": {
        "type": "Point",
        "coordinates": [
          -8.785815,
          37.5249861
        ]
      },
      "properties": {
        "id": 6833100179,
        "osm_type": "node",
        "name": "Hostel Nature",
        "tourism": "hostel",
        "phone": "+351 960 001 720",
        "website": "http://www.hostelnature.pt/"
      }
    },
    {
      "type": "Feature",
      "geometry": {
        "type": "Point",
        "coordinates": [
          -8.0202092,
          38.2939129
        ]
      },
      "properties": {
        "id": 6838337362,
        "osm_type": "node",
        "name": "Casa do Vale da Terra Negra",
        "tourism": "guest_house",
        "phone": "+351 931 189 868"
      }
    },
    {
      "type": "Feature",
      "geometry": {
        "type": "Point",
        "coordinates": [
          -8.0399264,
          38.2875256
        ]
      },
      "properties": {
        "id": 6838355406,
        "osm_type": "node",
        "name": "Casas da Baronia",
        "tourism": "guest_house",
        "phone": "+351 968 075 064"
      }
    },
    {
      "type": "Feature",
      "geometry": {
        "type": "Point",
        "coordinates": [
          -8.0143864,
          38.2897781
        ]
      },
      "properties": {
        "id": 6838355407,
        "osm_type": "node",
        "name": "Monte da Serra",
        "tourism": "guest_house",
        "phone": "+351 918 434 580; +351 937 748 253"
      }
    },
    {
      "type": "Feature",
      "geometry": {
        "type": "Point",
        "coordinates": [
          -8.0382883,
          38.2940607
        ]
      },
      "properties": {
        "id": 6838368908,
        "osm_type": "node",
        "name": "Monte de Nossa Senhora do Carmo",
        "tourism": "guest_house",
        "phone": "+351 914 110 099"
      }
    },
    {
      "type": "Feature",
      "geometry": {
        "type": "Point",
        "coordinates": [
          -7.5003799,
          37.6714014
        ]
      },
      "properties": {
        "id": 6882837486,
        "osm_type": "node",
        "tourism": "caravan_site",
        "opening_hours": "24/7"
      }
    },
    {
      "type": "Feature",
      "geometry": {
        "type": "Point",
        "coordinates": [
          -7.66548,
          37.6361
        ]
      },
      "properties": {
        "id": 6920739583,
        "osm_type": "node",
        "name": "Mértola Castelo Palace",
        "tourism": "guest_house",
        "phone": "+ 351 965 351 979",
        "website": "https://casa-visconde.blogspot.com"
      }
    },
    {
      "type": "Feature",
      "geometry": {
        "type": "Point",
        "coordinates": [
          -7.6973789,
          37.5479732
        ]
      },
      "properties": {
        "id": 7069843811,
        "osm_type": "node",
        "name": "Mértola Natural (Monte da Eirinha)",
        "tourism": "guest_house"
      }
    },
    {
      "type": "Feature",
      "geometry": {
        "type": "Point",
        "coordinates": [
          -7.6623816,
          37.6432641
        ]
      },
      "properties": {
        "id": 7095223085,
        "osm_type": "node",
        "name": "Campaniço",
        "tourism": "guest_house"
      }
    },
    {
      "type": "Feature",
      "geometry": {
        "type": "Point",
        "coordinates": [
          -8.0862054,
          37.9636878
        ]
      },
      "properties": {
        "id": 7131427675,
        "osm_type": "node",
        "name": "Casa da Estalagem",
        "tourism": "guest_house",
        "phone": "+351 966 860 672",
        "website": "http://www.casadaestalagem.pt"
      }
    },
    {
      "type": "Feature",
      "geometry": {
        "type": "Point",
        "coordinates": [
          -8.1013018,
          37.8137567
        ]
      },
      "properties": {
        "id": 7141125705,
        "osm_type": "node",
        "name": "Monte dos Poços",
        "tourism": "guest_house",
        "phone": "+351 284 401 327"
      }
    },
    {
      "type": "Feature",
      "geometry": {
        "type": "Point",
        "coordinates": [
          -8.7363618,
          37.5424225
        ]
      },
      "properties": {
        "id": 7159239074,
        "osm_type": "node",
        "name": "Case da Lupa",
        "tourism": "hotel",
        "website": "https://www.casasdalupa.pt"
      }
    },
    {
      "type": "Feature",
      "geometry": {
        "type": "Point",
        "coordinates": [
          -7.5649127,
          37.6849062
        ]
      },
      "properties": {
        "id": 7329127427,
        "osm_type": "node",
        "name": "Casa do Guizo",
        "tourism": "guest_house"
      }
    },
    {
      "type": "Feature",
      "geometry": {
        "type": "Point",
        "coordinates": [
          -8.163582,
          37.8790508
        ]
      },
      "properties": {
        "id": 7376994894,
        "osm_type": "node",
        "name": "Residencial São Pedro",
        "tourism": "guest_house"
      }
    },
    {
      "type": "Feature",
      "geometry": {
        "type": "Point",
        "coordinates": [
          -8.6688331,
          37.4843595
        ]
      },
      "properties": {
        "id": 7552841303,
        "osm_type": "node",
        "name": "Craveiral",
        "tourism": "guest_house",
        "phone": "+351 283 249 170",
        "check_date": "2023-11-10"
      }
    },
    {
      "type": "Feature",
      "geometry": {
        "type": "Point",
        "coordinates": [
          -7.8708029,
          37.8117607
        ]
      },
      "properties": {
        "id": 7572403764,
        "osm_type": "node",
        "name": "Vale de Camelos",
        "tourism": "guest_house"
      }
    },
    {
      "type": "Feature",
      "geometry": {
        "type": "Point",
        "coordinates": [
          -7.8591668,
          37.8184101
        ]
      },
      "properties": {
        "id": 7698495023,
        "osm_type": "node",
        "name": "HFR Unique Wine Boutique Hotel & SPA",
        "tourism": "hotel"
      }
    },
    {
      "type": "Feature",
      "geometry": {
        "type": "Point",
        "coordinates": [
          -8.6116667,
          37.7428252
        ]
      },
      "properties": {
        "id": 7731137886,
        "osm_type": "node",
        "name": "Azula",
        "tourism": "guest_house",
        "website": "http://www.azula.bio/"
      }
    },
    {
      "type": "Feature",
      "geometry": {
        "type": "Point",
        "coordinates": [
          -7.9412606,
          37.8789183
        ]
      },
      "properties": {
        "id": 7770832785,
        "osm_type": "node",
        "name": "Herdade dos Grous",
        "tourism": "hotel"
      }
    },
    {
      "type": "Feature",
      "geometry": {
        "type": "Point",
        "coordinates": [
          -7.6590425,
          37.6405333
        ]
      },
      "properties": {
        "id": 7827761807,
        "osm_type": "node",
        "name": "Paraiso d‘El Rio",
        "tourism": "guest_house",
        "phone": "+351 286 612 260"
      }
    },
    {
      "type": "Feature",
      "geometry": {
        "type": "Point",
        "coordinates": [
          -7.906841,
          37.823108
        ]
      },
      "properties": {
        "id": 7884731916,
        "osm_type": "node",
        "name": "Monte da Moloneta",
        "tourism": "guest_house"
      }
    },
    {
      "type": "Feature",
      "geometry": {
        "type": "Point",
        "coordinates": [
          -7.532292,
          37.604704
        ]
      },
      "properties": {
        "id": 8149106258,
        "osm_type": "node",
        "name": "Monte dos Bens",
        "tourism": "guest_house",
        "phone": "+351 919 908 141"
      }
    },
    {
      "type": "Feature",
      "geometry": {
        "type": "Point",
        "coordinates": [
          -7.577809,
          37.63542
        ]
      },
      "properties": {
        "id": 8214276570,
        "osm_type": "node",
        "name": "O Monte do Alhinho",
        "tourism": "guest_house",
        "phone": "+351 286 655 414; +351 964 616 950"
      }
    },
    {
      "type": "Feature",
      "geometry": {
        "type": "Point",
        "coordinates": [
          -8.1159032,
          38.0572514
        ]
      },
      "properties": {
        "id": 8297616242,
        "osm_type": "node",
        "name": "Casa Morcela",
        "tourism": "apartment",
        "phone": "+351 965 056 627",
        "website": "https://www.facebook.com/CasaMorcelaAlojamentoLocal/"
      }
    },
    {
      "type": "Feature",
      "geometry": {
        "type": "Point",
        "coordinates": [
          -8.7784832,
          37.7276313
        ]
      },
      "properties": {
        "id": 8402318894,
        "osm_type": "node",
        "name": "Apartamentos Vila Nova",
        "tourism": "apartment",
        "website": "http://www.apartamentosvilanova.com/index.php?pg=1&lg=2"
      }
    },
    {
      "type": "Feature",
      "geometry": {
        "type": "Point",
        "coordinates": [
          -8.7876624,
          37.7235989
        ]
      },
      "properties": {
        "id": 8402408430,
        "osm_type": "node",
        "name": "Apartamentos Dunamar",
        "tourism": "apartment",
        "phone": "+351 91 820 19 75",
        "website": "http://www.dunamarmilfontes.com/"
      }
    },
    {
      "type": "Feature",
      "geometry": {
        "type": "Point",
        "coordinates": [
          -7.299379,
          37.8742612
        ]
      },
      "properties": {
        "id": 8521290900,
        "osm_type": "node",
        "name": "Monte Anna",
        "tourism": "guest_house",
        "website": "https://www.monte-anna.be/"
      }
    },
    {
      "type": "Feature",
      "geometry": {
        "type": "Point",
        "coordinates": [
          -7.8626072,
          38.0146935
        ]
      },
      "properties": {
        "id": 8522693834,
        "osm_type": "node",
        "name": "Hospedaria Zé Maria",
        "tourism": "guest_house"
      }
    },
    {
      "type": "Feature",
      "geometry": {
        "type": "Point",
        "coordinates": [
          -7.8658114,
          38.0137713
        ]
      },
      "properties": {
        "id": 8539687808,
        "osm_type": "node",
        "name": "Residência Rosa do Campo",
        "tourism": "hotel",
        "check_date": "2021-03-23"
      }
    },
    {
      "type": "Feature",
      "geometry": {
        "type": "Point",
        "coordinates": [
          -8.1148632,
          38.0596335
        ]
      },
      "properties": {
        "id": 8565642880,
        "osm_type": "node",
        "name": "Casas da Vila",
        "tourism": "hotel",
        "website": "https://casasdavila.net"
      }
    },
    {
      "type": "Feature",
      "geometry": {
        "type": "Point",
        "coordinates": [
          -8.115115,
          38.0602257
        ]
      },
      "properties": {
        "id": 8615500213,
        "osm_type": "node",
        "tourism": "guest_house",
        "contact:phone": "+351 919 501 124;+351 936 230 660"
      }
    },
    {
      "type": "Feature",
      "geometry": {
        "type": "Point",
        "coordinates": [
          -8.7178362,
          37.500524
        ]
      },
      "properties": {
        "id": 8676400756,
        "osm_type": "node",
        "name": "Aterra Eco Camping",
        "tourism": "camp_site",
        "tents": "no",
        "website": "https://www.aterra.pt"
      }
    },
    {
      "type": "Feature",
      "geometry": {
        "type": "Point",
        "coordinates": [
          -7.900237,
          38.24985
        ]
      },
      "properties": {
        "id": 8734892524,
        "osm_type": "node",
        "name": "Casa D'Alva",
        "tourism": "guest_house",
        "phone": "+351 284 495 413"
      }
    },
    {
      "type": "Feature",
      "geometry": {
        "type": "Point",
        "coordinates": [
          -8.6932227,
          37.6036603
        ]
      },
      "properties": {
        "id": 9060448305,
        "osm_type": "node",
        "tourism": "apartment"
      }
    },
    {
      "type": "Feature",
      "geometry": {
        "type": "Point",
        "coordinates": [
          -7.5019467,
          37.6726473
        ]
      },
      "properties": {
        "id": 9111337050,
        "osm_type": "node",
        "tourism": "apartment"
      }
    },
    {
      "type": "Feature",
      "geometry": {
        "type": "Point",
        "coordinates": [
          -8.1166235,
          38.0589066
        ]
      },
      "properties": {
        "id": 9169048819,
        "osm_type": "node",
        "name": "Casa Verde",
        "tourism": "guest_house",
        "contact:phone": "+351 967 877 137;+351 284 083 004"
      }
    },
    {
      "type": "Feature",
      "geometry": {
        "type": "Point",
        "coordinates": [
          -7.9787428,
          37.8218804
        ]
      },
      "properties": {
        "id": 9235976035,
        "osm_type": "node",
        "name": "Herdade da Malhadinha Nova",
        "tourism": "hotel",
        "phone": "+351 284 965 432",
        "website": "https://www.malhadinhanova.pt/pt/"
      }
    },
    {
      "type": "Feature",
      "geometry": {
        "type": "Point",
        "coordinates": [
          -8.783652,
          37.5270324
        ]
      },
      "properties": {
        "id": 9332425934,
        "osm_type": "node",
        "name": "Breathe In",
        "tourism": "guest_house"
      }
    },
    {
      "type": "Feature",
      "geometry": {
        "type": "Point",
        "coordinates": [
          -8.232004,
          37.6531468
        ]
      },
      "properties": {
        "id": 9535480056,
        "osm_type": "node",
        "name": "Hotel Romba",
        "tourism": "hotel"
      }
    },
    {
      "type": "Feature",
      "geometry": {
        "type": "Point",
        "coordinates": [
          -8.653799,
          37.6054871
        ]
      },
      "properties": {
        "id": 9556360577,
        "osm_type": "node",
        "name": "Espargal",
        "tourism": "chalet"
      }
    },
    {
      "type": "Feature",
      "geometry": {
        "type": "Point",
        "coordinates": [
          -8.2504726,
          37.6009447
        ]
      },
      "properties": {
        "id": 9652908443,
        "osm_type": "node",
        "tourism": "hotel"
      }
    },
    {
      "type": "Feature",
      "geometry": {
        "type": "Point",
        "coordinates": [
          -8.4026817,
          37.6514754
        ]
      },
      "properties": {
        "id": 9770034836,
        "osm_type": "node",
        "tourism": "caravan_site"
      }
    },
    {
      "type": "Feature",
      "geometry": {
        "type": "Point",
        "coordinates": [
          -8.7163226,
          37.4967274
        ]
      },
      "properties": {
        "id": 10003966217,
        "osm_type": "node",
        "name": "Aguas vivas",
        "tourism": "caravan_site"
      }
    },
    {
      "type": "Feature",
      "geometry": {
        "type": "Point",
        "coordinates": [
          -8.7811961,
          37.7258805
        ]
      },
      "properties": {
        "id": 10019394388,
        "osm_type": "node",
        "name": "Nomad Guest House",
        "tourism": "guest_house"
      }
    },
    {
      "type": "Feature",
      "geometry": {
        "type": "Point",
        "coordinates": [
          -8.784824,
          37.7280873
        ]
      },
      "properties": {
        "id": 10079486817,
        "osm_type": "node",
        "name": "Pirata Hostel Milfontes",
        "tourism": "hostel"
      }
    },
    {
      "type": "Feature",
      "geometry": {
        "type": "Point",
        "coordinates": [
          -8.0900126,
          37.6944188
        ]
      },
      "properties": {
        "id": 10117380542,
        "osm_type": "node",
        "name": "intermarche",
        "tourism": "caravan_site",
        "opening_hours": "24/7"
      }
    },
    {
      "type": "Feature",
      "geometry": {
        "type": "Point",
        "coordinates": [
          -7.3164663,
          37.8971276
        ]
      },
      "properties": {
        "id": 10537916610,
        "osm_type": "node",
        "name": "Agroturismo Flores do Campo",
        "tourism": "guest_house",
        "phone": "+351 963 931 010",
        "website": "https://www.floresdocampo.com/"
      }
    },
    {
      "type": "Feature",
      "geometry": {
        "type": "Point",
        "coordinates": [
          -7.9739768,
          37.7108147
        ]
      },
      "properties": {
        "id": 10552738617,
        "osm_type": "node",
        "name": "Monte da Apariça",
        "tourism": "guest_house",
        "website": "https://montedaaparica.pt/"
      }
    },
    {
      "type": "Feature",
      "geometry": {
        "type": "Point",
        "coordinates": [
          -8.6417056,
          37.5959578
        ]
      },
      "properties": {
        "id": 10651606295,
        "osm_type": "node",
        "name": "Casa da Umbria",
        "tourism": "guest_house"
      }
    },
    {
      "type": "Feature",
      "geometry": {
        "type": "Point",
        "coordinates": [
          -8.118152,
          38.0587126
        ]
      },
      "properties": {
        "id": 10725742451,
        "osm_type": "node",
        "name": "Solar dos Frades",
        "tourism": "hotel"
      }
    },
    {
      "type": "Feature",
      "geometry": {
        "type": "Point",
        "coordinates": [
          -8.1174174,
          38.0624984
        ]
      },
      "properties": {
        "id": 10726846383,
        "osm_type": "node",
        "name": "Residencial Santo António",
        "tourism": "hotel"
      }
    },
    {
      "type": "Feature",
      "geometry": {
        "type": "Point",
        "coordinates": [
          -8.7849554,
          37.5264672
        ]
      },
      "properties": {
        "id": 10782342369,
        "osm_type": "node",
        "name": "A Casinha da Tita",
        "tourism": "hotel",
        "phone": "+351 964082398"
      }
    },
    {
      "type": "Feature",
      "geometry": {
        "type": "Point",
        "coordinates": [
          -7.8659481,
          38.0161806
        ]
      },
      "properties": {
        "id": 10802007708,
        "osm_type": "node",
        "name": "Maria's Guesthouse",
        "tourism": "guest_house",
        "phone": "+351 968 727 276",
        "website": "https://mariasguesthousebeja.pt/"
      }
    },
    {
      "type": "Feature",
      "geometry": {
        "type": "Point",
        "coordinates": [
          -8.4829178,
          37.4022774
        ]
      },
      "properties": {
        "id": 10870495922,
        "osm_type": "node",
        "name": "Nave Redonda do Cerro",
        "tourism": "hotel",
        "phone": "+351 283 881 290",
        "website": "https://www.naveredondadocerro.com/"
      }
    },
    {
      "type": "Feature",
      "geometry": {
        "type": "Point",
        "coordinates": [
          -7.8609559,
          38.0147295
        ]
      },
      "properties": {
        "id": 10873983854,
        "osm_type": "node",
        "name": "Casa Ancha",
        "tourism": "guest_house"
      }
    },
    {
      "type": "Feature",
      "geometry": {
        "type": "Point",
        "coordinates": [
          -8.7577234,
          37.79262
        ]
      },
      "properties": {
        "id": 11001367630,
        "osm_type": "node",
        "name": "Três Marias",
        "tourism": "guest_house",
        "phone": "+351965666231",
        "website": "https://www.tresmarias.pt"
      }
    },
    {
      "type": "Feature",
      "geometry": {
        "type": "Point",
        "coordinates": [
          -8.5561337,
          37.7271525
        ]
      },
      "properties": {
        "id": 11030515005,
        "osm_type": "node",
        "name": "Figueirinha Ecoturismo",
        "tourism": "guest_house",
        "phone": "+351966706858",
        "website": "https://www.figueirinhaecoturismo.pt/"
      }
    },
    {
      "type": "Feature",
      "geometry": {
        "type": "Point",
        "coordinates": [
          -8.6333655,
          37.6738129
        ]
      },
      "properties": {
        "id": 11172324355,
        "osm_type": "node",
        "name": "Herdade de Vale de Gaios",
        "tourism": "guest_house",
        "website": "https://valedegaios.com"
      }
    },
    {
      "type": "Feature",
      "geometry": {
        "type": "Point",
        "coordinates": [
          -8.7183595,
          37.7276813
        ]
      },
      "properties": {
        "id": 11216983243,
        "osm_type": "node",
        "name": "Quinta da Samoqueirinha",
        "tourism": "guest_house"
      }
    },
    {
      "type": "Feature",
      "geometry": {
        "type": "Point",
        "coordinates": [
          -8.7738653,
          37.6577134
        ]
      },
      "properties": {
        "id": 11472848441,
        "osm_type": "node",
        "name": "Monte Novo da Longueira",
        "tourism": "guest_house"
      }
    },
    {
      "type": "Feature",
      "geometry": {
        "type": "Point",
        "coordinates": [
          -8.7954891,
          37.6536712
        ]
      },
      "properties": {
        "id": 11639205942,
        "osm_type": "node",
        "name": "Almograve Beach Hostel",
        "tourism": "hostel",
        "website": "https://rotavicentina.com/en/accomodation/almograve-beach-hostel/",
        "check_date": "2024-12-05"
      }
    },
    {
      "type": "Feature",
      "geometry": {
        "type": "Point",
        "coordinates": [
          -8.7609055,
          37.8017376
        ]
      },
      "properties": {
        "id": 11834616241,
        "osm_type": "node",
        "name": "I Ka Hale",
        "tourism": "guest_house",
        "phone": "+351 962 565 474"
      }
    },
    {
      "type": "Feature",
      "geometry": {
        "type": "Point",
        "coordinates": [
          -8.2646334,
          37.5675406
        ]
      },
      "properties": {
        "id": 11884056669,
        "osm_type": "node",
        "name": "Camping Serro da Bica",
        "tourism": "camp_site",
        "tents": "yes",
        "website": "https://www.campingserrodabica.com/"
      }
    },
    {
      "type": "Feature",
      "geometry": {
        "type": "Point",
        "coordinates": [
          -8.6626195,
          37.4654225
        ]
      },
      "properties": {
        "id": 11961145718,
        "osm_type": "node",
        "name": "Monte dos Pinheiros",
        "tourism": "guest_house"
      }
    },
    {
      "type": "Feature",
      "geometry": {
        "type": "Point",
        "coordinates": [
          -8.7853509,
          37.525525
        ]
      },
      "properties": {
        "id": 11992284910,
        "osm_type": "node",
        "name": "Casa da Praia",
        "tourism": "hostel"
      }
    },
    {
      "type": "Feature",
      "geometry": {
        "type": "Point",
        "coordinates": [
          -8.6128353,
          37.7431224
        ]
      },
      "properties": {
        "id": 12042409669,
        "osm_type": "node",
        "name": "Azula Camping",
        "tourism": "camp_site"
      }
    },
    {
      "type": "Feature",
      "geometry": {
        "type": "Point",
        "coordinates": [
          -8.7859495,
          37.5266167
        ]
      },
      "properties": {
        "id": 12090751478,
        "osm_type": "node",
        "name": "Casa Custódia",
        "tourism": "guest_house"
      }
    },
    {
      "type": "Feature",
      "geometry": {
        "type": "Point",
        "coordinates": [
          -8.7253472,
          37.5504522
        ]
      },
      "properties": {
        "id": 12285926387,
        "osm_type": "node",
        "name": "Hotel Monte Soalheiro",
        "tourism": "hotel",
        "contact:phone": "+351 912 819 755",
        "contact:website": "https://www.montesoalheiro.com/"
      }
    },
    {
      "type": "Feature",
      "geometry": {
        "type": "Point",
        "coordinates": [
          -7.7948723,
          37.5876157
        ]
      },
      "properties": {
        "id": 12513151430,
        "osm_type": "node",
        "name": "Monte Costa Raíz",
        "tourism": "guest_house"
      }
    },
    {
      "type": "Feature",
      "geometry": {
        "type": "Point",
        "coordinates": [
          -8.6648043,
          37.7175986
        ]
      },
      "properties": {
        "id": 12554800403,
        "osm_type": "node",
        "name": "Al Mar Guesthouse",
        "tourism": "apartment",
        "website": "https://www.visitportugal.com/en/content/al-mar-guesthouse"
      }
    },
    {
      "type": "Feature",
      "geometry": {
        "type": "Point",
        "coordinates": [
          -8.793167,
          37.481595
        ]
      },
      "properties": {
        "id": 12669265909,
        "osm_type": "node",
        "name": "Herdade Amália Rodrigues",
        "tourism": "guest_house"
      }
    },
    {
      "type": "Feature",
      "geometry": {
        "type": "Point",
        "coordinates": [
          -8.6419549,
          37.5987568
        ]
      },
      "properties": {
        "id": 12970450694,
        "osm_type": "node",
        "name": "Residencial Idalio",
        "tourism": "hotel"
      }
    },
    {
      "type": "Feature",
      "geometry": {
        "type": "Point",
        "coordinates": [
          -8.7131552,
          37.5832399
        ]
      },
      "properties": {
        "id": 13012980784,
        "osm_type": "node",
        "name": "Quintal Alentejano",
        "tourism": "apartment",
        "phone": "+351 914 189 181",
        "check_date": "2025-07-20"
      }
    },
    {
      "type": "Feature",
      "geometry": {
        "type": "Point",
        "coordinates": [
          -7.8685271,
          38.0185222
        ]
      },
      "properties": {
        "id": 13270840856,
        "osm_type": "node",
        "name": "Holiday Inn",
        "tourism": "hotel",
        "phone": "+351 284 244 040",
        "website": "https://www.ihg.com/holidayinn/hotels/de/de/beja/byjbj/hoteldetail"
      }
    },
    {
      "type": "Feature",
      "geometry": {
        "type": "Point",
        "coordinates": [
          -8.7855481,
          37.5244145
        ]
      },
      "properties": {
        "id": 13274200264,
        "osm_type": "node",
        "name": "Miramar",
        "tourism": "hotel"
      }
    },
    {
      "type": "Feature",
      "geometry": {
        "type": "Point",
        "coordinates": [
          -8.3027473,
          37.7168614
        ]
      },
      "properties": {
        "id": 13321758201,
        "osm_type": "node",
        "name": "Parque Campismo - Barragem Monte da Rocha",
        "tourism": "camp_site"
      }
    },
    {
      "type": "Feature",
      "geometry": {
        "type": "Point",
        "coordinates": [
          -7.7910846,
          37.6123568
        ]
      },
      "properties": {
        "id": 13376066143,
        "osm_type": "node",
        "name": "Fatana",
        "tourism": "guest_house"
      }
    },
    {
      "type": "Feature",
      "geometry": {
        "type": "Point",
        "coordinates": [
          -8.7803239,
          37.7288119
        ]
      },
      "properties": {
        "id": 13382216232,
        "osm_type": "node",
        "name": "Raminhos Guest House",
        "tourism": "guest_house",
        "phone": "00351962762532",
        "website": "https://raminhosguesthouse.pt"
      }
    },
    {
      "type": "Feature",
      "geometry": {
        "type": "Point",
        "coordinates": [
          -8.7862326,
          37.5244574
        ]
      },
      "properties": {
        "id": 13391629211,
        "osm_type": "node",
        "name": "Sunset Beach House",
        "tourism": "guest_house",
        "website": "https://www.booking.com/hotel/pt/sunset-beach-house.nl.html"
      }
    },
    {
      "type": "Feature",
      "geometry": {
        "type": "Point",
        "coordinates": [
          -8.0883703,
          37.6945784
        ]
      },
      "properties": {
        "id": 13427387214,
        "osm_type": "node",
        "tourism": "caravan_site"
      }
    },
    {
      "type": "Feature",
      "geometry": {
        "type": "Point",
        "coordinates": [
          -8.6445424,
          37.5942168
        ]
      },
      "properties": {
        "id": 13529709139,
        "osm_type": "node",
        "tourism": "caravan_site"
      }
    },
    {
      "type": "Feature",
      "geometry": {
        "type": "Point",
        "coordinates": [
          -8.7485009,
          37.4395436
        ]
      },
      "properties": {
        "id": 13695645901,
        "osm_type": "node",
        "name": "holiday studio ‘Monte dos Quarteirões’",
        "tourism": "chalet",
        "phone": "+351 936 870 705",
        "website": "https://southwest.travel/monte-dos-quarteiroes/"
      }
    },
    {
      "type": "Feature",
      "geometry": {
        "type": "Point",
        "coordinates": [
          -7.9192514,
          37.4433793
        ]
      },
      "properties": {
        "id": 13724364925,
        "osm_type": "node",
        "name": "Monte dos Três Moinhos",
        "tourism": "guest_house",
        "phone": "+351 286 249 245;+351 960 378 832"
      }
    },
    {
      "type": "Feature",
      "geometry": {
        "type": "Point",
        "coordinates": [
          -7.8608735,
          38.0070419
        ]
      },
      "properties": {
        "id": 61571915,
        "osm_type": "way",
        "name": "Parque Municipal de Campismo de Beja",
        "tourism": "camp_site",
        "tents": "yes"
      }
    },
    {
      "type": "Feature",
      "geometry": {
        "type": "Point",
        "coordinates": [
          -7.8658994,
          38.0061671
        ]
      },
      "properties": {
        "id": 67180439,
        "osm_type": "way",
        "name": "Hotel Melius",
        "tourism": "hotel",
        "phone": "+351 284 313 080",
        "website": "https://hotelmelius.pt"
      }
    },
    {
      "type": "Feature",
      "geometry": {
        "type": "Point",
        "coordinates": [
          -8.0797368,
          37.6938492
        ]
      },
      "properties": {
        "id": 113559255,
        "osm_type": "way",
        "name": "Monte da Quinta",
        "tourism": "chalet"
      }
    },
    {
      "type": "Feature",
      "geometry": {
        "type": "Point",
        "coordinates": [
          -8.4392123,
          37.5116861
        ]
      },
      "properties": {
        "id": 121896490,
        "osm_type": "way",
        "name": "Pousada de Santa Clara",
        "tourism": "hotel",
        "phone": "+351 283 882 250"
      }
    },
    {
      "type": "Feature",
      "geometry": {
        "type": "Point",
        "coordinates": [
          -8.6436132,
          37.5990959
        ]
      },
      "properties": {
        "id": 130415305,
        "osm_type": "way",
        "name": "Residencial Rita",
        "tourism": "hotel",
        "phone": "+351 283 322 531",
        "website": "https://www.residencial-rita.com"
      }
    },
    {
      "type": "Feature",
      "geometry": {
        "type": "Point",
        "coordinates": [
          -8.7839868,
          37.7299278
        ]
      },
      "properties": {
        "id": 141160208,
        "osm_type": "way",
        "name": "Camping Campiférias",
        "tourism": "camp_site",
        "tents": "yes",
        "phone": "+351283996409",
        "website": "https://www.campingcampiferias.com"
      }
    },
    {
      "type": "Feature",
      "geometry": {
        "type": "Point",
        "coordinates": [
          -8.7839577,
          37.7236996
        ]
      },
      "properties": {
        "id": 141160210,
        "osm_type": "way",
        "name": "HS Milfontes Beach",
        "tourism": "hotel",
        "phone": "+351 283 990 074",
        "website": "https://www.hsmilfontesbeach.com/"
      }
    },
    {
      "type": "Feature",
      "geometry": {
        "type": "Point",
        "coordinates": [
          -8.7887621,
          37.7787318
        ]
      },
      "properties": {
        "id": 141160214,
        "osm_type": "way",
        "name": "Sitava Camping",
        "tourism": "camp_site",
        "phone": "+351 283 890 100",
        "website": "https://www.orbitur.pt/pt/destinos/alentejo/orbitur-sitava-milfontes"
      }
    },
    {
      "type": "Feature",
      "geometry": {
        "type": "Point",
        "coordinates": [
          -8.7816195,
          37.7319346
        ]
      },
      "properties": {
        "id": 141160215,
        "osm_type": "way",
        "name": "Camping Milfontes",
        "tourism": "camp_site",
        "tents": "yes",
        "phone": "+351 283 996 104",
        "website": "http://www.campingmilfontes.com"
      }
    },
    {
      "type": "Feature",
      "geometry": {
        "type": "Point",
        "coordinates": [
          -8.7535293,
          37.4374234
        ]
      },
      "properties": {
        "id": 143604494,
        "osm_type": "way",
        "name": "Parque de Campismo São Miguel",
        "tourism": "camp_site",
        "website": "https://www.campingsaomiguel.pt"
      }
    },
    {
      "type": "Feature",
      "geometry": {
        "type": "Point",
        "coordinates": [
          -8.7844076,
          37.477836
        ]
      },
      "properties": {
        "id": 156598809,
        "osm_type": "way",
        "name": "Casa da Ceiceira",
        "tourism": "guest_house"
      }
    },
    {
      "type": "Feature",
      "geometry": {
        "type": "Point",
        "coordinates": [
          -8.7303704,
          37.6045292
        ]
      },
      "properties": {
        "id": 162593418,
        "osm_type": "way",
        "name": "Zmar (Closed)",
        "tourism": "camp_site",
        "website": "https://www.zmar.eu/"
      }
    },
    {
      "type": "Feature",
      "geometry": {
        "type": "Point",
        "coordinates": [
          -7.5030567,
          37.6703731
        ]
      },
      "properties": {
        "id": 183901247,
        "osm_type": "way",
        "name": "Alentejo Star Hotel",
        "tourism": "hotel",
        "website": "https://www.booking.com/hotel/pt/estalagem-sao-domingos.en-gb.html"
      }
    },
    {
      "type": "Feature",
      "geometry": {
        "type": "Point",
        "coordinates": [
          -7.4997,
          37.669528
        ]
      },
      "properties": {
        "id": 184063477,
        "osm_type": "way",
        "name": "Casa da Torre",
        "tourism": "guest_house"
      }
    },
    {
      "type": "Feature",
      "geometry": {
        "type": "Point",
        "coordinates": [
          -7.6612899,
          37.6391452
        ]
      },
      "properties": {
        "id": 184994093,
        "osm_type": "way",
        "name": "Beira Rio",
        "tourism": "guest_house"
      }
    },
    {
      "type": "Feature",
      "geometry": {
        "type": "Point",
        "coordinates": [
          -7.6615789,
          37.6389274
        ]
      },
      "properties": {
        "id": 184994094,
        "osm_type": "way",
        "name": "Hotel Museu",
        "tourism": "hotel"
      }
    },
    {
      "type": "Feature",
      "geometry": {
        "type": "Point",
        "coordinates": [
          -7.6611357,
          37.6392314
        ]
      },
      "properties": {
        "id": 184994096,
        "osm_type": "way",
        "name": "Oasis",
        "tourism": "guest_house"
      }
    },
    {
      "type": "Feature",
      "geometry": {
        "type": "Point",
        "coordinates": [
          -8.7807546,
          37.7245713
        ]
      },
      "properties": {
        "id": 185646981,
        "osm_type": "way",
        "name": "The Blue Bamboo Hotel",
        "tourism": "hotel"
      }
    },
    {
      "type": "Feature",
      "geometry": {
        "type": "Point",
        "coordinates": [
          -8.7805464,
          37.724417
        ]
      },
      "properties": {
        "id": 185646983,
        "osm_type": "way",
        "name": "MUTE Hostel Milfontes",
        "tourism": "hostel",
        "phone": "+351 283 105 018",
        "website": "https://www.thisismute.com/"
      }
    },
    {
      "type": "Feature",
      "geometry": {
        "type": "Point",
        "coordinates": [
          -8.7870206,
          37.7234174
        ]
      },
      "properties": {
        "id": 185647047,
        "osm_type": "way",
        "name": "Cerca da Vitória 3",
        "tourism": "hotel"
      }
    },
    {
      "type": "Feature",
      "geometry": {
        "type": "Point",
        "coordinates": [
          -8.5184505,
          37.7198188
        ]
      },
      "properties": {
        "id": 188687684,
        "osm_type": "way",
        "name": "Tamera Guest House",
        "tourism": "guest_house"
      }
    },
    {
      "type": "Feature",
      "geometry": {
        "type": "Point",
        "coordinates": [
          -8.0217143,
          37.8878411
        ]
      },
      "properties": {
        "id": 190363637,
        "osm_type": "way",
        "name": "Vila Galé Alentejo Vineyards & Olive",
        "tourism": "hotel",
        "phone": "+351 284 970 100",
        "website": "https://www.vilagale.com/pt/hoteis/alentejo/vila-gale-alentejo-vineyards"
      }
    },
    {
      "type": "Feature",
      "geometry": {
        "type": "Point",
        "coordinates": [
          -7.4971752,
          37.683305
        ]
      },
      "properties": {
        "id": 194136041,
        "osm_type": "way",
        "name": "Monte da Galega",
        "tourism": "guest_house",
        "website": "http://www.montedagalega.com/"
      }
    },
    {
      "type": "Feature",
      "geometry": {
        "type": "Point",
        "coordinates": [
          -7.8600638,
          38.0126094
        ]
      },
      "properties": {
        "id": 221339862,
        "osm_type": "way",
        "name": "Pousada de São Francisco",
        "tourism": "hotel",
        "phone": "+351 284 313 580"
      }
    },
    {
      "type": "Feature",
      "geometry": {
        "type": "Point",
        "coordinates": [
          -8.7862427,
          37.4959716
        ]
      },
      "properties": {
        "id": 259928670,
        "osm_type": "way",
        "name": "Parque de Campismo Monte Carvalhal da Rocha",
        "tourism": "camp_site",
        "website": "https://www.montecarvalhaldarocha.com/"
      }
    },
    {
      "type": "Feature",
      "geometry": {
        "type": "Point",
        "coordinates": [
          -8.7761733,
          37.5244811
        ]
      },
      "properties": {
        "id": 268131796,
        "osm_type": "way",
        "name": "Parque de Campismo Zambujeira",
        "tourism": "camp_site",
        "tents": "yes",
        "phone": "+351 283 958 407",
        "website": "https://www.campingzambujeira.com"
      }
    },
    {
      "type": "Feature",
      "geometry": {
        "type": "Point",
        "coordinates": [
          -7.6225293,
          37.7309468
        ]
      },
      "properties": {
        "id": 288929188,
        "osm_type": "way",
        "name": "Herdade de Vale Côvo",
        "tourism": "guest_house"
      }
    },
    {
      "type": "Feature",
      "geometry": {
        "type": "Point",
        "coordinates": [
          -7.8623966,
          38.0149865
        ]
      },
      "properties": {
        "id": 292436850,
        "osm_type": "way",
        "name": "Hospedaria Santa Maria",
        "tourism": "guest_house",
        "phone": "+351 284 326 454",
        "website": "https://hospedariasantamaria.webnode.pt/"
      }
    },
    {
      "type": "Feature",
      "geometry": {
        "type": "Point",
        "coordinates": [
          -8.6812656,
          37.6512316
        ]
      },
      "properties": {
        "id": 299125121,
        "osm_type": "way",
        "name": "Portugal Nature Lodge",
        "tourism": "hotel"
      }
    },
    {
      "type": "Feature",
      "geometry": {
        "type": "Point",
        "coordinates": [
          -8.6923419,
          37.6461298
        ]
      },
      "properties": {
        "id": 299315842,
        "osm_type": "way",
        "tourism": "hotel"
      }
    },
    {
      "type": "Feature",
      "geometry": {
        "type": "Point",
        "coordinates": [
          -8.6922738,
          37.646167
        ]
      },
      "properties": {
        "id": 299315843,
        "osm_type": "way",
        "name": "Casas da Cerca",
        "tourism": "hotel"
      }
    },
    {
      "type": "Feature",
      "geometry": {
        "type": "Point",
        "coordinates": [
          -7.5941544,
          37.9297517
        ]
      },
      "properties": {
        "id": 304530480,
        "osm_type": "way",
        "name": "Pousada de São Gens",
        "tourism": "hotel",
        "opening_hours": "off"
      }
    },
    {
      "type": "Feature",
      "geometry": {
        "type": "Point",
        "coordinates": [
          -8.7887812,
          37.7245817
        ]
      },
      "properties": {
        "id": 308244141,
        "osm_type": "way",
        "name": "Eira da Pedra",
        "tourism": "hotel",
        "website": "http://www.eiradapedra.com/"
      }
    },
    {
      "type": "Feature",
      "geometry": {
        "type": "Point",
        "coordinates": [
          -8.7890752,
          37.7250296
        ]
      },
      "properties": {
        "id": 308244142,
        "osm_type": "way",
        "name": "Quintas das Varandas",
        "tourism": "hotel",
        "website": "http://www.quintadasvarandas.pt/"
      }
    },
    {
      "type": "Feature",
      "geometry": {
        "type": "Point",
        "coordinates": [
          -7.8745736,
          38.0104091
        ]
      },
      "properties": {
        "id": 315268842,
        "osm_type": "way",
        "name": "Hotel Beja Parque",
        "tourism": "hotel"
      }
    },
    {
      "type": "Feature",
      "geometry": {
        "type": "Point",
        "coordinates": [
          -7.0393453,
          38.1755673
        ]
      },
      "properties": {
        "id": 338652995,
        "osm_type": "way",
        "name": "Monte da Coitadinha",
        "tourism": "hotel"
      }
    },
    {
      "type": "Feature",
      "geometry": {
        "type": "Point",
        "coordinates": [
          -7.4255501,
          38.205662
        ]
      },
      "properties": {
        "id": 349577667,
        "osm_type": "way",
        "name": "Vale do Manantio Hotel",
        "tourism": "hotel"
      }
    },
    {
      "type": "Feature",
      "geometry": {
        "type": "Point",
        "coordinates": [
          -8.7954301,
          37.6526043
        ]
      },
      "properties": {
        "id": 361667100,
        "osm_type": "way",
        "name": "Duna Maris Natura",
        "tourism": "guest_house"
      }
    },
    {
      "type": "Feature",
      "geometry": {
        "type": "Point",
        "coordinates": [
          -7.8620576,
          38.0135451
        ]
      },
      "properties": {
        "id": 362660835,
        "osm_type": "way",
        "name": "Centro de Artes Frei Manuel do Cenáculo",
        "tourism": "hostel"
      }
    },
    {
      "type": "Feature",
      "geometry": {
        "type": "Point",
        "coordinates": [
          -8.7811114,
          37.7242851
        ]
      },
      "properties": {
        "id": 363587346,
        "osm_type": "way",
        "name": "Mil Fontes Apartments",
        "tourism": "chalet",
        "phone": "+351969636069"
      }
    },
    {
      "type": "Feature",
      "geometry": {
        "type": "Point",
        "coordinates": [
          -8.7935605,
          37.653415
        ]
      },
      "properties": {
        "id": 364015034,
        "osm_type": "way",
        "name": "Alojamento Local Paulo Campos",
        "tourism": "guest_house",
        "check_date": "2024-12-04"
      }
    },
    {
      "type": "Feature",
      "geometry": {
        "type": "Point",
        "coordinates": [
          -8.6938057,
          37.6035337
        ]
      },
      "properties": {
        "id": 373180121,
        "osm_type": "way",
        "tourism": "apartment"
      }
    },
    {
      "type": "Feature",
      "geometry": {
        "type": "Point",
        "coordinates": [
          -8.6939434,
          37.6018657
        ]
      },
      "properties": {
        "id": 373180446,
        "osm_type": "way",
        "tourism": "apartment"
      }
    },
    {
      "type": "Feature",
      "geometry": {
        "type": "Point",
        "coordinates": [
          -8.7025276,
          37.594292
        ]
      },
      "properties": {
        "id": 373185741,
        "osm_type": "way",
        "name": "Alojamento Local Malhão Pardo",
        "tourism": "guest_house"
      }
    },
    {
      "type": "Feature",
      "geometry": {
        "type": "Point",
        "coordinates": [
          -7.9516884,
          37.8816384
        ]
      },
      "properties": {
        "id": 377693983,
        "osm_type": "way",
        "name": "Herdade dos Grous",
        "tourism": "hotel"
      }
    },
    {
      "type": "Feature",
      "geometry": {
        "type": "Point",
        "coordinates": [
          -7.8575314,
          38.0072061
        ]
      },
      "properties": {
        "id": 385164181,
        "osm_type": "way",
        "name": "Pousada da Juventude de Beja",
        "tourism": "hostel"
      }
    },
    {
      "type": "Feature",
      "geometry": {
        "type": "Point",
        "coordinates": [
          -8.7828267,
          37.5191922
        ]
      },
      "properties": {
        "id": 394167000,
        "osm_type": "way",
        "name": "Monte Dona Maria",
        "tourism": "apartment"
      }
    },
    {
      "type": "Feature",
      "geometry": {
        "type": "Point",
        "coordinates": [
          -8.094138,
          37.4322021
        ]
      },
      "properties": {
        "id": 397241436,
        "osm_type": "way",
        "name": "Monte Gois Country House & Spa",
        "tourism": "guest_house",
        "phone": "+351 967 064 146",
        "website": "https://www.montegois.com/"
      }
    },
    {
      "type": "Feature",
      "geometry": {
        "type": "Point",
        "coordinates": [
          -8.7471129,
          37.4194307
        ]
      },
      "properties": {
        "id": 465507410,
        "osm_type": "way",
        "name": "Vida Pura Apartments",
        "tourism": "apartment",
        "website": "https://www.vida-pura.com/"
      }
    },
    {
      "type": "Feature",
      "geometry": {
        "type": "Point",
        "coordinates": [
          -8.0480702,
          38.2627705
        ]
      },
      "properties": {
        "id": 481661885,
        "osm_type": "way",
        "name": "Horta da Lameira",
        "tourism": "guest_house",
        "phone": "+351 284 475 286;+351 938 488 156"
      }
    },
    {
      "type": "Feature",
      "geometry": {
        "type": "Point",
        "coordinates": [
          -8.7263893,
          37.4683124
        ]
      },
      "properties": {
        "id": 502610477,
        "osm_type": "way",
        "name": "Monte da Bela Vista",
        "tourism": "chalet",
        "website": "https://luxuryholidayvillaportugalalentejo.com/"
      }
    },
    {
      "type": "Feature",
      "geometry": {
        "type": "Point",
        "coordinates": [
          -8.7260148,
          37.4681584
        ]
      },
      "properties": {
        "id": 502610478,
        "osm_type": "way",
        "name": "Salgadinho",
        "tourism": "chalet"
      }
    },
    {
      "type": "Feature",
      "geometry": {
        "type": "Point",
        "coordinates": [
          -8.7261298,
          37.4680851
        ]
      },
      "properties": {
        "id": 502610479,
        "osm_type": "way",
        "name": "Salgadinho",
        "tourism": "chalet"
      }
    },
    {
      "type": "Feature",
      "geometry": {
        "type": "Point",
        "coordinates": [
          -8.7316241,
          37.4669336
        ]
      },
      "properties": {
        "id": 502610480,
        "osm_type": "way",
        "tourism": "apartment",
        "phone": "+351283 958 626",
        "website": "https://de.montevivo.com"
      }
    },
    {
      "type": "Feature",
      "geometry": {
        "type": "Point",
        "coordinates": [
          -7.8688722,
          37.8479593
        ]
      },
      "properties": {
        "id": 507637249,
        "osm_type": "way",
        "name": "Agroturismo Xistos",
        "tourism": "guest_house",
        "website": "https://www.xistos.pt/"
      }
    },
    {
      "type": "Feature",
      "geometry": {
        "type": "Point",
        "coordinates": [
          -7.4418938,
          37.8956793
        ]
      },
      "properties": {
        "id": 534235740,
        "osm_type": "way",
        "name": "Monte Vale Viegas",
        "tourism": "guest_house"
      }
    },
    {
      "type": "Feature",
      "geometry": {
        "type": "Point",
        "coordinates": [
          -7.9042594,
          38.2187741
        ]
      },
      "properties": {
        "id": 549347744,
        "osm_type": "way",
        "tourism": "hotel"
      }
    },
    {
      "type": "Feature",
      "geometry": {
        "type": "Point",
        "coordinates": [
          -7.9016926,
          38.2124006
        ]
      },
      "properties": {
        "id": 549347745,
        "osm_type": "way",
        "tourism": "hotel"
      }
    },
    {
      "type": "Feature",
      "geometry": {
        "type": "Point",
        "coordinates": [
          -7.6032956,
          37.9419654
        ]
      },
      "properties": {
        "id": 583771846,
        "osm_type": "way",
        "name": "Parque Campismo Municipal de Serpa",
        "tourism": "camp_site",
        "tents": "yes",
        "phone": "+351 284 540 193"
      }
    },
    {
      "type": "Feature",
      "geometry": {
        "type": "Point",
        "coordinates": [
          -7.5993878,
          37.9368991
        ]
      },
      "properties": {
        "id": 583785174,
        "osm_type": "way",
        "name": "Hotel Pulo do Lobo",
        "tourism": "hotel"
      }
    },
    {
      "type": "Feature",
      "geometry": {
        "type": "Point",
        "coordinates": [
          -7.5957399,
          37.9473292
        ]
      },
      "properties": {
        "id": 583786192,
        "osm_type": "way",
        "name": "Residencial Serpínia",
        "tourism": "hotel",
        "phone": "+351 284 544 628"
      }
    },
    {
      "type": "Feature",
      "geometry": {
        "type": "Point",
        "coordinates": [
          -7.9846904,
          38.2520875
        ]
      },
      "properties": {
        "id": 589530100,
        "osm_type": "way",
        "name": "Horta da Vila",
        "tourism": "guest_house",
        "phone": "+351 284 480 040;+351 218 429 710"
      }
    },
    {
      "type": "Feature",
      "geometry": {
        "type": "Point",
        "coordinates": [
          -8.4177047,
          37.6244399
        ]
      },
      "properties": {
        "id": 593427303,
        "osm_type": "way",
        "name": "Mooji Sangha Bhavan",
        "tourism": "apartment",
        "website": "https://www.moojisanghabhavan.org"
      }
    },
    {
      "type": "Feature",
      "geometry": {
        "type": "Point",
        "coordinates": [
          -7.938403,
          38.0483165
        ]
      },
      "properties": {
        "id": 603703230,
        "osm_type": "way",
        "name": "Diabrória",
        "tourism": "guest_house"
      }
    },
    {
      "type": "Feature",
      "geometry": {
        "type": "Point",
        "coordinates": [
          -8.163339,
          37.8788215
        ]
      },
      "properties": {
        "id": 612399261,
        "osm_type": "way",
        "name": "Vila Aljustrel",
        "tourism": "hotel"
      }
    },
    {
      "type": "Feature",
      "geometry": {
        "type": "Point",
        "coordinates": [
          -8.0595056,
          37.5128804
        ]
      },
      "properties": {
        "id": 619469098,
        "osm_type": "way",
        "name": "Hotel Serafim",
        "tourism": "hotel"
      }
    },
    {
      "type": "Feature",
      "geometry": {
        "type": "Point",
        "coordinates": [
          -8.6409479,
          37.5271363
        ]
      },
      "properties": {
        "id": 623072954,
        "osm_type": "way",
        "name": "Turismo Rural da Amieira",
        "tourism": "guest_house"
      }
    },
    {
      "type": "Feature",
      "geometry": {
        "type": "Point",
        "coordinates": [
          -8.0880497,
          37.7056415
        ]
      },
      "properties": {
        "id": 664392040,
        "osm_type": "way",
        "name": "Parque de Campismo de Castro Verde",
        "tourism": "camp_site",
        "tents": "yes"
      }
    },
    {
      "type": "Feature",
      "geometry": {
        "type": "Point",
        "coordinates": [
          -8.0032,
          38.1362892
        ]
      },
      "properties": {
        "id": 667973549,
        "osm_type": "way",
        "name": "Sesmarias Turismo Rural & Spa",
        "tourism": "guest_house",
        "website": "https://www.sesmariasturismoruralspa.com/"
      }
    },
    {
      "type": "Feature",
      "geometry": {
        "type": "Point",
        "coordinates": [
          -8.0503989,
          37.8949354
        ]
      },
      "properties": {
        "id": 669787458,
        "osm_type": "way",
        "name": "Vila Galé Monte do Vilar",
        "tourism": "hotel"
      }
    },
    {
      "type": "Feature",
      "geometry": {
        "type": "Point",
        "coordinates": [
          -7.4358916,
          38.1326291
        ]
      },
      "properties": {
        "id": 674093326,
        "osm_type": "way",
        "name": "Ermida São Cristovão",
        "tourism": "guest_house"
      }
    },
    {
      "type": "Feature",
      "geometry": {
        "type": "Point",
        "coordinates": [
          -7.7868182,
          38.0049021
        ]
      },
      "properties": {
        "id": 683785084,
        "osm_type": "way",
        "name": "Monte Capitão",
        "tourism": "guest_house"
      }
    },
    {
      "type": "Feature",
      "geometry": {
        "type": "Point",
        "coordinates": [
          -8.4179269,
          37.7242833
        ]
      },
      "properties": {
        "id": 686498136,
        "osm_type": "way",
        "name": "Herdade dos Montes Bastos",
        "tourism": "guest_house",
        "phone": "+351967450312",
        "website": "https://montesbastos.com/"
      }
    },
    {
      "type": "Feature",
      "geometry": {
        "type": "Point",
        "coordinates": [
          -8.2480398,
          37.6092108
        ]
      },
      "properties": {
        "id": 696493288,
        "osm_type": "way",
        "name": "Residencial Marinel +18 (bordel)",
        "tourism": "motel"
      }
    },
    {
      "type": "Feature",
      "geometry": {
        "type": "Point",
        "coordinates": [
          -8.7614836,
          37.5294998
        ]
      },
      "properties": {
        "id": 702934465,
        "osm_type": "way",
        "name": "Monte Papa Léguas",
        "tourism": "hotel"
      }
    },
    {
      "type": "Feature",
      "geometry": {
        "type": "Point",
        "coordinates": [
          -8.0619217,
          37.5482443
        ]
      },
      "properties": {
        "id": 730620491,
        "osm_type": "way",
        "name": "Monte Beato",
        "tourism": "guest_house"
      }
    },
    {
      "type": "Feature",
      "geometry": {
        "type": "Point",
        "coordinates": [
          -7.3511799,
          38.2765871
        ]
      },
      "properties": {
        "id": 760909103,
        "osm_type": "way",
        "name": "Monte da Estrela",
        "tourism": "guest_house",
        "website": "https://www.montedaestrela.pt"
      }
    },
    {
      "type": "Feature",
      "geometry": {
        "type": "Point",
        "coordinates": [
          -8.2644139,
          37.567396
        ]
      },
      "properties": {
        "id": 765620066,
        "osm_type": "way",
        "name": "Camping Serra da Bica",
        "tourism": "camp_site",
        "opening_hours": "Mo-Su 12:00-22:00",
        "tents": "yes",
        "website": "https://www.campingserrodabica.com/"
      }
    },
    {
      "type": "Feature",
      "geometry": {
        "type": "Point",
        "coordinates": [
          -8.7766761,
          37.564385
        ]
      },
      "properties": {
        "id": 833222021,
        "osm_type": "way",
        "tourism": "guest_house"
      }
    },
    {
      "type": "Feature",
      "geometry": {
        "type": "Point",
        "coordinates": [
          -8.7789528,
          37.7285761
        ]
      },
      "properties": {
        "id": 895040461,
        "osm_type": "way",
        "name": "Aul Alentejo",
        "tourism": "guest_house"
      }
    },
    {
      "type": "Feature",
      "geometry": {
        "type": "Point",
        "coordinates": [
          -7.2995642,
          37.9475784
        ]
      },
      "properties": {
        "id": 948208788,
        "osm_type": "way",
        "name": "Vila Belita",
        "tourism": "guest_house"
      }
    },
    {
      "type": "Feature",
      "geometry": {
        "type": "Point",
        "coordinates": [
          -6.9789948,
          38.1345218
        ]
      },
      "properties": {
        "id": 958153569,
        "osm_type": "way",
        "name": "Hotel Agarrocha",
        "tourism": "hotel",
        "phone": "+351 285 950 680"
      }
    },
    {
      "type": "Feature",
      "geometry": {
        "type": "Point",
        "coordinates": [
          -7.3876689,
          38.2682108
        ]
      },
      "properties": {
        "id": 965088743,
        "osm_type": "way",
        "tourism": "caravan_site"
      }
    },
    {
      "type": "Feature",
      "geometry": {
        "type": "Point",
        "coordinates": [
          -8.654768,
          37.4694012
        ]
      },
      "properties": {
        "id": 979332440,
        "osm_type": "way",
        "name": "Lua Nua - Boutique Hotel",
        "tourism": "guest_house",
        "phone": "+351 967 938 090",
        "website": "https://www.luanua.pt/"
      }
    },
    {
      "type": "Feature",
      "geometry": {
        "type": "Point",
        "coordinates": [
          -8.6388243,
          37.6359224
        ]
      },
      "properties": {
        "id": 1066059475,
        "osm_type": "way",
        "name": "Herdade da Maceira",
        "tourism": "apartment",
        "opening_hours": "Mo-Su 08:00-21:00",
        "phone": "+351 967 695 486",
        "website": "https://www.herdadedamaceira.com",
        "check_date": "2024-08-26"
      }
    },
    {
      "type": "Feature",
      "geometry": {
        "type": "Point",
        "coordinates": [
          -8.7540503,
          37.7307798
        ]
      },
      "properties": {
        "id": 1070247532,
        "osm_type": "way",
        "name": "Moinho da Asneira",
        "tourism": "hotel",
        "check_date": "2024-09-23"
      }
    },
    {
      "type": "Feature",
      "geometry": {
        "type": "Point",
        "coordinates": [
          -8.7261634,
          37.4681692
        ]
      },
      "properties": {
        "id": 1146952691,
        "osm_type": "way",
        "name": "Moinho (Salgadinho)",
        "tourism": "chalet",
        "website": "https://www.selaodaeira-salgadinho.com/homes-studios/moinho-salgadinho"
      }
    },
    {
      "type": "Feature",
      "geometry": {
        "type": "Point",
        "coordinates": [
          -8.7302188,
          37.4671833
        ]
      },
      "properties": {
        "id": 1146952719,
        "osm_type": "way",
        "name": "Enigma - Nature & Water",
        "tourism": "hotel"
      }
    },
    {
      "type": "Feature",
      "geometry": {
        "type": "Point",
        "coordinates": [
          -8.4253942,
          37.7171088
        ]
      },
      "properties": {
        "id": 1157758623,
        "osm_type": "way",
        "tourism": "motel"
      }
    },
    {
      "type": "Feature",
      "geometry": {
        "type": "Point",
        "coordinates": [
          -8.4118993,
          37.5165413
        ]
      },
      "properties": {
        "id": 1201501600,
        "osm_type": "way",
        "tourism": "chalet"
      }
    },
    {
      "type": "Feature",
      "geometry": {
        "type": "Point",
        "coordinates": [
          -8.4116802,
          37.5167394
        ]
      },
      "properties": {
        "id": 1201501601,
        "osm_type": "way",
        "tourism": "chalet"
      }
    },
    {
      "type": "Feature",
      "geometry": {
        "type": "Point",
        "coordinates": [
          -8.5388301,
          37.8054362
        ]
      },
      "properties": {
        "id": 1226186156,
        "osm_type": "way",
        "name": "Vales do Alentejo",
        "tourism": "guest_house"
      }
    },
    {
      "type": "Feature",
      "geometry": {
        "type": "Point",
        "coordinates": [
          -8.0367187,
          37.8845592
        ]
      },
      "properties": {
        "id": 1226341635,
        "osm_type": "way",
        "name": "Vila Galé Nep Kids",
        "tourism": "hotel",
        "website": "https://www.vilagale.com/pt/hoteis/alentejo/vila-gale-nep-kids"
      }
    },
    {
      "type": "Feature",
      "geometry": {
        "type": "Point",
        "coordinates": [
          -8.143754,
          38.1687397
        ]
      },
      "properties": {
        "id": 1228007451,
        "osm_type": "way",
        "name": "Herdade dos Sepol",
        "tourism": "apartment"
      }
    },
    {
      "type": "Feature",
      "geometry": {
        "type": "Point",
        "coordinates": [
          -8.0296795,
          37.6736556
        ]
      },
      "properties": {
        "id": 1270738451,
        "osm_type": "way",
        "tourism": "guest_house"
      }
    },
    {
      "type": "Feature",
      "geometry": {
        "type": "Point",
        "coordinates": [
          -8.7609646,
          37.7435722
        ]
      },
      "properties": {
        "id": 1274737484,
        "osm_type": "way",
        "name": "Herdade do Freixial",
        "tourism": "hotel",
        "phone": "+351 283 998 556",
        "website": "https://www.herdadedofreixial.com/"
      }
    },
    {
      "type": "Feature",
      "geometry": {
        "type": "Point",
        "coordinates": [
          -7.5017187,
          37.6744362
        ]
      },
      "properties": {
        "id": 1290768401,
        "osm_type": "way",
        "name": "Área de Serviço para Autocaravanas - Mina de São Domingos",
        "tourism": "caravan_site"
      }
    },
    {
      "type": "Feature",
      "geometry": {
        "type": "Point",
        "coordinates": [
          -8.6386973,
          37.6357796
        ]
      },
      "properties": {
        "id": 1311289581,
        "osm_type": "way",
        "name": "Herdade da Maceira",
        "tourism": "apartment",
        "opening_hours": "Mo-Su 08:00-21:00",
        "phone": "+351 967 695 486",
        "website": "https://www.herdadedamaceira.com",
        "check_date": "2024-08-26"
      }
    },
    {
      "type": "Feature",
      "geometry": {
        "type": "Point",
        "coordinates": [
          -8.0296326,
          37.6735498
        ]
      },
      "properties": {
        "id": 1367290557,
        "osm_type": "way",
        "name": "Vistas - Herdade do Zambujal",
        "tourism": "guest_house"
      }
    },
    {
      "type": "Feature",
      "geometry": {
        "type": "Point",
        "coordinates": [
          -8.6480266,
          37.5975641
        ]
      },
      "properties": {
        "id": 1388756146,
        "osm_type": "way",
        "tourism": "caravan_site"
      }
    },
    {
      "type": "Feature",
      "geometry": {
        "type": "Point",
        "coordinates": [
          -8.2842838,
          37.8455577
        ]
      },
      "properties": {
        "id": 1389424869,
        "osm_type": "way",
        "name": "Terra Nua Campismo Naturista",
        "tourism": "camp_site",
        "tents": "yes",
        "phone": "+351 963096736  :  +351 918 980 194",
        "website": "https://www.terranua.pt"
      }
    },
    {
      "type": "Feature",
      "geometry": {
        "type": "Point",
        "coordinates": [
          -7.4873412,
          38.1993937
        ]
      },
      "properties": {
        "id": 1474855615,
        "osm_type": "way",
        "tourism": "caravan_site"
      }
    },
    {
      "type": "Feature",
      "geometry": {
        "type": "Point",
        "coordinates": [
          -7.8597772,
          38.0086085
        ]
      },
      "properties": {
        "id": 18621458,
        "osm_type": "relation",
        "name": "Hotel Francis",
        "tourism": "hotel",
        "phone": "+351 284 315 500",
        "website": "https://www.hotel-francis.com/"
      }
    }
  ]
}