{
  "type": "FeatureCollection",
  "features": [
    {
      "type": "Feature",
      "geometry": {
        "type": "Point",
        "coordinates": [
          23.63395,
          42.287404
        ]
      },
      "properties": {
        "id": 274090050,
        "osm_type": "node",
        "name": "х.Шумнатица",
        "tourism": "alpine_hut"
      }
    },
    {
      "type": "Feature",
      "geometry": {
        "type": "Point",
        "coordinates": [
          24.1570237,
          42.7595831
        ]
      },
      "properties": {
        "id": 274090084,
        "osm_type": "node",
        "name": "х.Извора-частна",
        "tourism": "alpine_hut"
      }
    },
    {
      "type": "Feature",
      "geometry": {
        "type": "Point",
        "coordinates": [
          24.1945822,
          42.7450785
        ]
      },
      "properties": {
        "id": 274090087,
        "osm_type": "node",
        "name": "х.Паскал",
        "tourism": "alpine_hut"
      }
    },
    {
      "type": "Feature",
      "geometry": {
        "type": "Point",
        "coordinates": [
          24.447543,
          42.606364
        ]
      },
      "properties": {
        "id": 274090105,
        "osm_type": "node",
        "name": "хижа Богдан",
        "tourism": "alpine_hut"
      }
    },
    {
      "type": "Feature",
      "geometry": {
        "type": "Point",
        "coordinates": [
          23.3629637,
          42.2284016
        ]
      },
      "properties": {
        "id": 274090123,
        "osm_type": "node",
        "name": "х.Вада",
        "tourism": "alpine_hut"
      }
    },
    {
      "type": "Feature",
      "geometry": {
        "type": "Point",
        "coordinates": [
          24.1461199,
          42.7663304
        ]
      },
      "properties": {
        "id": 274090126,
        "osm_type": "node",
        "name": "х.Свещиплаз",
        "tourism": "alpine_hut"
      }
    },
    {
      "type": "Feature",
      "geometry": {
        "type": "Point",
        "coordinates": [
          23.62905,
          42.23001
        ]
      },
      "properties": {
        "id": 274090210,
        "osm_type": "node",
        "name": "х.Чакър войвода",
        "tourism": "alpine_hut"
      }
    },
    {
      "type": "Feature",
      "geometry": {
        "type": "Point",
        "coordinates": [
          23.1741572,
          42.8914777
        ]
      },
      "properties": {
        "id": 274090261,
        "osm_type": "node",
        "name": "х.Люляка",
        "tourism": "alpine_hut"
      }
    },
    {
      "type": "Feature",
      "geometry": {
        "type": "Point",
        "coordinates": [
          24.1481584,
          42.765434
        ]
      },
      "properties": {
        "id": 274090291,
        "osm_type": "node",
        "name": "х. Тихят кът",
        "tourism": "alpine_hut"
      }
    },
    {
      "type": "Feature",
      "geometry": {
        "type": "Point",
        "coordinates": [
          23.1445116,
          42.7794725
        ]
      },
      "properties": {
        "id": 344656450,
        "osm_type": "node",
        "name": "Хотел \"Жарковата къща\"",
        "tourism": "hotel"
      }
    },
    {
      "type": "Feature",
      "geometry": {
        "type": "Point",
        "coordinates": [
          23.8103871,
          42.2510544
        ]
      },
      "properties": {
        "id": 391841922,
        "osm_type": "node",
        "name": "Езерото",
        "tourism": "hotel",
        "phone": "+359 71 445 000;+359 71 445 862",
        "website": "https://www.ezeroto.com/en"
      }
    },
    {
      "type": "Feature",
      "geometry": {
        "type": "Point",
        "coordinates": [
          23.8514663,
          42.4317313
        ]
      },
      "properties": {
        "id": 660137108,
        "osm_type": "node",
        "name": "мотел \"Ихтиман\"",
        "tourism": "motel"
      }
    },
    {
      "type": "Feature",
      "geometry": {
        "type": "Point",
        "coordinates": [
          23.4159713,
          42.2244953
        ]
      },
      "properties": {
        "id": 679494228,
        "osm_type": "node",
        "name": "Овнарско",
        "tourism": "alpine_hut"
      }
    },
    {
      "type": "Feature",
      "geometry": {
        "type": "Point",
        "coordinates": [
          23.8134281,
          42.2570541
        ]
      },
      "properties": {
        "id": 1133165269,
        "osm_type": "node",
        "name": "Констанция",
        "tourism": "hotel"
      }
    },
    {
      "type": "Feature",
      "geometry": {
        "type": "Point",
        "coordinates": [
          23.739665,
          42.2543259
        ]
      },
      "properties": {
        "id": 1168777724,
        "osm_type": "node",
        "name": "Венетица",
        "tourism": "alpine_hut"
      }
    },
    {
      "type": "Feature",
      "geometry": {
        "type": "Point",
        "coordinates": [
          23.7424339,
          42.2787313
        ]
      },
      "properties": {
        "id": 1168778056,
        "osm_type": "node",
        "name": "Гергиница",
        "tourism": "alpine_hut"
      }
    },
    {
      "type": "Feature",
      "geometry": {
        "type": "Point",
        "coordinates": [
          23.5886842,
          42.1834281
        ]
      },
      "properties": {
        "id": 1216550047,
        "osm_type": "node",
        "name": "заслон Леденото езеро",
        "tourism": "alpine_hut"
      }
    },
    {
      "type": "Feature",
      "geometry": {
        "type": "Point",
        "coordinates": [
          23.6044114,
          42.2693086
        ]
      },
      "properties": {
        "id": 1383645119,
        "osm_type": "node",
        "name": "Hotel Iceberg",
        "tourism": "hotel"
      }
    },
    {
      "type": "Feature",
      "geometry": {
        "type": "Point",
        "coordinates": [
          24.3586575,
          42.6360295
        ]
      },
      "properties": {
        "id": 1389571494,
        "osm_type": "node",
        "name": "Тодорини къщи",
        "tourism": "hotel"
      }
    },
    {
      "type": "Feature",
      "geometry": {
        "type": "Point",
        "coordinates": [
          24.3597507,
          42.6394412
        ]
      },
      "properties": {
        "id": 1389571496,
        "osm_type": "node",
        "name": "Шулеви къщи",
        "tourism": "hotel"
      }
    },
    {
      "type": "Feature",
      "geometry": {
        "type": "Point",
        "coordinates": [
          24.3624885,
          42.6351719
        ]
      },
      "properties": {
        "id": 1552610990,
        "osm_type": "node",
        "name": "Панорама",
        "tourism": "hotel"
      }
    },
    {
      "type": "Feature",
      "geometry": {
        "type": "Point",
        "coordinates": [
          24.1160533,
          42.5844655
        ]
      },
      "properties": {
        "id": 2000559929,
        "osm_type": "node",
        "name": "хижа Сакарджа",
        "tourism": "alpine_hut"
      }
    },
    {
      "type": "Feature",
      "geometry": {
        "type": "Point",
        "coordinates": [
          23.3378173,
          43.0355531
        ]
      },
      "properties": {
        "id": 2258380259,
        "osm_type": "node",
        "name": "Вила \"Скакля\"",
        "tourism": "chalet",
        "phone": "+359 89 666 1728",
        "check_date": "2023-05-01"
      }
    },
    {
      "type": "Feature",
      "geometry": {
        "type": "Point",
        "coordinates": [
          23.6016971,
          42.6691665
        ]
      },
      "properties": {
        "id": 2383962547,
        "osm_type": "node",
        "name": "Гайдарец",
        "tourism": "hotel"
      }
    },
    {
      "type": "Feature",
      "geometry": {
        "type": "Point",
        "coordinates": [
          23.8002859,
          42.7824731
        ]
      },
      "properties": {
        "id": 2598485797,
        "osm_type": "node",
        "name": "Туристическа спалня Витиня",
        "tourism": "alpine_hut",
        "phone": "0882966497",
        "website": "https://kom-emine.bg/huts/ts-vitinya/"
      }
    },
    {
      "type": "Feature",
      "geometry": {
        "type": "Point",
        "coordinates": [
          23.9153959,
          42.7801678
        ]
      },
      "properties": {
        "id": 2990392717,
        "osm_type": "node",
        "name": "х. Здравец (бивша)",
        "tourism": "alpine_hut"
      }
    },
    {
      "type": "Feature",
      "geometry": {
        "type": "Point",
        "coordinates": [
          23.559102,
          42.3361139
        ]
      },
      "properties": {
        "id": 3039752036,
        "osm_type": "node",
        "name": "Механа \"Велчева завера\"",
        "tourism": "hotel",
        "opening_hours": "Mo-Su 07:00-23:00",
        "phone": "+359 88 717 1177"
      }
    },
    {
      "type": "Feature",
      "geometry": {
        "type": "Point",
        "coordinates": [
          23.5594716,
          42.3362481
        ]
      },
      "properties": {
        "id": 3039752236,
        "osm_type": "node",
        "name": "Къща Елизабет",
        "tourism": "guest_house"
      }
    },
    {
      "type": "Feature",
      "geometry": {
        "type": "Point",
        "coordinates": [
          24.0631127,
          42.781082
        ]
      },
      "properties": {
        "id": 3065042563,
        "osm_type": "node",
        "name": "х. Кокалското",
        "tourism": "alpine_hut"
      }
    },
    {
      "type": "Feature",
      "geometry": {
        "type": "Point",
        "coordinates": [
          24.0624833,
          42.7805537
        ]
      },
      "properties": {
        "id": 3065042564,
        "osm_type": "node",
        "name": "х. Стражата",
        "tourism": "alpine_hut"
      }
    },
    {
      "type": "Feature",
      "geometry": {
        "type": "Point",
        "coordinates": [
          23.8483863,
          42.8445994
        ]
      },
      "properties": {
        "id": 3115505837,
        "osm_type": "node",
        "name": "хижа Рудината (не работи)",
        "tourism": "alpine_hut"
      }
    },
    {
      "type": "Feature",
      "geometry": {
        "type": "Point",
        "coordinates": [
          23.8451384,
          42.872694
        ]
      },
      "properties": {
        "id": 3115505838,
        "osm_type": "node",
        "name": "комплекс Стубеля",
        "tourism": "alpine_hut"
      }
    },
    {
      "type": "Feature",
      "geometry": {
        "type": "Point",
        "coordinates": [
          23.0762944,
          43.1244028
        ]
      },
      "properties": {
        "id": 3149384739,
        "osm_type": "node",
        "name": "Хижа Малина",
        "tourism": "alpine_hut",
        "website": "http://www.bulgarian-mountains.com/Huts/Stara/Malina",
        "check_date": "2019-07-06"
      }
    },
    {
      "type": "Feature",
      "geometry": {
        "type": "Point",
        "coordinates": [
          24.3561975,
          42.6437025
        ]
      },
      "properties": {
        "id": 3172177874,
        "osm_type": "node",
        "name": "Златковата къща",
        "tourism": "guest_house"
      }
    },
    {
      "type": "Feature",
      "geometry": {
        "type": "Point",
        "coordinates": [
          24.3575302,
          42.6410679
        ]
      },
      "properties": {
        "id": 3172177876,
        "osm_type": "node",
        "name": "Къща \"Еми\"",
        "tourism": "guest_house"
      }
    },
    {
      "type": "Feature",
      "geometry": {
        "type": "Point",
        "coordinates": [
          24.3589467,
          42.6421428
        ]
      },
      "properties": {
        "id": 3172177877,
        "osm_type": "node",
        "name": "Къща \"Колорит\"",
        "tourism": "guest_house"
      }
    },
    {
      "type": "Feature",
      "geometry": {
        "type": "Point",
        "coordinates": [
          24.3569778,
          42.6379928
        ]
      },
      "properties": {
        "id": 3172177878,
        "osm_type": "node",
        "name": "Къща за гости \"Бащина стряха\"",
        "tourism": "hotel"
      }
    },
    {
      "type": "Feature",
      "geometry": {
        "type": "Point",
        "coordinates": [
          24.3559221,
          42.6434911
        ]
      },
      "properties": {
        "id": 3172177879,
        "osm_type": "node",
        "name": "Къща за гости \"Стела\"",
        "tourism": "guest_house"
      }
    },
    {
      "type": "Feature",
      "geometry": {
        "type": "Point",
        "coordinates": [
          24.3616312,
          42.6403086
        ]
      },
      "properties": {
        "id": 3172177883,
        "osm_type": "node",
        "name": "Маврудиева къща",
        "tourism": "guest_house"
      }
    },
    {
      "type": "Feature",
      "geometry": {
        "type": "Point",
        "coordinates": [
          24.359901,
          42.6421329
        ]
      },
      "properties": {
        "id": 3172177889,
        "osm_type": "node",
        "name": "Ресторант \"Юнаците\"",
        "tourism": "hotel"
      }
    },
    {
      "type": "Feature",
      "geometry": {
        "type": "Point",
        "coordinates": [
          24.3602227,
          42.6410928
        ]
      },
      "properties": {
        "id": 3172177891,
        "osm_type": "node",
        "name": "Семеен хотел \"Далия\"",
        "tourism": "hotel"
      }
    },
    {
      "type": "Feature",
      "geometry": {
        "type": "Point",
        "coordinates": [
          24.3588964,
          42.6403148
        ]
      },
      "properties": {
        "id": 3172177892,
        "osm_type": "node",
        "name": "Страноприемница \"Дядо Либен\"",
        "tourism": "hotel"
      }
    },
    {
      "type": "Feature",
      "geometry": {
        "type": "Point",
        "coordinates": [
          24.357708,
          42.6408748
        ]
      },
      "properties": {
        "id": 3172177893,
        "osm_type": "node",
        "name": "Туристическа спалня \"Войводенец\"",
        "tourism": "hostel"
      }
    },
    {
      "type": "Feature",
      "geometry": {
        "type": "Point",
        "coordinates": [
          24.3607765,
          42.6435094
        ]
      },
      "properties": {
        "id": 3172177895,
        "osm_type": "node",
        "name": "Хаджи Иванчовата къща",
        "tourism": "hotel"
      }
    },
    {
      "type": "Feature",
      "geometry": {
        "type": "Point",
        "coordinates": [
          24.360641,
          42.6426679
        ]
      },
      "properties": {
        "id": 3172177896,
        "osm_type": "node",
        "name": "Хотел \"Астра\"",
        "tourism": "hotel"
      }
    },
    {
      "type": "Feature",
      "geometry": {
        "type": "Point",
        "coordinates": [
          24.3584616,
          42.641454
        ]
      },
      "properties": {
        "id": 3172177897,
        "osm_type": "node",
        "name": "Хотел \"Бащина къща\"",
        "tourism": "hotel"
      }
    },
    {
      "type": "Feature",
      "geometry": {
        "type": "Point",
        "coordinates": [
          24.3579761,
          42.6427222
        ]
      },
      "properties": {
        "id": 3172177898,
        "osm_type": "node",
        "name": "Хотел \"Гозбарова къща\"",
        "tourism": "hotel"
      }
    },
    {
      "type": "Feature",
      "geometry": {
        "type": "Point",
        "coordinates": [
          24.3622716,
          42.635796
        ]
      },
      "properties": {
        "id": 3172177899,
        "osm_type": "node",
        "name": "Хотел \"Джоголанова къща\"",
        "tourism": "hotel"
      }
    },
    {
      "type": "Feature",
      "geometry": {
        "type": "Point",
        "coordinates": [
          24.3574455,
          42.6377253
        ]
      },
      "properties": {
        "id": 3172177900,
        "osm_type": "node",
        "name": "Хотел \"Здравец\"",
        "tourism": "hotel"
      }
    },
    {
      "type": "Feature",
      "geometry": {
        "type": "Point",
        "coordinates": [
          24.3602227,
          42.6413793
        ]
      },
      "properties": {
        "id": 3172177901,
        "osm_type": "node",
        "name": "Хотел \"Златние телец\"",
        "tourism": "hotel"
      }
    },
    {
      "type": "Feature",
      "geometry": {
        "type": "Point",
        "coordinates": [
          24.3594522,
          42.6410803
        ]
      },
      "properties": {
        "id": 3172177902,
        "osm_type": "node",
        "name": "Хотел \"Калина\"",
        "tourism": "hotel"
      }
    },
    {
      "type": "Feature",
      "geometry": {
        "type": "Point",
        "coordinates": [
          24.3577668,
          42.6405231
        ]
      },
      "properties": {
        "id": 3172177903,
        "osm_type": "node",
        "name": "Хотел-ресторант \"20-ти Април\"",
        "tourism": "hotel"
      }
    },
    {
      "type": "Feature",
      "geometry": {
        "type": "Point",
        "coordinates": [
          24.3607906,
          42.6397892
        ]
      },
      "properties": {
        "id": 3172177904,
        "osm_type": "node",
        "name": "Хотел-ресторант \"Козлеков\"",
        "tourism": "hotel"
      }
    },
    {
      "type": "Feature",
      "geometry": {
        "type": "Point",
        "coordinates": [
          23.0065545,
          42.8083296
        ]
      },
      "properties": {
        "id": 3401917653,
        "osm_type": "node",
        "name": "Къща за гости ВиП",
        "tourism": "guest_house",
        "phone": "+359 89 672 7277",
        "website": "https://www.villavip.eu/"
      }
    },
    {
      "type": "Feature",
      "geometry": {
        "type": "Point",
        "coordinates": [
          23.5824138,
          42.2614055
        ]
      },
      "properties": {
        "id": 3452339327,
        "osm_type": "node",
        "name": "Borovets Hills Ski & Spa",
        "tourism": "hotel"
      }
    },
    {
      "type": "Feature",
      "geometry": {
        "type": "Point",
        "coordinates": [
          23.5623891,
          42.3249877
        ]
      },
      "properties": {
        "id": 3673017726,
        "osm_type": "node",
        "name": "Къща за гости Дилцвет",
        "tourism": "guest_house",
        "phone": "+359 88 729 9287;+359 88 525 0497",
        "website": "http://hoteldiltsvet-samokov.com/"
      }
    },
    {
      "type": "Feature",
      "geometry": {
        "type": "Point",
        "coordinates": [
          23.4676337,
          42.2573361
        ]
      },
      "properties": {
        "id": 3788902699,
        "osm_type": "node",
        "name": "Семеен Хотел Калина Говедарци",
        "tourism": "hotel",
        "phone": "+359 88 888 3847",
        "website": "http://www.kalina-hotel.com/"
      }
    },
    {
      "type": "Feature",
      "geometry": {
        "type": "Point",
        "coordinates": [
          23.7776813,
          42.6928047
        ]
      },
      "properties": {
        "id": 3828311261,
        "osm_type": "node",
        "name": "Ловна среща",
        "tourism": "alpine_hut"
      }
    },
    {
      "type": "Feature",
      "geometry": {
        "type": "Point",
        "coordinates": [
          23.6147169,
          42.2784141
        ]
      },
      "properties": {
        "id": 3866661062,
        "osm_type": "node",
        "name": "Euphoria Club Hotel & Spa",
        "tourism": "hotel"
      }
    },
    {
      "type": "Feature",
      "geometry": {
        "type": "Point",
        "coordinates": [
          23.5651295,
          42.3374845
        ]
      },
      "properties": {
        "id": 3887542852,
        "osm_type": "node",
        "name": "Хотел Замъка ФМ",
        "tourism": "hotel"
      }
    },
    {
      "type": "Feature",
      "geometry": {
        "type": "Point",
        "coordinates": [
          23.7082771,
          42.6907837
        ]
      },
      "properties": {
        "id": 3903134612,
        "osm_type": "node",
        "name": "Къщи за гости Вили Атика",
        "tourism": "hotel"
      }
    },
    {
      "type": "Feature",
      "geometry": {
        "type": "Point",
        "coordinates": [
          23.6080405,
          42.2644888
        ]
      },
      "properties": {
        "id": 3925631891,
        "osm_type": "node",
        "name": "Хотел Алпин",
        "tourism": "hotel"
      }
    },
    {
      "type": "Feature",
      "geometry": {
        "type": "Point",
        "coordinates": [
          23.9894079,
          42.6921001
        ]
      },
      "properties": {
        "id": 3945679457,
        "osm_type": "node",
        "name": "Йотин",
        "tourism": "hotel"
      }
    },
    {
      "type": "Feature",
      "geometry": {
        "type": "Point",
        "coordinates": [
          23.1770215,
          43.0027875
        ]
      },
      "properties": {
        "id": 3976575639,
        "osm_type": "node",
        "name": "хижа Родни Балкани (руини)",
        "tourism": "alpine_hut"
      }
    },
    {
      "type": "Feature",
      "geometry": {
        "type": "Point",
        "coordinates": [
          23.4696799,
          42.24782
        ]
      },
      "properties": {
        "id": 4081390859,
        "osm_type": "node",
        "name": "Вила Шишарка",
        "tourism": "hotel"
      }
    },
    {
      "type": "Feature",
      "geometry": {
        "type": "Point",
        "coordinates": [
          23.7833919,
          42.905436
        ]
      },
      "properties": {
        "id": 4087986442,
        "osm_type": "node",
        "name": "Хотел ресторант Балкан",
        "tourism": "hotel",
        "phone": "+359 87 862 6460;+359 87 855 3303;+359 87 855 3305"
      }
    },
    {
      "type": "Feature",
      "geometry": {
        "type": "Point",
        "coordinates": [
          23.5456932,
          42.3377109
        ]
      },
      "properties": {
        "id": 4214963787,
        "osm_type": "node",
        "name": "Хотел Кестените Самоков",
        "tourism": "hotel",
        "phone": "+359 722 66 765;+359 87 856 4647;+359 87 812 1962;+359 87 854 0688",
        "website": "http://www.hotelkestenite.com/"
      }
    },
    {
      "type": "Feature",
      "geometry": {
        "type": "Point",
        "coordinates": [
          24.3610474,
          42.6345048
        ]
      },
      "properties": {
        "id": 4308433853,
        "osm_type": "node",
        "name": "КЪЩА ЗА ГОСТИ ЯНКО КЕХАЯ",
        "tourism": "guest_house"
      }
    },
    {
      "type": "Feature",
      "geometry": {
        "type": "Point",
        "coordinates": [
          24.0557838,
          42.6595935
        ]
      },
      "properties": {
        "id": 4316208288,
        "osm_type": "node",
        "name": "Комплекс Мутафчиев",
        "tourism": "hotel"
      }
    },
    {
      "type": "Feature",
      "geometry": {
        "type": "Point",
        "coordinates": [
          23.408091,
          43.086975
        ]
      },
      "properties": {
        "id": 4342270889,
        "osm_type": "node",
        "name": "fishing hunting",
        "tourism": "camp_site"
      }
    },
    {
      "type": "Feature",
      "geometry": {
        "type": "Point",
        "coordinates": [
          23.4724257,
          42.2623132
        ]
      },
      "properties": {
        "id": 4367950212,
        "osm_type": "node",
        "name": "Семеен хотел Джамбазката къща",
        "tourism": "hotel",
        "phone": "+359 88 857 3133",
        "website": "https://house-djambazki.com/"
      }
    },
    {
      "type": "Feature",
      "geometry": {
        "type": "Point",
        "coordinates": [
          23.5227179,
          42.277053
        ]
      },
      "properties": {
        "id": 4375545097,
        "osm_type": "node",
        "tourism": "camp_site"
      }
    },
    {
      "type": "Feature",
      "geometry": {
        "type": "Point",
        "coordinates": [
          23.869288,
          42.3304261
        ]
      },
      "properties": {
        "id": 4413764192,
        "osm_type": "node",
        "name": "хотел Невен",
        "tourism": "hotel",
        "phone": "+359 87 969 0133"
      }
    },
    {
      "type": "Feature",
      "geometry": {
        "type": "Point",
        "coordinates": [
          23.4778774,
          42.2609133
        ]
      },
      "properties": {
        "id": 4424582997,
        "osm_type": "node",
        "name": "HotelMiglena",
        "tourism": "hotel"
      }
    },
    {
      "type": "Feature",
      "geometry": {
        "type": "Point",
        "coordinates": [
          23.0442517,
          43.0177374
        ]
      },
      "properties": {
        "id": 4497926341,
        "osm_type": "node",
        "tourism": "hostel"
      }
    },
    {
      "type": "Feature",
      "geometry": {
        "type": "Point",
        "coordinates": [
          23.0444126,
          43.0180943
        ]
      },
      "properties": {
        "id": 4497926342,
        "osm_type": "node",
        "tourism": "guest_house"
      }
    },
    {
      "type": "Feature",
      "geometry": {
        "type": "Point",
        "coordinates": [
          23.1299647,
          42.9820403
        ]
      },
      "properties": {
        "id": 4508868505,
        "osm_type": "node",
        "tourism": "hotel",
        "check_date": "2023-09-18"
      }
    },
    {
      "type": "Feature",
      "geometry": {
        "type": "Point",
        "coordinates": [
          23.9891147,
          42.6731396
        ]
      },
      "properties": {
        "id": 4548753450,
        "osm_type": "node",
        "tourism": "camp_site"
      }
    },
    {
      "type": "Feature",
      "geometry": {
        "type": "Point",
        "coordinates": [
          23.1443579,
          43.111673
        ]
      },
      "properties": {
        "id": 4563867718,
        "osm_type": "node",
        "tourism": "camp_site"
      }
    },
    {
      "type": "Feature",
      "geometry": {
        "type": "Point",
        "coordinates": [
          23.989597,
          42.6924393
        ]
      },
      "properties": {
        "id": 4620236412,
        "osm_type": "node",
        "name": "св. Иван Рилски",
        "tourism": "hotel"
      }
    },
    {
      "type": "Feature",
      "geometry": {
        "type": "Point",
        "coordinates": [
          23.6535727,
          42.4120805
        ]
      },
      "properties": {
        "id": 4710757289,
        "osm_type": "node",
        "name": "Tetovo",
        "tourism": "hotel"
      }
    },
    {
      "type": "Feature",
      "geometry": {
        "type": "Point",
        "coordinates": [
          23.0716629,
          42.9978459
        ]
      },
      "properties": {
        "id": 4889300070,
        "osm_type": "node",
        "name": "Forest Houses",
        "tourism": "apartment",
        "phone": "+359876187444",
        "website": "https://foresthouses.eu/"
      }
    },
    {
      "type": "Feature",
      "geometry": {
        "type": "Point",
        "coordinates": [
          22.8776525,
          42.994383
        ]
      },
      "properties": {
        "id": 4949521119,
        "osm_type": "node",
        "name": "Комплекс \"Шатрата\"",
        "tourism": "guest_house"
      }
    },
    {
      "type": "Feature",
      "geometry": {
        "type": "Point",
        "coordinates": [
          23.3435591,
          42.9634407
        ]
      },
      "properties": {
        "id": 4955245122,
        "osm_type": "node",
        "tourism": "hotel"
      }
    },
    {
      "type": "Feature",
      "geometry": {
        "type": "Point",
        "coordinates": [
          23.1672451,
          42.7839524
        ]
      },
      "properties": {
        "id": 4958421388,
        "osm_type": "node",
        "name": "Motel-Camping Route 80",
        "tourism": "motel"
      }
    },
    {
      "type": "Feature",
      "geometry": {
        "type": "Point",
        "coordinates": [
          23.0389771,
          42.8561471
        ]
      },
      "properties": {
        "id": 5094680926,
        "osm_type": "node",
        "name": "Гергана",
        "tourism": "hotel",
        "phone": "+359 87 833 4002"
      }
    },
    {
      "type": "Feature",
      "geometry": {
        "type": "Point",
        "coordinates": [
          23.7185583,
          42.5170561
        ]
      },
      "properties": {
        "id": 5169312876,
        "osm_type": "node",
        "name": "Horizon Guesthouse",
        "tourism": "guest_house",
        "phone": "+359 88 960 0440"
      }
    },
    {
      "type": "Feature",
      "geometry": {
        "type": "Point",
        "coordinates": [
          23.5837421,
          42.2589535
        ]
      },
      "properties": {
        "id": 5403364023,
        "osm_type": "node",
        "tourism": "chalet"
      }
    },
    {
      "type": "Feature",
      "geometry": {
        "type": "Point",
        "coordinates": [
          23.5834935,
          42.2593388
        ]
      },
      "properties": {
        "id": 5403369822,
        "osm_type": "node",
        "tourism": "chalet"
      }
    },
    {
      "type": "Feature",
      "geometry": {
        "type": "Point",
        "coordinates": [
          23.5830983,
          42.259838
        ]
      },
      "properties": {
        "id": 5405886324,
        "osm_type": "node",
        "tourism": "chalet"
      }
    },
    {
      "type": "Feature",
      "geometry": {
        "type": "Point",
        "coordinates": [
          23.9028544,
          42.8923511
        ]
      },
      "properties": {
        "id": 5624006253,
        "osm_type": "node",
        "name": "хижа Мащерка",
        "tourism": "alpine_hut"
      }
    },
    {
      "type": "Feature",
      "geometry": {
        "type": "Point",
        "coordinates": [
          23.9298049,
          42.8697756
        ]
      },
      "properties": {
        "id": 5628173003,
        "osm_type": "node",
        "name": "хижа Сова",
        "tourism": "alpine_hut"
      }
    },
    {
      "type": "Feature",
      "geometry": {
        "type": "Point",
        "coordinates": [
          23.9885563,
          42.8184554
        ]
      },
      "properties": {
        "id": 5840226430,
        "osm_type": "node",
        "name": "Хостел Етрополе",
        "tourism": "hostel"
      }
    },
    {
      "type": "Feature",
      "geometry": {
        "type": "Point",
        "coordinates": [
          23.995994,
          42.8331149
        ]
      },
      "properties": {
        "id": 5840226435,
        "osm_type": "node",
        "name": "Етрополия",
        "tourism": "hotel"
      }
    },
    {
      "type": "Feature",
      "geometry": {
        "type": "Point",
        "coordinates": [
          23.9947361,
          42.8340354
        ]
      },
      "properties": {
        "id": 5840226436,
        "osm_type": "node",
        "name": "Оазис",
        "tourism": "hotel",
        "website": "http://komplexoazis.com/"
      }
    },
    {
      "type": "Feature",
      "geometry": {
        "type": "Point",
        "coordinates": [
          23.5381871,
          42.2752591
        ]
      },
      "properties": {
        "id": 5848009845,
        "osm_type": "node",
        "name": "Къща за гости Сокол",
        "tourism": "guest_house",
        "phone": "+359 88 527 9217",
        "website": "https://kushta-za-gosti-sokol.business.site/"
      }
    },
    {
      "type": "Feature",
      "geometry": {
        "type": "Point",
        "coordinates": [
          23.2724579,
          43.0455599
        ]
      },
      "properties": {
        "id": 5915959403,
        "osm_type": "node",
        "name": "Хижа Елата (изоставена)",
        "tourism": "alpine_hut"
      }
    },
    {
      "type": "Feature",
      "geometry": {
        "type": "Point",
        "coordinates": [
          23.3508985,
          43.0324326
        ]
      },
      "properties": {
        "id": 6269905969,
        "osm_type": "node",
        "name": "Аламуровата къща",
        "tourism": "guest_house"
      }
    },
    {
      "type": "Feature",
      "geometry": {
        "type": "Point",
        "coordinates": [
          22.9812384,
          42.7901053
        ]
      },
      "properties": {
        "id": 6269905971,
        "osm_type": "node",
        "name": "Алексиевата къща",
        "tourism": "guest_house",
        "phone": "+359 89 861 3100"
      }
    },
    {
      "type": "Feature",
      "geometry": {
        "type": "Point",
        "coordinates": [
          23.6065529,
          42.6666852
        ]
      },
      "properties": {
        "id": 6349900184,
        "osm_type": "node",
        "name": "Platinum Image",
        "tourism": "hotel"
      }
    },
    {
      "type": "Feature",
      "geometry": {
        "type": "Point",
        "coordinates": [
          23.8104124,
          42.2484283
        ]
      },
      "properties": {
        "id": 6405413332,
        "osm_type": "node",
        "name": "Шанс",
        "tourism": "guest_house"
      }
    },
    {
      "type": "Feature",
      "geometry": {
        "type": "Point",
        "coordinates": [
          24.2535962,
          42.7371802
        ]
      },
      "properties": {
        "id": 6668035083,
        "osm_type": "node",
        "name": "Къща за гости София",
        "tourism": "guest_house"
      }
    },
    {
      "type": "Feature",
      "geometry": {
        "type": "Point",
        "coordinates": [
          23.1673717,
          42.7842325
        ]
      },
      "properties": {
        "id": 6677473685,
        "osm_type": "node",
        "tourism": "camp_site"
      }
    },
    {
      "type": "Feature",
      "geometry": {
        "type": "Point",
        "coordinates": [
          24.3609059,
          42.6395092
        ]
      },
      "properties": {
        "id": 6698075301,
        "osm_type": "node",
        "name": "Хотел \"Копривщица\"",
        "tourism": "hotel",
        "phone": "+359 87 989 1077"
      }
    },
    {
      "type": "Feature",
      "geometry": {
        "type": "Point",
        "coordinates": [
          23.4636302,
          42.2554737
        ]
      },
      "properties": {
        "id": 6727509620,
        "osm_type": "node",
        "name": "Крушарска Къща",
        "tourism": "hotel"
      }
    },
    {
      "type": "Feature",
      "geometry": {
        "type": "Point",
        "coordinates": [
          23.7733714,
          42.3117749
        ]
      },
      "properties": {
        "id": 6899870977,
        "osm_type": "node",
        "name": "Къща за гости Европа",
        "tourism": "hotel",
        "phone": "+359 2 970 1515",
        "website": "https://europecomplex.com/"
      }
    },
    {
      "type": "Feature",
      "geometry": {
        "type": "Point",
        "coordinates": [
          24.3582184,
          42.6383145
        ]
      },
      "properties": {
        "id": 6920245285,
        "osm_type": "node",
        "tourism": "hostel"
      }
    },
    {
      "type": "Feature",
      "geometry": {
        "type": "Point",
        "coordinates": [
          24.360126,
          42.6410167
        ]
      },
      "properties": {
        "id": 6920245287,
        "osm_type": "node",
        "name": "Daria",
        "tourism": "guest_house"
      }
    },
    {
      "type": "Feature",
      "geometry": {
        "type": "Point",
        "coordinates": [
          24.3587945,
          42.6344438
        ]
      },
      "properties": {
        "id": 6924550785,
        "osm_type": "node",
        "name": "The Gates",
        "tourism": "hostel",
        "phone": "+359 88 860 9599"
      }
    },
    {
      "type": "Feature",
      "geometry": {
        "type": "Point",
        "coordinates": [
          24.3576026,
          42.6371769
        ]
      },
      "properties": {
        "id": 6924702286,
        "osm_type": "node",
        "name": "Mechana - Greti Georgi",
        "tourism": "hotel",
        "phone": "+359 88 857 7257"
      }
    },
    {
      "type": "Feature",
      "geometry": {
        "type": "Point",
        "coordinates": [
          24.3613853,
          42.6382547
        ]
      },
      "properties": {
        "id": 6924702385,
        "osm_type": "node",
        "tourism": "guest_house"
      }
    },
    {
      "type": "Feature",
      "geometry": {
        "type": "Point",
        "coordinates": [
          24.3570158,
          42.6375229
        ]
      },
      "properties": {
        "id": 6924702485,
        "osm_type": "node",
        "name": "Greti Georgi 2",
        "tourism": "hotel"
      }
    },
    {
      "type": "Feature",
      "geometry": {
        "type": "Point",
        "coordinates": [
          24.3555043,
          42.6409394
        ]
      },
      "properties": {
        "id": 6924702685,
        "osm_type": "node",
        "tourism": "hostel"
      }
    },
    {
      "type": "Feature",
      "geometry": {
        "type": "Point",
        "coordinates": [
          23.1217614,
          42.7962015
        ]
      },
      "properties": {
        "id": 6987029784,
        "osm_type": "node",
        "name": "Kushti Boben",
        "tourism": "guest_house",
        "phone": "+359 87 821 9797",
        "website": "http://www.kushtiboben.bg/"
      }
    },
    {
      "type": "Feature",
      "geometry": {
        "type": "Point",
        "coordinates": [
          23.7948197,
          42.3748623
        ]
      },
      "properties": {
        "id": 7078002687,
        "osm_type": "node",
        "name": "Момин кладенец",
        "tourism": "chalet"
      }
    },
    {
      "type": "Feature",
      "geometry": {
        "type": "Point",
        "coordinates": [
          23.3847344,
          42.3609869
        ]
      },
      "properties": {
        "id": 7459417933,
        "osm_type": "node",
        "name": "Белчинска среща",
        "tourism": "guest_house"
      }
    },
    {
      "type": "Feature",
      "geometry": {
        "type": "Point",
        "coordinates": [
          24.2884058,
          42.6959892
        ]
      },
      "properties": {
        "id": 7661412343,
        "osm_type": "node",
        "name": "Triadis",
        "tourism": "chalet"
      }
    },
    {
      "type": "Feature",
      "geometry": {
        "type": "Point",
        "coordinates": [
          23.4355029,
          42.891872
        ]
      },
      "properties": {
        "id": 7839326053,
        "osm_type": "node",
        "name": "Сирман",
        "tourism": "guest_house"
      }
    },
    {
      "type": "Feature",
      "geometry": {
        "type": "Point",
        "coordinates": [
          23.4011972,
          43.0292378
        ]
      },
      "properties": {
        "id": 8244742741,
        "osm_type": "node",
        "name": "Беседка",
        "tourism": "camp_site"
      }
    },
    {
      "type": "Feature",
      "geometry": {
        "type": "Point",
        "coordinates": [
          23.5396938,
          42.2745098
        ]
      },
      "properties": {
        "id": 8437693048,
        "osm_type": "node",
        "name": "Eagle Rock",
        "tourism": "hotel"
      }
    },
    {
      "type": "Feature",
      "geometry": {
        "type": "Point",
        "coordinates": [
          23.4746714,
          43.0037189
        ]
      },
      "properties": {
        "id": 8781431222,
        "osm_type": "node",
        "tourism": "camp_site"
      }
    },
    {
      "type": "Feature",
      "geometry": {
        "type": "Point",
        "coordinates": [
          23.5592283,
          42.331661
        ]
      },
      "properties": {
        "id": 8974612914,
        "osm_type": "node",
        "name": "Perfect",
        "tourism": "hotel"
      }
    },
    {
      "type": "Feature",
      "geometry": {
        "type": "Point",
        "coordinates": [
          23.5595189,
          42.3301187
        ]
      },
      "properties": {
        "id": 8974612915,
        "osm_type": "node",
        "name": "Кокошковата къща",
        "tourism": "hotel"
      }
    },
    {
      "type": "Feature",
      "geometry": {
        "type": "Point",
        "coordinates": [
          23.5625208,
          42.3303781
        ]
      },
      "properties": {
        "id": 8974632217,
        "osm_type": "node",
        "name": "Легето",
        "tourism": "hotel"
      }
    },
    {
      "type": "Feature",
      "geometry": {
        "type": "Point",
        "coordinates": [
          24.3600775,
          42.6377127
        ]
      },
      "properties": {
        "id": 9028631016,
        "osm_type": "node",
        "name": "Къща за гости Боби",
        "tourism": "guest_house"
      }
    },
    {
      "type": "Feature",
      "geometry": {
        "type": "Point",
        "coordinates": [
          23.6887387,
          42.2813359
        ]
      },
      "properties": {
        "id": 9062973316,
        "osm_type": "node",
        "name": "Къща за гости Гергана",
        "tourism": "guest_house"
      }
    },
    {
      "type": "Feature",
      "geometry": {
        "type": "Point",
        "coordinates": [
          22.9835561,
          42.8512757
        ]
      },
      "properties": {
        "id": 9063706647,
        "osm_type": "node",
        "tourism": "apartment",
        "phone": "+359 89 476 6399",
        "website": "https://paladya.com/"
      }
    },
    {
      "type": "Feature",
      "geometry": {
        "type": "Point",
        "coordinates": [
          23.4959777,
          42.3677977
        ]
      },
      "properties": {
        "id": 9073279884,
        "osm_type": "node",
        "name": "Къща за гости ОРЕХА",
        "tourism": "apartment",
        "phone": "+359 89 433 2010",
        "website": "https://guest-house-4553.business.site"
      }
    },
    {
      "type": "Feature",
      "geometry": {
        "type": "Point",
        "coordinates": [
          24.3608653,
          42.6356776
        ]
      },
      "properties": {
        "id": 9906325717,
        "osm_type": "node",
        "name": "Stoichkovata Kashta",
        "tourism": "hotel",
        "phone": "+359 886 84 02 72 +359 876 33 34 57",
        "website": "http://www.stoichkovata-kashta.com/"
      }
    },
    {
      "type": "Feature",
      "geometry": {
        "type": "Point",
        "coordinates": [
          23.3614285,
          42.8571748
        ]
      },
      "properties": {
        "id": 9981998217,
        "osm_type": "node",
        "tourism": "camp_site",
        "opening_hours": "24/7"
      }
    },
    {
      "type": "Feature",
      "geometry": {
        "type": "Point",
        "coordinates": [
          23.5385446,
          42.279588
        ]
      },
      "properties": {
        "id": 9988448788,
        "osm_type": "node",
        "name": "Вила Боро",
        "tourism": "hotel",
        "phone": "+359 89 859 3567",
        "website": "https://villaboro.com/"
      }
    },
    {
      "type": "Feature",
      "geometry": {
        "type": "Point",
        "coordinates": [
          23.4663249,
          42.2568689
        ]
      },
      "properties": {
        "id": 9988491476,
        "osm_type": "node",
        "name": "Семеен Хотел Искър",
        "tourism": "hotel",
        "phone": "+359 88 798 1078",
        "website": "http://hotel-iskar.com/"
      }
    },
    {
      "type": "Feature",
      "geometry": {
        "type": "Point",
        "coordinates": [
          23.6422949,
          42.5084615
        ]
      },
      "properties": {
        "id": 10124727379,
        "osm_type": "node",
        "name": "Ловна Хижа ц. Борика",
        "tourism": "alpine_hut"
      }
    },
    {
      "type": "Feature",
      "geometry": {
        "type": "Point",
        "coordinates": [
          23.5637387,
          42.3256574
        ]
      },
      "properties": {
        "id": 10762178322,
        "osm_type": "node",
        "name": "Фор сийзънс",
        "tourism": "guest_house"
      }
    },
    {
      "type": "Feature",
      "geometry": {
        "type": "Point",
        "coordinates": [
          23.5641439,
          42.3274444
        ]
      },
      "properties": {
        "id": 10762178369,
        "osm_type": "node",
        "name": "\"Стояновата къща\" Guest House",
        "tourism": "guest_house",
        "phone": "+359 88 993 6939"
      }
    },
    {
      "type": "Feature",
      "geometry": {
        "type": "Point",
        "coordinates": [
          23.3622939,
          43.0548393
        ]
      },
      "properties": {
        "id": 10944072339,
        "osm_type": "node",
        "name": "Balkan Station",
        "tourism": "camp_site",
        "tents": "yes"
      }
    },
    {
      "type": "Feature",
      "geometry": {
        "type": "Point",
        "coordinates": [
          23.3883538,
          42.2104132
        ]
      },
      "properties": {
        "id": 11118906571,
        "osm_type": "node",
        "name": "Алпинист",
        "tourism": "hotel"
      }
    },
    {
      "type": "Feature",
      "geometry": {
        "type": "Point",
        "coordinates": [
          23.5575932,
          42.3336919
        ]
      },
      "properties": {
        "id": 11126100542,
        "osm_type": "node",
        "name": "Tea House",
        "tourism": "guest_house"
      }
    },
    {
      "type": "Feature",
      "geometry": {
        "type": "Point",
        "coordinates": [
          23.4123198,
          42.3682921
        ]
      },
      "properties": {
        "id": 11235713327,
        "osm_type": "node",
        "name": "Villa Betty",
        "tourism": "guest_house",
        "phone": "+359878112691"
      }
    },
    {
      "type": "Feature",
      "geometry": {
        "type": "Point",
        "coordinates": [
          23.4268333,
          43.0397129
        ]
      },
      "properties": {
        "id": 11509092059,
        "osm_type": "node",
        "name": "Туристически заслон \"Мики\"",
        "tourism": "alpine_hut"
      }
    },
    {
      "type": "Feature",
      "geometry": {
        "type": "Point",
        "coordinates": [
          23.6029902,
          42.2720533
        ]
      },
      "properties": {
        "id": 11685278998,
        "osm_type": "node",
        "name": "Клепалски",
        "tourism": "guest_house"
      }
    },
    {
      "type": "Feature",
      "geometry": {
        "type": "Point",
        "coordinates": [
          23.3797865,
          42.4107411
        ]
      },
      "properties": {
        "id": 11986143644,
        "osm_type": "node",
        "tourism": "camp_site"
      }
    },
    {
      "type": "Feature",
      "geometry": {
        "type": "Point",
        "coordinates": [
          23.5747122,
          42.6325224
        ]
      },
      "properties": {
        "id": 12071948842,
        "osm_type": "node",
        "name": "Sunset Garden Camping",
        "tourism": "camp_site",
        "tents": "yes"
      }
    },
    {
      "type": "Feature",
      "geometry": {
        "type": "Point",
        "coordinates": [
          23.1575756,
          43.060302
        ]
      },
      "properties": {
        "id": 12171163698,
        "osm_type": "node",
        "name": "Планинарска спирка",
        "tourism": "alpine_hut"
      }
    },
    {
      "type": "Feature",
      "geometry": {
        "type": "Point",
        "coordinates": [
          23.472143,
          42.2490162
        ]
      },
      "properties": {
        "id": 13202268138,
        "osm_type": "node",
        "name": "Camping Panorama",
        "tourism": "camp_site"
      }
    },
    {
      "type": "Feature",
      "geometry": {
        "type": "Point",
        "coordinates": [
          23.4728043,
          42.2487003
        ]
      },
      "properties": {
        "id": 13202268139,
        "osm_type": "node",
        "name": "Camping Mechit",
        "tourism": "camp_site"
      }
    },
    {
      "type": "Feature",
      "geometry": {
        "type": "Point",
        "coordinates": [
          23.6055084,
          42.2642022
        ]
      },
      "properties": {
        "id": 13536220524,
        "osm_type": "node",
        "name": "Попангелов",
        "tourism": "guest_house",
        "check_date": "2026-02-09"
      }
    },
    {
      "type": "Feature",
      "geometry": {
        "type": "Point",
        "coordinates": [
          23.6043346,
          42.2640146
        ]
      },
      "properties": {
        "id": 13536232766,
        "osm_type": "node",
        "name": "Forest House",
        "tourism": "guest_house",
        "check_date": "2026-02-09"
      }
    },
    {
      "type": "Feature",
      "geometry": {
        "type": "Point",
        "coordinates": [
          23.3742757,
          42.1887461
        ]
      },
      "properties": {
        "id": 91744897,
        "osm_type": "way",
        "name": "Хижа Мальовица",
        "tourism": "alpine_hut",
        "website": "https://www.maliovitsahut.com/"
      }
    },
    {
      "type": "Feature",
      "geometry": {
        "type": "Point",
        "coordinates": [
          23.8213446,
          42.2333111
        ]
      },
      "properties": {
        "id": 98390981,
        "osm_type": "way",
        "name": "Хижа Гургулица",
        "tourism": "alpine_hut"
      }
    },
    {
      "type": "Feature",
      "geometry": {
        "type": "Point",
        "coordinates": [
          23.620095,
          42.27407
        ]
      },
      "properties": {
        "id": 135798749,
        "osm_type": "way",
        "name": "Вилно селище Малина",
        "tourism": "chalet"
      }
    },
    {
      "type": "Feature",
      "geometry": {
        "type": "Point",
        "coordinates": [
          23.3894204,
          42.2103345
        ]
      },
      "properties": {
        "id": 159153995,
        "osm_type": "way",
        "name": "хотел Мальовица",
        "tourism": "hotel",
        "phone": "+359 89 598 2 510",
        "website": "https://hotelmalyovitsa.com"
      }
    },
    {
      "type": "Feature",
      "geometry": {
        "type": "Point",
        "coordinates": [
          23.2245286,
          42.8178052
        ]
      },
      "properties": {
        "id": 205018131,
        "osm_type": "way",
        "name": "Елит",
        "tourism": "hotel"
      }
    },
    {
      "type": "Feature",
      "geometry": {
        "type": "Point",
        "coordinates": [
          23.5554682,
          42.3337871
        ]
      },
      "properties": {
        "id": 206267602,
        "osm_type": "way",
        "name": "Хотел Гранд Самоков",
        "tourism": "hotel"
      }
    },
    {
      "type": "Feature",
      "geometry": {
        "type": "Point",
        "coordinates": [
          23.5548297,
          42.3320359
        ]
      },
      "properties": {
        "id": 206800712,
        "osm_type": "way",
        "name": "Арена Самоков",
        "tourism": "hotel"
      }
    },
    {
      "type": "Feature",
      "geometry": {
        "type": "Point",
        "coordinates": [
          23.5632009,
          42.3385868
        ]
      },
      "properties": {
        "id": 206875475,
        "osm_type": "way",
        "name": "Никол",
        "tourism": "hotel"
      }
    },
    {
      "type": "Feature",
      "geometry": {
        "type": "Point",
        "coordinates": [
          23.3870597,
          42.2118996
        ]
      },
      "properties": {
        "id": 209109639,
        "osm_type": "way",
        "name": "Ален Мак",
        "tourism": "hotel",
        "phone": "+359 87 837 7371",
        "website": "https://hotelalenmak.com/"
      }
    },
    {
      "type": "Feature",
      "geometry": {
        "type": "Point",
        "coordinates": [
          23.8905051,
          42.6581279
        ]
      },
      "properties": {
        "id": 242892179,
        "osm_type": "way",
        "name": "х. Опор",
        "tourism": "chalet"
      }
    },
    {
      "type": "Feature",
      "geometry": {
        "type": "Point",
        "coordinates": [
          23.4400885,
          43.0260472
        ]
      },
      "properties": {
        "id": 244177003,
        "osm_type": "way",
        "name": "Фамилна къща",
        "tourism": "guest_house"
      }
    },
    {
      "type": "Feature",
      "geometry": {
        "type": "Point",
        "coordinates": [
          23.4395548,
          43.0257716
        ]
      },
      "properties": {
        "id": 244177004,
        "osm_type": "way",
        "name": "Родова къща",
        "tourism": "guest_house"
      }
    },
    {
      "type": "Feature",
      "geometry": {
        "type": "Point",
        "coordinates": [
          23.4391793,
          43.0253187
        ]
      },
      "properties": {
        "id": 244177005,
        "osm_type": "way",
        "name": "Битова къща",
        "tourism": "guest_house"
      }
    },
    {
      "type": "Feature",
      "geometry": {
        "type": "Point",
        "coordinates": [
          23.3773939,
          43.0330046
        ]
      },
      "properties": {
        "id": 244254900,
        "osm_type": "way",
        "name": "Хотел \"Планинец\"",
        "tourism": "hotel"
      }
    },
    {
      "type": "Feature",
      "geometry": {
        "type": "Point",
        "coordinates": [
          23.4769406,
          43.1442155
        ]
      },
      "properties": {
        "id": 259216260,
        "osm_type": "way",
        "name": "х. Пършевица",
        "tourism": "chalet"
      }
    },
    {
      "type": "Feature",
      "geometry": {
        "type": "Point",
        "coordinates": [
          24.0772081,
          42.7514627
        ]
      },
      "properties": {
        "id": 262589812,
        "osm_type": "way",
        "name": "х. Кашана",
        "tourism": "alpine_hut",
        "phone": "+359 88 271 4416;0878539160;0882966497"
      }
    },
    {
      "type": "Feature",
      "geometry": {
        "type": "Point",
        "coordinates": [
          23.9384289,
          42.752679
        ]
      },
      "properties": {
        "id": 262589835,
        "osm_type": "way",
        "name": "х. Чавдар",
        "tourism": "alpine_hut",
        "phone": "+359 89 778 3199"
      }
    },
    {
      "type": "Feature",
      "geometry": {
        "type": "Point",
        "coordinates": [
          23.2798887,
          43.1047858
        ]
      },
      "properties": {
        "id": 262814874,
        "osm_type": "way",
        "name": "х. Пробойница",
        "tourism": "alpine_hut",
        "phone": "0899961646",
        "contact:phone": "0899853483,",
        "website": "https://proboinica.com/",
        "check_date": "2025-06-03"
      }
    },
    {
      "type": "Feature",
      "geometry": {
        "type": "Point",
        "coordinates": [
          23.5594684,
          42.3362478
        ]
      },
      "properties": {
        "id": 299893432,
        "osm_type": "way",
        "name": "Къща за гости Елизабет",
        "tourism": "guest_house",
        "phone": "+359 88 885 2062"
      }
    },
    {
      "type": "Feature",
      "geometry": {
        "type": "Point",
        "coordinates": [
          23.4602433,
          42.2260233
        ]
      },
      "properties": {
        "id": 305020062,
        "osm_type": "way",
        "name": "хижа Мечит",
        "tourism": "alpine_hut"
      }
    },
    {
      "type": "Feature",
      "geometry": {
        "type": "Point",
        "coordinates": [
          23.4604959,
          42.2254549
        ]
      },
      "properties": {
        "id": 305020065,
        "osm_type": "way",
        "name": "хижа Мечит (стара)",
        "tourism": "alpine_hut",
        "phone": "+359 88 622 5576"
      }
    },
    {
      "type": "Feature",
      "geometry": {
        "type": "Point",
        "coordinates": [
          24.3589007,
          42.6384637
        ]
      },
      "properties": {
        "id": 311543523,
        "osm_type": "way",
        "name": "Горско стопанство",
        "tourism": "hotel"
      }
    },
    {
      "type": "Feature",
      "geometry": {
        "type": "Point",
        "coordinates": [
          24.3589454,
          42.642752
        ]
      },
      "properties": {
        "id": 311543527,
        "osm_type": "way",
        "name": "Къща за гости \"Денис\"",
        "tourism": "hotel"
      }
    },
    {
      "type": "Feature",
      "geometry": {
        "type": "Point",
        "coordinates": [
          24.3609301,
          42.6448773
        ]
      },
      "properties": {
        "id": 311543528,
        "osm_type": "way",
        "name": "Къща за гости \"Лина\"",
        "tourism": "guest_house"
      }
    },
    {
      "type": "Feature",
      "geometry": {
        "type": "Point",
        "coordinates": [
          24.3589483,
          42.6386629
        ]
      },
      "properties": {
        "id": 311543534,
        "osm_type": "way",
        "name": "Хотел Чучура",
        "tourism": "hotel"
      }
    },
    {
      "type": "Feature",
      "geometry": {
        "type": "Point",
        "coordinates": [
          24.3618738,
          42.6415284
        ]
      },
      "properties": {
        "id": 311543535,
        "osm_type": "way",
        "name": "Хотелски комплекс \"Дона\"",
        "tourism": "hotel"
      }
    },
    {
      "type": "Feature",
      "geometry": {
        "type": "Point",
        "coordinates": [
          23.7810797,
          42.3111966
        ]
      },
      "properties": {
        "id": 315271044,
        "osm_type": "way",
        "name": "Комплекс \"Долна Баня\"",
        "tourism": "motel"
      }
    },
    {
      "type": "Feature",
      "geometry": {
        "type": "Point",
        "coordinates": [
          23.1955377,
          42.7631861
        ]
      },
      "properties": {
        "id": 332577328,
        "osm_type": "way",
        "name": "spetema hotel",
        "tourism": "hotel"
      }
    },
    {
      "type": "Feature",
      "geometry": {
        "type": "Point",
        "coordinates": [
          24.0517055,
          42.7284045
        ]
      },
      "properties": {
        "id": 332891620,
        "osm_type": "way",
        "name": "х.Мургана",
        "tourism": "alpine_hut",
        "phone": "+359 800 20 003",
        "website": "https://murgana.hiji.eu/"
      }
    },
    {
      "type": "Feature",
      "geometry": {
        "type": "Point",
        "coordinates": [
          23.5485967,
          42.3350305
        ]
      },
      "properties": {
        "id": 344575545,
        "osm_type": "way",
        "name": "Hotel Zodiak",
        "tourism": "hotel"
      }
    },
    {
      "type": "Feature",
      "geometry": {
        "type": "Point",
        "coordinates": [
          23.6438984,
          42.875068
        ]
      },
      "properties": {
        "id": 352267412,
        "osm_type": "way",
        "name": "Ловна резиденция Търсава",
        "tourism": "hotel"
      }
    },
    {
      "type": "Feature",
      "geometry": {
        "type": "Point",
        "coordinates": [
          23.6030761,
          42.671019
        ]
      },
      "properties": {
        "id": 364708676,
        "osm_type": "way",
        "name": "хотел-ресторант Димоли",
        "tourism": "hotel"
      }
    },
    {
      "type": "Feature",
      "geometry": {
        "type": "Point",
        "coordinates": [
          23.5871224,
          42.1976313
        ]
      },
      "properties": {
        "id": 369358702,
        "osm_type": "way",
        "name": "хотел Мусала",
        "tourism": "alpine_hut",
        "website": "http://musala-hija.com/"
      }
    },
    {
      "type": "Feature",
      "geometry": {
        "type": "Point",
        "coordinates": [
          23.925953,
          42.387591
        ]
      },
      "properties": {
        "id": 373704004,
        "osm_type": "way",
        "name": "хижа \"Надежда\"",
        "tourism": "alpine_hut"
      }
    },
    {
      "type": "Feature",
      "geometry": {
        "type": "Point",
        "coordinates": [
          23.6145948,
          42.2801636
        ]
      },
      "properties": {
        "id": 383405760,
        "osm_type": "way",
        "name": "Royal",
        "tourism": "hotel"
      }
    },
    {
      "type": "Feature",
      "geometry": {
        "type": "Point",
        "coordinates": [
          23.5631206,
          42.3188851
        ]
      },
      "properties": {
        "id": 429649063,
        "osm_type": "way",
        "name": "Hotel Bistrica",
        "tourism": "hotel"
      }
    },
    {
      "type": "Feature",
      "geometry": {
        "type": "Point",
        "coordinates": [
          23.9998359,
          42.8276123
        ]
      },
      "properties": {
        "id": 449491807,
        "osm_type": "way",
        "name": "Хотел Еверест",
        "tourism": "hotel"
      }
    },
    {
      "type": "Feature",
      "geometry": {
        "type": "Point",
        "coordinates": [
          23.6408981,
          42.1683125
        ]
      },
      "properties": {
        "id": 455563517,
        "osm_type": "way",
        "name": "х. Заврачица",
        "tourism": "alpine_hut"
      }
    },
    {
      "type": "Feature",
      "geometry": {
        "type": "Point",
        "coordinates": [
          23.3600135,
          42.3225463
        ]
      },
      "properties": {
        "id": 458058567,
        "osm_type": "way",
        "name": "Villa Bella",
        "tourism": "guest_house"
      }
    },
    {
      "type": "Feature",
      "geometry": {
        "type": "Point",
        "coordinates": [
          23.9894487,
          42.6733466
        ]
      },
      "properties": {
        "id": 458952629,
        "osm_type": "way",
        "tourism": "chalet"
      }
    },
    {
      "type": "Feature",
      "geometry": {
        "type": "Point",
        "coordinates": [
          23.9895868,
          42.6733279
        ]
      },
      "properties": {
        "id": 458952630,
        "osm_type": "way",
        "tourism": "chalet"
      }
    },
    {
      "type": "Feature",
      "geometry": {
        "type": "Point",
        "coordinates": [
          23.9897223,
          42.6733122
        ]
      },
      "properties": {
        "id": 458952631,
        "osm_type": "way",
        "tourism": "chalet"
      }
    },
    {
      "type": "Feature",
      "geometry": {
        "type": "Point",
        "coordinates": [
          23.9898,
          42.6732175
        ]
      },
      "properties": {
        "id": 458952632,
        "osm_type": "way",
        "tourism": "chalet"
      }
    },
    {
      "type": "Feature",
      "geometry": {
        "type": "Point",
        "coordinates": [
          23.9897799,
          42.6731238
        ]
      },
      "properties": {
        "id": 458952633,
        "osm_type": "way",
        "tourism": "chalet"
      }
    },
    {
      "type": "Feature",
      "geometry": {
        "type": "Point",
        "coordinates": [
          23.9893467,
          42.6732047
        ]
      },
      "properties": {
        "id": 458952634,
        "osm_type": "way",
        "tourism": "chalet"
      }
    },
    {
      "type": "Feature",
      "geometry": {
        "type": "Point",
        "coordinates": [
          23.9892046,
          42.6732184
        ]
      },
      "properties": {
        "id": 458952635,
        "osm_type": "way",
        "tourism": "chalet"
      }
    },
    {
      "type": "Feature",
      "geometry": {
        "type": "Point",
        "coordinates": [
          23.9892868,
          42.6734743
        ]
      },
      "properties": {
        "id": 458952636,
        "osm_type": "way",
        "tourism": "chalet"
      }
    },
    {
      "type": "Feature",
      "geometry": {
        "type": "Point",
        "coordinates": [
          23.9891932,
          42.6733945
        ]
      },
      "properties": {
        "id": 458952637,
        "osm_type": "way",
        "tourism": "chalet"
      }
    },
    {
      "type": "Feature",
      "geometry": {
        "type": "Point",
        "coordinates": [
          23.9891385,
          42.6734943
        ]
      },
      "properties": {
        "id": 458952638,
        "osm_type": "way",
        "tourism": "chalet"
      }
    },
    {
      "type": "Feature",
      "geometry": {
        "type": "Point",
        "coordinates": [
          23.9890296,
          42.6734201
        ]
      },
      "properties": {
        "id": 458952639,
        "osm_type": "way",
        "tourism": "chalet"
      }
    },
    {
      "type": "Feature",
      "geometry": {
        "type": "Point",
        "coordinates": [
          23.9888941,
          42.6734369
        ]
      },
      "properties": {
        "id": 458952640,
        "osm_type": "way",
        "tourism": "chalet"
      }
    },
    {
      "type": "Feature",
      "geometry": {
        "type": "Point",
        "coordinates": [
          23.9889987,
          42.6735237
        ]
      },
      "properties": {
        "id": 458952641,
        "osm_type": "way",
        "tourism": "chalet"
      }
    },
    {
      "type": "Feature",
      "geometry": {
        "type": "Point",
        "coordinates": [
          23.9888499,
          42.6735453
        ]
      },
      "properties": {
        "id": 458952642,
        "osm_type": "way",
        "tourism": "chalet"
      }
    },
    {
      "type": "Feature",
      "geometry": {
        "type": "Point",
        "coordinates": [
          23.9887185,
          42.673565
        ]
      },
      "properties": {
        "id": 458952643,
        "osm_type": "way",
        "tourism": "chalet"
      }
    },
    {
      "type": "Feature",
      "geometry": {
        "type": "Point",
        "coordinates": [
          23.988763,
          42.6734642
        ]
      },
      "properties": {
        "id": 458952644,
        "osm_type": "way",
        "tourism": "chalet"
      }
    },
    {
      "type": "Feature",
      "geometry": {
        "type": "Point",
        "coordinates": [
          23.0764512,
          43.0963258
        ]
      },
      "properties": {
        "id": 460956442,
        "osm_type": "way",
        "tourism": "chalet"
      }
    },
    {
      "type": "Feature",
      "geometry": {
        "type": "Point",
        "coordinates": [
          23.8719326,
          42.3328844
        ]
      },
      "properties": {
        "id": 465000767,
        "osm_type": "way",
        "name": "Dormitory \"Iavoritsa\"",
        "tourism": "hostel",
        "phone": "+359 89 664 7088"
      }
    },
    {
      "type": "Feature",
      "geometry": {
        "type": "Point",
        "coordinates": [
          23.8692999,
          42.3304141
        ]
      },
      "properties": {
        "id": 465259837,
        "osm_type": "way",
        "tourism": "hotel"
      }
    },
    {
      "type": "Feature",
      "geometry": {
        "type": "Point",
        "coordinates": [
          23.8549651,
          42.3074316
        ]
      },
      "properties": {
        "id": 486445313,
        "osm_type": "way",
        "name": "Hotel Diani",
        "tourism": "hotel"
      }
    },
    {
      "type": "Feature",
      "geometry": {
        "type": "Point",
        "coordinates": [
          23.8176534,
          42.3655805
        ]
      },
      "properties": {
        "id": 486638600,
        "osm_type": "way",
        "name": "Hotel Vitalis",
        "tourism": "hotel"
      }
    },
    {
      "type": "Feature",
      "geometry": {
        "type": "Point",
        "coordinates": [
          22.9363097,
          42.9195521
        ]
      },
      "properties": {
        "id": 486648994,
        "osm_type": "way",
        "name": "Хотел Драгоман",
        "tourism": "hotel",
        "phone": "+359 88 540 4020"
      }
    },
    {
      "type": "Feature",
      "geometry": {
        "type": "Point",
        "coordinates": [
          23.4066079,
          42.3471514
        ]
      },
      "properties": {
        "id": 491434867,
        "osm_type": "way",
        "tourism": "motel"
      }
    },
    {
      "type": "Feature",
      "geometry": {
        "type": "Point",
        "coordinates": [
          23.4060327,
          42.3658887
        ]
      },
      "properties": {
        "id": 491438545,
        "osm_type": "way",
        "name": "Белчинска гледка",
        "tourism": "hotel"
      }
    },
    {
      "type": "Feature",
      "geometry": {
        "type": "Point",
        "coordinates": [
          23.0387723,
          42.8516163
        ]
      },
      "properties": {
        "id": 495754554,
        "osm_type": "way",
        "name": "Красногорск",
        "tourism": "hotel"
      }
    },
    {
      "type": "Feature",
      "geometry": {
        "type": "Point",
        "coordinates": [
          23.791384,
          42.9072646
        ]
      },
      "properties": {
        "id": 498643109,
        "osm_type": "way",
        "name": "Хотел Ботевград",
        "tourism": "hotel"
      }
    },
    {
      "type": "Feature",
      "geometry": {
        "type": "Point",
        "coordinates": [
          23.6810287,
          42.5521297
        ]
      },
      "properties": {
        "id": 532074899,
        "osm_type": "way",
        "tourism": "hotel",
        "website": "https://villaekaterina.com/"
      }
    },
    {
      "type": "Feature",
      "geometry": {
        "type": "Point",
        "coordinates": [
          23.6070915,
          42.265174
        ]
      },
      "properties": {
        "id": 550585756,
        "osm_type": "way",
        "name": "Хотел Рила",
        "tourism": "hotel",
        "contact:phone": "+359 750 32 295",
        "contact:website": "http://www.rilaborovets.com/"
      }
    },
    {
      "type": "Feature",
      "geometry": {
        "type": "Point",
        "coordinates": [
          23.8945393,
          42.9088899
        ]
      },
      "properties": {
        "id": 587904449,
        "osm_type": "way",
        "name": "Hyatt Regency Pravets Resort",
        "tourism": "hotel",
        "opening_hours": "24/7",
        "phone": "+359 2 902 4100",
        "website": "https://www.hyatt.com/hyatt-regency/en-US/sofrp-hyatt-regency-pravets-resort"
      }
    },
    {
      "type": "Feature",
      "geometry": {
        "type": "Point",
        "coordinates": [
          23.6321642,
          42.5604861
        ]
      },
      "properties": {
        "id": 594267319,
        "osm_type": "way",
        "name": "Къщи за гости КРУШОВИЦА",
        "tourism": "hotel"
      }
    },
    {
      "type": "Feature",
      "geometry": {
        "type": "Point",
        "coordinates": [
          23.5841407,
          42.2586662
        ]
      },
      "properties": {
        "id": 604389910,
        "osm_type": "way",
        "name": "Хотел Ястребец Wellness & SPA",
        "tourism": "hotel",
        "phone": "+359 750 32 900",
        "website": "https://www.hotelyastrebets.bg/"
      }
    },
    {
      "type": "Feature",
      "geometry": {
        "type": "Point",
        "coordinates": [
          23.6031362,
          42.2668293
        ]
      },
      "properties": {
        "id": 616083692,
        "osm_type": "way",
        "name": "Лодж",
        "tourism": "hotel",
        "phone": "+359 87 742 0292;+359 750 33 850",
        "website": "https://thelodgehotel.eu"
      }
    },
    {
      "type": "Feature",
      "geometry": {
        "type": "Point",
        "coordinates": [
          23.2179665,
          42.9829132
        ]
      },
      "properties": {
        "id": 617594432,
        "osm_type": "way",
        "name": "Вила \"Алфа\"",
        "tourism": "hotel"
      }
    },
    {
      "type": "Feature",
      "geometry": {
        "type": "Point",
        "coordinates": [
          23.2184194,
          42.9829707
        ]
      },
      "properties": {
        "id": 617594433,
        "osm_type": "way",
        "name": "Вила \"Хасиенда\"",
        "tourism": "hotel"
      }
    },
    {
      "type": "Feature",
      "geometry": {
        "type": "Point",
        "coordinates": [
          23.2168706,
          42.9824523
        ]
      },
      "properties": {
        "id": 617594435,
        "osm_type": "way",
        "name": "Къща за гости Златен Рог",
        "tourism": "hotel"
      }
    },
    {
      "type": "Feature",
      "geometry": {
        "type": "Point",
        "coordinates": [
          23.6410664,
          42.8765861
        ]
      },
      "properties": {
        "id": 618583680,
        "osm_type": "way",
        "name": "Ловна хижа",
        "tourism": "chalet"
      }
    },
    {
      "type": "Feature",
      "geometry": {
        "type": "Point",
        "coordinates": [
          23.2534307,
          42.3989146
        ]
      },
      "properties": {
        "id": 630626296,
        "osm_type": "way",
        "name": "Ловна хижа Яребковица",
        "tourism": "alpine_hut",
        "phone": "+359898595136",
        "website": "https://yarebcovica.com/"
      }
    },
    {
      "type": "Feature",
      "geometry": {
        "type": "Point",
        "coordinates": [
          23.6969711,
          42.2972882
        ]
      },
      "properties": {
        "id": 633480049,
        "osm_type": "way",
        "name": "Къща за гости \"Марковски\"",
        "tourism": "guest_house"
      }
    },
    {
      "type": "Feature",
      "geometry": {
        "type": "Point",
        "coordinates": [
          23.6966949,
          42.2971994
        ]
      },
      "properties": {
        "id": 633480065,
        "osm_type": "way",
        "name": "Къща за гости \"Никол\"",
        "tourism": "guest_house",
        "phone": "+359 89 911 5989"
      }
    },
    {
      "type": "Feature",
      "geometry": {
        "type": "Point",
        "coordinates": [
          23.5874463,
          42.1981883
        ]
      },
      "properties": {
        "id": 638219192,
        "osm_type": "way",
        "name": "Хижа Мусала",
        "tourism": "alpine_hut",
        "website": "http://musalahut.com"
      }
    },
    {
      "type": "Feature",
      "geometry": {
        "type": "Point",
        "coordinates": [
          23.2753253,
          42.4702998
        ]
      },
      "properties": {
        "id": 659516005,
        "osm_type": "way",
        "name": "Rancho EVA",
        "tourism": "apartment",
        "phone": "+359 87 992 4934"
      }
    },
    {
      "type": "Feature",
      "geometry": {
        "type": "Point",
        "coordinates": [
          23.5826985,
          42.2608944
        ]
      },
      "properties": {
        "id": 693487784,
        "osm_type": "way",
        "name": "Почивен дом \"Енерго\" НЕК",
        "tourism": "hotel"
      }
    },
    {
      "type": "Feature",
      "geometry": {
        "type": "Point",
        "coordinates": [
          23.5814109,
          42.2611479
        ]
      },
      "properties": {
        "id": 693487786,
        "osm_type": "way",
        "name": "Semiramida Garden Apartments",
        "tourism": "apartment"
      }
    },
    {
      "type": "Feature",
      "geometry": {
        "type": "Point",
        "coordinates": [
          23.5829995,
          42.2616576
        ]
      },
      "properties": {
        "id": 693487789,
        "osm_type": "way",
        "name": "Rila Park Apartments & Spa",
        "tourism": "apartment"
      }
    },
    {
      "type": "Feature",
      "geometry": {
        "type": "Point",
        "coordinates": [
          23.4522713,
          42.2561612
        ]
      },
      "properties": {
        "id": 709647396,
        "osm_type": "way",
        "name": "Ten Houses",
        "tourism": "hotel",
        "website": "http://www.tenhouseshotel.com/home"
      }
    },
    {
      "type": "Feature",
      "geometry": {
        "type": "Point",
        "coordinates": [
          23.7749185,
          42.3100006
        ]
      },
      "properties": {
        "id": 738523351,
        "osm_type": "way",
        "name": "Nikol",
        "tourism": "hotel"
      }
    },
    {
      "type": "Feature",
      "geometry": {
        "type": "Point",
        "coordinates": [
          23.605577,
          42.2680892
        ]
      },
      "properties": {
        "id": 754033076,
        "osm_type": "way",
        "name": "Хотел Мура",
        "tourism": "hotel",
        "phone": "+359896100199",
        "website": "https://www.asterihotels.bg/"
      }
    },
    {
      "type": "Feature",
      "geometry": {
        "type": "Point",
        "coordinates": [
          23.60514,
          42.2703695
        ]
      },
      "properties": {
        "id": 754033080,
        "osm_type": "way",
        "name": "Вила парк хотел",
        "tourism": "hotel",
        "phone": "+359 750 33 870",
        "website": "https://villapark.bg"
      }
    },
    {
      "type": "Feature",
      "geometry": {
        "type": "Point",
        "coordinates": [
          23.6057773,
          42.2715568
        ]
      },
      "properties": {
        "id": 754033085,
        "osm_type": "way",
        "name": "Sokol Hotel",
        "tourism": "hotel"
      }
    },
    {
      "type": "Feature",
      "geometry": {
        "type": "Point",
        "coordinates": [
          23.6039006,
          42.2722421
        ]
      },
      "properties": {
        "id": 754033088,
        "osm_type": "way",
        "name": "Кокиче",
        "tourism": "guest_house"
      }
    },
    {
      "type": "Feature",
      "geometry": {
        "type": "Point",
        "coordinates": [
          23.6031726,
          42.2720538
        ]
      },
      "properties": {
        "id": 754033090,
        "osm_type": "way",
        "name": "Виктория",
        "tourism": "guest_house"
      }
    },
    {
      "type": "Feature",
      "geometry": {
        "type": "Point",
        "coordinates": [
          23.6061,
          42.2727773
        ]
      },
      "properties": {
        "id": 754033095,
        "osm_type": "way",
        "name": "Бор",
        "tourism": "hotel"
      }
    },
    {
      "type": "Feature",
      "geometry": {
        "type": "Point",
        "coordinates": [
          23.6000004,
          42.2740595
        ]
      },
      "properties": {
        "id": 754033106,
        "osm_type": "way",
        "name": "Лион",
        "tourism": "hotel",
        "website": "https://lionhotelborovets.com/"
      }
    },
    {
      "type": "Feature",
      "geometry": {
        "type": "Point",
        "coordinates": [
          23.6037689,
          42.2673979
        ]
      },
      "properties": {
        "id": 754033110,
        "osm_type": "way",
        "name": "ELA hotel",
        "tourism": "hotel",
        "phone": "+359 89 999 2356",
        "website": "https://hotelela.com/"
      }
    },
    {
      "type": "Feature",
      "geometry": {
        "type": "Point",
        "coordinates": [
          23.6075495,
          42.2659247
        ]
      },
      "properties": {
        "id": 754033831,
        "osm_type": "way",
        "name": "Iglika Palace",
        "tourism": "hotel"
      }
    },
    {
      "type": "Feature",
      "geometry": {
        "type": "Point",
        "coordinates": [
          23.6037789,
          42.2625051
        ]
      },
      "properties": {
        "id": 754033839,
        "osm_type": "way",
        "name": "хотел Мусала",
        "tourism": "hotel",
        "phone": "+359 895 558 770",
        "website": "https://hotel-musala.com/"
      }
    },
    {
      "type": "Feature",
      "geometry": {
        "type": "Point",
        "coordinates": [
          23.6046735,
          42.2608739
        ]
      },
      "properties": {
        "id": 754033840,
        "osm_type": "way",
        "name": "Hotel Olimp",
        "tourism": "hotel",
        "website": "http://www.militaryclubs.bg/node/41"
      }
    },
    {
      "type": "Feature",
      "geometry": {
        "type": "Point",
        "coordinates": [
          23.4121631,
          42.3643048
        ]
      },
      "properties": {
        "id": 797579994,
        "osm_type": "way",
        "name": "Spa-Hotel Belchin Garden",
        "tourism": "hotel",
        "phone": "+359877200315;+359 722 987 50;+359 722 987 51",
        "website": "https://belchin-garden.com/"
      }
    },
    {
      "type": "Feature",
      "geometry": {
        "type": "Point",
        "coordinates": [
          23.5615879,
          42.3375343
        ]
      },
      "properties": {
        "id": 849427874,
        "osm_type": "way",
        "name": "Нико",
        "tourism": "hotel",
        "phone": "+359 722 66 958;+359 89 843 2082",
        "website": "http://nikosamokov.com/"
      }
    },
    {
      "type": "Feature",
      "geometry": {
        "type": "Point",
        "coordinates": [
          23.3811772,
          42.4058722
        ]
      },
      "properties": {
        "id": 886672562,
        "osm_type": "way",
        "name": "Къщa за гости \"Фили\"",
        "tourism": "guest_house",
        "opening_hours": "Mo-Su 09:00-18:00",
        "phone": "+359 879 544 622",
        "website": "https://alinohouse.com/"
      }
    },
    {
      "type": "Feature",
      "geometry": {
        "type": "Point",
        "coordinates": [
          23.5397546,
          42.2736377
        ]
      },
      "properties": {
        "id": 908711358,
        "osm_type": "way",
        "name": "Cota 1110",
        "tourism": "hotel"
      }
    },
    {
      "type": "Feature",
      "geometry": {
        "type": "Point",
        "coordinates": [
          22.9835614,
          42.8512762
        ]
      },
      "properties": {
        "id": 979771353,
        "osm_type": "way",
        "name": "Paladya Guest houses",
        "tourism": "apartment",
        "phone": "+359 89 476 6399",
        "website": "https://paladya.com/"
      }
    },
    {
      "type": "Feature",
      "geometry": {
        "type": "Point",
        "coordinates": [
          23.3578648,
          42.3200564
        ]
      },
      "properties": {
        "id": 980131510,
        "osm_type": "way",
        "name": "Айдарова къща",
        "tourism": "guest_house"
      }
    },
    {
      "type": "Feature",
      "geometry": {
        "type": "Point",
        "coordinates": [
          24.3608749,
          42.6356571
        ]
      },
      "properties": {
        "id": 1080891179,
        "osm_type": "way",
        "name": "Stoichkovata Kashta",
        "tourism": "hotel",
        "website": "http://www.stoichkovata-kashta.com"
      }
    },
    {
      "type": "Feature",
      "geometry": {
        "type": "Point",
        "coordinates": [
          23.6095173,
          42.2675795
        ]
      },
      "properties": {
        "id": 1088750510,
        "osm_type": "way",
        "name": "хотел Св. Георги",
        "tourism": "hotel"
      }
    },
    {
      "type": "Feature",
      "geometry": {
        "type": "Point",
        "coordinates": [
          23.6099191,
          42.2651776
        ]
      },
      "properties": {
        "id": 1088750568,
        "osm_type": "way",
        "name": "Феста",
        "tourism": "hotel"
      }
    },
    {
      "type": "Feature",
      "geometry": {
        "type": "Point",
        "coordinates": [
          23.6083596,
          42.2639147
        ]
      },
      "properties": {
        "id": 1088750573,
        "osm_type": "way",
        "name": "Sangria",
        "tourism": "hotel",
        "website": "https://sangriahotelborovets.com",
        "check_date": "2026-02-08"
      }
    },
    {
      "type": "Feature",
      "geometry": {
        "type": "Point",
        "coordinates": [
          23.594802,
          42.2795737
        ]
      },
      "properties": {
        "id": 1088750586,
        "osm_type": "way",
        "name": "Феста Чамкория",
        "tourism": "hotel",
        "website": "https://www.festachamkoria.com/"
      }
    },
    {
      "type": "Feature",
      "geometry": {
        "type": "Point",
        "coordinates": [
          23.5978459,
          42.2774911
        ]
      },
      "properties": {
        "id": 1088750596,
        "osm_type": "way",
        "name": "Radina's Way",
        "tourism": "hotel",
        "website": "https://www.radinasway.com/"
      }
    },
    {
      "type": "Feature",
      "geometry": {
        "type": "Point",
        "coordinates": [
          23.6408689,
          42.1901802
        ]
      },
      "properties": {
        "id": 1092275823,
        "osm_type": "way",
        "name": "х.Марица",
        "tourism": "alpine_hut"
      }
    },
    {
      "type": "Feature",
      "geometry": {
        "type": "Point",
        "coordinates": [
          23.6099534,
          42.2682871
        ]
      },
      "properties": {
        "id": 1092276961,
        "osm_type": "way",
        "name": "Вила Елена",
        "tourism": "hotel"
      }
    },
    {
      "type": "Feature",
      "geometry": {
        "type": "Point",
        "coordinates": [
          23.8121359,
          42.2561676
        ]
      },
      "properties": {
        "id": 1102572591,
        "osm_type": "way",
        "name": "Kostenets",
        "tourism": "hotel",
        "website": "http://www.spahotelkostenec.com"
      }
    },
    {
      "type": "Feature",
      "geometry": {
        "type": "Point",
        "coordinates": [
          23.5937961,
          42.2750726
        ]
      },
      "properties": {
        "id": 1132939246,
        "osm_type": "way",
        "name": "хотел Орехите",
        "tourism": "hotel"
      }
    },
    {
      "type": "Feature",
      "geometry": {
        "type": "Point",
        "coordinates": [
          23.5963586,
          42.2707793
        ]
      },
      "properties": {
        "id": 1132939248,
        "osm_type": "way",
        "name": "хотел Св. Димитър",
        "tourism": "hotel"
      }
    },
    {
      "type": "Feature",
      "geometry": {
        "type": "Point",
        "coordinates": [
          23.4380261,
          43.0334249
        ]
      },
      "properties": {
        "id": 1152381547,
        "osm_type": "way",
        "name": "хижа Тръстеная",
        "tourism": "alpine_hut",
        "phone": "088-6407495",
        "website": "https://kom-emine.bg/huts/hizha-trastenaja/"
      }
    },
    {
      "type": "Feature",
      "geometry": {
        "type": "Point",
        "coordinates": [
          23.3213278,
          43.0349959
        ]
      },
      "properties": {
        "id": 1156221001,
        "osm_type": "way",
        "name": "Давидовата къща",
        "tourism": "guest_house"
      }
    },
    {
      "type": "Feature",
      "geometry": {
        "type": "Point",
        "coordinates": [
          23.3210034,
          43.0347864
        ]
      },
      "properties": {
        "id": 1156221003,
        "osm_type": "way",
        "name": "Къща за гости \"Калина\"",
        "tourism": "guest_house"
      }
    },
    {
      "type": "Feature",
      "geometry": {
        "type": "Point",
        "coordinates": [
          23.3882806,
          42.3641125
        ]
      },
      "properties": {
        "id": 1169931614,
        "osm_type": "way",
        "name": "Белчински Извор",
        "tourism": "hotel",
        "phone": "+359884025169;+359 882 945 040;+359 884 025 542",
        "website": "https://belchin-spring.com/"
      }
    },
    {
      "type": "Feature",
      "geometry": {
        "type": "Point",
        "coordinates": [
          23.5804393,
          42.2258452
        ]
      },
      "properties": {
        "id": 1175878454,
        "osm_type": "way",
        "tourism": "alpine_hut"
      }
    },
    {
      "type": "Feature",
      "geometry": {
        "type": "Point",
        "coordinates": [
          23.5805506,
          42.2258869
        ]
      },
      "properties": {
        "id": 1175878458,
        "osm_type": "way",
        "tourism": "alpine_hut"
      }
    },
    {
      "type": "Feature",
      "geometry": {
        "type": "Point",
        "coordinates": [
          23.6060759,
          42.2641811
        ]
      },
      "properties": {
        "id": 1182401647,
        "osm_type": "way",
        "name": "Хотел Ледени ангели",
        "tourism": "hotel"
      }
    },
    {
      "type": "Feature",
      "geometry": {
        "type": "Point",
        "coordinates": [
          23.3879742,
          42.3991154
        ]
      },
      "properties": {
        "id": 1205405339,
        "osm_type": "way",
        "name": "Триетажна еко къща “Рила”",
        "tourism": "guest_house",
        "phone": "+359884699310",
        "website": "https://www.imenieto.bg/"
      }
    },
    {
      "type": "Feature",
      "geometry": {
        "type": "Point",
        "coordinates": [
          23.3881818,
          42.3988853
        ]
      },
      "properties": {
        "id": 1205405340,
        "osm_type": "way",
        "name": "Двуетажна еко къща “Плана”",
        "tourism": "guest_house",
        "phone": "+359884699310",
        "website": "https://www.imenieto.bg/"
      }
    },
    {
      "type": "Feature",
      "geometry": {
        "type": "Point",
        "coordinates": [
          23.3879911,
          42.3989423
        ]
      },
      "properties": {
        "id": 1205405342,
        "osm_type": "way",
        "name": "Еко селище “Имението Алино”",
        "tourism": "hotel",
        "phone": "+359884699310",
        "website": "https://www.imenieto.bg/"
      }
    },
    {
      "type": "Feature",
      "geometry": {
        "type": "Point",
        "coordinates": [
          23.7491654,
          42.1928191
        ]
      },
      "properties": {
        "id": 1209076443,
        "osm_type": "way",
        "name": "х.Белмекен",
        "tourism": "alpine_hut"
      }
    },
    {
      "type": "Feature",
      "geometry": {
        "type": "Point",
        "coordinates": [
          23.3746052,
          42.1882488
        ]
      },
      "properties": {
        "id": 1216174454,
        "osm_type": "way",
        "tourism": "camp_site",
        "tents": "yes"
      }
    },
    {
      "type": "Feature",
      "geometry": {
        "type": "Point",
        "coordinates": [
          24.1371525,
          42.6074329
        ]
      },
      "properties": {
        "id": 1221062113,
        "osm_type": "way",
        "name": "х.Братия",
        "tourism": "alpine_hut"
      }
    },
    {
      "type": "Feature",
      "geometry": {
        "type": "Point",
        "coordinates": [
          23.5515682,
          42.2031003
        ]
      },
      "properties": {
        "id": 1239159253,
        "osm_type": "way",
        "tourism": "hotel"
      }
    },
    {
      "type": "Feature",
      "geometry": {
        "type": "Point",
        "coordinates": [
          23.5515661,
          42.2034496
        ]
      },
      "properties": {
        "id": 1239159254,
        "osm_type": "way",
        "tourism": "hotel"
      }
    },
    {
      "type": "Feature",
      "geometry": {
        "type": "Point",
        "coordinates": [
          23.5513676,
          42.2029052
        ]
      },
      "properties": {
        "id": 1239159255,
        "osm_type": "way",
        "tourism": "hotel"
      }
    },
    {
      "type": "Feature",
      "geometry": {
        "type": "Point",
        "coordinates": [
          23.8199915,
          42.9988147
        ]
      },
      "properties": {
        "id": 1301975150,
        "osm_type": "way",
        "name": "Урвич-почивна станция на община Ботевград",
        "tourism": "hotel"
      }
    },
    {
      "type": "Feature",
      "geometry": {
        "type": "Point",
        "coordinates": [
          23.4410982,
          42.2468017
        ]
      },
      "properties": {
        "id": 1348291660,
        "osm_type": "way",
        "name": "Комплекс \"Свети Георги\"",
        "tourism": "hotel",
        "phone": "0883 273 999",
        "website": "https://www.govedartsi-hotel.com/"
      }
    },
    {
      "type": "Feature",
      "geometry": {
        "type": "Point",
        "coordinates": [
          23.7555825,
          42.3133567
        ]
      },
      "properties": {
        "id": 1382352019,
        "osm_type": "way",
        "name": "Kalina Complex",
        "tourism": "guest_house",
        "website": "https://www.kalinacomplex.com"
      }
    },
    {
      "type": "Feature",
      "geometry": {
        "type": "Point",
        "coordinates": [
          23.3881572,
          43.0870433
        ]
      },
      "properties": {
        "id": 1416327959,
        "osm_type": "way",
        "name": "Pachovite kolibi",
        "tourism": "guest_house",
        "phone": "+359-896699227",
        "website": "https://ponor.org/index.php/item/pachovite-kolibi"
      }
    },
    {
      "type": "Feature",
      "geometry": {
        "type": "Point",
        "coordinates": [
          23.5314465,
          42.4748847
        ]
      },
      "properties": {
        "id": 1426421934,
        "osm_type": "way",
        "name": "Pullman Okol Golf Resort and Spa",
        "tourism": "hotel"
      }
    },
    {
      "type": "Feature",
      "geometry": {
        "type": "Point",
        "coordinates": [
          23.7941311,
          42.9074619
        ]
      },
      "properties": {
        "id": 1427653133,
        "osm_type": "way",
        "name": "City Plaza",
        "tourism": "hotel",
        "phone": "+359877790790",
        "website": "https://cityplaza.bg/"
      }
    },
    {
      "type": "Feature",
      "geometry": {
        "type": "Point",
        "coordinates": [
          23.5812581,
          42.2263337
        ]
      },
      "properties": {
        "id": 15903480,
        "osm_type": "relation",
        "name": "Хижа Ястребец",
        "tourism": "alpine_hut"
      }
    }
  ]
}