{
  "type": "FeatureCollection",
  "features": [
    {
      "type": "Feature",
      "geometry": {
        "type": "Point",
        "coordinates": [
          19.1111016,
          45.7724902
        ]
      },
      "properties": {
        "id": 311839570,
        "osm_type": "node",
        "name": "Андрић",
        "tourism": "hotel"
      }
    },
    {
      "type": "Feature",
      "geometry": {
        "type": "Point",
        "coordinates": [
          19.1111514,
          45.7713698
        ]
      },
      "properties": {
        "id": 313299679,
        "osm_type": "node",
        "name": "InterNacion",
        "tourism": "hotel"
      }
    },
    {
      "type": "Feature",
      "geometry": {
        "type": "Point",
        "coordinates": [
          19.4489647,
          45.6594948
        ]
      },
      "properties": {
        "id": 1294778067,
        "osm_type": "node",
        "tourism": "chalet"
      }
    },
    {
      "type": "Feature",
      "geometry": {
        "type": "Point",
        "coordinates": [
          19.4451023,
          45.6642524
        ]
      },
      "properties": {
        "id": 1294778203,
        "osm_type": "node",
        "name": "Мотел Црвенка",
        "tourism": "motel"
      }
    },
    {
      "type": "Feature",
      "geometry": {
        "type": "Point",
        "coordinates": [
          18.9190132,
          45.717314
        ]
      },
      "properties": {
        "id": 1303292298,
        "osm_type": "node",
        "name": "Буџак",
        "tourism": "camp_site",
        "phone": "+386 45 741 563",
        "website": "http://www.camping-apatin.net"
      }
    },
    {
      "type": "Feature",
      "geometry": {
        "type": "Point",
        "coordinates": [
          19.1161895,
          45.7742508
        ]
      },
      "properties": {
        "id": 1473358382,
        "osm_type": "node",
        "name": "Cvreak",
        "tourism": "guest_house"
      }
    },
    {
      "type": "Feature",
      "geometry": {
        "type": "Point",
        "coordinates": [
          18.9254532,
          45.8540611
        ]
      },
      "properties": {
        "id": 1799393327,
        "osm_type": "node",
        "name": "Спортс Бар",
        "tourism": "guest_house"
      }
    },
    {
      "type": "Feature",
      "geometry": {
        "type": "Point",
        "coordinates": [
          18.9771509,
          45.673336
        ]
      },
      "properties": {
        "id": 2193863685,
        "osm_type": "node",
        "name": "Хотел Парк",
        "tourism": "hotel"
      }
    },
    {
      "type": "Feature",
      "geometry": {
        "type": "Point",
        "coordinates": [
          19.1166753,
          45.7752837
        ]
      },
      "properties": {
        "id": 2278512728,
        "osm_type": "node",
        "name": "Auraria",
        "tourism": "guest_house"
      }
    },
    {
      "type": "Feature",
      "geometry": {
        "type": "Point",
        "coordinates": [
          19.1069362,
          45.7671976
        ]
      },
      "properties": {
        "id": 3702853134,
        "osm_type": "node",
        "name": "Long Tour Bike Camp",
        "tourism": "camp_site",
        "phone": "+38166437172",
        "website": "www.longtour.org"
      }
    },
    {
      "type": "Feature",
      "geometry": {
        "type": "Point",
        "coordinates": [
          19.5504429,
          45.6009446
        ]
      },
      "properties": {
        "id": 4308987493,
        "osm_type": "node",
        "name": "Motel RodicMB",
        "tourism": "motel",
        "opening_hours": "24/7",
        "phone": "+381255155190",
        "website": "http://www.motelrodicmb.rs"
      }
    },
    {
      "type": "Feature",
      "geometry": {
        "type": "Point",
        "coordinates": [
          19.0937686,
          45.751308
        ]
      },
      "properties": {
        "id": 5166875735,
        "osm_type": "node",
        "name": "Beli Dvor",
        "tourism": "hotel",
        "website": "motelbelidvor.com"
      }
    },
    {
      "type": "Feature",
      "geometry": {
        "type": "Point",
        "coordinates": [
          19.0924668,
          45.4802187
        ]
      },
      "properties": {
        "id": 5168545283,
        "osm_type": "node",
        "name": "Lovačka kuća „Kamarište”",
        "tourism": "guest_house",
        "phone": "+381 25 5745-438"
      }
    },
    {
      "type": "Feature",
      "geometry": {
        "type": "Point",
        "coordinates": [
          19.2398522,
          45.5331392
        ]
      },
      "properties": {
        "id": 5168558807,
        "osm_type": "node",
        "name": "Zelena bašta",
        "tourism": "guest_house",
        "phone": "+381 25 5742630"
      }
    },
    {
      "type": "Feature",
      "geometry": {
        "type": "Point",
        "coordinates": [
          19.0958888,
          45.8022482
        ]
      },
      "properties": {
        "id": 6346225449,
        "osm_type": "node",
        "name": "Rainbow cyclist camp",
        "tourism": "guest_house",
        "phone": "+381618012351",
        "website": "https://road6ranchsombor.wixsite.com/roomscamp"
      }
    },
    {
      "type": "Feature",
      "geometry": {
        "type": "Point",
        "coordinates": [
          18.9212423,
          45.8539264
        ]
      },
      "properties": {
        "id": 6640449134,
        "osm_type": "node",
        "name": "Anna cafe",
        "tourism": "hotel",
        "phone": "+381 25 810 777",
        "website": "http://www.annacaffe.com/"
      }
    },
    {
      "type": "Feature",
      "geometry": {
        "type": "Point",
        "coordinates": [
          19.1017538,
          45.7520062
        ]
      },
      "properties": {
        "id": 6679787528,
        "osm_type": "node",
        "name": "Sosul",
        "tourism": "camp_site",
        "opening_hours": "Mo-Su 08:00-22:00",
        "tents": "yes",
        "phone": "+38125426274",
        "website": "http://www.campingsosul.com"
      }
    },
    {
      "type": "Feature",
      "geometry": {
        "type": "Point",
        "coordinates": [
          19.0739311,
          45.7718114
        ]
      },
      "properties": {
        "id": 8260322943,
        "osm_type": "node",
        "tourism": "camp_site"
      }
    },
    {
      "type": "Feature",
      "geometry": {
        "type": "Point",
        "coordinates": [
          19.1063229,
          45.7706932
        ]
      },
      "properties": {
        "id": 9847666301,
        "osm_type": "node",
        "name": "Royal TSV",
        "tourism": "guest_house"
      }
    },
    {
      "type": "Feature",
      "geometry": {
        "type": "Point",
        "coordinates": [
          19.1031374,
          45.7764548
        ]
      },
      "properties": {
        "id": 10215973864,
        "osm_type": "node",
        "name": "Citadela",
        "tourism": "guest_house",
        "phone": "00381665139883",
        "website": "https://citadela.business.site"
      }
    },
    {
      "type": "Feature",
      "geometry": {
        "type": "Point",
        "coordinates": [
          18.986447,
          45.670477
        ]
      },
      "properties": {
        "id": 13039800102,
        "osm_type": "node",
        "name": "Blue Apartment",
        "tourism": "apartment",
        "phone": "+381695403200"
      }
    },
    {
      "type": "Feature",
      "geometry": {
        "type": "Point",
        "coordinates": [
          18.9772105,
          45.6546919
        ]
      },
      "properties": {
        "id": 13093037280,
        "osm_type": "node",
        "name": "Кућа Амазонија",
        "tourism": "motel"
      }
    },
    {
      "type": "Feature",
      "geometry": {
        "type": "Point",
        "coordinates": [
          18.9678543,
          45.678179
        ]
      },
      "properties": {
        "id": 174124094,
        "osm_type": "way",
        "tourism": "motel"
      }
    },
    {
      "type": "Feature",
      "geometry": {
        "type": "Point",
        "coordinates": [
          19.5217513,
          45.642563
        ]
      },
      "properties": {
        "id": 268069096,
        "osm_type": "way",
        "name": "Планинарски дом",
        "tourism": "alpine_hut"
      }
    },
    {
      "type": "Feature",
      "geometry": {
        "type": "Point",
        "coordinates": [
          18.9703347,
          45.6706509
        ]
      },
      "properties": {
        "id": 307135270,
        "osm_type": "way",
        "name": "Чарда Златна круна",
        "tourism": "motel",
        "phone": "+381 25 778 100;+381 25 776429",
        "website": "https://www.zlatnakruna.co.rs"
      }
    },
    {
      "type": "Feature",
      "geometry": {
        "type": "Point",
        "coordinates": [
          19.0962921,
          45.5337365
        ]
      },
      "properties": {
        "id": 543230171,
        "osm_type": "way",
        "name": "Камп Штранд",
        "tourism": "camp_site",
        "phone": "+381 64 80 37 525",
        "website": "https://www.facebook.com/autokamp.bogojevo"
      }
    },
    {
      "type": "Feature",
      "geometry": {
        "type": "Point",
        "coordinates": [
          19.1380301,
          45.5280828
        ]
      },
      "properties": {
        "id": 543307979,
        "osm_type": "way",
        "name": "Utazás-Apartmanbérlés",
        "tourism": "guest_house",
        "phone": "+381 25 5875229",
        "website": "bogojevoturizmus.5mp.eu"
      }
    },
    {
      "type": "Feature",
      "geometry": {
        "type": "Point",
        "coordinates": [
          19.2596704,
          45.5076244
        ]
      },
      "properties": {
        "id": 591393028,
        "osm_type": "way",
        "name": "Слобода",
        "tourism": "hotel",
        "phone": "+381 62 8932379",
        "website": "https://hotel-sloboda.rs/"
      }
    },
    {
      "type": "Feature",
      "geometry": {
        "type": "Point",
        "coordinates": [
          18.9323885,
          45.8102233
        ]
      },
      "properties": {
        "id": 654287043,
        "osm_type": "way",
        "name": "Ловачка кућа Штрбац",
        "tourism": "chalet"
      }
    },
    {
      "type": "Feature",
      "geometry": {
        "type": "Point",
        "coordinates": [
          19.095805,
          45.8021914
        ]
      },
      "properties": {
        "id": 677776751,
        "osm_type": "way",
        "name": "Rainbow cyclist camp",
        "tourism": "guest_house"
      }
    },
    {
      "type": "Feature",
      "geometry": {
        "type": "Point",
        "coordinates": [
          19.0959637,
          45.8021864
        ]
      },
      "properties": {
        "id": 677776758,
        "osm_type": "way",
        "tourism": "camp_site"
      }
    },
    {
      "type": "Feature",
      "geometry": {
        "type": "Point",
        "coordinates": [
          18.9816527,
          45.7439811
        ]
      },
      "properties": {
        "id": 690352196,
        "osm_type": "way",
        "name": "Планинарски дом „Др Радивој Симоновић”",
        "tourism": "alpine_hut",
        "website": "www.rsimonovic.org"
      }
    },
    {
      "type": "Feature",
      "geometry": {
        "type": "Point",
        "coordinates": [
          18.9211314,
          45.8539155
        ]
      },
      "properties": {
        "id": 706665530,
        "osm_type": "way",
        "tourism": "hotel"
      }
    },
    {
      "type": "Feature",
      "geometry": {
        "type": "Point",
        "coordinates": [
          19.1157318,
          45.7694475
        ]
      },
      "properties": {
        "id": 1102356909,
        "osm_type": "way",
        "name": "Appartement Relič cu",
        "tourism": "guest_house",
        "phone": "+381 63592998",
        "contact:website": "www.soberelic.rs"
      }
    },
    {
      "type": "Feature",
      "geometry": {
        "type": "Point",
        "coordinates": [
          19.1433397,
          45.7913215
        ]
      },
      "properties": {
        "id": 7200102,
        "osm_type": "relation",
        "tourism": "hotel"
      }
    },
    {
      "type": "Feature",
      "geometry": {
        "type": "Point",
        "coordinates": [
          19.0315164,
          45.6771997
        ]
      },
      "properties": {
        "id": 9455694,
        "osm_type": "relation",
        "tourism": "hotel"
      }
    },
    {
      "type": "Feature",
      "geometry": {
        "type": "Point",
        "coordinates": [
          19.1140016,
          45.5111596
        ]
      },
      "properties": {
        "id": 9479420,
        "osm_type": "relation",
        "tourism": "hotel"
      }
    }
  ]
}