{
  "type": "FeatureCollection",
  "features": [
    {
      "type": "Feature",
      "geometry": {
        "type": "Point",
        "coordinates": [
          23.789023,
          44.3209573
        ]
      },
      "properties": {
        "id": 1722741688,
        "osm_type": "node",
        "name": "Hostel Sport",
        "tourism": "hostel"
      }
    },
    {
      "type": "Feature",
      "geometry": {
        "type": "Point",
        "coordinates": [
          23.8035817,
          44.3254432
        ]
      },
      "properties": {
        "id": 1723782193,
        "osm_type": "node",
        "name": "Hotel Europeca",
        "tourism": "hotel"
      }
    },
    {
      "type": "Feature",
      "geometry": {
        "type": "Point",
        "coordinates": [
          23.9043487,
          44.3130804
        ]
      },
      "properties": {
        "id": 2300084748,
        "osm_type": "node",
        "name": "Il Capo Tour",
        "tourism": "motel",
        "opening_hours": "24/7",
        "phone": "0040251406685"
      }
    },
    {
      "type": "Feature",
      "geometry": {
        "type": "Point",
        "coordinates": [
          23.9047188,
          44.3132915
        ]
      },
      "properties": {
        "id": 2300084882,
        "osm_type": "node",
        "tourism": "motel"
      }
    },
    {
      "type": "Feature",
      "geometry": {
        "type": "Point",
        "coordinates": [
          23.90378,
          44.3132838
        ]
      },
      "properties": {
        "id": 2300084885,
        "osm_type": "node",
        "tourism": "motel"
      }
    },
    {
      "type": "Feature",
      "geometry": {
        "type": "Point",
        "coordinates": [
          23.8045351,
          44.3240942
        ]
      },
      "properties": {
        "id": 2875606501,
        "osm_type": "node",
        "name": "Hotel Rexton",
        "tourism": "hotel",
        "website": "http://hotelrexton.ro"
      }
    },
    {
      "type": "Feature",
      "geometry": {
        "type": "Point",
        "coordinates": [
          22.9329746,
          43.997121
        ]
      },
      "properties": {
        "id": 2913141667,
        "osm_type": "node",
        "name": "Hotel Panoramic",
        "tourism": "hotel"
      }
    },
    {
      "type": "Feature",
      "geometry": {
        "type": "Point",
        "coordinates": [
          23.8655833,
          44.3161877
        ]
      },
      "properties": {
        "id": 2915617579,
        "osm_type": "node",
        "name": "Hanul Andriței",
        "tourism": "hotel",
        "website": "https://www.hanulandritei.ro/"
      }
    },
    {
      "type": "Feature",
      "geometry": {
        "type": "Point",
        "coordinates": [
          23.9539661,
          43.7862627
        ]
      },
      "properties": {
        "id": 3000005463,
        "osm_type": "node",
        "name": "Hotel Tată Și Fii",
        "tourism": "hotel",
        "phone": "+400251336684",
        "website": "https://tatasifii.ro/"
      }
    },
    {
      "type": "Feature",
      "geometry": {
        "type": "Point",
        "coordinates": [
          23.8414517,
          44.2945907
        ]
      },
      "properties": {
        "id": 3097041894,
        "osm_type": "node",
        "name": "Plus Hotel",
        "tourism": "hotel",
        "phone": "+40 733 100 200",
        "website": "https://plushotel.ro/"
      }
    },
    {
      "type": "Feature",
      "geometry": {
        "type": "Point",
        "coordinates": [
          23.802669,
          44.3115071
        ]
      },
      "properties": {
        "id": 3226299139,
        "osm_type": "node",
        "name": "Bavaria",
        "tourism": "hotel"
      }
    },
    {
      "type": "Feature",
      "geometry": {
        "type": "Point",
        "coordinates": [
          23.8020128,
          44.3116357
        ]
      },
      "properties": {
        "id": 3226299143,
        "osm_type": "node",
        "name": "Pensione Luisa",
        "tourism": "guest_house",
        "phone": "0251411735"
      }
    },
    {
      "type": "Feature",
      "geometry": {
        "type": "Point",
        "coordinates": [
          23.7891684,
          44.3215531
        ]
      },
      "properties": {
        "id": 3228663256,
        "osm_type": "node",
        "name": "Hotel Euphoria",
        "tourism": "hotel"
      }
    },
    {
      "type": "Feature",
      "geometry": {
        "type": "Point",
        "coordinates": [
          23.8001642,
          44.318377
        ]
      },
      "properties": {
        "id": 3228663257,
        "osm_type": "node",
        "name": "Hotel Helin Central",
        "tourism": "hotel"
      }
    },
    {
      "type": "Feature",
      "geometry": {
        "type": "Point",
        "coordinates": [
          23.7874985,
          44.3213577
        ]
      },
      "properties": {
        "id": 3229749663,
        "osm_type": "node",
        "name": "Hotel Golden House",
        "tourism": "hotel"
      }
    },
    {
      "type": "Feature",
      "geometry": {
        "type": "Point",
        "coordinates": [
          23.7924067,
          44.3094
        ]
      },
      "properties": {
        "id": 3248497767,
        "osm_type": "node",
        "name": "Hotel Andre's",
        "tourism": "hotel"
      }
    },
    {
      "type": "Feature",
      "geometry": {
        "type": "Point",
        "coordinates": [
          23.8067348,
          44.3245884
        ]
      },
      "properties": {
        "id": 3252797050,
        "osm_type": "node",
        "name": "Hotel Meliss",
        "tourism": "hotel"
      }
    },
    {
      "type": "Feature",
      "geometry": {
        "type": "Point",
        "coordinates": [
          23.8528169,
          44.3126498
        ]
      },
      "properties": {
        "id": 3293300034,
        "osm_type": "node",
        "name": "Hotel Sydney",
        "tourism": "hotel"
      }
    },
    {
      "type": "Feature",
      "geometry": {
        "type": "Point",
        "coordinates": [
          23.8054712,
          44.3173717
        ]
      },
      "properties": {
        "id": 3323207825,
        "osm_type": "node",
        "name": "Hotel Royal",
        "tourism": "hotel"
      }
    },
    {
      "type": "Feature",
      "geometry": {
        "type": "Point",
        "coordinates": [
          23.776912,
          44.3281215
        ]
      },
      "properties": {
        "id": 3387591365,
        "osm_type": "node",
        "name": "Hotel Emma West",
        "tourism": "hotel"
      }
    },
    {
      "type": "Feature",
      "geometry": {
        "type": "Point",
        "coordinates": [
          23.794571,
          44.3236026
        ]
      },
      "properties": {
        "id": 3387591368,
        "osm_type": "node",
        "name": "Hotel Lido",
        "tourism": "hotel"
      }
    },
    {
      "type": "Feature",
      "geometry": {
        "type": "Point",
        "coordinates": [
          23.7635246,
          44.3408421
        ]
      },
      "properties": {
        "id": 3591984056,
        "osm_type": "node",
        "name": "Casablanca",
        "tourism": "hotel"
      }
    },
    {
      "type": "Feature",
      "geometry": {
        "type": "Point",
        "coordinates": [
          23.7583172,
          44.3472264
        ]
      },
      "properties": {
        "id": 3591984062,
        "osm_type": "node",
        "name": "Hotel Relax",
        "tourism": "hotel"
      }
    },
    {
      "type": "Feature",
      "geometry": {
        "type": "Point",
        "coordinates": [
          23.6825334,
          44.4414046
        ]
      },
      "properties": {
        "id": 3606000779,
        "osm_type": "node",
        "tourism": "hotel"
      }
    },
    {
      "type": "Feature",
      "geometry": {
        "type": "Point",
        "coordinates": [
          23.7989356,
          44.3225274
        ]
      },
      "properties": {
        "id": 3669271792,
        "osm_type": "node",
        "name": "Hotel Casa David",
        "tourism": "hotel"
      }
    },
    {
      "type": "Feature",
      "geometry": {
        "type": "Point",
        "coordinates": [
          23.8069822,
          44.3158633
        ]
      },
      "properties": {
        "id": 3822711548,
        "osm_type": "node",
        "name": "Carmelita",
        "tourism": "guest_house",
        "phone": "0351467316",
        "website": "https://www.carmelita.ro/"
      }
    },
    {
      "type": "Feature",
      "geometry": {
        "type": "Point",
        "coordinates": [
          23.7379732,
          44.390798
        ]
      },
      "properties": {
        "id": 4139221792,
        "osm_type": "node",
        "tourism": "guest_house",
        "opening_hours": "Mo-Su 07:00-22:00"
      }
    },
    {
      "type": "Feature",
      "geometry": {
        "type": "Point",
        "coordinates": [
          22.9309099,
          43.993473
        ]
      },
      "properties": {
        "id": 4353132730,
        "osm_type": "node",
        "name": "Hotel Coliseum",
        "tourism": "hotel"
      }
    },
    {
      "type": "Feature",
      "geometry": {
        "type": "Point",
        "coordinates": [
          23.9610583,
          43.7854489
        ]
      },
      "properties": {
        "id": 4357173658,
        "osm_type": "node",
        "name": "My home",
        "tourism": "chalet",
        "phone": "0733104648"
      }
    },
    {
      "type": "Feature",
      "geometry": {
        "type": "Point",
        "coordinates": [
          23.036282,
          44.0870418
        ]
      },
      "properties": {
        "id": 4867276695,
        "osm_type": "node",
        "tourism": "hotel"
      }
    },
    {
      "type": "Feature",
      "geometry": {
        "type": "Point",
        "coordinates": [
          23.7890226,
          44.3215723
        ]
      },
      "properties": {
        "id": 5207909622,
        "osm_type": "node",
        "name": "Cazare",
        "tourism": "hotel"
      }
    },
    {
      "type": "Feature",
      "geometry": {
        "type": "Point",
        "coordinates": [
          23.0477645,
          44.1022783
        ]
      },
      "properties": {
        "id": 5601212344,
        "osm_type": "node",
        "name": "Balta lui Pastorel",
        "tourism": "motel"
      }
    },
    {
      "type": "Feature",
      "geometry": {
        "type": "Point",
        "coordinates": [
          22.9341328,
          43.9902416
        ]
      },
      "properties": {
        "id": 5726202621,
        "osm_type": "node",
        "name": "Hotel Casa Italia",
        "tourism": "hotel"
      }
    },
    {
      "type": "Feature",
      "geometry": {
        "type": "Point",
        "coordinates": [
          23.9616296,
          43.7790609
        ]
      },
      "properties": {
        "id": 5896627101,
        "osm_type": "node",
        "name": "Casa Verde",
        "tourism": "hotel"
      }
    },
    {
      "type": "Feature",
      "geometry": {
        "type": "Point",
        "coordinates": [
          23.8981941,
          44.3048928
        ]
      },
      "properties": {
        "id": 6009240560,
        "osm_type": "node",
        "name": "Safta Residence",
        "tourism": "hotel"
      }
    },
    {
      "type": "Feature",
      "geometry": {
        "type": "Point",
        "coordinates": [
          23.0427525,
          43.9005418
        ]
      },
      "properties": {
        "id": 6565761368,
        "osm_type": "node",
        "name": "Pensiunea Balta Sârbilor",
        "tourism": "guest_house"
      }
    },
    {
      "type": "Feature",
      "geometry": {
        "type": "Point",
        "coordinates": [
          23.7930299,
          44.3166241
        ]
      },
      "properties": {
        "id": 6735987572,
        "osm_type": "node",
        "name": "La Favorita Guesthouse Boutique",
        "tourism": "hotel",
        "phone": "+40351408 098; +40736641170",
        "website": "http://lafavorita.ro"
      }
    },
    {
      "type": "Feature",
      "geometry": {
        "type": "Point",
        "coordinates": [
          23.8618565,
          44.3143826
        ]
      },
      "properties": {
        "id": 6759025955,
        "osm_type": "node",
        "name": "Motel Hanul Doctorului",
        "tourism": "motel"
      }
    },
    {
      "type": "Feature",
      "geometry": {
        "type": "Point",
        "coordinates": [
          23.8316884,
          44.3186087
        ]
      },
      "properties": {
        "id": 6921669985,
        "osm_type": "node",
        "name": "Still Apartament",
        "tourism": "apartment"
      }
    },
    {
      "type": "Feature",
      "geometry": {
        "type": "Point",
        "coordinates": [
          23.7889419,
          44.3072909
        ]
      },
      "properties": {
        "id": 9323463357,
        "osm_type": "node",
        "name": "Casa Craiova Nuova",
        "tourism": "guest_house",
        "phone": "0722545104"
      }
    },
    {
      "type": "Feature",
      "geometry": {
        "type": "Point",
        "coordinates": [
          23.8263957,
          44.3159992
        ]
      },
      "properties": {
        "id": 9331621717,
        "osm_type": "node",
        "name": "Casa Flamingo",
        "tourism": "guest_house",
        "phone": "0763296105",
        "website": "https://www.casaflamingo.ro/"
      }
    },
    {
      "type": "Feature",
      "geometry": {
        "type": "Point",
        "coordinates": [
          23.2759595,
          43.858854
        ]
      },
      "properties": {
        "id": 10003708945,
        "osm_type": "node",
        "name": "Camping Rast",
        "tourism": "camp_site"
      }
    },
    {
      "type": "Feature",
      "geometry": {
        "type": "Point",
        "coordinates": [
          23.815211,
          44.3343989
        ]
      },
      "properties": {
        "id": 10559876109,
        "osm_type": "node",
        "name": "Complex rezidențial Magnolia, Strada Bariera Vâlcii",
        "tourism": "apartment"
      }
    },
    {
      "type": "Feature",
      "geometry": {
        "type": "Point",
        "coordinates": [
          22.9397364,
          43.9955918
        ]
      },
      "properties": {
        "id": 13108831332,
        "osm_type": "node",
        "name": "La DeDe",
        "tourism": "guest_house",
        "phone": "+40784812637"
      }
    },
    {
      "type": "Feature",
      "geometry": {
        "type": "Point",
        "coordinates": [
          23.7876711,
          44.3016264
        ]
      },
      "properties": {
        "id": 13236462164,
        "osm_type": "node",
        "name": "Pensiunea Casa Regala",
        "tourism": "hotel",
        "phone": "0784306006"
      }
    },
    {
      "type": "Feature",
      "geometry": {
        "type": "Point",
        "coordinates": [
          22.9357841,
          43.9949582
        ]
      },
      "properties": {
        "id": 113737073,
        "osm_type": "way",
        "name": "Amfiteatru Hotel",
        "tourism": "hotel"
      }
    },
    {
      "type": "Feature",
      "geometry": {
        "type": "Point",
        "coordinates": [
          23.7998422,
          44.3143061
        ]
      },
      "properties": {
        "id": 240011845,
        "osm_type": "way",
        "name": "Hotel Green House",
        "tourism": "hotel",
        "opening_hours": "24/7",
        "phone": "+40 251 532 000",
        "website": "https://www.green-house.ro/"
      }
    },
    {
      "type": "Feature",
      "geometry": {
        "type": "Point",
        "coordinates": [
          23.8305115,
          44.2987921
        ]
      },
      "properties": {
        "id": 243276811,
        "osm_type": "way",
        "name": "Hotel Oltenia",
        "tourism": "hotel",
        "phone": "0351444100",
        "website": "https://olteniahotel.ro/",
        "check_date": "2024-09-13"
      }
    },
    {
      "type": "Feature",
      "geometry": {
        "type": "Point",
        "coordinates": [
          23.811932,
          44.3068547
        ]
      },
      "properties": {
        "id": 313005031,
        "osm_type": "way",
        "name": "Cărămida Verde",
        "tourism": "hostel"
      }
    },
    {
      "type": "Feature",
      "geometry": {
        "type": "Point",
        "coordinates": [
          23.8132699,
          44.3073154
        ]
      },
      "properties": {
        "id": 313005033,
        "osm_type": "way",
        "name": "Pensiunea Flormang",
        "tourism": "hostel"
      }
    },
    {
      "type": "Feature",
      "geometry": {
        "type": "Point",
        "coordinates": [
          23.8128781,
          44.3072203
        ]
      },
      "properties": {
        "id": 313005034,
        "osm_type": "way",
        "name": "Pensiunea Flormang",
        "tourism": "hostel"
      }
    },
    {
      "type": "Feature",
      "geometry": {
        "type": "Point",
        "coordinates": [
          23.9086074,
          44.3136339
        ]
      },
      "properties": {
        "id": 333919973,
        "osm_type": "way",
        "name": "Hanul Vechi",
        "tourism": "motel"
      }
    },
    {
      "type": "Feature",
      "geometry": {
        "type": "Point",
        "coordinates": [
          23.7978523,
          44.3007857
        ]
      },
      "properties": {
        "id": 345066885,
        "osm_type": "way",
        "name": "Belvedere",
        "tourism": "hotel"
      }
    },
    {
      "type": "Feature",
      "geometry": {
        "type": "Point",
        "coordinates": [
          23.8312811,
          44.313803
        ]
      },
      "properties": {
        "id": 353275780,
        "osm_type": "way",
        "name": "Hotel Emma Est",
        "tourism": "hotel"
      }
    },
    {
      "type": "Feature",
      "geometry": {
        "type": "Point",
        "coordinates": [
          23.7896493,
          44.3203191
        ]
      },
      "properties": {
        "id": 353275783,
        "osm_type": "way",
        "name": "Hotel Parc",
        "tourism": "hotel"
      }
    },
    {
      "type": "Feature",
      "geometry": {
        "type": "Point",
        "coordinates": [
          23.8362474,
          44.3131634
        ]
      },
      "properties": {
        "id": 460706074,
        "osm_type": "way",
        "name": "Hotel Helin",
        "tourism": "hotel",
        "phone": "+40727606060",
        "website": "http://www.helinstrading.com/"
      }
    },
    {
      "type": "Feature",
      "geometry": {
        "type": "Point",
        "coordinates": [
          23.7967295,
          44.3213746
        ]
      },
      "properties": {
        "id": 481853951,
        "osm_type": "way",
        "name": "Ramada Plaza Craiova",
        "tourism": "hotel"
      }
    },
    {
      "type": "Feature",
      "geometry": {
        "type": "Point",
        "coordinates": [
          23.792769,
          44.3252392
        ]
      },
      "properties": {
        "id": 482607453,
        "osm_type": "way",
        "name": "Casa cu Tei",
        "tourism": "hotel",
        "phone": "+40372981433;+40770109390",
        "website": "https://www.casacutei.com/home/"
      }
    },
    {
      "type": "Feature",
      "geometry": {
        "type": "Point",
        "coordinates": [
          22.9340843,
          43.9902817
        ]
      },
      "properties": {
        "id": 668991829,
        "osm_type": "way",
        "name": "Casa Italia",
        "tourism": "hostel"
      }
    },
    {
      "type": "Feature",
      "geometry": {
        "type": "Point",
        "coordinates": [
          22.9342289,
          43.990311
        ]
      },
      "properties": {
        "id": 668991830,
        "osm_type": "way",
        "tourism": "hostel"
      }
    },
    {
      "type": "Feature",
      "geometry": {
        "type": "Point",
        "coordinates": [
          22.9331751,
          43.9954022
        ]
      },
      "properties": {
        "id": 678078315,
        "osm_type": "way",
        "tourism": "hotel"
      }
    },
    {
      "type": "Feature",
      "geometry": {
        "type": "Point",
        "coordinates": [
          23.8633739,
          44.3269189
        ]
      },
      "properties": {
        "id": 684193877,
        "osm_type": "way",
        "name": "Helin Aeroport",
        "tourism": "hotel"
      }
    },
    {
      "type": "Feature",
      "geometry": {
        "type": "Point",
        "coordinates": [
          23.7641,
          44.3373937
        ]
      },
      "properties": {
        "id": 721593433,
        "osm_type": "way",
        "name": "Hotel Boutique La Rocca",
        "tourism": "hotel"
      }
    },
    {
      "type": "Feature",
      "geometry": {
        "type": "Point",
        "coordinates": [
          23.6816867,
          44.4472401
        ]
      },
      "properties": {
        "id": 724116729,
        "osm_type": "way",
        "name": "Carul din Stele",
        "tourism": "hotel",
        "phone": "+40 251 446 551",
        "website": "https://caruldinstele.ro/"
      }
    },
    {
      "type": "Feature",
      "geometry": {
        "type": "Point",
        "coordinates": [
          23.7725894,
          44.3324708
        ]
      },
      "properties": {
        "id": 737662190,
        "osm_type": "way",
        "name": "Hotel Grim",
        "tourism": "hotel",
        "phone": "+40351431085",
        "website": "https://grimhotel.webgarden.ro/"
      }
    },
    {
      "type": "Feature",
      "geometry": {
        "type": "Point",
        "coordinates": [
          23.7636339,
          44.3409301
        ]
      },
      "properties": {
        "id": 743820221,
        "osm_type": "way",
        "name": "Casablanca",
        "tourism": "hotel"
      }
    },
    {
      "type": "Feature",
      "geometry": {
        "type": "Point",
        "coordinates": [
          23.8001285,
          44.3182803
        ]
      },
      "properties": {
        "id": 746406485,
        "osm_type": "way",
        "tourism": "hotel"
      }
    },
    {
      "type": "Feature",
      "geometry": {
        "type": "Point",
        "coordinates": [
          23.8036554,
          44.32535
        ]
      },
      "properties": {
        "id": 746688035,
        "osm_type": "way",
        "tourism": "hotel"
      }
    },
    {
      "type": "Feature",
      "geometry": {
        "type": "Point",
        "coordinates": [
          23.7890507,
          44.3208977
        ]
      },
      "properties": {
        "id": 794403456,
        "osm_type": "way",
        "tourism": "hostel"
      }
    },
    {
      "type": "Feature",
      "geometry": {
        "type": "Point",
        "coordinates": [
          23.7924673,
          44.3153887
        ]
      },
      "properties": {
        "id": 844735671,
        "osm_type": "way",
        "name": "Prestige",
        "tourism": "hotel"
      }
    },
    {
      "type": "Feature",
      "geometry": {
        "type": "Point",
        "coordinates": [
          22.9308334,
          43.9934088
        ]
      },
      "properties": {
        "id": 856516372,
        "osm_type": "way",
        "name": "Hotel Coliseum",
        "tourism": "hotel"
      }
    },
    {
      "type": "Feature",
      "geometry": {
        "type": "Point",
        "coordinates": [
          23.765193,
          44.3366508
        ]
      },
      "properties": {
        "id": 952450033,
        "osm_type": "way",
        "name": "Hotel Craiovița",
        "tourism": "hotel"
      }
    },
    {
      "type": "Feature",
      "geometry": {
        "type": "Point",
        "coordinates": [
          23.6816389,
          44.4468472
        ]
      },
      "properties": {
        "id": 1307460550,
        "osm_type": "way",
        "name": "Pensiunea \"La Izvoare\"",
        "tourism": "hotel",
        "phone": "+4 0730 160 000"
      }
    },
    {
      "type": "Feature",
      "geometry": {
        "type": "Point",
        "coordinates": [
          23.52107,
          44.5550799
        ]
      },
      "properties": {
        "id": 1388247904,
        "osm_type": "way",
        "name": "Armonia",
        "tourism": "guest_house"
      }
    },
    {
      "type": "Feature",
      "geometry": {
        "type": "Point",
        "coordinates": [
          23.6936427,
          44.4300275
        ]
      },
      "properties": {
        "id": 1390093431,
        "osm_type": "way",
        "name": "Pensiunea Jianca",
        "tourism": "guest_house"
      }
    }
  ]
}