{
  "type": "FeatureCollection",
  "features": [
    {
      "type": "Feature",
      "geometry": {
        "type": "Point",
        "coordinates": [
          -8.7948793,
          39.1702764
        ]
      },
      "properties": {
        "id": 768003817,
        "osm_type": "node",
        "name": "Quinta das Pratas",
        "tourism": "hotel"
      }
    },
    {
      "type": "Feature",
      "geometry": {
        "type": "Point",
        "coordinates": [
          -8.6677915,
          39.6339235
        ]
      },
      "properties": {
        "id": 976669731,
        "osm_type": "node",
        "name": "Nova Era",
        "tourism": "guest_house"
      }
    },
    {
      "type": "Feature",
      "geometry": {
        "type": "Point",
        "coordinates": [
          -8.1977483,
          39.2722544
        ]
      },
      "properties": {
        "id": 1068726896,
        "osm_type": "node",
        "name": "Herdade de Cadouços",
        "tourism": "hotel",
        "opening_hours": "closed"
      }
    },
    {
      "type": "Feature",
      "geometry": {
        "type": "Point",
        "coordinates": [
          -8.6918301,
          39.2229016
        ]
      },
      "properties": {
        "id": 1162458249,
        "osm_type": "node",
        "name": "Hotel Santarém",
        "tourism": "hotel",
        "website": "https://www.santaremhotel.net/"
      }
    },
    {
      "type": "Feature",
      "geometry": {
        "type": "Point",
        "coordinates": [
          -8.6677946,
          39.4567164
        ]
      },
      "properties": {
        "id": 1317707525,
        "osm_type": "node",
        "name": "Eurosol Alcanena",
        "tourism": "hotel"
      }
    },
    {
      "type": "Feature",
      "geometry": {
        "type": "Point",
        "coordinates": [
          -8.3853275,
          39.5946203
        ]
      },
      "properties": {
        "id": 1339501394,
        "osm_type": "node",
        "name": "RESIDENCIA SANTA MARTA- Aparthotel",
        "tourism": "hotel"
      }
    },
    {
      "type": "Feature",
      "geometry": {
        "type": "Point",
        "coordinates": [
          -8.6314794,
          39.4838712
        ]
      },
      "properties": {
        "id": 1428257631,
        "osm_type": "node",
        "tourism": "hotel"
      }
    },
    {
      "type": "Feature",
      "geometry": {
        "type": "Point",
        "coordinates": [
          -8.5391977,
          39.4794254
        ]
      },
      "properties": {
        "id": 1540277177,
        "osm_type": "node",
        "name": "Hotel dos Cavaleiros",
        "tourism": "hotel"
      }
    },
    {
      "type": "Feature",
      "geometry": {
        "type": "Point",
        "coordinates": [
          -8.5392416,
          39.4788497
        ]
      },
      "properties": {
        "id": 1540277178,
        "osm_type": "node",
        "name": "Hotel Torres Novas",
        "tourism": "hotel"
      }
    },
    {
      "type": "Feature",
      "geometry": {
        "type": "Point",
        "coordinates": [
          -8.6707866,
          39.629482
        ]
      },
      "properties": {
        "id": 1716504984,
        "osm_type": "node",
        "name": "Catolica Hotel",
        "tourism": "hotel"
      }
    },
    {
      "type": "Feature",
      "geometry": {
        "type": "Point",
        "coordinates": [
          -8.2151444,
          39.4750608
        ]
      },
      "properties": {
        "id": 1801090796,
        "osm_type": "node",
        "tourism": "caravan_site"
      }
    },
    {
      "type": "Feature",
      "geometry": {
        "type": "Point",
        "coordinates": [
          -8.6668929,
          39.6320579
        ]
      },
      "properties": {
        "id": 1893388887,
        "osm_type": "node",
        "name": "Imperhotel",
        "tourism": "hotel"
      }
    },
    {
      "type": "Feature",
      "geometry": {
        "type": "Point",
        "coordinates": [
          -8.5080801,
          39.5450353
        ]
      },
      "properties": {
        "id": 2377459620,
        "osm_type": "node",
        "name": "Casa Dos Vargos",
        "tourism": "guest_house",
        "phone": "+351 93 627 28 22",
        "website": "http://casadosvargos.com"
      }
    },
    {
      "type": "Feature",
      "geometry": {
        "type": "Point",
        "coordinates": [
          -8.6794246,
          39.6324589
        ]
      },
      "properties": {
        "id": 2418925362,
        "osm_type": "node",
        "name": "Lux Mundi",
        "tourism": "hotel",
        "check_date": "2025-05-17"
      }
    },
    {
      "type": "Feature",
      "geometry": {
        "type": "Point",
        "coordinates": [
          -8.6757357,
          39.6322478
        ]
      },
      "properties": {
        "id": 2418980587,
        "osm_type": "node",
        "name": "Nossa Senhora de Lurdes",
        "tourism": "hotel"
      }
    },
    {
      "type": "Feature",
      "geometry": {
        "type": "Point",
        "coordinates": [
          -8.307731,
          39.5486034
        ]
      },
      "properties": {
        "id": 2438128276,
        "osm_type": "node",
        "name": "Parque de Alverangel",
        "tourism": "camp_site",
        "tents": "yes",
        "phone": "+351 249 371 750"
      }
    },
    {
      "type": "Feature",
      "geometry": {
        "type": "Point",
        "coordinates": [
          -8.3174732,
          39.5475069
        ]
      },
      "properties": {
        "id": 2438128288,
        "osm_type": "node",
        "name": "Quinta do Troviscal",
        "tourism": "guest_house",
        "phone": "+351 917 333 456",
        "website": "https://www.troviscal.com/"
      }
    },
    {
      "type": "Feature",
      "geometry": {
        "type": "Point",
        "coordinates": [
          -8.4144674,
          39.6039637
        ]
      },
      "properties": {
        "id": 2504772690,
        "osm_type": "node",
        "name": "Residencial Luz**",
        "tourism": "hotel"
      }
    },
    {
      "type": "Feature",
      "geometry": {
        "type": "Point",
        "coordinates": [
          -8.4125991,
          39.6042826
        ]
      },
      "properties": {
        "id": 2504773107,
        "osm_type": "node",
        "name": "Hostel 2300 Thomar",
        "tourism": "hostel"
      }
    },
    {
      "type": "Feature",
      "geometry": {
        "type": "Point",
        "coordinates": [
          -8.4118601,
          39.5993845
        ]
      },
      "properties": {
        "id": 2505425448,
        "osm_type": "node",
        "name": "Hotel Trovador**",
        "tourism": "hotel"
      }
    },
    {
      "type": "Feature",
      "geometry": {
        "type": "Point",
        "coordinates": [
          -8.6790557,
          39.6309488
        ]
      },
      "properties": {
        "id": 2694465682,
        "osm_type": "node",
        "name": "Hotel São José",
        "tourism": "hotel",
        "check_date": "2025-05-17"
      }
    },
    {
      "type": "Feature",
      "geometry": {
        "type": "Point",
        "coordinates": [
          -8.6822851,
          39.6336399
        ]
      },
      "properties": {
        "id": 2932646415,
        "osm_type": "node",
        "name": "Peregrinos de Fátima",
        "tourism": "hotel"
      }
    },
    {
      "type": "Feature",
      "geometry": {
        "type": "Point",
        "coordinates": [
          -8.4135168,
          39.6041803
        ]
      },
      "properties": {
        "id": 2955929941,
        "osm_type": "node",
        "name": "Pensão União",
        "tourism": "hotel"
      }
    },
    {
      "type": "Feature",
      "geometry": {
        "type": "Point",
        "coordinates": [
          -8.4145894,
          39.6053865
        ]
      },
      "properties": {
        "id": 2962419028,
        "osm_type": "node",
        "name": "Pensão Luanda",
        "tourism": "hostel"
      }
    },
    {
      "type": "Feature",
      "geometry": {
        "type": "Point",
        "coordinates": [
          -8.413041,
          39.6045986
        ]
      },
      "properties": {
        "id": 2964360074,
        "osm_type": "node",
        "name": "Residencial Cavaleiros de Cristo***",
        "tourism": "hotel"
      }
    },
    {
      "type": "Feature",
      "geometry": {
        "type": "Point",
        "coordinates": [
          -8.4145932,
          39.6045707
        ]
      },
      "properties": {
        "id": 2964360081,
        "osm_type": "node",
        "name": "Residencial Sinagoga***",
        "tourism": "hotel"
      }
    },
    {
      "type": "Feature",
      "geometry": {
        "type": "Point",
        "coordinates": [
          -8.407251,
          39.607096
        ]
      },
      "properties": {
        "id": 2964381477,
        "osm_type": "node",
        "name": "Residencial Bonjardim",
        "tourism": "hotel"
      }
    },
    {
      "type": "Feature",
      "geometry": {
        "type": "Point",
        "coordinates": [
          -8.4104196,
          39.598997
        ]
      },
      "properties": {
        "id": 3053594304,
        "osm_type": "node",
        "name": "Residencial Avenida",
        "tourism": "hotel"
      }
    },
    {
      "type": "Feature",
      "geometry": {
        "type": "Point",
        "coordinates": [
          -8.6710144,
          39.6294688
        ]
      },
      "properties": {
        "id": 3680317274,
        "osm_type": "node",
        "name": "Alecrim",
        "tourism": "hotel"
      }
    },
    {
      "type": "Feature",
      "geometry": {
        "type": "Point",
        "coordinates": [
          -8.6676047,
          39.6277574
        ]
      },
      "properties": {
        "id": 3680712620,
        "osm_type": "node",
        "name": "Santo António de Padua",
        "tourism": "hotel"
      }
    },
    {
      "type": "Feature",
      "geometry": {
        "type": "Point",
        "coordinates": [
          -8.667757,
          39.6278586
        ]
      },
      "properties": {
        "id": 3680712621,
        "osm_type": "node",
        "name": "Nossa Senhora da Paz",
        "tourism": "hotel"
      }
    },
    {
      "type": "Feature",
      "geometry": {
        "type": "Point",
        "coordinates": [
          -8.2894311,
          39.6955469
        ]
      },
      "properties": {
        "id": 3748236613,
        "osm_type": "node",
        "name": "Casa do Adro Hotel",
        "tourism": "hotel",
        "phone": "+351 961 501 482",
        "website": "http://www.casadoadrohotel.com"
      }
    },
    {
      "type": "Feature",
      "geometry": {
        "type": "Point",
        "coordinates": [
          -8.9358091,
          39.3378199
        ]
      },
      "properties": {
        "id": 3752615120,
        "osm_type": "node",
        "name": "Hotel Paulo VI **",
        "tourism": "hotel",
        "phone": "+351 243 909 470",
        "website": "www.hotelpaulovi.pt"
      }
    },
    {
      "type": "Feature",
      "geometry": {
        "type": "Point",
        "coordinates": [
          -8.3393315,
          39.4748569
        ]
      },
      "properties": {
        "id": 3860861538,
        "osm_type": "node",
        "name": "Casa João Chagas",
        "tourism": "guest_house"
      }
    },
    {
      "type": "Feature",
      "geometry": {
        "type": "Point",
        "coordinates": [
          -8.3088316,
          39.4440656
        ]
      },
      "properties": {
        "id": 3881661714,
        "osm_type": "node",
        "name": "Casa da Aldeia",
        "tourism": "guest_house"
      }
    },
    {
      "type": "Feature",
      "geometry": {
        "type": "Point",
        "coordinates": [
          -8.325134,
          39.4896713
        ]
      },
      "properties": {
        "id": 3918737873,
        "osm_type": "node",
        "name": "Quinta de Santa Bárbara",
        "tourism": "hotel",
        "phone": "+351249739214",
        "website": "https://www.quinta-santabarbara.com/"
      }
    },
    {
      "type": "Feature",
      "geometry": {
        "type": "Point",
        "coordinates": [
          -8.9388165,
          39.3377827
        ]
      },
      "properties": {
        "id": 4027841209,
        "osm_type": "node",
        "name": "Casa do Foral",
        "tourism": "hostel"
      }
    },
    {
      "type": "Feature",
      "geometry": {
        "type": "Point",
        "coordinates": [
          -8.3249141,
          39.4430826
        ]
      },
      "properties": {
        "id": 4123808122,
        "osm_type": "node",
        "name": "Quinta do Outeiro Alto",
        "tourism": "guest_house"
      }
    },
    {
      "type": "Feature",
      "geometry": {
        "type": "Point",
        "coordinates": [
          -8.6822374,
          39.6339479
        ]
      },
      "properties": {
        "id": 4225209594,
        "osm_type": "node",
        "name": "Santa Mafalda",
        "tourism": "hotel"
      }
    },
    {
      "type": "Feature",
      "geometry": {
        "type": "Point",
        "coordinates": [
          -8.6650057,
          39.628682
        ]
      },
      "properties": {
        "id": 4225338489,
        "osm_type": "node",
        "name": "residencia doña amelia",
        "tourism": "hotel"
      }
    },
    {
      "type": "Feature",
      "geometry": {
        "type": "Point",
        "coordinates": [
          -8.7086942,
          39.0661891
        ]
      },
      "properties": {
        "id": 4241796689,
        "osm_type": "node",
        "name": "Motinha",
        "tourism": "chalet"
      }
    },
    {
      "type": "Feature",
      "geometry": {
        "type": "Point",
        "coordinates": [
          -8.6708544,
          39.6298642
        ]
      },
      "properties": {
        "id": 4245084689,
        "osm_type": "node",
        "name": "Residencia Silva",
        "tourism": "hotel",
        "phone": "+351 919 552 515"
      }
    },
    {
      "type": "Feature",
      "geometry": {
        "type": "Point",
        "coordinates": [
          -8.665011,
          39.6285767
        ]
      },
      "properties": {
        "id": 4263248189,
        "osm_type": "node",
        "name": "hotel santo condestavel",
        "tourism": "hotel"
      }
    },
    {
      "type": "Feature",
      "geometry": {
        "type": "Point",
        "coordinates": [
          -8.4332477,
          39.4570466
        ]
      },
      "properties": {
        "id": 4356596696,
        "osm_type": "node",
        "tourism": "caravan_site"
      }
    },
    {
      "type": "Feature",
      "geometry": {
        "type": "Point",
        "coordinates": [
          -8.6682093,
          39.6334901
        ]
      },
      "properties": {
        "id": 4680761291,
        "osm_type": "node",
        "name": "Alojamento Peregrinos São Bento Labre",
        "tourism": "hostel"
      }
    },
    {
      "type": "Feature",
      "geometry": {
        "type": "Point",
        "coordinates": [
          -8.4080042,
          39.6007055
        ]
      },
      "properties": {
        "id": 4755173221,
        "osm_type": "node",
        "tourism": "guest_house"
      }
    },
    {
      "type": "Feature",
      "geometry": {
        "type": "Point",
        "coordinates": [
          -8.6736636,
          39.4547729
        ]
      },
      "properties": {
        "id": 4785649721,
        "osm_type": "node",
        "name": "Marsipel",
        "tourism": "camp_site",
        "check_date": "2025-05-10"
      }
    },
    {
      "type": "Feature",
      "geometry": {
        "type": "Point",
        "coordinates": [
          -8.4872378,
          39.4059597
        ]
      },
      "properties": {
        "id": 4813965444,
        "osm_type": "node",
        "name": "Albergue das Ademas",
        "tourism": "guest_house"
      }
    },
    {
      "type": "Feature",
      "geometry": {
        "type": "Point",
        "coordinates": [
          -8.3391597,
          39.4746765
        ]
      },
      "properties": {
        "id": 4835615802,
        "osm_type": "node",
        "name": "Hostel 18",
        "tourism": "hostel"
      }
    },
    {
      "type": "Feature",
      "geometry": {
        "type": "Point",
        "coordinates": [
          -8.40051,
          39.61591
        ]
      },
      "properties": {
        "id": 4838787476,
        "osm_type": "node",
        "name": "Minha Casa",
        "tourism": "chalet"
      }
    },
    {
      "type": "Feature",
      "geometry": {
        "type": "Point",
        "coordinates": [
          -8.6703865,
          39.3017684
        ]
      },
      "properties": {
        "id": 4908969521,
        "osm_type": "node",
        "name": "Ebenézer - Rua Gil Conceição Escapa",
        "tourism": "camp_site",
        "phone": "+351 914101912"
      }
    },
    {
      "type": "Feature",
      "geometry": {
        "type": "Point",
        "coordinates": [
          -8.6764701,
          39.6321406
        ]
      },
      "properties": {
        "id": 4964346124,
        "osm_type": "node",
        "name": "Hotel Santa Isabel",
        "tourism": "hotel",
        "check_date": "2025-05-17"
      }
    },
    {
      "type": "Feature",
      "geometry": {
        "type": "Point",
        "coordinates": [
          -8.0003781,
          39.5304217
        ]
      },
      "properties": {
        "id": 5006013322,
        "osm_type": "node",
        "name": "casas do lagar",
        "tourism": "guest_house"
      }
    },
    {
      "type": "Feature",
      "geometry": {
        "type": "Point",
        "coordinates": [
          -8.6701058,
          39.6299581
        ]
      },
      "properties": {
        "id": 5073281882,
        "osm_type": "node",
        "name": "Luz de Fátima",
        "tourism": "apartment"
      }
    },
    {
      "type": "Feature",
      "geometry": {
        "type": "Point",
        "coordinates": [
          -8.6679653,
          39.6277389
        ]
      },
      "properties": {
        "id": 5088709521,
        "osm_type": "node",
        "name": "Hotel Rosa Mística",
        "tourism": "hotel"
      }
    },
    {
      "type": "Feature",
      "geometry": {
        "type": "Point",
        "coordinates": [
          -8.2365713,
          39.7254658
        ]
      },
      "properties": {
        "id": 5167589421,
        "osm_type": "node",
        "name": "Casa Hugo e Vera",
        "tourism": "guest_house"
      }
    },
    {
      "type": "Feature",
      "geometry": {
        "type": "Point",
        "coordinates": [
          -8.6842684,
          39.2387854
        ]
      },
      "properties": {
        "id": 5534776647,
        "osm_type": "node",
        "name": "Pensão Coimbra",
        "tourism": "guest_house"
      }
    },
    {
      "type": "Feature",
      "geometry": {
        "type": "Point",
        "coordinates": [
          -8.6851695,
          39.2354794
        ]
      },
      "properties": {
        "id": 5534776648,
        "osm_type": "node",
        "name": "Santarem Hostel",
        "tourism": "hostel"
      }
    },
    {
      "type": "Feature",
      "geometry": {
        "type": "Point",
        "coordinates": [
          -8.7070754,
          39.2989521
        ]
      },
      "properties": {
        "id": 5535798258,
        "osm_type": "node",
        "name": "Albergue de Peregrinos",
        "tourism": "hostel"
      }
    },
    {
      "type": "Feature",
      "geometry": {
        "type": "Point",
        "coordinates": [
          -8.7103544,
          39.4611787
        ]
      },
      "properties": {
        "id": 5537869797,
        "osm_type": "node",
        "name": "Albergue de Peregrinos",
        "tourism": "hostel",
        "phone": "+351 249 879 070"
      }
    },
    {
      "type": "Feature",
      "geometry": {
        "type": "Point",
        "coordinates": [
          -8.5453597,
          39.7149408
        ]
      },
      "properties": {
        "id": 5538842724,
        "osm_type": "node",
        "name": "Alojamento Local Manalvo",
        "tourism": "guest_house"
      }
    },
    {
      "type": "Feature",
      "geometry": {
        "type": "Point",
        "coordinates": [
          -8.6774531,
          39.6309001
        ]
      },
      "properties": {
        "id": 5538842840,
        "osm_type": "node",
        "name": "Pensão São Paulo",
        "tourism": "guest_house"
      }
    },
    {
      "type": "Feature",
      "geometry": {
        "type": "Point",
        "coordinates": [
          -8.6772667,
          39.6311677
        ]
      },
      "properties": {
        "id": 5538842841,
        "osm_type": "node",
        "name": "Essence Inn Marianos",
        "tourism": "hotel"
      }
    },
    {
      "type": "Feature",
      "geometry": {
        "type": "Point",
        "coordinates": [
          -8.6764097,
          39.6323265
        ]
      },
      "properties": {
        "id": 5538842842,
        "osm_type": "node",
        "name": "Santo António",
        "tourism": "hotel"
      }
    },
    {
      "type": "Feature",
      "geometry": {
        "type": "Point",
        "coordinates": [
          -8.6756775,
          39.6319372
        ]
      },
      "properties": {
        "id": 5538842843,
        "osm_type": "node",
        "name": "Fátima Guesthouse",
        "tourism": "hotel",
        "phone": "+351 924 713 914",
        "website": "https://www.fatimaguesthouse.pt/pt"
      }
    },
    {
      "type": "Feature",
      "geometry": {
        "type": "Point",
        "coordinates": [
          -8.6873706,
          39.2298452
        ]
      },
      "properties": {
        "id": 5543404500,
        "osm_type": "node",
        "name": "Tagushost.pt",
        "tourism": "guest_house",
        "website": "tagushost.pt"
      }
    },
    {
      "type": "Feature",
      "geometry": {
        "type": "Point",
        "coordinates": [
          -8.6901185,
          39.2331299
        ]
      },
      "properties": {
        "id": 5543894317,
        "osm_type": "node",
        "name": "N1 Hostel",
        "tourism": "guest_house",
        "phone": "+351 243 350 140;+351 919 962 008",
        "website": "https://www.n1hostelapartments.com/",
        "check_date": "2025-02-22"
      }
    },
    {
      "type": "Feature",
      "geometry": {
        "type": "Point",
        "coordinates": [
          -8.6088085,
          38.963739
        ]
      },
      "properties": {
        "id": 5577075239,
        "osm_type": "node",
        "name": "Quinta da Mimosa",
        "tourism": "hotel",
        "website": "https://quintadamimosa.pt/"
      }
    },
    {
      "type": "Feature",
      "geometry": {
        "type": "Point",
        "coordinates": [
          -8.7335299,
          39.1172106
        ]
      },
      "properties": {
        "id": 5586044526,
        "osm_type": "node",
        "name": "Quinta da Burra [RNAL 161078/AL]",
        "tourism": "apartment",
        "phone": "+351964487399"
      }
    },
    {
      "type": "Feature",
      "geometry": {
        "type": "Point",
        "coordinates": [
          -8.6871077,
          39.2334222
        ]
      },
      "properties": {
        "id": 5659289035,
        "osm_type": "node",
        "name": "Casa da Misericórdia",
        "tourism": "hostel"
      }
    },
    {
      "type": "Feature",
      "geometry": {
        "type": "Point",
        "coordinates": [
          -8.3387327,
          39.4748368
        ]
      },
      "properties": {
        "id": 5663515826,
        "osm_type": "node",
        "name": "Casinha da Praça",
        "tourism": "guest_house"
      }
    },
    {
      "type": "Feature",
      "geometry": {
        "type": "Point",
        "coordinates": [
          -8.6715073,
          39.6295753
        ]
      },
      "properties": {
        "id": 5664522958,
        "osm_type": "node",
        "name": "Residencia S. Francisco",
        "tourism": "hotel",
        "phone": "+351 249 533 017",
        "website": "http://www.sfranciscofatima.com/"
      }
    },
    {
      "type": "Feature",
      "geometry": {
        "type": "Point",
        "coordinates": [
          -8.7610237,
          39.0775762
        ]
      },
      "properties": {
        "id": 5705806521,
        "osm_type": "node",
        "name": "River Park",
        "tourism": "caravan_site"
      }
    },
    {
      "type": "Feature",
      "geometry": {
        "type": "Point",
        "coordinates": [
          -8.7609178,
          39.0774883
        ]
      },
      "properties": {
        "id": 5705806821,
        "osm_type": "node",
        "tourism": "camp_site"
      }
    },
    {
      "type": "Feature",
      "geometry": {
        "type": "Point",
        "coordinates": [
          -8.5263197,
          38.9637785
        ]
      },
      "properties": {
        "id": 5829840759,
        "osm_type": "node",
        "name": "Quinta do Lago Verde",
        "tourism": "hotel"
      }
    },
    {
      "type": "Feature",
      "geometry": {
        "type": "Point",
        "coordinates": [
          -8.5313801,
          38.9558342
        ]
      },
      "properties": {
        "id": 5902335635,
        "osm_type": "node",
        "name": "Casa do Rio Sorraia",
        "tourism": "hotel",
        "check_date": "2024-08-27"
      }
    },
    {
      "type": "Feature",
      "geometry": {
        "type": "Point",
        "coordinates": [
          -8.3617908,
          39.7355151
        ]
      },
      "properties": {
        "id": 5920506486,
        "osm_type": "node",
        "name": "HeartWay",
        "tourism": "hostel"
      }
    },
    {
      "type": "Feature",
      "geometry": {
        "type": "Point",
        "coordinates": [
          -8.4126297,
          39.6022364
        ]
      },
      "properties": {
        "id": 5997351785,
        "osm_type": "node",
        "name": "Artistic Guesthouse",
        "tourism": "guest_house"
      }
    },
    {
      "type": "Feature",
      "geometry": {
        "type": "Point",
        "coordinates": [
          -8.7373871,
          39.1105495
        ]
      },
      "properties": {
        "id": 6068038507,
        "osm_type": "node",
        "name": "Quinta das Palmeiras",
        "tourism": "hotel"
      }
    },
    {
      "type": "Feature",
      "geometry": {
        "type": "Point",
        "coordinates": [
          -8.6937153,
          39.241554
        ]
      },
      "properties": {
        "id": 6071211979,
        "osm_type": "node",
        "name": "Umu",
        "tourism": "hotel",
        "check_date": "2024-05-26"
      }
    },
    {
      "type": "Feature",
      "geometry": {
        "type": "Point",
        "coordinates": [
          -8.6803325,
          39.2355367
        ]
      },
      "properties": {
        "id": 6071292845,
        "osm_type": "node",
        "name": "Alojamento Local - Casa do Arco",
        "tourism": "apartment",
        "phone": "+351 919 235 751"
      }
    },
    {
      "type": "Feature",
      "geometry": {
        "type": "Point",
        "coordinates": [
          -8.5282324,
          39.3479126
        ]
      },
      "properties": {
        "id": 6074786716,
        "osm_type": "node",
        "name": "Casa da Azinhaga",
        "tourism": "guest_house"
      }
    },
    {
      "type": "Feature",
      "geometry": {
        "type": "Point",
        "coordinates": [
          -8.5353161,
          39.3525597
        ]
      },
      "properties": {
        "id": 6075531922,
        "osm_type": "node",
        "name": "Casa de Azzancha",
        "tourism": "apartment",
        "phone": "+351 249 957 253"
      }
    },
    {
      "type": "Feature",
      "geometry": {
        "type": "Point",
        "coordinates": [
          -8.4793592,
          39.4019848
        ]
      },
      "properties": {
        "id": 6075531923,
        "osm_type": "node",
        "name": "Inn Golegã",
        "tourism": "hostel",
        "phone": "+351964327312"
      }
    },
    {
      "type": "Feature",
      "geometry": {
        "type": "Point",
        "coordinates": [
          -8.685831,
          39.6340855
        ]
      },
      "properties": {
        "id": 6081604269,
        "osm_type": "node",
        "name": "SDivine Fátima Hotel",
        "tourism": "hotel"
      }
    },
    {
      "type": "Feature",
      "geometry": {
        "type": "Point",
        "coordinates": [
          -8.6653741,
          39.6258192
        ]
      },
      "properties": {
        "id": 6211523487,
        "osm_type": "node",
        "name": "Residência Maria José",
        "tourism": "hotel"
      }
    },
    {
      "type": "Feature",
      "geometry": {
        "type": "Point",
        "coordinates": [
          -8.6058141,
          38.960967
        ]
      },
      "properties": {
        "id": 6262048416,
        "osm_type": "node",
        "name": "Casa Da Aldeia",
        "tourism": "chalet"
      }
    },
    {
      "type": "Feature",
      "geometry": {
        "type": "Point",
        "coordinates": [
          -8.6707432,
          39.6273845
        ]
      },
      "properties": {
        "id": 6321686387,
        "osm_type": "node",
        "name": "Hotel Virgem Maria",
        "tourism": "hotel"
      }
    },
    {
      "type": "Feature",
      "geometry": {
        "type": "Point",
        "coordinates": [
          -8.6822411,
          39.634519
        ]
      },
      "properties": {
        "id": 6321924688,
        "osm_type": "node",
        "name": "Dom Gonçalo",
        "tourism": "hotel"
      }
    },
    {
      "type": "Feature",
      "geometry": {
        "type": "Point",
        "coordinates": [
          -8.6814089,
          39.6319626
        ]
      },
      "properties": {
        "id": 6321925102,
        "osm_type": "node",
        "name": "Hotel Aurea",
        "tourism": "hotel"
      }
    },
    {
      "type": "Feature",
      "geometry": {
        "type": "Point",
        "coordinates": [
          -8.6893981,
          39.5141606
        ]
      },
      "properties": {
        "id": 6375877685,
        "osm_type": "node",
        "name": "Baiuca dos Penedos",
        "tourism": "guest_house",
        "opening_hours": "24/7",
        "phone": "+351962521379"
      }
    },
    {
      "type": "Feature",
      "geometry": {
        "type": "Point",
        "coordinates": [
          -8.319545,
          39.5572599
        ]
      },
      "properties": {
        "id": 6749736586,
        "osm_type": "node",
        "name": "Monte do Valinho",
        "tourism": "guest_house"
      }
    },
    {
      "type": "Feature",
      "geometry": {
        "type": "Point",
        "coordinates": [
          -8.6676604,
          39.6338221
        ]
      },
      "properties": {
        "id": 6982516246,
        "osm_type": "node",
        "name": "Coroa de Fátima",
        "tourism": "hotel"
      }
    },
    {
      "type": "Feature",
      "geometry": {
        "type": "Point",
        "coordinates": [
          -8.6690149,
          39.6342683
        ]
      },
      "properties": {
        "id": 6982516247,
        "osm_type": "node",
        "name": "Quartos",
        "tourism": "guest_house",
        "phone": "+351 249 532 565"
      }
    },
    {
      "type": "Feature",
      "geometry": {
        "type": "Point",
        "coordinates": [
          -8.6810875,
          39.6351482
        ]
      },
      "properties": {
        "id": 6982516248,
        "osm_type": "node",
        "name": "Luna Fatima",
        "tourism": "hotel"
      }
    },
    {
      "type": "Feature",
      "geometry": {
        "type": "Point",
        "coordinates": [
          -8.68267,
          39.6349644
        ]
      },
      "properties": {
        "id": 6982516249,
        "osm_type": "node",
        "name": "Cova da Iria Hotel",
        "tourism": "hotel"
      }
    },
    {
      "type": "Feature",
      "geometry": {
        "type": "Point",
        "coordinates": [
          -8.6644739,
          39.6235116
        ]
      },
      "properties": {
        "id": 6982516266,
        "osm_type": "node",
        "name": "Hospedaria São João",
        "tourism": "motel"
      }
    },
    {
      "type": "Feature",
      "geometry": {
        "type": "Point",
        "coordinates": [
          -8.6643988,
          39.6233732
        ]
      },
      "properties": {
        "id": 6982516267,
        "osm_type": "node",
        "name": "Hospedaria São Pedro",
        "tourism": "motel"
      }
    },
    {
      "type": "Feature",
      "geometry": {
        "type": "Point",
        "coordinates": [
          -8.6654636,
          39.6259349
        ]
      },
      "properties": {
        "id": 6982516271,
        "osm_type": "node",
        "name": "Residencia Marto",
        "tourism": "guest_house"
      }
    },
    {
      "type": "Feature",
      "geometry": {
        "type": "Point",
        "coordinates": [
          -8.6661691,
          39.6275071
        ]
      },
      "properties": {
        "id": 6982516272,
        "osm_type": "node",
        "name": "Angelus",
        "tourism": "hotel",
        "website": "https://angelus.pt/"
      }
    },
    {
      "type": "Feature",
      "geometry": {
        "type": "Point",
        "coordinates": [
          -8.6679098,
          39.6285513
        ]
      },
      "properties": {
        "id": 6982516278,
        "osm_type": "node",
        "name": "Residencial Santa Barbara",
        "tourism": "guest_house"
      }
    },
    {
      "type": "Feature",
      "geometry": {
        "type": "Point",
        "coordinates": [
          -8.6654475,
          39.62434
        ]
      },
      "properties": {
        "id": 6982586343,
        "osm_type": "node",
        "name": "Fatima Lounge Guest House",
        "tourism": "hostel"
      }
    },
    {
      "type": "Feature",
      "geometry": {
        "type": "Point",
        "coordinates": [
          -8.6720847,
          39.6281981
        ]
      },
      "properties": {
        "id": 6982637945,
        "osm_type": "node",
        "name": "Genesis",
        "tourism": "hotel"
      }
    },
    {
      "type": "Feature",
      "geometry": {
        "type": "Point",
        "coordinates": [
          -8.6709045,
          39.6393744
        ]
      },
      "properties": {
        "id": 6982637946,
        "osm_type": "node",
        "name": "What else Guesthouse",
        "tourism": "hostel"
      }
    },
    {
      "type": "Feature",
      "geometry": {
        "type": "Point",
        "coordinates": [
          -8.4947732,
          39.6085771
        ]
      },
      "properties": {
        "id": 6983733364,
        "osm_type": "node",
        "tourism": "chalet"
      }
    },
    {
      "type": "Feature",
      "geometry": {
        "type": "Point",
        "coordinates": [
          -8.4966038,
          39.6107313
        ]
      },
      "properties": {
        "id": 6983733367,
        "osm_type": "node",
        "name": "Albergue Nossa Senhora das Graças",
        "tourism": "hostel",
        "phone": "+351 249790278; +351 926690327"
      }
    },
    {
      "type": "Feature",
      "geometry": {
        "type": "Point",
        "coordinates": [
          -8.7047368,
          39.4006202
        ]
      },
      "properties": {
        "id": 7250692885,
        "osm_type": "node",
        "name": "Casa do Adro",
        "tourism": "hostel",
        "phone": "+351 243 449 224;+351 962 665 224"
      }
    },
    {
      "type": "Feature",
      "geometry": {
        "type": "Point",
        "coordinates": [
          -8.1991643,
          39.4589936
        ]
      },
      "properties": {
        "id": 7484161586,
        "osm_type": "node",
        "tourism": "caravan_site",
        "opening_hours": "24/7"
      }
    },
    {
      "type": "Feature",
      "geometry": {
        "type": "Point",
        "coordinates": [
          -8.4378437,
          39.6832137
        ]
      },
      "properties": {
        "id": 7930777493,
        "osm_type": "node",
        "tourism": "camp_site"
      }
    },
    {
      "type": "Feature",
      "geometry": {
        "type": "Point",
        "coordinates": [
          -8.0905638,
          39.4717669
        ]
      },
      "properties": {
        "id": 7973429912,
        "osm_type": "node",
        "name": "Colinas do Tejo",
        "tourism": "camp_site"
      }
    },
    {
      "type": "Feature",
      "geometry": {
        "type": "Point",
        "coordinates": [
          -8.4917915,
          39.6776215
        ]
      },
      "properties": {
        "id": 8454554768,
        "osm_type": "node",
        "name": "Quinta de Monchite",
        "tourism": "guest_house"
      }
    },
    {
      "type": "Feature",
      "geometry": {
        "type": "Point",
        "coordinates": [
          -8.2335315,
          39.6709132
        ]
      },
      "properties": {
        "id": 8592190944,
        "osm_type": "node",
        "name": "Blue Lake House",
        "tourism": "guest_house",
        "phone": "+351 966 150 807",
        "website": "https://www.bluelakehouse.pt/"
      }
    },
    {
      "type": "Feature",
      "geometry": {
        "type": "Point",
        "coordinates": [
          -8.2044852,
          39.4622404
        ]
      },
      "properties": {
        "id": 8599774817,
        "osm_type": "node",
        "name": "Luna",
        "tourism": "hotel"
      }
    },
    {
      "type": "Feature",
      "geometry": {
        "type": "Point",
        "coordinates": [
          -8.4089124,
          39.6043706
        ]
      },
      "properties": {
        "id": 8809533835,
        "osm_type": "node",
        "name": "Hotel Kamanga",
        "tourism": "hotel"
      }
    },
    {
      "type": "Feature",
      "geometry": {
        "type": "Point",
        "coordinates": [
          -8.6748578,
          39.2377211
        ]
      },
      "properties": {
        "id": 8809830049,
        "osm_type": "node",
        "name": "Casa da Ribeira",
        "tourism": "guest_house"
      }
    },
    {
      "type": "Feature",
      "geometry": {
        "type": "Point",
        "coordinates": [
          -8.3436258,
          38.9222274
        ]
      },
      "properties": {
        "id": 8875010617,
        "osm_type": "node",
        "name": "Herdade das Onzenas",
        "tourism": "guest_house"
      }
    },
    {
      "type": "Feature",
      "geometry": {
        "type": "Point",
        "coordinates": [
          -8.3204759,
          39.4797049
        ]
      },
      "properties": {
        "id": 9149313309,
        "osm_type": "node",
        "name": "Quinta do Pinhal",
        "tourism": "guest_house",
        "phone": "+351 914 30 10 87",
        "website": "https://quintadopinhal.com/"
      }
    },
    {
      "type": "Feature",
      "geometry": {
        "type": "Point",
        "coordinates": [
          -7.8515381,
          39.5284257
        ]
      },
      "properties": {
        "id": 9688204367,
        "osm_type": "node",
        "name": "Linhal das Meias",
        "tourism": "guest_house",
        "phone": "+351 910844308"
      }
    },
    {
      "type": "Feature",
      "geometry": {
        "type": "Point",
        "coordinates": [
          -8.2642721,
          39.5757654
        ]
      },
      "properties": {
        "id": 9740813319,
        "osm_type": "node",
        "name": "Paraíso azul",
        "tourism": "apartment"
      }
    },
    {
      "type": "Feature",
      "geometry": {
        "type": "Point",
        "coordinates": [
          -8.4132272,
          39.6033659
        ]
      },
      "properties": {
        "id": 9862550584,
        "osm_type": "node",
        "name": "Casa do Compositor",
        "tourism": "apartment"
      }
    },
    {
      "type": "Feature",
      "geometry": {
        "type": "Point",
        "coordinates": [
          -8.6702431,
          39.6353033
        ]
      },
      "properties": {
        "id": 9939279985,
        "osm_type": "node",
        "name": "Casa São Nuno",
        "tourism": "hotel",
        "phone": "+351 249 530 230"
      }
    },
    {
      "type": "Feature",
      "geometry": {
        "type": "Point",
        "coordinates": [
          -8.6845758,
          39.1470283
        ]
      },
      "properties": {
        "id": 9942108172,
        "osm_type": "node",
        "name": "Quinta do Casalinho",
        "tourism": "guest_house",
        "website": "https://quintadocasalinho.weebly.com/"
      }
    },
    {
      "type": "Feature",
      "geometry": {
        "type": "Point",
        "coordinates": [
          -8.6850439,
          39.2359215
        ]
      },
      "properties": {
        "id": 9979391525,
        "osm_type": "node",
        "name": "Casa das Flores",
        "tourism": "apartment",
        "phone": "+351 965 612 001"
      }
    },
    {
      "type": "Feature",
      "geometry": {
        "type": "Point",
        "coordinates": [
          -8.7432377,
          39.1005615
        ]
      },
      "properties": {
        "id": 10083553211,
        "osm_type": "node",
        "name": "Quinta da Marchanta",
        "tourism": "hotel",
        "phone": "+351 243 749 279;+351 965 895 960",
        "website": "https://www.marchanta.pt/"
      }
    },
    {
      "type": "Feature",
      "geometry": {
        "type": "Point",
        "coordinates": [
          -8.1894524,
          39.4550206
        ]
      },
      "properties": {
        "id": 10117380442,
        "osm_type": "node",
        "tourism": "caravan_site",
        "opening_hours": "24/7"
      }
    },
    {
      "type": "Feature",
      "geometry": {
        "type": "Point",
        "coordinates": [
          -8.1906828,
          39.4534509
        ]
      },
      "properties": {
        "id": 10117381131,
        "osm_type": "node",
        "tourism": "caravan_site",
        "opening_hours": "24/7"
      }
    },
    {
      "type": "Feature",
      "geometry": {
        "type": "Point",
        "coordinates": [
          -8.671198,
          39.633687
        ]
      },
      "properties": {
        "id": 10769065713,
        "osm_type": "node",
        "name": "Stellplatz Santuário de Fátima/P4",
        "tourism": "caravan_site"
      }
    },
    {
      "type": "Feature",
      "geometry": {
        "type": "Point",
        "coordinates": [
          -8.0201446,
          39.7270048
        ]
      },
      "properties": {
        "id": 10920304217,
        "osm_type": "node",
        "name": "On Route Accommodation TET ACT N2",
        "tourism": "guest_house",
        "website": "https://www.facebook.com/profile.php?id=100092561837766"
      }
    },
    {
      "type": "Feature",
      "geometry": {
        "type": "Point",
        "coordinates": [
          -8.4131071,
          39.6041476
        ]
      },
      "properties": {
        "id": 11017812389,
        "osm_type": "node",
        "name": "Family House Cup",
        "tourism": "guest_house",
        "check_date": "2023-07-01"
      }
    },
    {
      "type": "Feature",
      "geometry": {
        "type": "Point",
        "coordinates": [
          -8.4132713,
          39.6062082
        ]
      },
      "properties": {
        "id": 11019784702,
        "osm_type": "node",
        "name": "Estalagem de Santa Iria",
        "tourism": "hotel",
        "website": "http://www.estalagemsantairia.com"
      }
    },
    {
      "type": "Feature",
      "geometry": {
        "type": "Point",
        "coordinates": [
          -8.6695048,
          39.6302006
        ]
      },
      "properties": {
        "id": 11067255507,
        "osm_type": "node",
        "name": "Consolata Hotel",
        "tourism": "hotel",
        "phone": "+351 249 539 400",
        "website": "https://www.hotel.consolata.pt/"
      }
    },
    {
      "type": "Feature",
      "geometry": {
        "type": "Point",
        "coordinates": [
          -8.4284711,
          39.4586742
        ]
      },
      "properties": {
        "id": 11098437356,
        "osm_type": "node",
        "name": "Hotel Soltejo",
        "tourism": "hotel"
      }
    },
    {
      "type": "Feature",
      "geometry": {
        "type": "Point",
        "coordinates": [
          -8.5669895,
          38.9700909
        ]
      },
      "properties": {
        "id": 11258473518,
        "osm_type": "node",
        "name": "Monte da Agolada de Baixo",
        "tourism": "chalet"
      }
    },
    {
      "type": "Feature",
      "geometry": {
        "type": "Point",
        "coordinates": [
          -8.5586574,
          39.4760364
        ]
      },
      "properties": {
        "id": 11740822105,
        "osm_type": "node",
        "name": "Hotel Aires da Serra",
        "tourism": "hotel"
      }
    },
    {
      "type": "Feature",
      "geometry": {
        "type": "Point",
        "coordinates": [
          -8.6036917,
          39.6995935
        ]
      },
      "properties": {
        "id": 12001077161,
        "osm_type": "node",
        "name": "Casa do Vale Cabo",
        "tourism": "guest_house"
      }
    },
    {
      "type": "Feature",
      "geometry": {
        "type": "Point",
        "coordinates": [
          -8.4149065,
          39.6038528
        ]
      },
      "properties": {
        "id": 12075915983,
        "osm_type": "node",
        "name": "Hotel República",
        "tourism": "hotel",
        "website": "https://hotelrepublica.pt/"
      }
    },
    {
      "type": "Feature",
      "geometry": {
        "type": "Point",
        "coordinates": [
          -8.7241745,
          39.2785851
        ]
      },
      "properties": {
        "id": 12163692061,
        "osm_type": "node",
        "name": "Quinta da Cabrita",
        "tourism": "hotel",
        "website": "https://www.quintadacabrita.pt"
      }
    },
    {
      "type": "Feature",
      "geometry": {
        "type": "Point",
        "coordinates": [
          -8.6961228,
          38.9837488
        ]
      },
      "properties": {
        "id": 12236155015,
        "osm_type": "node",
        "tourism": "guest_house"
      }
    },
    {
      "type": "Feature",
      "geometry": {
        "type": "Point",
        "coordinates": [
          -8.2861984,
          38.9987829
        ]
      },
      "properties": {
        "id": 12251441348,
        "osm_type": "node",
        "name": "Sorraia Hotel",
        "tourism": "guest_house"
      }
    },
    {
      "type": "Feature",
      "geometry": {
        "type": "Point",
        "coordinates": [
          -8.1948564,
          39.4578244
        ]
      },
      "properties": {
        "id": 12628820408,
        "osm_type": "node",
        "name": "HI Abrantes – Pousada de Juventude",
        "tourism": "hotel",
        "phone": "+351 241 377 169",
        "website": "https://www.pousadasjuventude.pt/pt/pousadas/pousada-de-abrantes/"
      }
    },
    {
      "type": "Feature",
      "geometry": {
        "type": "Point",
        "coordinates": [
          -8.5068873,
          39.7812683
        ]
      },
      "properties": {
        "id": 12668198281,
        "osm_type": "node",
        "name": "Albergue Farrius Bar",
        "tourism": "hostel",
        "phone": "+351 914 345 542"
      }
    },
    {
      "type": "Feature",
      "geometry": {
        "type": "Point",
        "coordinates": [
          -8.5324675,
          39.6327044
        ]
      },
      "properties": {
        "id": 12668328447,
        "osm_type": "node",
        "name": "Como em Casa",
        "tourism": "hostel",
        "phone": "+351 922 213 105"
      }
    },
    {
      "type": "Feature",
      "geometry": {
        "type": "Point",
        "coordinates": [
          -8.6631839,
          39.6083048
        ]
      },
      "properties": {
        "id": 12668939025,
        "osm_type": "node",
        "name": "Refúgio do Sagrado Coração de Jesus",
        "tourism": "hostel",
        "phone": "+351 912 117 885;+351 932 109 165",
        "website": "https://www.guiadeturismo.pt/estabelecimento/1297/Refugio-do-Sagrado-Cora%C3%A7%C3%A3o-de-Jesus-Imaculado-Cora%C3%A7%C3%A3o-de-S%C3%A3o-Jos%C3%A9"
      }
    },
    {
      "type": "Feature",
      "geometry": {
        "type": "Point",
        "coordinates": [
          -8.7592078,
          39.0822569
        ]
      },
      "properties": {
        "id": 12703491058,
        "osm_type": "node",
        "name": "Albergue Dois Caminhos",
        "tourism": "hostel",
        "phone": "+351 915 657 651"
      }
    },
    {
      "type": "Feature",
      "geometry": {
        "type": "Point",
        "coordinates": [
          -8.75808,
          39.0825931
        ]
      },
      "properties": {
        "id": 12703498471,
        "osm_type": "node",
        "name": "Salão Paroquial de Valada",
        "tourism": "hostel"
      }
    },
    {
      "type": "Feature",
      "geometry": {
        "type": "Point",
        "coordinates": [
          -8.7271743,
          39.4445383
        ]
      },
      "properties": {
        "id": 12705532834,
        "osm_type": "node",
        "name": "Hotel Amiribatejo",
        "tourism": "hotel",
        "phone": "+351 964 822 893",
        "website": "https://amiribatejo.pt/"
      }
    },
    {
      "type": "Feature",
      "geometry": {
        "type": "Point",
        "coordinates": [
          -8.7098225,
          39.445445
        ]
      },
      "properties": {
        "id": 12705532835,
        "osm_type": "node",
        "name": "Centro de Alojamento do Centro de Ciência Viva do Alviela",
        "tourism": "hostel",
        "phone": "+351 249 881 805"
      }
    },
    {
      "type": "Feature",
      "geometry": {
        "type": "Point",
        "coordinates": [
          -8.6877317,
          39.5136396
        ]
      },
      "properties": {
        "id": 12705546814,
        "osm_type": "node",
        "name": "Ti Noémia casa de vila",
        "tourism": "hostel",
        "phone": "+351 914 011 225",
        "website": "https://www.tinoemiacasadevila.com/"
      }
    },
    {
      "type": "Feature",
      "geometry": {
        "type": "Point",
        "coordinates": [
          -8.6856205,
          39.5170329
        ]
      },
      "properties": {
        "id": 12705546815,
        "osm_type": "node",
        "name": "Salão Paroquial Ana Sonsa",
        "tourism": "hostel",
        "phone": "+351 914 781 849"
      }
    },
    {
      "type": "Feature",
      "geometry": {
        "type": "Point",
        "coordinates": [
          -8.7043719,
          38.8554099
        ]
      },
      "properties": {
        "id": 12760091535,
        "osm_type": "node",
        "name": "Country Club - Sto. Estêvão",
        "tourism": "hotel"
      }
    },
    {
      "type": "Feature",
      "geometry": {
        "type": "Point",
        "coordinates": [
          -8.4092644,
          39.6050227
        ]
      },
      "properties": {
        "id": 12786692742,
        "osm_type": "node",
        "name": "O Paço",
        "tourism": "hotel",
        "check_date": "2025-04-25"
      }
    },
    {
      "type": "Feature",
      "geometry": {
        "type": "Point",
        "coordinates": [
          -8.1590095,
          39.5389057
        ]
      },
      "properties": {
        "id": 12875081611,
        "osm_type": "node",
        "tourism": "caravan_site"
      }
    },
    {
      "type": "Feature",
      "geometry": {
        "type": "Point",
        "coordinates": [
          -8.6317026,
          39.2076596
        ]
      },
      "properties": {
        "id": 12883396225,
        "osm_type": "node",
        "name": "Hospedaria Abílio",
        "tourism": "guest_house"
      }
    },
    {
      "type": "Feature",
      "geometry": {
        "type": "Point",
        "coordinates": [
          -8.6289598,
          39.205344
        ]
      },
      "properties": {
        "id": 12892154741,
        "osm_type": "node",
        "name": "Hospedaria Dom António",
        "tourism": "hotel"
      }
    },
    {
      "type": "Feature",
      "geometry": {
        "type": "Point",
        "coordinates": [
          -8.5507115,
          39.1160653
        ]
      },
      "properties": {
        "id": 12933520637,
        "osm_type": "node",
        "name": "Quinta da Várzea",
        "tourism": "guest_house"
      }
    },
    {
      "type": "Feature",
      "geometry": {
        "type": "Point",
        "coordinates": [
          -8.8603261,
          38.881286
        ]
      },
      "properties": {
        "id": 13152994095,
        "osm_type": "node",
        "name": "Aldeamento turístico Companhia das Lezírias",
        "tourism": "hotel",
        "website": "https://turismo.cl.pt/experiencias/aldeamento-turistico/"
      }
    },
    {
      "type": "Feature",
      "geometry": {
        "type": "Point",
        "coordinates": [
          -8.4434725,
          39.4680886
        ]
      },
      "properties": {
        "id": 13208220301,
        "osm_type": "node",
        "name": "Casa das Memórias",
        "tourism": "guest_house"
      }
    },
    {
      "type": "Feature",
      "geometry": {
        "type": "Point",
        "coordinates": [
          -8.1595337,
          39.5390127
        ]
      },
      "properties": {
        "id": 13372400904,
        "osm_type": "node",
        "tourism": "caravan_site",
        "opening_hours": "24/7"
      }
    },
    {
      "type": "Feature",
      "geometry": {
        "type": "Point",
        "coordinates": [
          -8.1655133,
          39.5587336
        ]
      },
      "properties": {
        "id": 13470992664,
        "osm_type": "node",
        "name": "N2 Overlander Lodge",
        "tourism": "caravan_site",
        "website": "https://88321-n2overlanderlodge-com.sitebuilder-pt.webapps.net/"
      }
    },
    {
      "type": "Feature",
      "geometry": {
        "type": "Point",
        "coordinates": [
          -8.411414,
          39.607932
        ]
      },
      "properties": {
        "id": 13749530321,
        "osm_type": "node",
        "name": "CET - Campo Escutista dos Templários",
        "tourism": "camp_site"
      }
    },
    {
      "type": "Feature",
      "geometry": {
        "type": "Point",
        "coordinates": [
          -8.432855,
          39.4581777
        ]
      },
      "properties": {
        "id": 123121569,
        "osm_type": "way",
        "tourism": "hotel"
      }
    },
    {
      "type": "Feature",
      "geometry": {
        "type": "Point",
        "coordinates": [
          -8.6731763,
          39.628558
        ]
      },
      "properties": {
        "id": 125973162,
        "osm_type": "way",
        "name": "Santa Maria",
        "tourism": "hotel",
        "phone": "+351 249 530 110",
        "website": "https://www.hotelstmaria.com"
      }
    },
    {
      "type": "Feature",
      "geometry": {
        "type": "Point",
        "coordinates": [
          -8.3434537,
          39.477148
        ]
      },
      "properties": {
        "id": 132449836,
        "osm_type": "way",
        "tourism": "caravan_site"
      }
    },
    {
      "type": "Feature",
      "geometry": {
        "type": "Point",
        "coordinates": [
          -8.4881014,
          39.4027877
        ]
      },
      "properties": {
        "id": 135176220,
        "osm_type": "way",
        "name": "Hotel Lusitano",
        "tourism": "hotel"
      }
    },
    {
      "type": "Feature",
      "geometry": {
        "type": "Point",
        "coordinates": [
          -8.4857186,
          39.399685
        ]
      },
      "properties": {
        "id": 137266438,
        "osm_type": "way",
        "name": "Parque de Campismo Municipal da Golegã",
        "tourism": "camp_site",
        "tents": "yes",
        "phone": "+351 249 979 003"
      }
    },
    {
      "type": "Feature",
      "geometry": {
        "type": "Point",
        "coordinates": [
          -7.999078,
          39.5570607
        ]
      },
      "properties": {
        "id": 153890405,
        "osm_type": "way",
        "name": "Residencial Mansinho",
        "tourism": "hotel"
      }
    },
    {
      "type": "Feature",
      "geometry": {
        "type": "Point",
        "coordinates": [
          -8.6741743,
          39.6273918
        ]
      },
      "properties": {
        "id": 159973441,
        "osm_type": "way",
        "name": "Hotel Lux",
        "tourism": "hotel"
      }
    },
    {
      "type": "Feature",
      "geometry": {
        "type": "Point",
        "coordinates": [
          -8.6760451,
          39.2350515
        ]
      },
      "properties": {
        "id": 161827652,
        "osm_type": "way",
        "name": "Casa de Alcáçova",
        "tourism": "hotel"
      }
    },
    {
      "type": "Feature",
      "geometry": {
        "type": "Point",
        "coordinates": [
          -8.6436547,
          39.7609142
        ]
      },
      "properties": {
        "id": 166177769,
        "osm_type": "way",
        "name": "Quinta d'Oliveira",
        "tourism": "guest_house"
      }
    },
    {
      "type": "Feature",
      "geometry": {
        "type": "Point",
        "coordinates": [
          -8.2926396,
          39.54567
        ]
      },
      "properties": {
        "id": 173267720,
        "osm_type": "way",
        "name": "Hotel Segredos de Vale Manso",
        "tourism": "hotel"
      }
    },
    {
      "type": "Feature",
      "geometry": {
        "type": "Point",
        "coordinates": [
          -8.3192253,
          39.5408045
        ]
      },
      "properties": {
        "id": 173267724,
        "osm_type": "way",
        "tourism": "chalet"
      }
    },
    {
      "type": "Feature",
      "geometry": {
        "type": "Point",
        "coordinates": [
          -8.3192079,
          39.5406967
        ]
      },
      "properties": {
        "id": 173267727,
        "osm_type": "way",
        "tourism": "chalet"
      }
    },
    {
      "type": "Feature",
      "geometry": {
        "type": "Point",
        "coordinates": [
          -8.3182476,
          39.5402555
        ]
      },
      "properties": {
        "id": 173267729,
        "osm_type": "way",
        "name": "Parque de Campismo de Castelo do Bode",
        "tourism": "camp_site",
        "phone": "+351 241 849 262",
        "website": "https://www.fcmportugal.com/"
      }
    },
    {
      "type": "Feature",
      "geometry": {
        "type": "Point",
        "coordinates": [
          -8.6680391,
          39.6322336
        ]
      },
      "properties": {
        "id": 178997703,
        "osm_type": "way",
        "name": "Domus Pacis",
        "tourism": "hotel",
        "contact:website": "https://domuspacisfatimahotel.com/"
      }
    },
    {
      "type": "Feature",
      "geometry": {
        "type": "Point",
        "coordinates": [
          -8.6701178,
          39.6292544
        ]
      },
      "properties": {
        "id": 184446308,
        "osm_type": "way",
        "name": "Atrium de Fátima",
        "tourism": "hotel"
      }
    },
    {
      "type": "Feature",
      "geometry": {
        "type": "Point",
        "coordinates": [
          -8.6409691,
          39.3947448
        ]
      },
      "properties": {
        "id": 207123387,
        "osm_type": "way",
        "name": "Flag hotel Santarém",
        "tourism": "hotel"
      }
    },
    {
      "type": "Feature",
      "geometry": {
        "type": "Point",
        "coordinates": [
          -8.6764614,
          39.6344156
        ]
      },
      "properties": {
        "id": 233516805,
        "osm_type": "way",
        "name": "Anjo de Portugal",
        "tourism": "hotel",
        "phone": "+351 249 530 240",
        "website": "https://hotelanjodeportugal.pt/",
        "check_date": "2025-05-08"
      }
    },
    {
      "type": "Feature",
      "geometry": {
        "type": "Point",
        "coordinates": [
          -8.6781263,
          39.63233
        ]
      },
      "properties": {
        "id": 233522825,
        "osm_type": "way",
        "name": "Casa Rossio",
        "tourism": "guest_house"
      }
    },
    {
      "type": "Feature",
      "geometry": {
        "type": "Point",
        "coordinates": [
          -8.6773972,
          39.631546
        ]
      },
      "properties": {
        "id": 233522827,
        "osm_type": "way",
        "name": "Steyler Fátima",
        "tourism": "hotel"
      }
    },
    {
      "type": "Feature",
      "geometry": {
        "type": "Point",
        "coordinates": [
          -8.6777431,
          39.6320584
        ]
      },
      "properties": {
        "id": 233522833,
        "osm_type": "way",
        "name": "4 Estações",
        "tourism": "guest_house"
      }
    },
    {
      "type": "Feature",
      "geometry": {
        "type": "Point",
        "coordinates": [
          -8.2043166,
          39.4621652
        ]
      },
      "properties": {
        "id": 244069587,
        "osm_type": "way",
        "name": "Luna Hotel Turismo",
        "tourism": "hotel"
      }
    },
    {
      "type": "Feature",
      "geometry": {
        "type": "Point",
        "coordinates": [
          -8.9542908,
          39.3539325
        ]
      },
      "properties": {
        "id": 263514893,
        "osm_type": "way",
        "name": "Casa do Moleiro/ Mar de Serra",
        "tourism": "guest_house"
      }
    },
    {
      "type": "Feature",
      "geometry": {
        "type": "Point",
        "coordinates": [
          -8.4097342,
          39.6042313
        ]
      },
      "properties": {
        "id": 289343112,
        "osm_type": "way",
        "name": "Vila Galé Collection Tomar",
        "tourism": "hotel",
        "phone": "+351 249249820",
        "website": "https://www.vilagale.com/pt/hoteis/centro-de-portugal/vila-gale-collection-tomar"
      }
    },
    {
      "type": "Feature",
      "geometry": {
        "type": "Point",
        "coordinates": [
          -8.4104675,
          39.6075743
        ]
      },
      "properties": {
        "id": 289863542,
        "osm_type": "way",
        "name": "Antigo Parque de Campismo de Tomar",
        "tourism": "caravan_site",
        "website": "https://autocaravaneando.pt/item/parque-autocaravanas-de-tomar/"
      }
    },
    {
      "type": "Feature",
      "geometry": {
        "type": "Point",
        "coordinates": [
          -8.4135644,
          39.6071818
        ]
      },
      "properties": {
        "id": 289892164,
        "osm_type": "way",
        "name": "Hotel dos Templários",
        "tourism": "hotel"
      }
    },
    {
      "type": "Feature",
      "geometry": {
        "type": "Point",
        "coordinates": [
          -8.9369252,
          39.2478658
        ]
      },
      "properties": {
        "id": 296410186,
        "osm_type": "way",
        "tourism": "hotel"
      }
    },
    {
      "type": "Feature",
      "geometry": {
        "type": "Point",
        "coordinates": [
          -8.7984386,
          39.2802391
        ]
      },
      "properties": {
        "id": 300057133,
        "osm_type": "way",
        "name": "Casa do Mundo",
        "tourism": "guest_house"
      }
    },
    {
      "type": "Feature",
      "geometry": {
        "type": "Point",
        "coordinates": [
          -8.3015818,
          39.6003698
        ]
      },
      "properties": {
        "id": 307618181,
        "osm_type": "way",
        "tourism": "hotel"
      }
    },
    {
      "type": "Feature",
      "geometry": {
        "type": "Point",
        "coordinates": [
          -8.2993763,
          39.5745919
        ]
      },
      "properties": {
        "id": 310082682,
        "osm_type": "way",
        "name": "Casa da Lameira - Alojamento Local",
        "tourism": "guest_house"
      }
    },
    {
      "type": "Feature",
      "geometry": {
        "type": "Point",
        "coordinates": [
          -8.6693012,
          39.6284912
        ]
      },
      "properties": {
        "id": 321622913,
        "osm_type": "way",
        "name": "Hotel Santo Amaro",
        "tourism": "hotel",
        "website": "https://www.hotelsantoamaro.com/"
      }
    },
    {
      "type": "Feature",
      "geometry": {
        "type": "Point",
        "coordinates": [
          -8.9360976,
          39.3361187
        ]
      },
      "properties": {
        "id": 321794764,
        "osm_type": "way",
        "name": "Residencial",
        "tourism": "hotel"
      }
    },
    {
      "type": "Feature",
      "geometry": {
        "type": "Point",
        "coordinates": [
          -8.4325815,
          39.4581514
        ]
      },
      "properties": {
        "id": 321877839,
        "osm_type": "way",
        "tourism": "hotel"
      }
    },
    {
      "type": "Feature",
      "geometry": {
        "type": "Point",
        "coordinates": [
          -8.6670168,
          39.6331239
        ]
      },
      "properties": {
        "id": 322669851,
        "osm_type": "way",
        "name": "Azinheira",
        "tourism": "hotel"
      }
    },
    {
      "type": "Feature",
      "geometry": {
        "type": "Point",
        "coordinates": [
          -8.3251978,
          39.4966236
        ]
      },
      "properties": {
        "id": 343323929,
        "osm_type": "way",
        "tourism": "camp_site"
      }
    },
    {
      "type": "Feature",
      "geometry": {
        "type": "Point",
        "coordinates": [
          -8.6692352,
          39.627825
        ]
      },
      "properties": {
        "id": 363933959,
        "osm_type": "way",
        "name": "O Adegas",
        "tourism": "guest_house"
      }
    },
    {
      "type": "Feature",
      "geometry": {
        "type": "Point",
        "coordinates": [
          -8.6661485,
          39.6264564
        ]
      },
      "properties": {
        "id": 363968209,
        "osm_type": "way",
        "name": "Santa Cecilia",
        "tourism": "hotel"
      }
    },
    {
      "type": "Feature",
      "geometry": {
        "type": "Point",
        "coordinates": [
          -8.6666576,
          39.6263549
        ]
      },
      "properties": {
        "id": 363968217,
        "osm_type": "way",
        "name": "Lagoa dos Pastorinhos",
        "tourism": "hotel"
      }
    },
    {
      "type": "Feature",
      "geometry": {
        "type": "Point",
        "coordinates": [
          -8.2314878,
          39.6738273
        ]
      },
      "properties": {
        "id": 368651847,
        "osm_type": "way",
        "name": "Lago Azul Eco Hotel",
        "tourism": "hotel",
        "phone": "+351 249 361 445",
        "website": "https://estalagemlagoazul.com/"
      }
    },
    {
      "type": "Feature",
      "geometry": {
        "type": "Point",
        "coordinates": [
          -8.3413231,
          39.4767626
        ]
      },
      "properties": {
        "id": 389865364,
        "osm_type": "way",
        "name": "Parque de Campismo e Caravanismo de Constância",
        "tourism": "camp_site"
      }
    },
    {
      "type": "Feature",
      "geometry": {
        "type": "Point",
        "coordinates": [
          -8.6712011,
          39.6289321
        ]
      },
      "properties": {
        "id": 435066388,
        "osm_type": "way",
        "name": "Hotel Cinquentenário",
        "tourism": "hotel",
        "contact:website": "http://www.hotelcinquentenario.pt"
      }
    },
    {
      "type": "Feature",
      "geometry": {
        "type": "Point",
        "coordinates": [
          -8.6774557,
          39.6298574
        ]
      },
      "properties": {
        "id": 435299781,
        "osm_type": "way",
        "name": "Hotel Aleluia",
        "tourism": "hotel"
      }
    },
    {
      "type": "Feature",
      "geometry": {
        "type": "Point",
        "coordinates": [
          -8.6718911,
          39.6273471
        ]
      },
      "properties": {
        "id": 435299784,
        "osm_type": "way",
        "name": "Hotel Avenida Fátima",
        "tourism": "hotel",
        "phone": "+351 249 534 171",
        "website": "https://www.hotelavenidadefatima.com"
      }
    },
    {
      "type": "Feature",
      "geometry": {
        "type": "Point",
        "coordinates": [
          -8.1530346,
          39.6151702
        ]
      },
      "properties": {
        "id": 447027924,
        "osm_type": "way",
        "name": "Centro de Férias de Codes",
        "tourism": "chalet"
      }
    },
    {
      "type": "Feature",
      "geometry": {
        "type": "Point",
        "coordinates": [
          -8.9200274,
          39.4173964
        ]
      },
      "properties": {
        "id": 451338929,
        "osm_type": "way",
        "name": "Cooperativa Terra Chã",
        "tourism": "hostel",
        "phone": "+351243405292",
        "website": "https://cooperativaterracha.pt/"
      }
    },
    {
      "type": "Feature",
      "geometry": {
        "type": "Point",
        "coordinates": [
          -8.3222817,
          39.6252118
        ]
      },
      "properties": {
        "id": 458319854,
        "osm_type": "way",
        "name": "Camping Redondo",
        "tourism": "camp_site",
        "phone": "+351 249 376 421;+351 914 665 243",
        "website": "http://www.campingredondo.com"
      }
    },
    {
      "type": "Feature",
      "geometry": {
        "type": "Point",
        "coordinates": [
          -8.6747436,
          39.6280912
        ]
      },
      "properties": {
        "id": 493140447,
        "osm_type": "way",
        "name": "Cruz Alta",
        "tourism": "hotel"
      }
    },
    {
      "type": "Feature",
      "geometry": {
        "type": "Point",
        "coordinates": [
          -8.6745016,
          39.6282278
        ]
      },
      "properties": {
        "id": 493140604,
        "osm_type": "way",
        "name": "Hotel Regina",
        "tourism": "hotel"
      }
    },
    {
      "type": "Feature",
      "geometry": {
        "type": "Point",
        "coordinates": [
          -8.6735121,
          39.6289193
        ]
      },
      "properties": {
        "id": 493140873,
        "osm_type": "way",
        "name": "Estrela de Fátima",
        "tourism": "hotel"
      }
    },
    {
      "type": "Feature",
      "geometry": {
        "type": "Point",
        "coordinates": [
          -8.6766323,
          39.6304653
        ]
      },
      "properties": {
        "id": 493141192,
        "osm_type": "way",
        "name": "Hotel Três Pastorinhos",
        "tourism": "hotel"
      }
    },
    {
      "type": "Feature",
      "geometry": {
        "type": "Point",
        "coordinates": [
          -8.6760622,
          39.6309571
        ]
      },
      "properties": {
        "id": 493141193,
        "osm_type": "way",
        "name": "Hotel Fátima",
        "tourism": "hotel"
      }
    },
    {
      "type": "Feature",
      "geometry": {
        "type": "Point",
        "coordinates": [
          -8.3544406,
          39.3882291
        ]
      },
      "properties": {
        "id": 543796275,
        "osm_type": "way",
        "name": "Herdade da Galega",
        "tourism": "guest_house"
      }
    },
    {
      "type": "Feature",
      "geometry": {
        "type": "Point",
        "coordinates": [
          -8.6286458,
          39.2041887
        ]
      },
      "properties": {
        "id": 546308031,
        "osm_type": "way",
        "name": "O Novo Príncipe",
        "tourism": "hotel"
      }
    },
    {
      "type": "Feature",
      "geometry": {
        "type": "Point",
        "coordinates": [
          -8.5313812,
          38.9558539
        ]
      },
      "properties": {
        "id": 587491043,
        "osm_type": "way",
        "name": "Casa do Rio Sorraia",
        "tourism": "hotel"
      }
    },
    {
      "type": "Feature",
      "geometry": {
        "type": "Point",
        "coordinates": [
          -8.6729633,
          39.6270924
        ]
      },
      "properties": {
        "id": 593415474,
        "osm_type": "way",
        "name": "Residencia Coroa D'Ouro",
        "tourism": "hotel",
        "opening_hours": "Mo-Su 08:00-22:00"
      }
    },
    {
      "type": "Feature",
      "geometry": {
        "type": "Point",
        "coordinates": [
          -8.337814,
          39.4758406
        ]
      },
      "properties": {
        "id": 594263295,
        "osm_type": "way",
        "name": "Constância.AL",
        "tourism": "guest_house"
      }
    },
    {
      "type": "Feature",
      "geometry": {
        "type": "Point",
        "coordinates": [
          -8.7464942,
          39.0744313
        ]
      },
      "properties": {
        "id": 610261064,
        "osm_type": "way",
        "name": "Parque de Campismo do Escaroupim",
        "tourism": "camp_site"
      }
    },
    {
      "type": "Feature",
      "geometry": {
        "type": "Point",
        "coordinates": [
          -8.1155385,
          39.4545986
        ]
      },
      "properties": {
        "id": 622908171,
        "osm_type": "way",
        "name": "Hotel Abrantur",
        "tourism": "hotel"
      }
    },
    {
      "type": "Feature",
      "geometry": {
        "type": "Point",
        "coordinates": [
          -8.5263424,
          38.9637255
        ]
      },
      "properties": {
        "id": 625120470,
        "osm_type": "way",
        "tourism": "hotel"
      }
    },
    {
      "type": "Feature",
      "geometry": {
        "type": "Point",
        "coordinates": [
          -8.5194931,
          38.9614429
        ]
      },
      "properties": {
        "id": 629480393,
        "osm_type": "way",
        "tourism": "caravan_site"
      }
    },
    {
      "type": "Feature",
      "geometry": {
        "type": "Point",
        "coordinates": [
          -8.6111845,
          38.9655621
        ]
      },
      "properties": {
        "id": 635430118,
        "osm_type": "way",
        "tourism": "chalet"
      }
    },
    {
      "type": "Feature",
      "geometry": {
        "type": "Point",
        "coordinates": [
          -8.6107352,
          38.9656939
        ]
      },
      "properties": {
        "id": 635430119,
        "osm_type": "way",
        "tourism": "chalet"
      }
    },
    {
      "type": "Feature",
      "geometry": {
        "type": "Point",
        "coordinates": [
          -8.8278192,
          39.1637881
        ]
      },
      "properties": {
        "id": 635443933,
        "osm_type": "way",
        "name": "My Camp - Quinta da Broeira",
        "tourism": "camp_site"
      }
    },
    {
      "type": "Feature",
      "geometry": {
        "type": "Point",
        "coordinates": [
          -8.5497197,
          39.6629844
        ]
      },
      "properties": {
        "id": 645595404,
        "osm_type": "way",
        "name": "Quinta da Alcaidaria Mor",
        "tourism": "guest_house"
      }
    },
    {
      "type": "Feature",
      "geometry": {
        "type": "Point",
        "coordinates": [
          -7.992894,
          39.5573602
        ]
      },
      "properties": {
        "id": 658558624,
        "osm_type": "way",
        "name": "Área Serviço Autocaravnas",
        "tourism": "caravan_site"
      }
    },
    {
      "type": "Feature",
      "geometry": {
        "type": "Point",
        "coordinates": [
          -8.6042497,
          38.9433459
        ]
      },
      "properties": {
        "id": 663519345,
        "osm_type": "way",
        "name": "Monte das Gamas",
        "tourism": "chalet"
      }
    },
    {
      "type": "Feature",
      "geometry": {
        "type": "Point",
        "coordinates": [
          -8.414671,
          39.4216807
        ]
      },
      "properties": {
        "id": 668551621,
        "osm_type": "way",
        "name": "Casa d'Edite",
        "tourism": "hostel",
        "website": "https://www.casadedite.com"
      }
    },
    {
      "type": "Feature",
      "geometry": {
        "type": "Point",
        "coordinates": [
          -8.4190856,
          39.4204035
        ]
      },
      "properties": {
        "id": 668551622,
        "osm_type": "way",
        "name": "Quinta do Lagar",
        "tourism": "hostel"
      }
    },
    {
      "type": "Feature",
      "geometry": {
        "type": "Point",
        "coordinates": [
          -8.6058195,
          38.9608659
        ]
      },
      "properties": {
        "id": 668687900,
        "osm_type": "way",
        "tourism": "chalet"
      }
    },
    {
      "type": "Feature",
      "geometry": {
        "type": "Point",
        "coordinates": [
          -8.6058972,
          38.9611154
        ]
      },
      "properties": {
        "id": 668687901,
        "osm_type": "way",
        "tourism": "chalet"
      }
    },
    {
      "type": "Feature",
      "geometry": {
        "type": "Point",
        "coordinates": [
          -8.6056081,
          38.9609957
        ]
      },
      "properties": {
        "id": 668687902,
        "osm_type": "way",
        "tourism": "chalet"
      }
    },
    {
      "type": "Feature",
      "geometry": {
        "type": "Point",
        "coordinates": [
          -8.5914625,
          39.6428246
        ]
      },
      "properties": {
        "id": 669716483,
        "osm_type": "way",
        "name": "Pousada Histórica Conde de Ourém",
        "tourism": "hotel"
      }
    },
    {
      "type": "Feature",
      "geometry": {
        "type": "Point",
        "coordinates": [
          -8.7088661,
          39.4448474
        ]
      },
      "properties": {
        "id": 669723775,
        "osm_type": "way",
        "name": "Parque de Campismo da Praia Fluvial de Olhos d'Água",
        "tourism": "camp_site",
        "tents": "yes"
      }
    },
    {
      "type": "Feature",
      "geometry": {
        "type": "Point",
        "coordinates": [
          -8.6181163,
          39.708994
        ]
      },
      "properties": {
        "id": 673239871,
        "osm_type": "way",
        "name": "Casa da Pedreira",
        "tourism": "guest_house"
      }
    },
    {
      "type": "Feature",
      "geometry": {
        "type": "Point",
        "coordinates": [
          -8.7638195,
          38.9055549
        ]
      },
      "properties": {
        "id": 733414644,
        "osm_type": "way",
        "name": "Monte dos Duques",
        "tourism": "motel",
        "website": "http://www.montedosduques.com/home.htm"
      }
    },
    {
      "type": "Feature",
      "geometry": {
        "type": "Point",
        "coordinates": [
          -8.1892978,
          39.4853117
        ]
      },
      "properties": {
        "id": 788142506,
        "osm_type": "way",
        "tourism": "chalet"
      }
    },
    {
      "type": "Feature",
      "geometry": {
        "type": "Point",
        "coordinates": [
          -8.4280156,
          39.5219235
        ]
      },
      "properties": {
        "id": 839699818,
        "osm_type": "way",
        "name": "Parque de Campismo da Charneca da Peralva",
        "tourism": "camp_site"
      }
    },
    {
      "type": "Feature",
      "geometry": {
        "type": "Point",
        "coordinates": [
          -8.3027079,
          39.6951077
        ]
      },
      "properties": {
        "id": 882471048,
        "osm_type": "way",
        "tourism": "apartment"
      }
    },
    {
      "type": "Feature",
      "geometry": {
        "type": "Point",
        "coordinates": [
          -8.2395887,
          39.6856176
        ]
      },
      "properties": {
        "id": 882471050,
        "osm_type": "way",
        "name": "Oak Cottage",
        "tourism": "apartment"
      }
    },
    {
      "type": "Feature",
      "geometry": {
        "type": "Point",
        "coordinates": [
          -8.6937885,
          39.241539
        ]
      },
      "properties": {
        "id": 908202642,
        "osm_type": "way",
        "name": "Umu",
        "tourism": "hotel",
        "check_date": "2024-05-26"
      }
    },
    {
      "type": "Feature",
      "geometry": {
        "type": "Point",
        "coordinates": [
          -8.5017834,
          39.671059
        ]
      },
      "properties": {
        "id": 914363778,
        "osm_type": "way",
        "name": "Casa dos Pinheiros",
        "tourism": "guest_house"
      }
    },
    {
      "type": "Feature",
      "geometry": {
        "type": "Point",
        "coordinates": [
          -8.4926753,
          39.6527145
        ]
      },
      "properties": {
        "id": 914871732,
        "osm_type": "way",
        "tourism": "guest_house"
      }
    },
    {
      "type": "Feature",
      "geometry": {
        "type": "Point",
        "coordinates": [
          -8.3763737,
          39.674403
        ]
      },
      "properties": {
        "id": 940658122,
        "osm_type": "way",
        "name": "Abrigo de Calvinos",
        "tourism": "guest_house"
      }
    },
    {
      "type": "Feature",
      "geometry": {
        "type": "Point",
        "coordinates": [
          -8.2337091,
          39.6676445
        ]
      },
      "properties": {
        "id": 966136012,
        "osm_type": "way",
        "name": "Apartamentos do Lago",
        "tourism": "hotel",
        "website": "https://apartamentosdolago.com/"
      }
    },
    {
      "type": "Feature",
      "geometry": {
        "type": "Point",
        "coordinates": [
          -8.2566176,
          39.6874743
        ]
      },
      "properties": {
        "id": 966716755,
        "osm_type": "way",
        "name": "Centro de Actividades Escutistas de Ferreira do Zêzere",
        "tourism": "camp_site",
        "website": "https://escutismo.pt/centros/centros-e-campos/pag:centros/51"
      }
    },
    {
      "type": "Feature",
      "geometry": {
        "type": "Point",
        "coordinates": [
          -8.2317124,
          39.67365
        ]
      },
      "properties": {
        "id": 966749364,
        "osm_type": "way",
        "tourism": "hotel"
      }
    },
    {
      "type": "Feature",
      "geometry": {
        "type": "Point",
        "coordinates": [
          -8.7117221,
          39.4442295
        ]
      },
      "properties": {
        "id": 981188988,
        "osm_type": "way",
        "name": "Olhos d'Água",
        "tourism": "hotel",
        "phone": "+351 963 903 306"
      }
    },
    {
      "type": "Feature",
      "geometry": {
        "type": "Point",
        "coordinates": [
          -8.6741371,
          39.235405
        ]
      },
      "properties": {
        "id": 997986551,
        "osm_type": "way",
        "name": "Challet Santa Iria",
        "tourism": "apartment"
      }
    },
    {
      "type": "Feature",
      "geometry": {
        "type": "Point",
        "coordinates": [
          -8.9206478,
          39.4178364
        ]
      },
      "properties": {
        "id": 1013526044,
        "osm_type": "way",
        "name": "ASA de Chãos - Alcobertas",
        "tourism": "caravan_site"
      }
    },
    {
      "type": "Feature",
      "geometry": {
        "type": "Point",
        "coordinates": [
          -8.6743331,
          39.628426
        ]
      },
      "properties": {
        "id": 1027496477,
        "osm_type": "way",
        "name": "Hotel Coração de Fátima",
        "tourism": "hotel",
        "contact:website": "https://www.hotelcoracaodefatima.com/"
      }
    },
    {
      "type": "Feature",
      "geometry": {
        "type": "Point",
        "coordinates": [
          -8.6704779,
          39.6301472
        ]
      },
      "properties": {
        "id": 1027669181,
        "osm_type": "way",
        "name": "Recinto",
        "tourism": "hotel"
      }
    },
    {
      "type": "Feature",
      "geometry": {
        "type": "Point",
        "coordinates": [
          -8.670376,
          39.6300699
        ]
      },
      "properties": {
        "id": 1027669182,
        "osm_type": "way",
        "name": "Vitória",
        "tourism": "hotel"
      }
    },
    {
      "type": "Feature",
      "geometry": {
        "type": "Point",
        "coordinates": [
          -8.6730891,
          39.6270705
        ]
      },
      "properties": {
        "id": 1028499727,
        "osm_type": "way",
        "name": "Residencia Coroa D'Ouro",
        "tourism": "hotel",
        "opening_hours": "Mo-Su 08:00-22:00"
      }
    },
    {
      "type": "Feature",
      "geometry": {
        "type": "Point",
        "coordinates": [
          -8.672826,
          39.6271163
        ]
      },
      "properties": {
        "id": 1028499728,
        "osm_type": "way",
        "name": "Residencia Coroa D'Ouro",
        "tourism": "hotel",
        "opening_hours": "Mo-Su 08:00-22:00"
      }
    },
    {
      "type": "Feature",
      "geometry": {
        "type": "Point",
        "coordinates": [
          -8.6686821,
          39.6289209
        ]
      },
      "properties": {
        "id": 1029122080,
        "osm_type": "way",
        "name": "Casa das Dominicanas",
        "tourism": "hotel"
      }
    },
    {
      "type": "Feature",
      "geometry": {
        "type": "Point",
        "coordinates": [
          -8.5206101,
          38.9632753
        ]
      },
      "properties": {
        "id": 1040006715,
        "osm_type": "way",
        "tourism": "hotel"
      }
    },
    {
      "type": "Feature",
      "geometry": {
        "type": "Point",
        "coordinates": [
          -8.3374167,
          39.4759213
        ]
      },
      "properties": {
        "id": 1085049086,
        "osm_type": "way",
        "name": "Constância Guest House",
        "tourism": "guest_house",
        "phone": "+351 926 371 415",
        "website": "https://www.constanciaguesthouse.pt/"
      }
    },
    {
      "type": "Feature",
      "geometry": {
        "type": "Point",
        "coordinates": [
          -8.1933168,
          39.4484561
        ]
      },
      "properties": {
        "id": 1100721135,
        "osm_type": "way",
        "name": "ParqueTejo",
        "tourism": "camp_site",
        "opening_hours": "Mo-Su 08:30-20:00",
        "tents": "yes",
        "phone": "+351241105324"
      }
    },
    {
      "type": "Feature",
      "geometry": {
        "type": "Point",
        "coordinates": [
          -8.6751236,
          39.6278197
        ]
      },
      "properties": {
        "id": 1108267092,
        "osm_type": "way",
        "name": "Mercure Fátima",
        "tourism": "hotel",
        "phone": "+351249248000",
        "website": "https://all.accor.com/hotel/B1F4/index.pt.shtml"
      }
    },
    {
      "type": "Feature",
      "geometry": {
        "type": "Point",
        "coordinates": [
          -8.4036472,
          39.5220121
        ]
      },
      "properties": {
        "id": 1154978683,
        "osm_type": "way",
        "name": "Albergue de peregrinos D. Dinis",
        "tourism": "guest_house",
        "phone": "+351 249 381 426;+351 916 180 103"
      }
    },
    {
      "type": "Feature",
      "geometry": {
        "type": "Point",
        "coordinates": [
          -8.4727137,
          39.460621
        ]
      },
      "properties": {
        "id": 1155802484,
        "osm_type": "way",
        "name": "Hotel Gameiro",
        "tourism": "hotel"
      }
    },
    {
      "type": "Feature",
      "geometry": {
        "type": "Point",
        "coordinates": [
          -8.4191467,
          39.7086118
        ]
      },
      "properties": {
        "id": 1160591672,
        "osm_type": "way",
        "tourism": "guest_house"
      }
    },
    {
      "type": "Feature",
      "geometry": {
        "type": "Point",
        "coordinates": [
          -8.41911,
          39.7084524
        ]
      },
      "properties": {
        "id": 1160591674,
        "osm_type": "way",
        "tourism": "guest_house"
      }
    },
    {
      "type": "Feature",
      "geometry": {
        "type": "Point",
        "coordinates": [
          -8.3362425,
          39.6377859
        ]
      },
      "properties": {
        "id": 1182672704,
        "osm_type": "way",
        "name": "Camping Pelinos",
        "tourism": "camp_site",
        "tents": "yes",
        "phone": "+351 249 301 814",
        "website": "https://www.campingpelinos.com/"
      }
    },
    {
      "type": "Feature",
      "geometry": {
        "type": "Point",
        "coordinates": [
          -8.4506954,
          39.0007241
        ]
      },
      "properties": {
        "id": 1221554151,
        "osm_type": "way",
        "tourism": "caravan_site"
      }
    },
    {
      "type": "Feature",
      "geometry": {
        "type": "Point",
        "coordinates": [
          -8.7321601,
          38.9965722
        ]
      },
      "properties": {
        "id": 1258371748,
        "osm_type": "way",
        "name": "Salvaterra Country House & Spa",
        "tourism": "guest_house",
        "website": "https://salvaterracountryhouse.com/"
      }
    },
    {
      "type": "Feature",
      "geometry": {
        "type": "Point",
        "coordinates": [
          -8.4819024,
          39.355778
        ]
      },
      "properties": {
        "id": 1267142165,
        "osm_type": "way",
        "tourism": "apartment"
      }
    },
    {
      "type": "Feature",
      "geometry": {
        "type": "Point",
        "coordinates": [
          -8.468744,
          39.355879
        ]
      },
      "properties": {
        "id": 1270363847,
        "osm_type": "way",
        "tourism": "chalet"
      }
    },
    {
      "type": "Feature",
      "geometry": {
        "type": "Point",
        "coordinates": [
          -8.4684064,
          39.3553035
        ]
      },
      "properties": {
        "id": 1270363848,
        "osm_type": "way",
        "name": "Quinta do Lidador",
        "tourism": "chalet"
      }
    },
    {
      "type": "Feature",
      "geometry": {
        "type": "Point",
        "coordinates": [
          -8.4688408,
          39.3556346
        ]
      },
      "properties": {
        "id": 1270363849,
        "osm_type": "way",
        "tourism": "chalet"
      }
    },
    {
      "type": "Feature",
      "geometry": {
        "type": "Point",
        "coordinates": [
          -8.8091241,
          38.9935744
        ]
      },
      "properties": {
        "id": 1277877461,
        "osm_type": "way",
        "tourism": "caravan_site"
      }
    },
    {
      "type": "Feature",
      "geometry": {
        "type": "Point",
        "coordinates": [
          -8.0027521,
          39.4822429
        ]
      },
      "properties": {
        "id": 1294821456,
        "osm_type": "way",
        "name": "Parque de Campismo Municipal de Ortiga",
        "tourism": "camp_site",
        "tents": "yes",
        "phone": "+351241573464"
      }
    },
    {
      "type": "Feature",
      "geometry": {
        "type": "Point",
        "coordinates": [
          -8.6888103,
          39.6356251
        ]
      },
      "properties": {
        "id": 1346608162,
        "osm_type": "way",
        "name": "Floresta Fátima",
        "tourism": "hotel"
      }
    },
    {
      "type": "Feature",
      "geometry": {
        "type": "Point",
        "coordinates": [
          -8.1698201,
          39.4565884
        ]
      },
      "properties": {
        "id": 1427513333,
        "osm_type": "way",
        "name": "Quinta de Coalhos",
        "tourism": "guest_house",
        "website": "https://quintadecoalhos.pt/"
      }
    },
    {
      "type": "Feature",
      "geometry": {
        "type": "Point",
        "coordinates": [
          -8.3526836,
          39.5928058
        ]
      },
      "properties": {
        "id": 1470236151,
        "osm_type": "way",
        "name": "Horto do Amor",
        "tourism": "guest_house"
      }
    },
    {
      "type": "Feature",
      "geometry": {
        "type": "Point",
        "coordinates": [
          -8.8878459,
          38.9239264
        ]
      },
      "properties": {
        "id": 1473750822,
        "osm_type": "way",
        "name": "Hotel São Lourenço",
        "tourism": "hotel"
      }
    },
    {
      "type": "Feature",
      "geometry": {
        "type": "Point",
        "coordinates": [
          -8.7507917,
          39.1964447
        ]
      },
      "properties": {
        "id": 1492428820,
        "osm_type": "way",
        "name": "Refúgio da Quinta Nere Maitia",
        "tourism": "hotel",
        "phone": "+351 243 129 020",
        "website": "https://quintaneremaitia.com"
      }
    },
    {
      "type": "Feature",
      "geometry": {
        "type": "Point",
        "coordinates": [
          -8.6751271,
          39.6325956
        ]
      },
      "properties": {
        "id": 6453838,
        "osm_type": "relation",
        "name": "Santa Noite",
        "tourism": "guest_house"
      }
    },
    {
      "type": "Feature",
      "geometry": {
        "type": "Point",
        "coordinates": [
          -8.5929636,
          39.6410317
        ]
      },
      "properties": {
        "id": 9319231,
        "osm_type": "relation",
        "name": "Casa Alta Royal Lodge",
        "tourism": "guest_house"
      }
    },
    {
      "type": "Feature",
      "geometry": {
        "type": "Point",
        "coordinates": [
          -8.0132387,
          39.7082406
        ]
      },
      "properties": {
        "id": 9790427,
        "osm_type": "relation",
        "tourism": "camp_site",
        "tents": "yes"
      }
    },
    {
      "type": "Feature",
      "geometry": {
        "type": "Point",
        "coordinates": [
          -8.0144918,
          39.7091227
        ]
      },
      "properties": {
        "id": 9821854,
        "osm_type": "relation",
        "tourism": "camp_site"
      }
    },
    {
      "type": "Feature",
      "geometry": {
        "type": "Point",
        "coordinates": [
          -8.2700494,
          39.6081952
        ]
      },
      "properties": {
        "id": 13063804,
        "osm_type": "relation",
        "name": "Hotel Estalagem Ilha do Lombo",
        "tourism": "hotel",
        "website": "https://hotel-estalagem-da-ilha-do-lombo-tomar.vivehotels.com"
      }
    },
    {
      "type": "Feature",
      "geometry": {
        "type": "Point",
        "coordinates": [
          -8.7674895,
          39.4419841
        ]
      },
      "properties": {
        "id": 17677302,
        "osm_type": "relation",
        "name": "Casa da Amieira",
        "tourism": "hotel",
        "website": "https://www.casadaamieira.com/"
      }
    }
  ]
}