{
  "type": "FeatureCollection",
  "features": [
    {
      "type": "Feature",
      "geometry": {
        "type": "Point",
        "coordinates": [
          23.1329888,
          63.838143
        ]
      },
      "properties": {
        "id": 217382673,
        "osm_type": "node",
        "name": "Hotel Kokkola",
        "tourism": "hotel",
        "phone": "(06) 824 1000"
      }
    },
    {
      "type": "Feature",
      "geometry": {
        "type": "Point",
        "coordinates": [
          23.1349289,
          63.8395799
        ]
      },
      "properties": {
        "id": 277378778,
        "osm_type": "node",
        "name": "Original Sokos Hotel Kaarle",
        "tourism": "hotel",
        "phone": "(06) 826 6111",
        "website": "https://www.sokoshotels.fi/en/kokkola/sokos-hotel-kaarle"
      }
    },
    {
      "type": "Feature",
      "geometry": {
        "type": "Point",
        "coordinates": [
          23.1316926,
          63.8388486
        ]
      },
      "properties": {
        "id": 279072677,
        "osm_type": "node",
        "name": "Hotelli Seurahuone",
        "tourism": "hotel",
        "opening_hours": "Mo-Fr 07:00-22:30; Sa 08:00-22:30; Su 08:00-12:30",
        "phone": "020-795 9600"
      }
    },
    {
      "type": "Feature",
      "geometry": {
        "type": "Point",
        "coordinates": [
          23.6864758,
          63.5449066
        ]
      },
      "properties": {
        "id": 442591433,
        "osm_type": "node",
        "tourism": "camp_site"
      }
    },
    {
      "type": "Feature",
      "geometry": {
        "type": "Point",
        "coordinates": [
          23.916804,
          63.9000723
        ]
      },
      "properties": {
        "id": 2284884906,
        "osm_type": "node",
        "name": "Hotelli Ravintola Jokihelmi",
        "tourism": "hotel"
      }
    },
    {
      "type": "Feature",
      "geometry": {
        "type": "Point",
        "coordinates": [
          24.6758938,
          63.2770679
        ]
      },
      "properties": {
        "id": 3581078153,
        "osm_type": "node",
        "name": "Sysilampi",
        "tourism": "camp_site",
        "tents": "yes",
        "phone": "0205 64 5270"
      }
    },
    {
      "type": "Feature",
      "geometry": {
        "type": "Point",
        "coordinates": [
          23.9178029,
          63.4180245
        ]
      },
      "properties": {
        "id": 3635806616,
        "osm_type": "node",
        "name": "Huhtaniemen Mökkikylä",
        "tourism": "chalet",
        "phone": "06-8626 190",
        "website": "http://www.kase.fi/~hannutm/"
      }
    },
    {
      "type": "Feature",
      "geometry": {
        "type": "Point",
        "coordinates": [
          24.6269234,
          63.2112132
        ]
      },
      "properties": {
        "id": 3635910114,
        "osm_type": "node",
        "name": "Joutenhovi",
        "tourism": "chalet",
        "phone": "+358400622039"
      }
    },
    {
      "type": "Feature",
      "geometry": {
        "type": "Point",
        "coordinates": [
          23.1335317,
          63.9176737
        ]
      },
      "properties": {
        "id": 3841794848,
        "osm_type": "node",
        "name": "Hällskarin laavu",
        "tourism": "camp_site"
      }
    },
    {
      "type": "Feature",
      "geometry": {
        "type": "Point",
        "coordinates": [
          23.1519858,
          63.8429949
        ]
      },
      "properties": {
        "id": 7490091865,
        "osm_type": "node",
        "name": "Villa Romantica",
        "tourism": "guest_house",
        "website": "https://www.villaromantica.fi/villaroamantica/"
      }
    },
    {
      "type": "Feature",
      "geometry": {
        "type": "Point",
        "coordinates": [
          23.925908,
          63.4174088
        ]
      },
      "properties": {
        "id": 7780943939,
        "osm_type": "node",
        "name": "Sillanpään Kartano",
        "tourism": "hotel"
      }
    },
    {
      "type": "Feature",
      "geometry": {
        "type": "Point",
        "coordinates": [
          23.7777185,
          63.37784
        ]
      },
      "properties": {
        "id": 9970986507,
        "osm_type": "node",
        "name": "Jukintuvan Kortteeri",
        "tourism": "guest_house",
        "website": "https://www.jukintuvankortteeri.fi"
      }
    },
    {
      "type": "Feature",
      "geometry": {
        "type": "Point",
        "coordinates": [
          24.1386527,
          63.7146042
        ]
      },
      "properties": {
        "id": 11988948221,
        "osm_type": "node",
        "name": "Hongiston leirikeskus",
        "tourism": "camp_site"
      }
    },
    {
      "type": "Feature",
      "geometry": {
        "type": "Point",
        "coordinates": [
          24.6825993,
          63.3033514
        ]
      },
      "properties": {
        "id": 12043738737,
        "osm_type": "node",
        "name": "Jyrkkäniemi",
        "tourism": "camp_site",
        "tents": "yes"
      }
    },
    {
      "type": "Feature",
      "geometry": {
        "type": "Point",
        "coordinates": [
          23.1307858,
          63.8389857
        ]
      },
      "properties": {
        "id": 12127554067,
        "osm_type": "node",
        "name": "Hostel400KokkolaExtend",
        "tourism": "hostel",
        "website": "https://www.hostel400kokkola.fi"
      }
    },
    {
      "type": "Feature",
      "geometry": {
        "type": "Point",
        "coordinates": [
          23.122479,
          63.8357441
        ]
      },
      "properties": {
        "id": 12127554069,
        "osm_type": "node",
        "name": "Hostel400Kokkola",
        "tourism": "hostel",
        "website": "https://www.hostel400kokkola.fi"
      }
    },
    {
      "type": "Feature",
      "geometry": {
        "type": "Point",
        "coordinates": [
          24.6627422,
          63.3176099
        ]
      },
      "properties": {
        "id": 12181708925,
        "osm_type": "node",
        "name": "Pitkälahti",
        "tourism": "camp_site",
        "tents": "yes",
        "phone": "0205 64 5270",
        "website": "https://www.luontoon.fi/pitkalahtiautiotupa"
      }
    },
    {
      "type": "Feature",
      "geometry": {
        "type": "Point",
        "coordinates": [
          23.7000115,
          63.5449475
        ]
      },
      "properties": {
        "id": 13162397488,
        "osm_type": "node",
        "name": "Hotelli Kaustinen",
        "tourism": "hotel"
      }
    },
    {
      "type": "Feature",
      "geometry": {
        "type": "Point",
        "coordinates": [
          23.1659982,
          63.8269387
        ]
      },
      "properties": {
        "id": 13437628822,
        "osm_type": "node",
        "name": "Kotimaailma Rooms Kokkola",
        "tourism": "hostel",
        "contact:phone": "+35844 491 3018",
        "contact:website": "https://www.kotimaailma.com/fi/kaupungit/kotimaailma-roomsit-kokkola"
      }
    },
    {
      "type": "Feature",
      "geometry": {
        "type": "Point",
        "coordinates": [
          23.6629227,
          63.560238
        ]
      },
      "properties": {
        "id": 13661428115,
        "osm_type": "node",
        "name": "Forenom Hostel Kaustinen",
        "tourism": "hostel"
      }
    },
    {
      "type": "Feature",
      "geometry": {
        "type": "Point",
        "coordinates": [
          23.1298031,
          63.8404662
        ]
      },
      "properties": {
        "id": 255493807,
        "osm_type": "way",
        "name": "Wanha Kartano",
        "tourism": "hotel",
        "website": "http://www.wanhakartano.com"
      }
    },
    {
      "type": "Feature",
      "geometry": {
        "type": "Point",
        "coordinates": [
          23.7015434,
          63.5433774
        ]
      },
      "properties": {
        "id": 358685090,
        "osm_type": "way",
        "name": "Mosala Caravan",
        "tourism": "camp_site",
        "tents": "yes",
        "phone": "+358 45 1896989",
        "website": "https://www.mosalacaravan.com/"
      }
    },
    {
      "type": "Feature",
      "geometry": {
        "type": "Point",
        "coordinates": [
          24.0977398,
          63.4502894
        ]
      },
      "properties": {
        "id": 358712089,
        "osm_type": "way",
        "name": "Camping Halsuan Helmi",
        "tourism": "camp_site",
        "tents": "yes",
        "phone": "+358 6 8636 120",
        "website": "https://halsuanhelmi.fi"
      }
    },
    {
      "type": "Feature",
      "geometry": {
        "type": "Point",
        "coordinates": [
          23.6866611,
          63.547675
        ]
      },
      "properties": {
        "id": 358712933,
        "osm_type": "way",
        "name": "Kaustisen Motelli Oy",
        "tourism": "hotel",
        "phone": "(06) 860 7711",
        "website": "https://www.nestekaustinen.fi/hotelli/"
      }
    },
    {
      "type": "Feature",
      "geometry": {
        "type": "Point",
        "coordinates": [
          23.1133786,
          63.8543854
        ]
      },
      "properties": {
        "id": 359245912,
        "osm_type": "way",
        "name": "Kokkolan leirintäalue",
        "tourism": "camp_site",
        "tents": "yes",
        "phone": "+358 6 831 4006",
        "website": "https://www.kokkola-camping.fi/"
      }
    },
    {
      "type": "Feature",
      "geometry": {
        "type": "Point",
        "coordinates": [
          23.1170998,
          63.8916434
        ]
      },
      "properties": {
        "id": 501268459,
        "osm_type": "way",
        "name": "Rastimaja",
        "tourism": "alpine_hut",
        "website": "https://www.kokkolanlatu.fi/yhdistys/rastimaja/"
      }
    },
    {
      "type": "Feature",
      "geometry": {
        "type": "Point",
        "coordinates": [
          23.7989777,
          63.4766241
        ]
      },
      "properties": {
        "id": 762000697,
        "osm_type": "way",
        "name": "Hotelli Kampeli",
        "tourism": "hotel",
        "website": "http://www.kampeli.fi/"
      }
    },
    {
      "type": "Feature",
      "geometry": {
        "type": "Point",
        "coordinates": [
          24.8922783,
          63.4339001
        ]
      },
      "properties": {
        "id": 889601468,
        "osm_type": "way",
        "name": "Valkeisjärven leirintäalue",
        "tourism": "camp_site",
        "tents": "yes",
        "phone": "+358405366931",
        "website": "https://valkeisjarvenleirintaalue.fi/"
      }
    },
    {
      "type": "Feature",
      "geometry": {
        "type": "Point",
        "coordinates": [
          24.2639319,
          63.4360562
        ]
      },
      "properties": {
        "id": 1089960943,
        "osm_type": "way",
        "name": "Karhukorven Maatilamatkailu",
        "tourism": "guest_house",
        "phone": "+358400347210"
      }
    },
    {
      "type": "Feature",
      "geometry": {
        "type": "Point",
        "coordinates": [
          23.0351531,
          63.8396576
        ]
      },
      "properties": {
        "id": 1094050917,
        "osm_type": "way",
        "name": "Matkustajakoti Ykspihlaja",
        "tourism": "guest_house",
        "phone": "+358 40 833 4865",
        "website": "https://www.ykspihlaja.fi"
      }
    },
    {
      "type": "Feature",
      "geometry": {
        "type": "Point",
        "coordinates": [
          24.258021,
          63.7609716
        ]
      },
      "properties": {
        "id": 1119980427,
        "osm_type": "way",
        "name": "Maijala",
        "tourism": "apartment"
      }
    },
    {
      "type": "Feature",
      "geometry": {
        "type": "Point",
        "coordinates": [
          24.4488823,
          63.6104858
        ]
      },
      "properties": {
        "id": 1119980445,
        "osm_type": "way",
        "name": "Maaseutuhotelli Hirvikoski",
        "tourism": "hotel",
        "website": "https://www.maaseutuhotellihirvikoski.fi"
      }
    },
    {
      "type": "Feature",
      "geometry": {
        "type": "Point",
        "coordinates": [
          24.6749651,
          63.5433198
        ]
      },
      "properties": {
        "id": 1121490527,
        "osm_type": "way",
        "name": "Pitkäniemen leirintäalue",
        "tourism": "camp_site",
        "tents": "yes",
        "website": "https://www.sfc-harmanseutu.fi"
      }
    },
    {
      "type": "Feature",
      "geometry": {
        "type": "Point",
        "coordinates": [
          24.6982702,
          63.558463
        ]
      },
      "properties": {
        "id": 1121490541,
        "osm_type": "way",
        "name": "Kuturanta",
        "tourism": "camp_site",
        "tents": "yes",
        "website": "https://kuturanta.fi"
      }
    }
  ]
}