{
  "type": "FeatureCollection",
  "features": [
    {
      "type": "Feature",
      "geometry": {
        "type": "Point",
        "coordinates": [
          23.6844894,
          45.2951138
        ]
      },
      "properties": {
        "id": 304735831,
        "osm_type": "node",
        "name": "Rânca",
        "tourism": "guest_house"
      }
    },
    {
      "type": "Feature",
      "geometry": {
        "type": "Point",
        "coordinates": [
          23.6727285,
          45.2128583
        ]
      },
      "properties": {
        "id": 304736079,
        "osm_type": "node",
        "name": "SOMN",
        "tourism": "guest_house"
      }
    },
    {
      "type": "Feature",
      "geometry": {
        "type": "Point",
        "coordinates": [
          23.7645673,
          45.2492107
        ]
      },
      "properties": {
        "id": 304736270,
        "osm_type": "node",
        "name": "Cabana",
        "tourism": "alpine_hut"
      }
    },
    {
      "type": "Feature",
      "geometry": {
        "type": "Point",
        "coordinates": [
          23.2759172,
          45.0451909
        ]
      },
      "properties": {
        "id": 401845914,
        "osm_type": "node",
        "name": "Anna",
        "tourism": "hotel",
        "website": "https://www.hotelanna.ro/"
      }
    },
    {
      "type": "Feature",
      "geometry": {
        "type": "Point",
        "coordinates": [
          23.2699987,
          45.0415631
        ]
      },
      "properties": {
        "id": 421930339,
        "osm_type": "node",
        "name": "Brâncuși",
        "tourism": "hotel",
        "phone": "+40 253 215 981",
        "website": "http://www.hotelbrancusi.ro"
      }
    },
    {
      "type": "Feature",
      "geometry": {
        "type": "Point",
        "coordinates": [
          23.2705929,
          45.038924
        ]
      },
      "properties": {
        "id": 446720667,
        "osm_type": "node",
        "name": "Hotel Gorj",
        "tourism": "hotel",
        "website": "http://www.hotelgorj.ro"
      }
    },
    {
      "type": "Feature",
      "geometry": {
        "type": "Point",
        "coordinates": [
          23.2729783,
          45.0388112
        ]
      },
      "properties": {
        "id": 448878642,
        "osm_type": "node",
        "name": "Europa",
        "tourism": "hotel",
        "website": "https://www.hotelrestauranteuropa.ro/"
      }
    },
    {
      "type": "Feature",
      "geometry": {
        "type": "Point",
        "coordinates": [
          23.7925305,
          45.1899961
        ]
      },
      "properties": {
        "id": 959614083,
        "osm_type": "node",
        "name": "Pensiunea „Cheile Oltețului”",
        "tourism": "guest_house",
        "phone": "+40729777425",
        "website": "https://cheile-oltetului.ro/"
      }
    },
    {
      "type": "Feature",
      "geometry": {
        "type": "Point",
        "coordinates": [
          23.7933804,
          45.1899993
        ]
      },
      "properties": {
        "id": 959616006,
        "osm_type": "node",
        "name": "Pensiunea Castania",
        "tourism": "guest_house",
        "phone": "+40740275554",
        "website": "https://www.castania.ro/"
      }
    },
    {
      "type": "Feature",
      "geometry": {
        "type": "Point",
        "coordinates": [
          23.788641,
          45.1898425
        ]
      },
      "properties": {
        "id": 959656031,
        "osm_type": "node",
        "name": "Pensiunea MIRAJ",
        "tourism": "guest_house",
        "phone": "+40742742773",
        "website": "http://www.cazarevacanta.ro/cazare/pensiunea-miraj-polovragi-gorj"
      }
    },
    {
      "type": "Feature",
      "geometry": {
        "type": "Point",
        "coordinates": [
          23.6919294,
          45.2852928
        ]
      },
      "properties": {
        "id": 1917699395,
        "osm_type": "node",
        "name": "Cabana Ciobănașu",
        "tourism": "guest_house"
      }
    },
    {
      "type": "Feature",
      "geometry": {
        "type": "Point",
        "coordinates": [
          23.6848459,
          45.3027213
        ]
      },
      "properties": {
        "id": 1917707862,
        "osm_type": "node",
        "name": "Pensiunea Belvedere",
        "tourism": "guest_house"
      }
    },
    {
      "type": "Feature",
      "geometry": {
        "type": "Point",
        "coordinates": [
          23.6810551,
          45.2995726
        ]
      },
      "properties": {
        "id": 1917711349,
        "osm_type": "node",
        "name": "Tara guesthouse and restaurant",
        "tourism": "guest_house"
      }
    },
    {
      "type": "Feature",
      "geometry": {
        "type": "Point",
        "coordinates": [
          23.6850686,
          45.3035882
        ]
      },
      "properties": {
        "id": 1917712634,
        "osm_type": "node",
        "name": "Ina Guesthouse",
        "tourism": "guest_house"
      }
    },
    {
      "type": "Feature",
      "geometry": {
        "type": "Point",
        "coordinates": [
          23.6849699,
          45.3032471
        ]
      },
      "properties": {
        "id": 1917714890,
        "osm_type": "node",
        "name": "Capra Neagră Guesthouse",
        "tourism": "guest_house"
      }
    },
    {
      "type": "Feature",
      "geometry": {
        "type": "Point",
        "coordinates": [
          23.6826924,
          45.3036022
        ]
      },
      "properties": {
        "id": 1952098417,
        "osm_type": "node",
        "name": "Otto",
        "tourism": "hostel"
      }
    },
    {
      "type": "Feature",
      "geometry": {
        "type": "Point",
        "coordinates": [
          23.5113864,
          44.9577527
        ]
      },
      "properties": {
        "id": 2293750002,
        "osm_type": "node",
        "name": "Hotel Gilord",
        "tourism": "hotel"
      }
    },
    {
      "type": "Feature",
      "geometry": {
        "type": "Point",
        "coordinates": [
          23.4425972,
          44.8922139
        ]
      },
      "properties": {
        "id": 2381102047,
        "osm_type": "node",
        "name": "Hotel Sara",
        "tourism": "hotel"
      }
    },
    {
      "type": "Feature",
      "geometry": {
        "type": "Point",
        "coordinates": [
          23.3152369,
          45.0822378
        ]
      },
      "properties": {
        "id": 2463546234,
        "osm_type": "node",
        "name": "Pensiunea Jiul",
        "tourism": "guest_house",
        "phone": "+40 253 214 454",
        "website": "http://www.pensiunea-jiul.ro"
      }
    },
    {
      "type": "Feature",
      "geometry": {
        "type": "Point",
        "coordinates": [
          23.3839631,
          45.1945069
        ]
      },
      "properties": {
        "id": 2524761952,
        "osm_type": "node",
        "name": "Europa",
        "tourism": "hotel"
      }
    },
    {
      "type": "Feature",
      "geometry": {
        "type": "Point",
        "coordinates": [
          23.2776363,
          45.0390655
        ]
      },
      "properties": {
        "id": 2576678770,
        "osm_type": "node",
        "name": "Pensiunea Jiul Central",
        "tourism": "guest_house",
        "opening_hours": "24/7",
        "phone": "+40 253 211 085",
        "website": "http://www.pensiunea-jiul.ro/"
      }
    },
    {
      "type": "Feature",
      "geometry": {
        "type": "Point",
        "coordinates": [
          23.135878,
          45.1205279
        ]
      },
      "properties": {
        "id": 2955910379,
        "osm_type": "node",
        "name": "Casa din pădure",
        "tourism": "guest_house",
        "phone": "+40-752-151-031",
        "website": "https://www.casadinpadure.ro/"
      }
    },
    {
      "type": "Feature",
      "geometry": {
        "type": "Point",
        "coordinates": [
          23.0350751,
          44.9417332
        ]
      },
      "properties": {
        "id": 2972900074,
        "osm_type": "node",
        "name": "Motel Azur",
        "tourism": "motel",
        "opening_hours": "24/7",
        "phone": "+40253-276 505"
      }
    },
    {
      "type": "Feature",
      "geometry": {
        "type": "Point",
        "coordinates": [
          23.5427177,
          45.0938627
        ]
      },
      "properties": {
        "id": 3064498785,
        "osm_type": "node",
        "name": "Pensiunea LUCICA",
        "tourism": "hostel"
      }
    },
    {
      "type": "Feature",
      "geometry": {
        "type": "Point",
        "coordinates": [
          23.5402541,
          45.1041731
        ]
      },
      "properties": {
        "id": 3064754922,
        "osm_type": "node",
        "name": "Pensiunea TEODORA",
        "tourism": "hostel"
      }
    },
    {
      "type": "Feature",
      "geometry": {
        "type": "Point",
        "coordinates": [
          23.2726783,
          45.0433912
        ]
      },
      "properties": {
        "id": 3117370167,
        "osm_type": "node",
        "name": "Pensiunea Casa Vera",
        "tourism": "guest_house"
      }
    },
    {
      "type": "Feature",
      "geometry": {
        "type": "Point",
        "coordinates": [
          23.2695134,
          45.0391599
        ]
      },
      "properties": {
        "id": 3117370173,
        "osm_type": "node",
        "name": "Antique",
        "tourism": "guest_house"
      }
    },
    {
      "type": "Feature",
      "geometry": {
        "type": "Point",
        "coordinates": [
          23.2711894,
          45.0357881
        ]
      },
      "properties": {
        "id": 3477296253,
        "osm_type": "node",
        "name": "Hotel Laguna",
        "tourism": "hotel"
      }
    },
    {
      "type": "Feature",
      "geometry": {
        "type": "Point",
        "coordinates": [
          23.1469357,
          45.1103805
        ]
      },
      "properties": {
        "id": 3577087313,
        "osm_type": "node",
        "name": "Pensiunea Casa Bella",
        "tourism": "guest_house"
      }
    },
    {
      "type": "Feature",
      "geometry": {
        "type": "Point",
        "coordinates": [
          23.6823325,
          45.3025358
        ]
      },
      "properties": {
        "id": 4319575239,
        "osm_type": "node",
        "name": "cetina",
        "tourism": "guest_house"
      }
    },
    {
      "type": "Feature",
      "geometry": {
        "type": "Point",
        "coordinates": [
          23.4322405,
          45.127401
        ]
      },
      "properties": {
        "id": 4342785890,
        "osm_type": "node",
        "name": "La Toscana Rustica",
        "tourism": "hotel",
        "phone": "+40761030300",
        "website": "http://www.toscanarustica.ro"
      }
    },
    {
      "type": "Feature",
      "geometry": {
        "type": "Point",
        "coordinates": [
          23.6898601,
          45.2908186
        ]
      },
      "properties": {
        "id": 4348356304,
        "osm_type": "node",
        "name": "Complex Panoramic",
        "tourism": "hotel",
        "phone": "+40733998881"
      }
    },
    {
      "type": "Feature",
      "geometry": {
        "type": "Point",
        "coordinates": [
          23.8292888,
          45.1630708
        ]
      },
      "properties": {
        "id": 4381855090,
        "osm_type": "node",
        "name": "Căsuța din Luncă",
        "tourism": "chalet",
        "website": "https://www.casutadinlunca.ro/"
      }
    },
    {
      "type": "Feature",
      "geometry": {
        "type": "Point",
        "coordinates": [
          23.2996146,
          45.0550902
        ]
      },
      "properties": {
        "id": 4408434815,
        "osm_type": "node",
        "name": "Hotel La Narcise",
        "tourism": "hotel"
      }
    },
    {
      "type": "Feature",
      "geometry": {
        "type": "Point",
        "coordinates": [
          23.3907433,
          45.1935351
        ]
      },
      "properties": {
        "id": 4408451113,
        "osm_type": "node",
        "name": "Viișoara",
        "tourism": "guest_house"
      }
    },
    {
      "type": "Feature",
      "geometry": {
        "type": "Point",
        "coordinates": [
          22.6832642,
          45.1272052
        ]
      },
      "properties": {
        "id": 4857366769,
        "osm_type": "node",
        "tourism": "guest_house"
      }
    },
    {
      "type": "Feature",
      "geometry": {
        "type": "Point",
        "coordinates": [
          22.683332,
          45.1272267
        ]
      },
      "properties": {
        "id": 4857366770,
        "osm_type": "node",
        "tourism": "camp_site"
      }
    },
    {
      "type": "Feature",
      "geometry": {
        "type": "Point",
        "coordinates": [
          22.9505078,
          45.0447971
        ]
      },
      "properties": {
        "id": 4895060723,
        "osm_type": "node",
        "name": "Pensiunea Magnolia",
        "tourism": "guest_house",
        "phone": "0727202096"
      }
    },
    {
      "type": "Feature",
      "geometry": {
        "type": "Point",
        "coordinates": [
          23.8130859,
          45.165894
        ]
      },
      "properties": {
        "id": 5031086782,
        "osm_type": "node",
        "name": "Pensiunea Ana-Maria",
        "tourism": "guest_house",
        "phone": "+40763675466"
      }
    },
    {
      "type": "Feature",
      "geometry": {
        "type": "Point",
        "coordinates": [
          23.7543399,
          45.1929326
        ]
      },
      "properties": {
        "id": 5031775070,
        "osm_type": "node",
        "name": "Vila Nico",
        "tourism": "guest_house",
        "phone": "+40769096400"
      }
    },
    {
      "type": "Feature",
      "geometry": {
        "type": "Point",
        "coordinates": [
          23.6893342,
          45.2762946
        ]
      },
      "properties": {
        "id": 5031971688,
        "osm_type": "node",
        "name": "Cabana Gabriel",
        "tourism": "guest_house"
      }
    },
    {
      "type": "Feature",
      "geometry": {
        "type": "Point",
        "coordinates": [
          23.689422,
          45.2773812
        ]
      },
      "properties": {
        "id": 5031972087,
        "osm_type": "node",
        "name": "Pensiunea Safir",
        "tourism": "guest_house"
      }
    },
    {
      "type": "Feature",
      "geometry": {
        "type": "Point",
        "coordinates": [
          23.6841494,
          45.307533
        ]
      },
      "properties": {
        "id": 5031972358,
        "osm_type": "node",
        "name": "Pensiunea Paradis",
        "tourism": "guest_house"
      }
    },
    {
      "type": "Feature",
      "geometry": {
        "type": "Point",
        "coordinates": [
          23.6845976,
          45.3074143
        ]
      },
      "properties": {
        "id": 5031972663,
        "osm_type": "node",
        "name": "Vila Verde",
        "tourism": "guest_house"
      }
    },
    {
      "type": "Feature",
      "geometry": {
        "type": "Point",
        "coordinates": [
          23.6845809,
          45.3077648
        ]
      },
      "properties": {
        "id": 5031972696,
        "osm_type": "node",
        "name": "Pensiunea Brândușa",
        "tourism": "guest_house"
      }
    },
    {
      "type": "Feature",
      "geometry": {
        "type": "Point",
        "coordinates": [
          23.6884368,
          45.2780295
        ]
      },
      "properties": {
        "id": 5032960100,
        "osm_type": "node",
        "name": "Pensiunea Casa Ancuței",
        "tourism": "guest_house",
        "phone": "+40745309055"
      }
    },
    {
      "type": "Feature",
      "geometry": {
        "type": "Point",
        "coordinates": [
          23.6878842,
          45.2775181
        ]
      },
      "properties": {
        "id": 5032960104,
        "osm_type": "node",
        "name": "Pensiunea Valea Mariei",
        "tourism": "guest_house",
        "phone": "+40742627434"
      }
    },
    {
      "type": "Feature",
      "geometry": {
        "type": "Point",
        "coordinates": [
          23.6887344,
          45.280721
        ]
      },
      "properties": {
        "id": 5032960106,
        "osm_type": "node",
        "name": "Pensiunea Avalanche",
        "tourism": "guest_house",
        "phone": "+40764362694"
      }
    },
    {
      "type": "Feature",
      "geometry": {
        "type": "Point",
        "coordinates": [
          23.6920129,
          45.2909583
        ]
      },
      "properties": {
        "id": 5033932484,
        "osm_type": "node",
        "name": "Vila Sofia",
        "tourism": "guest_house"
      }
    },
    {
      "type": "Feature",
      "geometry": {
        "type": "Point",
        "coordinates": [
          23.6922034,
          45.2915716
        ]
      },
      "properties": {
        "id": 5033932489,
        "osm_type": "node",
        "name": "Pensiunea Floare de Colț",
        "tourism": "guest_house",
        "phone": "+40766411596"
      }
    },
    {
      "type": "Feature",
      "geometry": {
        "type": "Point",
        "coordinates": [
          23.6937832,
          45.291815
        ]
      },
      "properties": {
        "id": 5033932499,
        "osm_type": "node",
        "name": "Pensiunea Liviu",
        "tourism": "guest_house",
        "phone": "+40766411596"
      }
    },
    {
      "type": "Feature",
      "geometry": {
        "type": "Point",
        "coordinates": [
          23.6925118,
          45.288743
        ]
      },
      "properties": {
        "id": 5033932507,
        "osm_type": "node",
        "name": "Pensiunea Carmen",
        "tourism": "guest_house",
        "phone": "+40723277577"
      }
    },
    {
      "type": "Feature",
      "geometry": {
        "type": "Point",
        "coordinates": [
          23.6933085,
          45.2917923
        ]
      },
      "properties": {
        "id": 5033932516,
        "osm_type": "node",
        "name": "Pensiunea Ramona",
        "tourism": "guest_house",
        "phone": "+40740165161"
      }
    },
    {
      "type": "Feature",
      "geometry": {
        "type": "Point",
        "coordinates": [
          23.6933836,
          45.2906356
        ]
      },
      "properties": {
        "id": 5033932518,
        "osm_type": "node",
        "name": "Cabana Patric",
        "tourism": "guest_house",
        "phone": "+40764889999"
      }
    },
    {
      "type": "Feature",
      "geometry": {
        "type": "Point",
        "coordinates": [
          23.692536,
          45.2906187
        ]
      },
      "properties": {
        "id": 5033932520,
        "osm_type": "node",
        "name": "Pensiunea Arilexa",
        "tourism": "guest_house",
        "phone": "+40766303881"
      }
    },
    {
      "type": "Feature",
      "geometry": {
        "type": "Point",
        "coordinates": [
          23.6897277,
          45.2901488
        ]
      },
      "properties": {
        "id": 5033938222,
        "osm_type": "node",
        "name": "Pensiunea Rubin",
        "tourism": "guest_house",
        "phone": "+40768079965"
      }
    },
    {
      "type": "Feature",
      "geometry": {
        "type": "Point",
        "coordinates": [
          23.7933083,
          45.1891265
        ]
      },
      "properties": {
        "id": 5037645551,
        "osm_type": "node",
        "name": "Pensiunea Casa din Salcâmi",
        "tourism": "guest_house",
        "phone": "+40740273590"
      }
    },
    {
      "type": "Feature",
      "geometry": {
        "type": "Point",
        "coordinates": [
          23.6826097,
          45.3026992
        ]
      },
      "properties": {
        "id": 5046587021,
        "osm_type": "node",
        "name": "Păpușa",
        "tourism": "chalet"
      }
    },
    {
      "type": "Feature",
      "geometry": {
        "type": "Point",
        "coordinates": [
          23.7612329,
          45.1663434
        ]
      },
      "properties": {
        "id": 5094613500,
        "osm_type": "node",
        "name": "Pensiunea Andreea",
        "tourism": "guest_house",
        "phone": "0745 072 662",
        "website": "https://pensiuneaandreea.ro/"
      }
    },
    {
      "type": "Feature",
      "geometry": {
        "type": "Point",
        "coordinates": [
          22.9766309,
          44.8010029
        ]
      },
      "properties": {
        "id": 5561308909,
        "osm_type": "node",
        "name": "Hotel GHIOCELA",
        "tourism": "hotel"
      }
    },
    {
      "type": "Feature",
      "geometry": {
        "type": "Point",
        "coordinates": [
          23.6840849,
          45.3074551
        ]
      },
      "properties": {
        "id": 5789753653,
        "osm_type": "node",
        "name": "Pensiunea Paradis",
        "tourism": "guest_house"
      }
    },
    {
      "type": "Feature",
      "geometry": {
        "type": "Point",
        "coordinates": [
          23.7572922,
          45.1867151
        ]
      },
      "properties": {
        "id": 5814708224,
        "osm_type": "node",
        "name": "Pensiunea Tobo",
        "tourism": "guest_house"
      }
    },
    {
      "type": "Feature",
      "geometry": {
        "type": "Point",
        "coordinates": [
          23.7991501,
          45.1767329
        ]
      },
      "properties": {
        "id": 5827724020,
        "osm_type": "node",
        "name": "Pensiunea Saradavy",
        "tourism": "guest_house",
        "phone": "+0763680387"
      }
    },
    {
      "type": "Feature",
      "geometry": {
        "type": "Point",
        "coordinates": [
          23.7614022,
          45.1788716
        ]
      },
      "properties": {
        "id": 6456990044,
        "osm_type": "node",
        "name": "Pensiunea Angelica",
        "tourism": "guest_house"
      }
    },
    {
      "type": "Feature",
      "geometry": {
        "type": "Point",
        "coordinates": [
          23.7611447,
          45.1695738
        ]
      },
      "properties": {
        "id": 6456995973,
        "osm_type": "node",
        "name": "Pensiunea Saranda",
        "tourism": "guest_house"
      }
    },
    {
      "type": "Feature",
      "geometry": {
        "type": "Point",
        "coordinates": [
          23.5514944,
          45.3199562
        ]
      },
      "properties": {
        "id": 6717760700,
        "osm_type": "node",
        "name": "Cabana obștei Săcelu",
        "tourism": "alpine_hut"
      }
    },
    {
      "type": "Feature",
      "geometry": {
        "type": "Point",
        "coordinates": [
          23.2782931,
          45.0341206
        ]
      },
      "properties": {
        "id": 8278650304,
        "osm_type": "node",
        "name": "Aqua",
        "tourism": "hotel",
        "phone": "+40253222614",
        "website": "https://aquahotel.ro/"
      }
    },
    {
      "type": "Feature",
      "geometry": {
        "type": "Point",
        "coordinates": [
          23.2704355,
          45.0393573
        ]
      },
      "properties": {
        "id": 8283664734,
        "osm_type": "node",
        "name": "Casa Alex",
        "tourism": "guest_house"
      }
    },
    {
      "type": "Feature",
      "geometry": {
        "type": "Point",
        "coordinates": [
          23.2347769,
          45.0442546
        ]
      },
      "properties": {
        "id": 8287790663,
        "osm_type": "node",
        "name": "Casa Danielescu",
        "tourism": "hotel",
        "phone": "+40758063611",
        "website": "https://www.casadanielescu.ro/"
      }
    },
    {
      "type": "Feature",
      "geometry": {
        "type": "Point",
        "coordinates": [
          23.2706351,
          45.0471088
        ]
      },
      "properties": {
        "id": 8293824013,
        "osm_type": "node",
        "name": "Casa Caroli",
        "tourism": "guest_house"
      }
    },
    {
      "type": "Feature",
      "geometry": {
        "type": "Point",
        "coordinates": [
          23.7641421,
          45.1650801
        ]
      },
      "properties": {
        "id": 8778739775,
        "osm_type": "node",
        "name": "Pensiunea Dana",
        "tourism": "guest_house"
      }
    },
    {
      "type": "Feature",
      "geometry": {
        "type": "Point",
        "coordinates": [
          23.7662342,
          45.1653354
        ]
      },
      "properties": {
        "id": 8778739776,
        "osm_type": "node",
        "name": "Pensiunea casa noastră",
        "tourism": "guest_house"
      }
    },
    {
      "type": "Feature",
      "geometry": {
        "type": "Point",
        "coordinates": [
          23.7633228,
          45.1621855
        ]
      },
      "properties": {
        "id": 8778742040,
        "osm_type": "node",
        "name": "Pensiunea Elena Andreea",
        "tourism": "guest_house"
      }
    },
    {
      "type": "Feature",
      "geometry": {
        "type": "Point",
        "coordinates": [
          23.7638681,
          45.1686744
        ]
      },
      "properties": {
        "id": 8778742233,
        "osm_type": "node",
        "name": "Casa Emilia",
        "tourism": "guest_house"
      }
    },
    {
      "type": "Feature",
      "geometry": {
        "type": "Point",
        "coordinates": [
          23.7974243,
          45.17668
        ]
      },
      "properties": {
        "id": 8779025849,
        "osm_type": "node",
        "name": "Pensiunea Maria",
        "tourism": "guest_house"
      }
    },
    {
      "type": "Feature",
      "geometry": {
        "type": "Point",
        "coordinates": [
          23.792938,
          45.1814015
        ]
      },
      "properties": {
        "id": 8779025850,
        "osm_type": "node",
        "name": "Pensiunea Elisa",
        "tourism": "guest_house"
      }
    },
    {
      "type": "Feature",
      "geometry": {
        "type": "Point",
        "coordinates": [
          23.7921862,
          45.1819245
        ]
      },
      "properties": {
        "id": 8779025851,
        "osm_type": "node",
        "name": "Conacul Caterinei",
        "tourism": "guest_house",
        "phone": "+40740187131"
      }
    },
    {
      "type": "Feature",
      "geometry": {
        "type": "Point",
        "coordinates": [
          23.7896558,
          45.1809383
        ]
      },
      "properties": {
        "id": 8779025852,
        "osm_type": "node",
        "name": "Pensiunea Lardi",
        "tourism": "guest_house"
      }
    },
    {
      "type": "Feature",
      "geometry": {
        "type": "Point",
        "coordinates": [
          22.9683885,
          44.8018218
        ]
      },
      "properties": {
        "id": 8894610892,
        "osm_type": "node",
        "name": "Hotel Victoria",
        "tourism": "hotel"
      }
    },
    {
      "type": "Feature",
      "geometry": {
        "type": "Point",
        "coordinates": [
          23.2936026,
          45.1313018
        ]
      },
      "properties": {
        "id": 8935411964,
        "osm_type": "node",
        "name": "Pensiunea Luminita",
        "tourism": "hostel"
      }
    },
    {
      "type": "Feature",
      "geometry": {
        "type": "Point",
        "coordinates": [
          23.1207463,
          45.1203367
        ]
      },
      "properties": {
        "id": 10029659181,
        "osm_type": "node",
        "name": "Casa Rustik",
        "tourism": "chalet"
      }
    },
    {
      "type": "Feature",
      "geometry": {
        "type": "Point",
        "coordinates": [
          23.7894085,
          45.1875535
        ]
      },
      "properties": {
        "id": 10090531657,
        "osm_type": "node",
        "name": "Casa de vacanță Edy",
        "tourism": "guest_house",
        "phone": "+40736979528"
      }
    },
    {
      "type": "Feature",
      "geometry": {
        "type": "Point",
        "coordinates": [
          23.8308164,
          45.1663181
        ]
      },
      "properties": {
        "id": 10110615757,
        "osm_type": "node",
        "name": "Pensiunea Ovitur",
        "tourism": "guest_house",
        "phone": "+40769 689 962"
      }
    },
    {
      "type": "Feature",
      "geometry": {
        "type": "Point",
        "coordinates": [
          23.7727542,
          45.1670373
        ]
      },
      "properties": {
        "id": 12004377670,
        "osm_type": "node",
        "name": "Pensiunea Fira",
        "tourism": "guest_house",
        "phone": "+40766555809",
        "website": "https://www.turistinfo.ro/baia_de_fier/cazare-baia_de_fier/pensiunea_fira-c125364.html"
      }
    },
    {
      "type": "Feature",
      "geometry": {
        "type": "Point",
        "coordinates": [
          23.3206105,
          44.9877386
        ]
      },
      "properties": {
        "id": 12292786682,
        "osm_type": "node",
        "name": "La Mara",
        "tourism": "apartment",
        "phone": "+40726633833",
        "website": "https://www.facebook.com/maraclub"
      }
    },
    {
      "type": "Feature",
      "geometry": {
        "type": "Point",
        "coordinates": [
          23.6920524,
          45.173262
        ]
      },
      "properties": {
        "id": 12944210345,
        "osm_type": "node",
        "name": "Transalpina Roots",
        "tourism": "apartment",
        "opening_hours": "24/7",
        "phone": "+40 737 188 823",
        "website": "https://transalpinaroots.ro"
      }
    },
    {
      "type": "Feature",
      "geometry": {
        "type": "Point",
        "coordinates": [
          23.3880276,
          45.2593902
        ]
      },
      "properties": {
        "id": 218939162,
        "osm_type": "way",
        "name": "Motel Lainici",
        "tourism": "motel"
      }
    },
    {
      "type": "Feature",
      "geometry": {
        "type": "Point",
        "coordinates": [
          23.6894299,
          45.2912204
        ]
      },
      "properties": {
        "id": 230410831,
        "osm_type": "way",
        "name": "Hotel Onix Rânca",
        "tourism": "hotel"
      }
    },
    {
      "type": "Feature",
      "geometry": {
        "type": "Point",
        "coordinates": [
          23.690613,
          45.2889995
        ]
      },
      "properties": {
        "id": 230410979,
        "osm_type": "way",
        "name": "Căsuța Alpina",
        "tourism": "guest_house",
        "opening_hours": "24/7",
        "phone": "+40775594776"
      }
    },
    {
      "type": "Feature",
      "geometry": {
        "type": "Point",
        "coordinates": [
          23.6902547,
          45.2914468
        ]
      },
      "properties": {
        "id": 230411329,
        "osm_type": "way",
        "name": "Cabana RancaSki",
        "tourism": "guest_house"
      }
    },
    {
      "type": "Feature",
      "geometry": {
        "type": "Point",
        "coordinates": [
          23.6881525,
          45.2796312
        ]
      },
      "properties": {
        "id": 230412609,
        "osm_type": "way",
        "name": "Pensiunea Patricia",
        "tourism": "guest_house"
      }
    },
    {
      "type": "Feature",
      "geometry": {
        "type": "Point",
        "coordinates": [
          23.6884368,
          45.281406
        ]
      },
      "properties": {
        "id": 230412610,
        "osm_type": "way",
        "name": "Hotel NT Rânca",
        "tourism": "hotel"
      }
    },
    {
      "type": "Feature",
      "geometry": {
        "type": "Point",
        "coordinates": [
          23.6893597,
          45.2775806
        ]
      },
      "properties": {
        "id": 230412613,
        "osm_type": "way",
        "name": "MariFlor",
        "tourism": "guest_house"
      }
    },
    {
      "type": "Feature",
      "geometry": {
        "type": "Point",
        "coordinates": [
          23.6881066,
          45.2797815
        ]
      },
      "properties": {
        "id": 230412614,
        "osm_type": "way",
        "name": "Kallisto",
        "tourism": "guest_house"
      }
    },
    {
      "type": "Feature",
      "geometry": {
        "type": "Point",
        "coordinates": [
          23.688756,
          45.2801661
        ]
      },
      "properties": {
        "id": 230412619,
        "osm_type": "way",
        "name": "Zimbrul",
        "tourism": "hotel"
      }
    },
    {
      "type": "Feature",
      "geometry": {
        "type": "Point",
        "coordinates": [
          23.6880699,
          45.2799857
        ]
      },
      "properties": {
        "id": 230412622,
        "osm_type": "way",
        "name": "Taverna Olteanului",
        "tourism": "hotel"
      }
    },
    {
      "type": "Feature",
      "geometry": {
        "type": "Point",
        "coordinates": [
          23.6887149,
          45.2793434
        ]
      },
      "properties": {
        "id": 230412623,
        "osm_type": "way",
        "name": "Casa Pamfiloiu",
        "tourism": "guest_house"
      }
    },
    {
      "type": "Feature",
      "geometry": {
        "type": "Point",
        "coordinates": [
          23.6882389,
          45.278616
        ]
      },
      "properties": {
        "id": 230412632,
        "osm_type": "way",
        "name": "Pensiunea Royal",
        "tourism": "guest_house"
      }
    },
    {
      "type": "Feature",
      "geometry": {
        "type": "Point",
        "coordinates": [
          23.688192,
          45.2791503
        ]
      },
      "properties": {
        "id": 230412635,
        "osm_type": "way",
        "name": "Stella Alpina",
        "tourism": "guest_house"
      }
    },
    {
      "type": "Feature",
      "geometry": {
        "type": "Point",
        "coordinates": [
          23.6889284,
          45.2810662
        ]
      },
      "properties": {
        "id": 230413063,
        "osm_type": "way",
        "name": "RESORT&SPA RANCA",
        "tourism": "guest_house",
        "phone": "+40730667233",
        "website": "https://www.turistinfo.ro/ranca/cazare-ranca/pensiunea_ranca_resort_and_spa-c126341.html"
      }
    },
    {
      "type": "Feature",
      "geometry": {
        "type": "Point",
        "coordinates": [
          23.6922543,
          45.2889551
        ]
      },
      "properties": {
        "id": 230413234,
        "osm_type": "way",
        "name": "Tera",
        "tourism": "hotel"
      }
    },
    {
      "type": "Feature",
      "geometry": {
        "type": "Point",
        "coordinates": [
          23.6890354,
          45.2813883
        ]
      },
      "properties": {
        "id": 230486023,
        "osm_type": "way",
        "name": "Vila Ranca",
        "tourism": "guest_house"
      }
    },
    {
      "type": "Feature",
      "geometry": {
        "type": "Point",
        "coordinates": [
          23.6928955,
          45.2897913
        ]
      },
      "properties": {
        "id": 255015536,
        "osm_type": "way",
        "name": "Vila Montana",
        "tourism": "hotel"
      }
    },
    {
      "type": "Feature",
      "geometry": {
        "type": "Point",
        "coordinates": [
          23.1482802,
          45.1277133
        ]
      },
      "properties": {
        "id": 292077892,
        "osm_type": "way",
        "name": "Casa Ștefănița",
        "tourism": "guest_house",
        "phone": "+40-253-279-345"
      }
    },
    {
      "type": "Feature",
      "geometry": {
        "type": "Point",
        "coordinates": [
          23.2789694,
          45.0542422
        ]
      },
      "properties": {
        "id": 363942051,
        "osm_type": "way",
        "name": "Pensiunea Benny",
        "tourism": "hotel"
      }
    },
    {
      "type": "Feature",
      "geometry": {
        "type": "Point",
        "coordinates": [
          23.2878827,
          45.064078
        ]
      },
      "properties": {
        "id": 420881999,
        "osm_type": "way",
        "name": "Bonton rooms",
        "tourism": "guest_house",
        "phone": "0766 688 229"
      }
    },
    {
      "type": "Feature",
      "geometry": {
        "type": "Point",
        "coordinates": [
          23.7082471,
          45.1749717
        ]
      },
      "properties": {
        "id": 426266456,
        "osm_type": "way",
        "name": "Mădălina, casă de vacanță",
        "tourism": "hostel"
      }
    },
    {
      "type": "Feature",
      "geometry": {
        "type": "Point",
        "coordinates": [
          22.8663344,
          45.2616068
        ]
      },
      "properties": {
        "id": 704440095,
        "osm_type": "way",
        "name": "Camping Valea Iarului",
        "tourism": "camp_site"
      }
    },
    {
      "type": "Feature",
      "geometry": {
        "type": "Point",
        "coordinates": [
          23.6926425,
          45.2869905
        ]
      },
      "properties": {
        "id": 849566843,
        "osm_type": "way",
        "tourism": "hotel"
      }
    },
    {
      "type": "Feature",
      "geometry": {
        "type": "Point",
        "coordinates": [
          23.6825314,
          45.3025089
        ]
      },
      "properties": {
        "id": 849669452,
        "osm_type": "way",
        "tourism": "guest_house"
      }
    },
    {
      "type": "Feature",
      "geometry": {
        "type": "Point",
        "coordinates": [
          23.7374376,
          45.1381564
        ]
      },
      "properties": {
        "id": 949917735,
        "osm_type": "way",
        "name": "Conacul lui Patrick",
        "tourism": "guest_house",
        "phone": "0725461718"
      }
    },
    {
      "type": "Feature",
      "geometry": {
        "type": "Point",
        "coordinates": [
          23.7292632,
          45.1374229
        ]
      },
      "properties": {
        "id": 959728348,
        "osm_type": "way",
        "name": "EDANT HOUSE",
        "tourism": "guest_house",
        "phone": "0765352222"
      }
    },
    {
      "type": "Feature",
      "geometry": {
        "type": "Point",
        "coordinates": [
          23.8361259,
          45.1689217
        ]
      },
      "properties": {
        "id": 1028884792,
        "osm_type": "way",
        "name": "Pensiunea Minodora",
        "tourism": "guest_house",
        "phone": "+40 743 862 500"
      }
    },
    {
      "type": "Feature",
      "geometry": {
        "type": "Point",
        "coordinates": [
          23.4425423,
          44.8921983
        ]
      },
      "properties": {
        "id": 1097256239,
        "osm_type": "way",
        "name": "Hotel Sara",
        "tourism": "hotel"
      }
    },
    {
      "type": "Feature",
      "geometry": {
        "type": "Point",
        "coordinates": [
          23.7839215,
          45.180103
        ]
      },
      "properties": {
        "id": 1110635428,
        "osm_type": "way",
        "tourism": "camp_site",
        "tents": "yes"
      }
    },
    {
      "type": "Feature",
      "geometry": {
        "type": "Point",
        "coordinates": [
          23.3205479,
          44.9880944
        ]
      },
      "properties": {
        "id": 1328681774,
        "osm_type": "way",
        "tourism": "apartment"
      }
    },
    {
      "type": "Feature",
      "geometry": {
        "type": "Point",
        "coordinates": [
          23.3204533,
          44.9883703
        ]
      },
      "properties": {
        "id": 1328681775,
        "osm_type": "way",
        "tourism": "apartment"
      }
    },
    {
      "type": "Feature",
      "geometry": {
        "type": "Point",
        "coordinates": [
          23.320538,
          44.9884534
        ]
      },
      "properties": {
        "id": 1328681776,
        "osm_type": "way",
        "tourism": "apartment"
      }
    }
  ]
}