{
  "type": "FeatureCollection",
  "features": [
    {
      "type": "Feature",
      "geometry": {
        "type": "Point",
        "coordinates": [
          19.3737421,
          46.8934756
        ]
      },
      "properties": {
        "id": 734176070,
        "osm_type": "node",
        "name": "Ádám Tanya Fogadó",
        "tourism": "hotel",
        "phone": "+36 76 558 117"
      }
    },
    {
      "type": "Feature",
      "geometry": {
        "type": "Point",
        "coordinates": [
          19.4182684,
          46.9508752
        ]
      },
      "properties": {
        "id": 734176220,
        "osm_type": "node",
        "name": "Varga Tanya",
        "tourism": "hotel",
        "phone": "+36 76 371 030",
        "website": "https://www.vargatanya.hu/"
      }
    },
    {
      "type": "Feature",
      "geometry": {
        "type": "Point",
        "coordinates": [
          18.9727623,
          46.5291377
        ]
      },
      "properties": {
        "id": 871601634,
        "osm_type": "node",
        "name": "Hotel Korona",
        "tourism": "hotel"
      }
    },
    {
      "type": "Feature",
      "geometry": {
        "type": "Point",
        "coordinates": [
          18.9555368,
          46.1817091
        ]
      },
      "properties": {
        "id": 908008729,
        "osm_type": "node",
        "name": "Kaiser",
        "tourism": "hotel",
        "website": "http://www.panziokaiser.hu"
      }
    },
    {
      "type": "Feature",
      "geometry": {
        "type": "Point",
        "coordinates": [
          19.5980617,
          47.035304
        ]
      },
      "properties": {
        "id": 984969377,
        "osm_type": "node",
        "name": "Geréby-kúria",
        "tourism": "hotel",
        "contact:phone": "+36 76 356 555",
        "contact:website": "https://www.gereby.hu/"
      }
    },
    {
      "type": "Feature",
      "geometry": {
        "type": "Point",
        "coordinates": [
          19.7467952,
          46.5209354
        ]
      },
      "properties": {
        "id": 1167814416,
        "osm_type": "node",
        "name": "Jonathermál Motel",
        "tourism": "motel",
        "website": "https://www.jonathermal.hu/"
      }
    },
    {
      "type": "Feature",
      "geometry": {
        "type": "Point",
        "coordinates": [
          19.6980469,
          46.9156222
        ]
      },
      "properties": {
        "id": 1289495590,
        "osm_type": "node",
        "name": "Háry Hotel",
        "tourism": "hotel",
        "contact:phone": "+36 76 480 400",
        "contact:website": "http://www.hary.hu"
      }
    },
    {
      "type": "Feature",
      "geometry": {
        "type": "Point",
        "coordinates": [
          19.6900662,
          46.9075309
        ]
      },
      "properties": {
        "id": 1303961360,
        "osm_type": "node",
        "name": "Udvarház",
        "tourism": "hotel"
      }
    },
    {
      "type": "Feature",
      "geometry": {
        "type": "Point",
        "coordinates": [
          19.6895026,
          46.9090708
        ]
      },
      "properties": {
        "id": 1303961378,
        "osm_type": "node",
        "name": "Hotel Talizman",
        "tourism": "hotel",
        "check_date": "2024-10-26"
      }
    },
    {
      "type": "Feature",
      "geometry": {
        "type": "Point",
        "coordinates": [
          18.7702449,
          46.0832298
        ]
      },
      "properties": {
        "id": 1310324455,
        "osm_type": "node",
        "name": "Fodor Ház",
        "tourism": "guest_house"
      }
    },
    {
      "type": "Feature",
      "geometry": {
        "type": "Point",
        "coordinates": [
          19.603536,
          46.8883412
        ]
      },
      "properties": {
        "id": 1331053309,
        "osm_type": "node",
        "name": "Bistro Motel",
        "tourism": "motel"
      }
    },
    {
      "type": "Feature",
      "geometry": {
        "type": "Point",
        "coordinates": [
          18.9425302,
          46.177983
        ]
      },
      "properties": {
        "id": 1342423037,
        "osm_type": "node",
        "tourism": "guest_house"
      }
    },
    {
      "type": "Feature",
      "geometry": {
        "type": "Point",
        "coordinates": [
          18.9405523,
          46.1782191
        ]
      },
      "properties": {
        "id": 1342423063,
        "osm_type": "node",
        "name": "Vizafogó Panzió",
        "tourism": "guest_house",
        "phone": "+36 79 326 585",
        "website": "https://www.vizafogopanzio.hu/"
      }
    },
    {
      "type": "Feature",
      "geometry": {
        "type": "Point",
        "coordinates": [
          18.9427826,
          46.1780491
        ]
      },
      "properties": {
        "id": 1342423189,
        "osm_type": "node",
        "name": "Sobri Halászcsárda",
        "tourism": "guest_house"
      }
    },
    {
      "type": "Feature",
      "geometry": {
        "type": "Point",
        "coordinates": [
          18.9454787,
          46.1780204
        ]
      },
      "properties": {
        "id": 1344335963,
        "osm_type": "node",
        "name": "Napsugár Szálló",
        "tourism": "hostel"
      }
    },
    {
      "type": "Feature",
      "geometry": {
        "type": "Point",
        "coordinates": [
          19.6904556,
          46.904514
        ]
      },
      "properties": {
        "id": 1348254018,
        "osm_type": "node",
        "name": "Central Hotel",
        "tourism": "hotel"
      }
    },
    {
      "type": "Feature",
      "geometry": {
        "type": "Point",
        "coordinates": [
          19.2965743,
          46.6125771
        ]
      },
      "properties": {
        "id": 1352366954,
        "osm_type": "node",
        "name": "Vinum Hotel",
        "tourism": "hotel"
      }
    },
    {
      "type": "Feature",
      "geometry": {
        "type": "Point",
        "coordinates": [
          19.273808,
          46.6216565
        ]
      },
      "properties": {
        "id": 1352366955,
        "osm_type": "node",
        "name": "Kemping",
        "tourism": "camp_site",
        "website": "https://koroskom.hu/korosszolg/kiskoros-gyogy-es-strandfurdo/kemping"
      }
    },
    {
      "type": "Feature",
      "geometry": {
        "type": "Point",
        "coordinates": [
          19.28547,
          46.6214498
        ]
      },
      "properties": {
        "id": 1352366976,
        "osm_type": "node",
        "name": "Szarvas Hotel",
        "tourism": "hotel"
      }
    },
    {
      "type": "Feature",
      "geometry": {
        "type": "Point",
        "coordinates": [
          19.7528168,
          46.7407952
        ]
      },
      "properties": {
        "id": 1693162346,
        "osm_type": "node",
        "name": "Róna Panzió",
        "tourism": "hotel"
      }
    },
    {
      "type": "Feature",
      "geometry": {
        "type": "Point",
        "coordinates": [
          18.9506213,
          46.1781671
        ]
      },
      "properties": {
        "id": 1944039643,
        "osm_type": "node",
        "name": "Kaiser Hotel",
        "tourism": "hotel",
        "contact:website": "https://www.hotelkaiser.hu"
      }
    },
    {
      "type": "Feature",
      "geometry": {
        "type": "Point",
        "coordinates": [
          19.4703283,
          46.4320625
        ]
      },
      "properties": {
        "id": 1945991068,
        "osm_type": "node",
        "name": "Halas Camping",
        "tourism": "caravan_site"
      }
    },
    {
      "type": "Feature",
      "geometry": {
        "type": "Point",
        "coordinates": [
          19.4725109,
          46.4318904
        ]
      },
      "properties": {
        "id": 1945991070,
        "osm_type": "node",
        "name": "Csipke Hotel",
        "tourism": "hotel"
      }
    },
    {
      "type": "Feature",
      "geometry": {
        "type": "Point",
        "coordinates": [
          19.6342754,
          46.6679031
        ]
      },
      "properties": {
        "id": 1976469772,
        "osm_type": "node",
        "name": "Bugac Puszta",
        "tourism": "camp_site",
        "tents": "yes"
      }
    },
    {
      "type": "Feature",
      "geometry": {
        "type": "Point",
        "coordinates": [
          19.6878954,
          46.9099893
        ]
      },
      "properties": {
        "id": 2041532745,
        "osm_type": "node",
        "name": "Fábián Panzió",
        "tourism": "hotel",
        "contact:phone": "+36 20 257 1120",
        "contact:website": "http://www.panziofabian.hu/index.php",
        "check_date": "2024-10-26"
      }
    },
    {
      "type": "Feature",
      "geometry": {
        "type": "Point",
        "coordinates": [
          19.625981,
          46.8761516
        ]
      },
      "properties": {
        "id": 2302378527,
        "osm_type": "node",
        "name": "Hotel Granada",
        "tourism": "hotel",
        "contact:phone": "+36 76 503 130",
        "contact:website": "https://granadahotel.hu/"
      }
    },
    {
      "type": "Feature",
      "geometry": {
        "type": "Point",
        "coordinates": [
          20.121933,
          46.9373131
        ]
      },
      "properties": {
        "id": 2581497684,
        "osm_type": "node",
        "name": "Tiszapart Termál Hotel",
        "tourism": "hotel"
      }
    },
    {
      "type": "Feature",
      "geometry": {
        "type": "Point",
        "coordinates": [
          18.9855707,
          46.5267777
        ]
      },
      "properties": {
        "id": 2830919001,
        "osm_type": "node",
        "name": "Alexandra apartman",
        "tourism": "guest_house",
        "contact:phone": "+36 78 465 170",
        "website": "http://www.alexandrapanzio.hu"
      }
    },
    {
      "type": "Feature",
      "geometry": {
        "type": "Point",
        "coordinates": [
          18.9876818,
          46.8103099
        ]
      },
      "properties": {
        "id": 2925825813,
        "osm_type": "node",
        "name": "Kati Penzion",
        "tourism": "guest_house",
        "phone": "+36 30 485 6155",
        "website": "https://szellak.wordpress.com/"
      }
    },
    {
      "type": "Feature",
      "geometry": {
        "type": "Point",
        "coordinates": [
          19.2492896,
          46.5331493
        ]
      },
      "properties": {
        "id": 2955589191,
        "osm_type": "node",
        "name": "Korona",
        "tourism": "motel"
      }
    },
    {
      "type": "Feature",
      "geometry": {
        "type": "Point",
        "coordinates": [
          19.0364068,
          46.621043
        ]
      },
      "properties": {
        "id": 3024501964,
        "osm_type": "node",
        "tourism": "hotel"
      }
    },
    {
      "type": "Feature",
      "geometry": {
        "type": "Point",
        "coordinates": [
          19.2543739,
          46.524899
        ]
      },
      "properties": {
        "id": 3190767276,
        "osm_type": "node",
        "name": "Flóra vendégház",
        "tourism": "guest_house"
      }
    },
    {
      "type": "Feature",
      "geometry": {
        "type": "Point",
        "coordinates": [
          18.9639788,
          46.1640961
        ]
      },
      "properties": {
        "id": 3199951921,
        "osm_type": "node",
        "name": "Mathiász Vendégház",
        "tourism": "guest_house"
      }
    },
    {
      "type": "Feature",
      "geometry": {
        "type": "Point",
        "coordinates": [
          18.9204699,
          46.1957804
        ]
      },
      "properties": {
        "id": 3209757221,
        "osm_type": "node",
        "name": "Fekete Gólya Pihenőház",
        "tourism": "motel",
        "phone": "+36 30 698 5897"
      }
    },
    {
      "type": "Feature",
      "geometry": {
        "type": "Point",
        "coordinates": [
          19.8133546,
          46.4541976
        ]
      },
      "properties": {
        "id": 3240138754,
        "osm_type": "node",
        "name": "Csipkerózsa Parkhotel",
        "tourism": "hotel",
        "contact:phone": "+36 77 700 750",
        "contact:website": "http://www.parkhotel.cc/"
      }
    },
    {
      "type": "Feature",
      "geometry": {
        "type": "Point",
        "coordinates": [
          19.6701136,
          46.6549977
        ]
      },
      "properties": {
        "id": 3259988769,
        "osm_type": "node",
        "name": "Bucka Szálló",
        "tourism": "hotel",
        "phone": "+36 76 575 520",
        "website": "https://www.kefag.hu/index.php?option=com_content&view=article&id=48"
      }
    },
    {
      "type": "Feature",
      "geometry": {
        "type": "Point",
        "coordinates": [
          19.627937,
          46.994631
        ]
      },
      "properties": {
        "id": 3432048187,
        "osm_type": "node",
        "name": "Bujdosó tanya",
        "tourism": "guest_house"
      }
    },
    {
      "type": "Feature",
      "geometry": {
        "type": "Point",
        "coordinates": [
          19.586378,
          47.058668
        ]
      },
      "properties": {
        "id": 3432048244,
        "osm_type": "node",
        "name": "Kiadó szoba",
        "tourism": "guest_house"
      }
    },
    {
      "type": "Feature",
      "geometry": {
        "type": "Point",
        "coordinates": [
          19.56332,
          47.04238
        ]
      },
      "properties": {
        "id": 3432048269,
        "osm_type": "node",
        "name": "Mizse Motel",
        "tourism": "guest_house"
      }
    },
    {
      "type": "Feature",
      "geometry": {
        "type": "Point",
        "coordinates": [
          19.5772661,
          47.1073459
        ]
      },
      "properties": {
        "id": 3432048404,
        "osm_type": "node",
        "name": "Ricsovári Major",
        "tourism": "guest_house",
        "contact:website": "http://ricsovary.hu/"
      }
    },
    {
      "type": "Feature",
      "geometry": {
        "type": "Point",
        "coordinates": [
          19.558216,
          47.106893
        ]
      },
      "properties": {
        "id": 3432048438,
        "osm_type": "node",
        "name": "Virág Tanya",
        "tourism": "guest_house"
      }
    },
    {
      "type": "Feature",
      "geometry": {
        "type": "Point",
        "coordinates": [
          19.5434,
          46.93907
        ]
      },
      "properties": {
        "id": 3439443252,
        "osm_type": "node",
        "name": "Arany Ló fogadó",
        "tourism": "guest_house"
      }
    },
    {
      "type": "Feature",
      "geometry": {
        "type": "Point",
        "coordinates": [
          19.6886344,
          46.9107526
        ]
      },
      "properties": {
        "id": 3439443265,
        "osm_type": "node",
        "name": "Barokk Antik Panzió",
        "tourism": "guest_house",
        "contact:phone": "+36 70 257 09 06",
        "contact:website": "http://www.barokkantik-panzio.hu/"
      }
    },
    {
      "type": "Feature",
      "geometry": {
        "type": "Point",
        "coordinates": [
          19.68463,
          46.9053
        ]
      },
      "properties": {
        "id": 3439443406,
        "osm_type": "node",
        "name": "Hotel Marilyn ***",
        "tourism": "hotel"
      }
    },
    {
      "type": "Feature",
      "geometry": {
        "type": "Point",
        "coordinates": [
          19.6964816,
          46.9071485
        ]
      },
      "properties": {
        "id": 3439443407,
        "osm_type": "node",
        "name": "Hotel Uno ***",
        "tourism": "hotel"
      }
    },
    {
      "type": "Feature",
      "geometry": {
        "type": "Point",
        "coordinates": [
          19.6915982,
          46.9044845
        ]
      },
      "properties": {
        "id": 3439443413,
        "osm_type": "node",
        "name": "Hotel Három Gúnár és Rendezvényház",
        "tourism": "hotel",
        "contact:phone": "+36 76 483 611",
        "contact:website": "https://www.hotelharomgunar.hu/"
      }
    },
    {
      "type": "Feature",
      "geometry": {
        "type": "Point",
        "coordinates": [
          19.6776081,
          46.9081406
        ]
      },
      "properties": {
        "id": 3439443424,
        "osm_type": "node",
        "name": "Indiai Vendégmunkás Szálló",
        "tourism": "guest_house",
        "contact:phone": "+36 76 323 963"
      }
    },
    {
      "type": "Feature",
      "geometry": {
        "type": "Point",
        "coordinates": [
          19.684105,
          46.90611
        ]
      },
      "properties": {
        "id": 3439443892,
        "osm_type": "node",
        "name": "Panzió Noir",
        "tourism": "guest_house"
      }
    },
    {
      "type": "Feature",
      "geometry": {
        "type": "Point",
        "coordinates": [
          19.72075,
          46.911099
        ]
      },
      "properties": {
        "id": 3439444208,
        "osm_type": "node",
        "name": "Szőlőfürt Fogadó",
        "tourism": "guest_house",
        "contact:phone": "+36 76 481 625",
        "contact:website": "https://szolofurtfogado.hu/"
      }
    },
    {
      "type": "Feature",
      "geometry": {
        "type": "Point",
        "coordinates": [
          19.56498,
          46.95108
        ]
      },
      "properties": {
        "id": 3439444245,
        "osm_type": "node",
        "name": "Vackor Vár **",
        "tourism": "guest_house"
      }
    },
    {
      "type": "Feature",
      "geometry": {
        "type": "Point",
        "coordinates": [
          19.692667,
          46.90275
        ]
      },
      "properties": {
        "id": 3439444257,
        "osm_type": "node",
        "name": "Vén Diófa Panzió",
        "tourism": "guest_house"
      }
    },
    {
      "type": "Feature",
      "geometry": {
        "type": "Point",
        "coordinates": [
          19.614837,
          46.723855
        ]
      },
      "properties": {
        "id": 3459945567,
        "osm_type": "node",
        "name": "Gedeon Tanya",
        "tourism": "guest_house"
      }
    },
    {
      "type": "Feature",
      "geometry": {
        "type": "Point",
        "coordinates": [
          19.48517,
          46.93632
        ]
      },
      "properties": {
        "id": 3459945639,
        "osm_type": "node",
        "name": "Langó ház",
        "tourism": "guest_house"
      }
    },
    {
      "type": "Feature",
      "geometry": {
        "type": "Point",
        "coordinates": [
          19.57395,
          46.8627
        ]
      },
      "properties": {
        "id": 3459945655,
        "osm_type": "node",
        "name": "Nyúl-ház Panzió",
        "tourism": "guest_house"
      }
    },
    {
      "type": "Feature",
      "geometry": {
        "type": "Point",
        "coordinates": [
          19.507183,
          47.04565
        ]
      },
      "properties": {
        "id": 3459946401,
        "osm_type": "node",
        "name": "Idilli pihenőpark",
        "tourism": "guest_house"
      }
    },
    {
      "type": "Feature",
      "geometry": {
        "type": "Point",
        "coordinates": [
          18.96937,
          46.88854
        ]
      },
      "properties": {
        "id": 3461942229,
        "osm_type": "node",
        "name": "Zarándokszállás",
        "tourism": "guest_house"
      }
    },
    {
      "type": "Feature",
      "geometry": {
        "type": "Point",
        "coordinates": [
          19.102744,
          47.019396
        ]
      },
      "properties": {
        "id": 3461942231,
        "osm_type": "node",
        "name": "Zarándokszállás",
        "tourism": "guest_house"
      }
    },
    {
      "type": "Feature",
      "geometry": {
        "type": "Point",
        "coordinates": [
          18.9809268,
          46.524647
        ]
      },
      "properties": {
        "id": 3470100292,
        "osm_type": "node",
        "name": "Club Haus 502 Hotel",
        "tourism": "guest_house",
        "contact:phone": "+36 78 562 804",
        "contact:website": "https://www.club502.hu/"
      }
    },
    {
      "type": "Feature",
      "geometry": {
        "type": "Point",
        "coordinates": [
          19.021703,
          46.6970902
        ]
      },
      "properties": {
        "id": 3470101901,
        "osm_type": "node",
        "name": "Eszter Panzió",
        "tourism": "guest_house",
        "contact:phone": "+36 78 407 317"
      }
    },
    {
      "type": "Feature",
      "geometry": {
        "type": "Point",
        "coordinates": [
          19.034333,
          46.693917
        ]
      },
      "properties": {
        "id": 3470101905,
        "osm_type": "node",
        "name": "Gólyafészek vendégház",
        "tourism": "guest_house",
        "phone": "+36 78 407 175"
      }
    },
    {
      "type": "Feature",
      "geometry": {
        "type": "Point",
        "coordinates": [
          19.150422,
          46.384956
        ]
      },
      "properties": {
        "id": 3470101917,
        "osm_type": "node",
        "name": "Judit Panzió",
        "tourism": "guest_house"
      }
    },
    {
      "type": "Feature",
      "geometry": {
        "type": "Point",
        "coordinates": [
          18.99029,
          46.755341
        ]
      },
      "properties": {
        "id": 3470101924,
        "osm_type": "node",
        "name": "Kenutúra táborhely",
        "tourism": "camp_site"
      }
    },
    {
      "type": "Feature",
      "geometry": {
        "type": "Point",
        "coordinates": [
          19.032488,
          46.696212
        ]
      },
      "properties": {
        "id": 3470101927,
        "osm_type": "node",
        "name": "LOGILO vendégház",
        "tourism": "guest_house",
        "contact:phone": "+36 78 407 998"
      }
    },
    {
      "type": "Feature",
      "geometry": {
        "type": "Point",
        "coordinates": [
          18.95775,
          46.39026
        ]
      },
      "properties": {
        "id": 3470101968,
        "osm_type": "node",
        "name": "Zarándokszállás",
        "tourism": "guest_house"
      }
    },
    {
      "type": "Feature",
      "geometry": {
        "type": "Point",
        "coordinates": [
          19.07325,
          46.48379
        ]
      },
      "properties": {
        "id": 3470101970,
        "osm_type": "node",
        "name": "Zarándokszállás",
        "tourism": "guest_house"
      }
    },
    {
      "type": "Feature",
      "geometry": {
        "type": "Point",
        "coordinates": [
          18.9729,
          46.53182
        ]
      },
      "properties": {
        "id": 3470101971,
        "osm_type": "node",
        "name": "Zarándokszállás",
        "tourism": "guest_house"
      }
    },
    {
      "type": "Feature",
      "geometry": {
        "type": "Point",
        "coordinates": [
          18.980167,
          46.532
        ]
      },
      "properties": {
        "id": 3470101972,
        "osm_type": "node",
        "name": "Zarándokszállás",
        "tourism": "guest_house"
      }
    },
    {
      "type": "Feature",
      "geometry": {
        "type": "Point",
        "coordinates": [
          19.02915,
          46.583033
        ]
      },
      "properties": {
        "id": 3470101973,
        "osm_type": "node",
        "name": "Zarándokszállás",
        "tourism": "guest_house"
      }
    },
    {
      "type": "Feature",
      "geometry": {
        "type": "Point",
        "coordinates": [
          19.0294898,
          46.5870507
        ]
      },
      "properties": {
        "id": 3470101974,
        "osm_type": "node",
        "name": "Zarándokszállás",
        "tourism": "guest_house"
      }
    },
    {
      "type": "Feature",
      "geometry": {
        "type": "Point",
        "coordinates": [
          18.9697556,
          46.8004454
        ]
      },
      "properties": {
        "id": 3470101975,
        "osm_type": "node",
        "name": "Zarándokszállás",
        "tourism": "guest_house"
      }
    },
    {
      "type": "Feature",
      "geometry": {
        "type": "Point",
        "coordinates": [
          18.97185,
          46.81888
        ]
      },
      "properties": {
        "id": 3470101976,
        "osm_type": "node",
        "name": "Zarándokszállás",
        "tourism": "guest_house"
      }
    },
    {
      "type": "Feature",
      "geometry": {
        "type": "Point",
        "coordinates": [
          19.390953,
          46.61004
        ]
      },
      "properties": {
        "id": 3474964666,
        "osm_type": "node",
        "name": "Bungalók",
        "tourism": "guest_house"
      }
    },
    {
      "type": "Feature",
      "geometry": {
        "type": "Point",
        "coordinates": [
          19.314782,
          46.764575
        ]
      },
      "properties": {
        "id": 3474965012,
        "osm_type": "node",
        "name": "Indián tábor",
        "tourism": "camp_site"
      }
    },
    {
      "type": "Feature",
      "geometry": {
        "type": "Point",
        "coordinates": [
          19.2754339,
          46.6274615
        ]
      },
      "properties": {
        "id": 3474965042,
        "osm_type": "node",
        "name": "Napsugár vendégház",
        "tourism": "guest_house",
        "contact:phone": "+36 70 367 1470",
        "contact:website": "http://www.sunnyhouse.hu"
      }
    },
    {
      "type": "Feature",
      "geometry": {
        "type": "Point",
        "coordinates": [
          19.674357,
          46.65549
        ]
      },
      "properties": {
        "id": 3485197358,
        "osm_type": "node",
        "name": "Bugac Vadászház",
        "tourism": "guest_house"
      }
    },
    {
      "type": "Feature",
      "geometry": {
        "type": "Point",
        "coordinates": [
          19.703891,
          46.685973
        ]
      },
      "properties": {
        "id": 3485197368,
        "osm_type": "node",
        "name": "Cinke vendégház",
        "tourism": "guest_house"
      }
    },
    {
      "type": "Feature",
      "geometry": {
        "type": "Point",
        "coordinates": [
          19.855517,
          46.706777
        ]
      },
      "properties": {
        "id": 3485198995,
        "osm_type": "node",
        "name": "Malom Hotel",
        "tourism": "hotel"
      }
    },
    {
      "type": "Feature",
      "geometry": {
        "type": "Point",
        "coordinates": [
          19.8605723,
          46.7071727
        ]
      },
      "properties": {
        "id": 3485198997,
        "osm_type": "node",
        "name": "Mónika Panzió",
        "tourism": "guest_house",
        "contact:phone": "+36 76 466 022"
      }
    },
    {
      "type": "Feature",
      "geometry": {
        "type": "Point",
        "coordinates": [
          19.653948,
          46.670734
        ]
      },
      "properties": {
        "id": 3485199023,
        "osm_type": "node",
        "name": "Táltos Lovaspanzió",
        "tourism": "guest_house"
      }
    },
    {
      "type": "Feature",
      "geometry": {
        "type": "Point",
        "coordinates": [
          19.656067,
          46.300133
        ]
      },
      "properties": {
        "id": 3487611591,
        "osm_type": "node",
        "name": "Erdőspuszta Tájház és Erdei Iskola",
        "tourism": "chalet",
        "contact:website": "http://www.erdeihaz.hu/"
      }
    },
    {
      "type": "Feature",
      "geometry": {
        "type": "Point",
        "coordinates": [
          19.4702329,
          46.4322701
        ]
      },
      "properties": {
        "id": 3487611717,
        "osm_type": "node",
        "name": "Napfény Termál Kemping",
        "tourism": "camp_site",
        "phone": "+36 77 422 590"
      }
    },
    {
      "type": "Feature",
      "geometry": {
        "type": "Point",
        "coordinates": [
          19.419454,
          46.357353
        ]
      },
      "properties": {
        "id": 3487611725,
        "osm_type": "node",
        "name": "Rózsa motel",
        "tourism": "guest_house"
      }
    },
    {
      "type": "Feature",
      "geometry": {
        "type": "Point",
        "coordinates": [
          19.554633,
          46.250333
        ]
      },
      "properties": {
        "id": 3487611731,
        "osm_type": "node",
        "name": "Tomahawk Wigwam",
        "tourism": "guest_house"
      }
    },
    {
      "type": "Feature",
      "geometry": {
        "type": "Point",
        "coordinates": [
          19.400167,
          46.375133
        ]
      },
      "properties": {
        "id": 3487611733,
        "osm_type": "node",
        "name": "Tó Kemping",
        "tourism": "camp_site",
        "phone": "+36 77 507 100;+36 30 635 2583",
        "website": "https://kunfehertoinyar.hu/kemping/"
      }
    },
    {
      "type": "Feature",
      "geometry": {
        "type": "Point",
        "coordinates": [
          18.9188773,
          46.1968815
        ]
      },
      "properties": {
        "id": 3487697980,
        "osm_type": "node",
        "name": "Bárka pihenőház",
        "tourism": "guest_house",
        "contact:website": "https://barkapihenohaz.hu/index.html"
      }
    },
    {
      "type": "Feature",
      "geometry": {
        "type": "Point",
        "coordinates": [
          18.936789,
          46.178909
        ]
      },
      "properties": {
        "id": 3487703916,
        "osm_type": "node",
        "name": "Sátorhely vízitúrázóknak",
        "tourism": "camp_site"
      }
    },
    {
      "type": "Feature",
      "geometry": {
        "type": "Point",
        "coordinates": [
          18.959602,
          46.20129
        ]
      },
      "properties": {
        "id": 3487703923,
        "osm_type": "node",
        "name": "Tölgyfa Kuckó",
        "tourism": "guest_house",
        "phone": "+36 20 924 8098"
      }
    },
    {
      "type": "Feature",
      "geometry": {
        "type": "Point",
        "coordinates": [
          18.7695669,
          46.0882108
        ]
      },
      "properties": {
        "id": 3487703932,
        "osm_type": "node",
        "name": "Zöldpart Kemping",
        "tourism": "camp_site"
      }
    },
    {
      "type": "Feature",
      "geometry": {
        "type": "Point",
        "coordinates": [
          19.991667,
          46.86205
        ]
      },
      "properties": {
        "id": 3488383727,
        "osm_type": "node",
        "name": "Tőserdő Autóskemping",
        "tourism": "camp_site",
        "phone": "+36 76 449 012;+36 70 4508742"
      }
    },
    {
      "type": "Feature",
      "geometry": {
        "type": "Point",
        "coordinates": [
          19.99619,
          46.86435
        ]
      },
      "properties": {
        "id": 3488383744,
        "osm_type": "node",
        "tourism": "camp_site"
      }
    },
    {
      "type": "Feature",
      "geometry": {
        "type": "Point",
        "coordinates": [
          20.047186,
          46.9016334
        ]
      },
      "properties": {
        "id": 3488383747,
        "osm_type": "node",
        "name": "Kerekdombi Kemping",
        "tourism": "camp_site",
        "phone": "+36 76 441 568;+36 20 569 5974"
      }
    },
    {
      "type": "Feature",
      "geometry": {
        "type": "Point",
        "coordinates": [
          20.0497333,
          46.8609462
        ]
      },
      "properties": {
        "id": 3488383757,
        "osm_type": "node",
        "name": "Pegasus",
        "tourism": "hotel"
      }
    },
    {
      "type": "Feature",
      "geometry": {
        "type": "Point",
        "coordinates": [
          19.7800766,
          46.5687737
        ]
      },
      "properties": {
        "id": 3490706160,
        "osm_type": "node",
        "name": "Kézműves Tanya",
        "tourism": "guest_house",
        "phone": "+36 30 308 4126"
      }
    },
    {
      "type": "Feature",
      "geometry": {
        "type": "Point",
        "coordinates": [
          19.2407632,
          46.4364859
        ]
      },
      "properties": {
        "id": 3575236699,
        "osm_type": "node",
        "name": "Középcsalai kulcsosház",
        "tourism": "chalet"
      }
    },
    {
      "type": "Feature",
      "geometry": {
        "type": "Point",
        "coordinates": [
          19.4837401,
          46.438268
        ]
      },
      "properties": {
        "id": 3896778943,
        "osm_type": "node",
        "name": "Vincze Vendégház",
        "tourism": "guest_house",
        "check_date": "2025-05-17"
      }
    },
    {
      "type": "Feature",
      "geometry": {
        "type": "Point",
        "coordinates": [
          20.1211847,
          46.9395188
        ]
      },
      "properties": {
        "id": 4162768088,
        "osm_type": "node",
        "name": "Anna Panzió",
        "tourism": "guest_house"
      }
    },
    {
      "type": "Feature",
      "geometry": {
        "type": "Point",
        "coordinates": [
          19.4975104,
          46.6631964
        ]
      },
      "properties": {
        "id": 4360652490,
        "osm_type": "node",
        "name": "Vince lovarda",
        "tourism": "guest_house"
      }
    },
    {
      "type": "Feature",
      "geometry": {
        "type": "Point",
        "coordinates": [
          18.959218,
          46.5246983
        ]
      },
      "properties": {
        "id": 4361209989,
        "osm_type": "node",
        "name": "A Két gólya fogadó",
        "tourism": "hotel",
        "opening_hours": "24/7",
        "phone": "+36 78 462 259",
        "website": "http://ketgolyafogado.hu"
      }
    },
    {
      "type": "Feature",
      "geometry": {
        "type": "Point",
        "coordinates": [
          19.611339,
          46.4147073
        ]
      },
      "properties": {
        "id": 4456191189,
        "osm_type": "node",
        "name": "SVR Camping Oázis Tanya",
        "tourism": "camp_site",
        "tents": "yes"
      }
    },
    {
      "type": "Feature",
      "geometry": {
        "type": "Point",
        "coordinates": [
          19.7526888,
          46.7634624
        ]
      },
      "properties": {
        "id": 4579471189,
        "osm_type": "node",
        "name": "Székely vendégház",
        "tourism": "guest_house"
      }
    },
    {
      "type": "Feature",
      "geometry": {
        "type": "Point",
        "coordinates": [
          18.9775943,
          46.5264551
        ]
      },
      "properties": {
        "id": 4808121774,
        "osm_type": "node",
        "name": "Hotel Pirosarany",
        "tourism": "hotel",
        "check_date": "2025-07-07"
      }
    },
    {
      "type": "Feature",
      "geometry": {
        "type": "Point",
        "coordinates": [
          19.3259493,
          46.9345963
        ]
      },
      "properties": {
        "id": 4933471782,
        "osm_type": "node",
        "name": "Potyka Vendégház",
        "tourism": "hotel",
        "website": "https://www.kunadacsihorgaszcentrum.hu/"
      }
    },
    {
      "type": "Feature",
      "geometry": {
        "type": "Point",
        "coordinates": [
          19.1787051,
          46.4246275
        ]
      },
      "properties": {
        "id": 4939174224,
        "osm_type": "node",
        "name": "Pincelakat Borház és Szálloda",
        "tourism": "hotel",
        "phone": "+36 78 443 357",
        "website": "https://pincelakat.hu/"
      }
    },
    {
      "type": "Feature",
      "geometry": {
        "type": "Point",
        "coordinates": [
          18.9750543,
          46.5279192
        ]
      },
      "properties": {
        "id": 4939279685,
        "osm_type": "node",
        "name": "Pilvax Hotel Kalocsa",
        "tourism": "hotel"
      }
    },
    {
      "type": "Feature",
      "geometry": {
        "type": "Point",
        "coordinates": [
          18.9443421,
          45.950534
        ]
      },
      "properties": {
        "id": 4983402278,
        "osm_type": "node",
        "name": "Locomotiv Vendégház",
        "tourism": "guest_house",
        "phone": "+36 70 342 4070"
      }
    },
    {
      "type": "Feature",
      "geometry": {
        "type": "Point",
        "coordinates": [
          18.877379,
          46.5876258
        ]
      },
      "properties": {
        "id": 5062085835,
        "osm_type": "node",
        "tourism": "camp_site"
      }
    },
    {
      "type": "Feature",
      "geometry": {
        "type": "Point",
        "coordinates": [
          18.960388,
          46.7975109
        ]
      },
      "properties": {
        "id": 5062085836,
        "osm_type": "node",
        "tourism": "camp_site"
      }
    },
    {
      "type": "Feature",
      "geometry": {
        "type": "Point",
        "coordinates": [
          19.736464,
          46.5262871
        ]
      },
      "properties": {
        "id": 5063709322,
        "osm_type": "node",
        "name": "Marika Vendégház",
        "tourism": "guest_house"
      }
    },
    {
      "type": "Feature",
      "geometry": {
        "type": "Point",
        "coordinates": [
          18.9662294,
          46.1694962
        ]
      },
      "properties": {
        "id": 5113836721,
        "osm_type": "node",
        "name": "Hotel Elizabeth",
        "tourism": "hotel",
        "opening_hours": "24/7",
        "phone": "+36 30 278 4506",
        "website": "https://www.hotelelizabeth.hu/"
      }
    },
    {
      "type": "Feature",
      "geometry": {
        "type": "Point",
        "coordinates": [
          18.8671141,
          45.9452645
        ]
      },
      "properties": {
        "id": 5162316009,
        "osm_type": "node",
        "name": "Crux Viator Vendégház",
        "tourism": "guest_house"
      }
    },
    {
      "type": "Feature",
      "geometry": {
        "type": "Point",
        "coordinates": [
          18.7704869,
          46.0794677
        ]
      },
      "properties": {
        "id": 5166198414,
        "osm_type": "node",
        "name": "Farkas Vendégház",
        "tourism": "guest_house",
        "phone": "+36 20 592 3644"
      }
    },
    {
      "type": "Feature",
      "geometry": {
        "type": "Point",
        "coordinates": [
          19.3256217,
          46.9385208
        ]
      },
      "properties": {
        "id": 5210800263,
        "osm_type": "node",
        "name": "Kiskunsági Betyár Kuria",
        "tourism": "hotel",
        "phone": "+36 76 352 427;+36 70 424 2325",
        "website": "http://www.betyar-kuria.hu/"
      }
    },
    {
      "type": "Feature",
      "geometry": {
        "type": "Point",
        "coordinates": [
          19.6618485,
          46.6641331
        ]
      },
      "properties": {
        "id": 5313482525,
        "osm_type": "node",
        "tourism": "guest_house"
      }
    },
    {
      "type": "Feature",
      "geometry": {
        "type": "Point",
        "coordinates": [
          18.9521919,
          46.1800978
        ]
      },
      "properties": {
        "id": 5572000131,
        "osm_type": "node",
        "name": "Ciszterci Ház",
        "tourism": "hotel",
        "check_date": "2025-03-02"
      }
    },
    {
      "type": "Feature",
      "geometry": {
        "type": "Point",
        "coordinates": [
          19.4774791,
          47.056337
        ]
      },
      "properties": {
        "id": 5690420727,
        "osm_type": "node",
        "name": "Bende Tanya",
        "tourism": "guest_house",
        "phone": "+36 30 202 4111",
        "website": "http://www.bende-tanya.de/"
      }
    },
    {
      "type": "Feature",
      "geometry": {
        "type": "Point",
        "coordinates": [
          19.4336316,
          46.9839084
        ]
      },
      "properties": {
        "id": 5708000362,
        "osm_type": "node",
        "name": "Baracs Puszta Ifjúsági Szálló",
        "tourism": "hostel",
        "contact:phone": "+36 70 379 5347",
        "website": "http://kunbaracsitabor.hu/"
      }
    },
    {
      "type": "Feature",
      "geometry": {
        "type": "Point",
        "coordinates": [
          19.6775612,
          46.5518694
        ]
      },
      "properties": {
        "id": 5809818255,
        "osm_type": "node",
        "name": "Zank Vezér Sportszálló és Tekecsarnok",
        "tourism": "hotel"
      }
    },
    {
      "type": "Feature",
      "geometry": {
        "type": "Point",
        "coordinates": [
          19.9995742,
          46.8678874
        ]
      },
      "properties": {
        "id": 5821332619,
        "osm_type": "node",
        "name": "Kultúrművek",
        "tourism": "guest_house",
        "website": "http://www.kulturmuvek.hu"
      }
    },
    {
      "type": "Feature",
      "geometry": {
        "type": "Point",
        "coordinates": [
          19.339751,
          46.8314574
        ]
      },
      "properties": {
        "id": 5850871185,
        "osm_type": "node",
        "name": "Izsáki Horgász és Pihenöpark",
        "tourism": "camp_site",
        "phone": "+36 30 249 6924",
        "website": "https://izsakihorgaszto.hu/"
      }
    },
    {
      "type": "Feature",
      "geometry": {
        "type": "Point",
        "coordinates": [
          19.4901471,
          46.9547497
        ]
      },
      "properties": {
        "id": 6018034543,
        "osm_type": "node",
        "name": "Eszter-ház Vendégház",
        "tourism": "guest_house",
        "phone": "+36 70 379 5347",
        "website": "https://eszter-haz-vendeghaz-guest-house-kerekegyhaza.booked.hu/"
      }
    },
    {
      "type": "Feature",
      "geometry": {
        "type": "Point",
        "coordinates": [
          19.4222014,
          46.9265735
        ]
      },
      "properties": {
        "id": 6020155155,
        "osm_type": "node",
        "name": "Kunsági Major",
        "tourism": "hotel",
        "contact:phone": "+36 76 371 240",
        "contact:website": "http://kunsagimajor.hu/"
      }
    },
    {
      "type": "Feature",
      "geometry": {
        "type": "Point",
        "coordinates": [
          19.0078229,
          46.9855452
        ]
      },
      "properties": {
        "id": 6154204109,
        "osm_type": "node",
        "name": "Szalki fogadó",
        "tourism": "motel",
        "contact:phone": "+36 30 861 9622;+36 76 358 335",
        "contact:website": "https://szallas.hu/szalki-fogado-szalkszentmarton"
      }
    },
    {
      "type": "Feature",
      "geometry": {
        "type": "Point",
        "coordinates": [
          19.4938204,
          46.4267005
        ]
      },
      "properties": {
        "id": 6154204110,
        "osm_type": "node",
        "name": "Betti Motel",
        "tourism": "motel",
        "contact:phone": "+36 20 568 2322",
        "contact:website": "http://www.bettimotel.hu/"
      }
    },
    {
      "type": "Feature",
      "geometry": {
        "type": "Point",
        "coordinates": [
          19.4941235,
          46.4268743
        ]
      },
      "properties": {
        "id": 6154204118,
        "osm_type": "node",
        "name": "Motel Penny",
        "tourism": "motel",
        "contact:phone": "+36 77 425 103",
        "contact:website": "http://www.motelpenny.hu/"
      }
    },
    {
      "type": "Feature",
      "geometry": {
        "type": "Point",
        "coordinates": [
          19.2197067,
          46.8751566
        ]
      },
      "properties": {
        "id": 6314915219,
        "osm_type": "node",
        "name": "Hotel Pellikán",
        "tourism": "hotel"
      }
    },
    {
      "type": "Feature",
      "geometry": {
        "type": "Point",
        "coordinates": [
          19.5777118,
          47.105888
        ]
      },
      "properties": {
        "id": 6374345153,
        "osm_type": "node",
        "name": "Akácliget Vendégház",
        "tourism": "guest_house",
        "contact:website": "https://akacliget.hu/"
      }
    },
    {
      "type": "Feature",
      "geometry": {
        "type": "Point",
        "coordinates": [
          19.5356709,
          47.0188263
        ]
      },
      "properties": {
        "id": 6497693466,
        "osm_type": "node",
        "name": "Tanya Szálló",
        "tourism": "guest_house"
      }
    },
    {
      "type": "Feature",
      "geometry": {
        "type": "Point",
        "coordinates": [
          19.6091044,
          47.0800298
        ]
      },
      "properties": {
        "id": 6564395233,
        "osm_type": "node",
        "name": "Mizsei Lovastanya",
        "tourism": "guest_house",
        "phone": "+36 20 934 4417",
        "website": "https://www.mizseilovastanya.hu"
      }
    },
    {
      "type": "Feature",
      "geometry": {
        "type": "Point",
        "coordinates": [
          18.909371,
          46.2598674
        ]
      },
      "properties": {
        "id": 6781110940,
        "osm_type": "node",
        "name": "Sziget Hotel Veránka",
        "tourism": "hotel"
      }
    },
    {
      "type": "Feature",
      "geometry": {
        "type": "Point",
        "coordinates": [
          19.2895192,
          46.8372349
        ]
      },
      "properties": {
        "id": 6874097088,
        "osm_type": "node",
        "name": "Hármaspuszta vendégház",
        "tourism": "guest_house",
        "contact:phone": "+36 20 505 2424"
      }
    },
    {
      "type": "Feature",
      "geometry": {
        "type": "Point",
        "coordinates": [
          19.4263479,
          46.7516181
        ]
      },
      "properties": {
        "id": 7086162350,
        "osm_type": "node",
        "name": "Venyige Tanya",
        "tourism": "guest_house"
      }
    },
    {
      "type": "Feature",
      "geometry": {
        "type": "Point",
        "coordinates": [
          19.4128166,
          46.7552726
        ]
      },
      "properties": {
        "id": 7086170213,
        "osm_type": "node",
        "name": "Végh Birtok és Vendégház",
        "tourism": "guest_house"
      }
    },
    {
      "type": "Feature",
      "geometry": {
        "type": "Point",
        "coordinates": [
          19.0098774,
          46.6923658
        ]
      },
      "properties": {
        "id": 7839272429,
        "osm_type": "node",
        "tourism": "camp_site"
      }
    },
    {
      "type": "Feature",
      "geometry": {
        "type": "Point",
        "coordinates": [
          19.7947886,
          46.6322185
        ]
      },
      "properties": {
        "id": 7842444226,
        "osm_type": "node",
        "name": "Sallai Vendégház",
        "tourism": "guest_house"
      }
    },
    {
      "type": "Feature",
      "geometry": {
        "type": "Point",
        "coordinates": [
          18.9168252,
          46.4978067
        ]
      },
      "properties": {
        "id": 7849742652,
        "osm_type": "node",
        "tourism": "camp_site"
      }
    },
    {
      "type": "Feature",
      "geometry": {
        "type": "Point",
        "coordinates": [
          19.6385459,
          46.7653261
        ]
      },
      "properties": {
        "id": 8051233596,
        "osm_type": "node",
        "name": "Wolford dűlői Közösségi Ház",
        "tourism": "guest_house",
        "contact:website": "https://jakabszallas.hu/kozossegihaz/"
      }
    },
    {
      "type": "Feature",
      "geometry": {
        "type": "Point",
        "coordinates": [
          19.6955547,
          46.8833024
        ]
      },
      "properties": {
        "id": 8078674318,
        "osm_type": "node",
        "name": "Gokart Hotel **** & Étterem",
        "tourism": "hotel",
        "contact:phone": "+36 30 651 1490",
        "contact:website": "https://www.gokarthotel.hu"
      }
    },
    {
      "type": "Feature",
      "geometry": {
        "type": "Point",
        "coordinates": [
          19.3147092,
          46.6828212
        ]
      },
      "properties": {
        "id": 8565463965,
        "osm_type": "node",
        "name": "Bodobács Ház",
        "tourism": "hotel"
      }
    },
    {
      "type": "Feature",
      "geometry": {
        "type": "Point",
        "coordinates": [
          19.6771927,
          46.5518095
        ]
      },
      "properties": {
        "id": 8656322629,
        "osm_type": "node",
        "name": "Jurtaszálló",
        "tourism": "hotel"
      }
    },
    {
      "type": "Feature",
      "geometry": {
        "type": "Point",
        "coordinates": [
          19.4623607,
          46.4594385
        ]
      },
      "properties": {
        "id": 9797091823,
        "osm_type": "node",
        "name": "Sóstó Motel",
        "tourism": "motel"
      }
    },
    {
      "type": "Feature",
      "geometry": {
        "type": "Point",
        "coordinates": [
          19.1317838,
          46.9689202
        ]
      },
      "properties": {
        "id": 9899947657,
        "osm_type": "node",
        "name": "ÁGOTA Falva",
        "tourism": "hostel",
        "contact:website": "https://www.szentagota.hu/agota-falva-tass-alsoszenttamas"
      }
    },
    {
      "type": "Feature",
      "geometry": {
        "type": "Point",
        "coordinates": [
          19.3235857,
          46.296148
        ]
      },
      "properties": {
        "id": 9902373595,
        "osm_type": "node",
        "name": "Gyümölcsös Panzio",
        "tourism": "guest_house"
      }
    },
    {
      "type": "Feature",
      "geometry": {
        "type": "Point",
        "coordinates": [
          18.9069581,
          46.4261861
        ]
      },
      "properties": {
        "id": 10629996826,
        "osm_type": "node",
        "tourism": "camp_site",
        "check_date": "2023-02-09"
      }
    },
    {
      "type": "Feature",
      "geometry": {
        "type": "Point",
        "coordinates": [
          19.4562118,
          47.03892
        ]
      },
      "properties": {
        "id": 11026089766,
        "osm_type": "node",
        "name": "Inczédi Tanya",
        "tourism": "apartment"
      }
    },
    {
      "type": "Feature",
      "geometry": {
        "type": "Point",
        "coordinates": [
          19.2329553,
          46.2577767
        ]
      },
      "properties": {
        "id": 11069841463,
        "osm_type": "node",
        "name": "Koch Panzió",
        "tourism": "guest_house",
        "phone": "+36 30 487 3816",
        "website": "https://www.kochboraszat.hu/panzio"
      }
    },
    {
      "type": "Feature",
      "geometry": {
        "type": "Point",
        "coordinates": [
          19.7711054,
          46.7681023
        ]
      },
      "properties": {
        "id": 11156083160,
        "osm_type": "node",
        "name": "Camping Tanya Riaad",
        "tourism": "camp_site",
        "phone": "+49 159 01931767"
      }
    },
    {
      "type": "Feature",
      "geometry": {
        "type": "Point",
        "coordinates": [
          19.5373137,
          46.7284813
        ]
      },
      "properties": {
        "id": 11160401069,
        "osm_type": "node",
        "name": "Nádas Tanya",
        "tourism": "guest_house"
      }
    },
    {
      "type": "Feature",
      "geometry": {
        "type": "Point",
        "coordinates": [
          18.9209565,
          46.1949527
        ]
      },
      "properties": {
        "id": 11186554089,
        "osm_type": "node",
        "name": "Harmat pihenőház",
        "tourism": "guest_house"
      }
    },
    {
      "type": "Feature",
      "geometry": {
        "type": "Point",
        "coordinates": [
          18.7676007,
          46.0808915
        ]
      },
      "properties": {
        "id": 11990254079,
        "osm_type": "node",
        "name": "Claudi's Eden",
        "tourism": "camp_site"
      }
    },
    {
      "type": "Feature",
      "geometry": {
        "type": "Point",
        "coordinates": [
          19.9869744,
          46.8256397
        ]
      },
      "properties": {
        "id": 12053111310,
        "osm_type": "node",
        "tourism": "guest_house"
      }
    },
    {
      "type": "Feature",
      "geometry": {
        "type": "Point",
        "coordinates": [
          19.3938874,
          46.58171
        ]
      },
      "properties": {
        "id": 12084003345,
        "osm_type": "node",
        "name": "Gratzer Apartman",
        "tourism": "apartment"
      }
    },
    {
      "type": "Feature",
      "geometry": {
        "type": "Point",
        "coordinates": [
          19.8604391,
          46.706959
        ]
      },
      "properties": {
        "id": 12144282025,
        "osm_type": "node",
        "name": "Borostyán Panzió",
        "tourism": "guest_house",
        "contact:phone": "+36 76 466 785"
      }
    },
    {
      "type": "Feature",
      "geometry": {
        "type": "Point",
        "coordinates": [
          19.0415078,
          46.6216892
        ]
      },
      "properties": {
        "id": 12167699092,
        "osm_type": "node",
        "name": "TO8 apartman",
        "tourism": "apartment"
      }
    },
    {
      "type": "Feature",
      "geometry": {
        "type": "Point",
        "coordinates": [
          19.4248715,
          46.8936225
        ]
      },
      "properties": {
        "id": 12694882250,
        "osm_type": "node",
        "name": "Pusztafarm vendégház",
        "tourism": "guest_house"
      }
    },
    {
      "type": "Feature",
      "geometry": {
        "type": "Point",
        "coordinates": [
          18.9616486,
          46.1717038
        ]
      },
      "properties": {
        "id": 12842092009,
        "osm_type": "node",
        "name": "Kálvária apartman",
        "tourism": "apartment"
      }
    },
    {
      "type": "Feature",
      "geometry": {
        "type": "Point",
        "coordinates": [
          18.9464471,
          46.1783758
        ]
      },
      "properties": {
        "id": 12844360881,
        "osm_type": "node",
        "name": "Napsugár Szálló",
        "tourism": "camp_site",
        "opening_hours": "24/7",
        "website": "https://www.bajaiturizmus.hu/"
      }
    },
    {
      "type": "Feature",
      "geometry": {
        "type": "Point",
        "coordinates": [
          18.9193247,
          46.1968607
        ]
      },
      "properties": {
        "id": 13094856516,
        "osm_type": "node",
        "name": "Vadvirág vendégház",
        "tourism": "guest_house"
      }
    },
    {
      "type": "Feature",
      "geometry": {
        "type": "Point",
        "coordinates": [
          19.7182942,
          46.8964921
        ]
      },
      "properties": {
        "id": 13381672629,
        "osm_type": "node",
        "name": "Kecskeméti művésztelep",
        "tourism": "hotel"
      }
    },
    {
      "type": "Feature",
      "geometry": {
        "type": "Point",
        "coordinates": [
          19.5315282,
          47.0454389
        ]
      },
      "properties": {
        "id": 13604764583,
        "osm_type": "node",
        "name": "Füstifecske Vendégház",
        "tourism": "guest_house",
        "contact:website": "https://fustifecskevendeghaz.hu/"
      }
    },
    {
      "type": "Feature",
      "geometry": {
        "type": "Point",
        "coordinates": [
          19.6350998,
          46.8526685
        ]
      },
      "properties": {
        "id": 13747720801,
        "osm_type": "node",
        "tourism": "camp_site"
      }
    },
    {
      "type": "Feature",
      "geometry": {
        "type": "Point",
        "coordinates": [
          18.9591834,
          46.5344622
        ]
      },
      "properties": {
        "id": 13748580329,
        "osm_type": "node",
        "name": "Alice Panzió",
        "tourism": "guest_house",
        "contact:website": "https://www.alicepanzio.hu/alice-vendeghaz/"
      }
    },
    {
      "type": "Feature",
      "geometry": {
        "type": "Point",
        "coordinates": [
          19.6906609,
          46.9081408
        ]
      },
      "properties": {
        "id": 43546872,
        "osm_type": "way",
        "name": "Aranyhomok Business-City-Wellness Hotel",
        "tourism": "hotel",
        "contact:phone": "+36 76 503 730",
        "contact:website": "https://hotelaranyhomok.hu/",
        "check_date": "2024-10-26"
      }
    },
    {
      "type": "Feature",
      "geometry": {
        "type": "Point",
        "coordinates": [
          18.9507367,
          46.178681
        ]
      },
      "properties": {
        "id": 210508665,
        "osm_type": "way",
        "name": "Főtér Panzió",
        "tourism": "hotel"
      }
    },
    {
      "type": "Feature",
      "geometry": {
        "type": "Point",
        "coordinates": [
          18.9413412,
          46.178013
        ]
      },
      "properties": {
        "id": 210508676,
        "osm_type": "way",
        "name": "Kisviza Vendégház",
        "tourism": "guest_house",
        "website": "http://vizafogopanzio.hu/index.php/kisviza-vendeghaz"
      }
    },
    {
      "type": "Feature",
      "geometry": {
        "type": "Point",
        "coordinates": [
          19.6922828,
          46.9089867
        ]
      },
      "properties": {
        "id": 242850184,
        "osm_type": "way",
        "name": "Boutique Hotel Center",
        "tourism": "hotel",
        "contact:phone": "+36 76 321 045",
        "contact:website": "http://www.palmahotel.hu/"
      }
    },
    {
      "type": "Feature",
      "geometry": {
        "type": "Point",
        "coordinates": [
          18.9592789,
          46.1850161
        ]
      },
      "properties": {
        "id": 243754364,
        "osm_type": "way",
        "name": "Malom Panzió",
        "tourism": "hotel",
        "website": "http://www.malomclubbaja.hu/index.php?option=com_content&view=article&id=6:panzio&catid=24:cimlap-jobb-user3&Itemid=6"
      }
    },
    {
      "type": "Feature",
      "geometry": {
        "type": "Point",
        "coordinates": [
          19.3829993,
          46.2122842
        ]
      },
      "properties": {
        "id": 295065875,
        "osm_type": "way",
        "name": "Zöldfa Vendégház",
        "tourism": "guest_house",
        "phone": "+36 77 460 167",
        "website": "http://www.zoldfavendeghaz.hu"
      }
    },
    {
      "type": "Feature",
      "geometry": {
        "type": "Point",
        "coordinates": [
          19.1579918,
          46.1192429
        ]
      },
      "properties": {
        "id": 295889866,
        "osm_type": "way",
        "name": "Kánaán Fogadó",
        "tourism": "guest_house",
        "phone": "+36 79 451 162"
      }
    },
    {
      "type": "Feature",
      "geometry": {
        "type": "Point",
        "coordinates": [
          18.8978269,
          46.035606
        ]
      },
      "properties": {
        "id": 295966542,
        "osm_type": "way",
        "name": "Ponty-Poronty Vendégház",
        "tourism": "guest_house",
        "phone": "+36 70 334 0295",
        "website": "https://www.pontyporonty.hu/"
      }
    },
    {
      "type": "Feature",
      "geometry": {
        "type": "Point",
        "coordinates": [
          18.8969423,
          46.0351529
        ]
      },
      "properties": {
        "id": 295969657,
        "osm_type": "way",
        "name": "Horgász-lak Vendégház",
        "tourism": "guest_house",
        "phone": "+36 30 251 0842",
        "website": "http://www.aranybacska.hu",
        "check_date": "2024-06-08"
      }
    },
    {
      "type": "Feature",
      "geometry": {
        "type": "Point",
        "coordinates": [
          18.8970884,
          46.0352363
        ]
      },
      "properties": {
        "id": 295969659,
        "osm_type": "way",
        "name": "Horgász-lak Vendégház",
        "tourism": "guest_house",
        "phone": "+36 30 251 0842",
        "website": "http://www.aranybacska.hu",
        "check_date": "2024-06-08"
      }
    },
    {
      "type": "Feature",
      "geometry": {
        "type": "Point",
        "coordinates": [
          19.1651808,
          46.1272247
        ]
      },
      "properties": {
        "id": 295998988,
        "osm_type": "way",
        "name": "Mediterrán Vendégház",
        "tourism": "guest_house"
      }
    },
    {
      "type": "Feature",
      "geometry": {
        "type": "Point",
        "coordinates": [
          19.0383564,
          46.6196185
        ]
      },
      "properties": {
        "id": 298554353,
        "osm_type": "way",
        "name": "Holdfény Kemping",
        "tourism": "camp_site",
        "phone": "+36 78 425 707",
        "website": "http://szelidinyar.hu/szallasajanlo/holdfeny-kemping-szallo/"
      }
    },
    {
      "type": "Feature",
      "geometry": {
        "type": "Point",
        "coordinates": [
          19.4104674,
          46.1179035
        ]
      },
      "properties": {
        "id": 299476174,
        "osm_type": "way",
        "name": "Kähny vadászház",
        "tourism": "guest_house",
        "phone": "+36 79 543 422"
      }
    },
    {
      "type": "Feature",
      "geometry": {
        "type": "Point",
        "coordinates": [
          19.536096,
          46.2276571
        ]
      },
      "properties": {
        "id": 300713154,
        "osm_type": "way",
        "name": "Shell",
        "tourism": "hotel"
      }
    },
    {
      "type": "Feature",
      "geometry": {
        "type": "Point",
        "coordinates": [
          18.7692052,
          46.0840932
        ]
      },
      "properties": {
        "id": 301554159,
        "osm_type": "way",
        "name": "Florentia Vendégház",
        "tourism": "guest_house"
      }
    },
    {
      "type": "Feature",
      "geometry": {
        "type": "Point",
        "coordinates": [
          18.8887839,
          46.0410706
        ]
      },
      "properties": {
        "id": 304515924,
        "osm_type": "way",
        "name": "Füzes-parti Tanya",
        "tourism": "guest_house",
        "phone": "+36 30 426 3983",
        "website": "http://www.fuzespartitanya.hu"
      }
    },
    {
      "type": "Feature",
      "geometry": {
        "type": "Point",
        "coordinates": [
          18.8885502,
          46.0408776
        ]
      },
      "properties": {
        "id": 304533283,
        "osm_type": "way",
        "name": "Füzes-parti Tanya",
        "tourism": "guest_house",
        "phone": "+36 30 426 3983",
        "website": "http://www.fuzespartitanya.hu"
      }
    },
    {
      "type": "Feature",
      "geometry": {
        "type": "Point",
        "coordinates": [
          18.946813,
          46.0403428
        ]
      },
      "properties": {
        "id": 305871014,
        "osm_type": "way",
        "name": "Lucky's B & B Ranch",
        "tourism": "guest_house",
        "phone": "+36 30 544 0819",
        "website": "http://www.luckysranch.eu/"
      }
    },
    {
      "type": "Feature",
      "geometry": {
        "type": "Point",
        "coordinates": [
          18.8983164,
          46.0036203
        ]
      },
      "properties": {
        "id": 305921415,
        "osm_type": "way",
        "name": "Hotel Fortuna Étterem",
        "tourism": "hotel",
        "phone": "+36 30 730 1675",
        "website": "https://hotel-fortuna.hu/I_2_etterem_ellatas_menukinalat.php"
      }
    },
    {
      "type": "Feature",
      "geometry": {
        "type": "Point",
        "coordinates": [
          18.8998969,
          46.0078559
        ]
      },
      "properties": {
        "id": 305922640,
        "osm_type": "way",
        "name": "Ponty-Lak Vendégház",
        "tourism": "guest_house",
        "phone": "+36 70 334 0295",
        "website": "https://www.pontyporonty.hu/ponty-lak-vendeghaz"
      }
    },
    {
      "type": "Feature",
      "geometry": {
        "type": "Point",
        "coordinates": [
          18.911667,
          45.9990985
        ]
      },
      "properties": {
        "id": 307336077,
        "osm_type": "way",
        "name": "Sanyesz Vendégház",
        "tourism": "guest_house",
        "phone": "+36 70 984 2998"
      }
    },
    {
      "type": "Feature",
      "geometry": {
        "type": "Point",
        "coordinates": [
          19.149484,
          46.385813
        ]
      },
      "properties": {
        "id": 329803790,
        "osm_type": "way",
        "name": "Hepp Borház",
        "tourism": "guest_house"
      }
    },
    {
      "type": "Feature",
      "geometry": {
        "type": "Point",
        "coordinates": [
          19.1443925,
          46.3877316
        ]
      },
      "properties": {
        "id": 329803797,
        "osm_type": "way",
        "name": "Kellermotel",
        "tourism": "hotel",
        "opening_hours": "closed",
        "contact:website": "http://www.kellermotel.hu/"
      }
    },
    {
      "type": "Feature",
      "geometry": {
        "type": "Point",
        "coordinates": [
          19.1952462,
          46.461135
        ]
      },
      "properties": {
        "id": 330323536,
        "osm_type": "way",
        "name": "Kiskastély vendégház",
        "tourism": "guest_house",
        "phone": "+36 30 490 3846"
      }
    },
    {
      "type": "Feature",
      "geometry": {
        "type": "Point",
        "coordinates": [
          19.8437373,
          46.61296
        ]
      },
      "properties": {
        "id": 332370269,
        "osm_type": "way",
        "name": "Zarándokház",
        "tourism": "hostel",
        "website": "https://palosrend.hu/petofiszallas-palosszentkut/"
      }
    },
    {
      "type": "Feature",
      "geometry": {
        "type": "Point",
        "coordinates": [
          18.987203,
          46.2771054
        ]
      },
      "properties": {
        "id": 340570907,
        "osm_type": "way",
        "name": "Gruber Sörház és Panzió",
        "tourism": "hotel"
      }
    },
    {
      "type": "Feature",
      "geometry": {
        "type": "Point",
        "coordinates": [
          18.9301233,
          46.1914248
        ]
      },
      "properties": {
        "id": 340570909,
        "osm_type": "way",
        "name": "Vándorpont",
        "tourism": "alpine_hut"
      }
    },
    {
      "type": "Feature",
      "geometry": {
        "type": "Point",
        "coordinates": [
          18.941297,
          46.3014381
        ]
      },
      "properties": {
        "id": 340570916,
        "osm_type": "way",
        "name": "Ósükösdi turistaház",
        "tourism": "guest_house"
      }
    },
    {
      "type": "Feature",
      "geometry": {
        "type": "Point",
        "coordinates": [
          19.7485857,
          46.5212192
        ]
      },
      "properties": {
        "id": 361042204,
        "osm_type": "way",
        "name": "Jonathermál Kemping",
        "tourism": "camp_site",
        "website": "https://www.jonathermal.hu/"
      }
    },
    {
      "type": "Feature",
      "geometry": {
        "type": "Point",
        "coordinates": [
          18.9615483,
          46.8841574
        ]
      },
      "properties": {
        "id": 364588826,
        "osm_type": "way",
        "name": "Zarándokszállás",
        "tourism": "guest_house",
        "phone": "+36 70 953 8113"
      }
    },
    {
      "type": "Feature",
      "geometry": {
        "type": "Point",
        "coordinates": [
          18.9556808,
          46.5372218
        ]
      },
      "properties": {
        "id": 374416240,
        "osm_type": "way",
        "name": "Turbo Szálló",
        "tourism": "hostel",
        "contact:website": "https://www.turboszallo.hu/"
      }
    },
    {
      "type": "Feature",
      "geometry": {
        "type": "Point",
        "coordinates": [
          18.8986669,
          46.0034404
        ]
      },
      "properties": {
        "id": 391680372,
        "osm_type": "way",
        "name": "Hotel Fortuna",
        "tourism": "hotel",
        "phone": "+36 30 730 1675",
        "website": "https://hotel-fortuna.hu/"
      }
    },
    {
      "type": "Feature",
      "geometry": {
        "type": "Point",
        "coordinates": [
          18.8971224,
          46.003372
        ]
      },
      "properties": {
        "id": 424836144,
        "osm_type": "way",
        "name": "Varga Vendégház",
        "tourism": "guest_house"
      }
    },
    {
      "type": "Feature",
      "geometry": {
        "type": "Point",
        "coordinates": [
          19.2402563,
          46.2542671
        ]
      },
      "properties": {
        "id": 431896684,
        "osm_type": "way",
        "name": "Koch Panzió",
        "tourism": "guest_house",
        "phone": "+36 77 500 040",
        "website": "https://www.kochboraszat.hu/"
      }
    },
    {
      "type": "Feature",
      "geometry": {
        "type": "Point",
        "coordinates": [
          20.1269421,
          46.942096
        ]
      },
      "properties": {
        "id": 458334958,
        "osm_type": "way",
        "name": "Szabadtéri camping",
        "tourism": "camp_site"
      }
    },
    {
      "type": "Feature",
      "geometry": {
        "type": "Point",
        "coordinates": [
          19.5978046,
          47.0362513
        ]
      },
      "properties": {
        "id": 478518263,
        "osm_type": "way",
        "name": "Geréby-kúria",
        "tourism": "hotel",
        "website": "http://hu.gereby.hu/"
      }
    },
    {
      "type": "Feature",
      "geometry": {
        "type": "Point",
        "coordinates": [
          19.3903845,
          46.9940018
        ]
      },
      "properties": {
        "id": 479260314,
        "osm_type": "way",
        "name": "Vörös-kastély",
        "tourism": "hotel",
        "contact:website": "https://voroskastely.hu/"
      }
    },
    {
      "type": "Feature",
      "geometry": {
        "type": "Point",
        "coordinates": [
          19.9656842,
          46.8947106
        ]
      },
      "properties": {
        "id": 497103768,
        "osm_type": "way",
        "name": "Hotel Club Tisza",
        "tourism": "hotel",
        "contact:phone": "+36 76 549 050",
        "contact:website": "https://hungarikumliget.hu/szolgaltatasok/szallas/hotel-club-tisza"
      }
    },
    {
      "type": "Feature",
      "geometry": {
        "type": "Point",
        "coordinates": [
          19.4259551,
          46.868571
        ]
      },
      "properties": {
        "id": 500787644,
        "osm_type": "way",
        "name": "Naprózsa Erdei Iskola",
        "tourism": "guest_house",
        "phone": "+36 30 488 4568",
        "website": "http://knp.nemzetipark.gov.hu/index.php?pg=menu_1460"
      }
    },
    {
      "type": "Feature",
      "geometry": {
        "type": "Point",
        "coordinates": [
          19.4091806,
          46.8619388
        ]
      },
      "properties": {
        "id": 500904983,
        "osm_type": "way",
        "name": "vendégházak",
        "tourism": "guest_house"
      }
    },
    {
      "type": "Feature",
      "geometry": {
        "type": "Point",
        "coordinates": [
          19.1317659,
          46.3233834
        ]
      },
      "properties": {
        "id": 501083468,
        "osm_type": "way",
        "name": "Hajósszentgyörgyi Vadászház",
        "tourism": "guest_house",
        "website": "http://vadgazdalkodas.gemenczrt.hu/hajosszentgyorgyi-vadaszhaz/"
      }
    },
    {
      "type": "Feature",
      "geometry": {
        "type": "Point",
        "coordinates": [
          19.325356,
          46.9386564
        ]
      },
      "properties": {
        "id": 504300164,
        "osm_type": "way",
        "tourism": "hotel"
      }
    },
    {
      "type": "Feature",
      "geometry": {
        "type": "Point",
        "coordinates": [
          18.9074452,
          46.4265746
        ]
      },
      "properties": {
        "id": 514136790,
        "osm_type": "way",
        "name": "Zarándokszállás",
        "tourism": "guest_house"
      }
    },
    {
      "type": "Feature",
      "geometry": {
        "type": "Point",
        "coordinates": [
          19.4165064,
          46.949545
        ]
      },
      "properties": {
        "id": 525574316,
        "osm_type": "way",
        "name": "Varga Tanya Hotel, Konferencia és Szabadidő Központ",
        "tourism": "hotel"
      }
    },
    {
      "type": "Feature",
      "geometry": {
        "type": "Point",
        "coordinates": [
          19.2999746,
          46.6113545
        ]
      },
      "properties": {
        "id": 549022199,
        "osm_type": "way",
        "tourism": "motel"
      }
    },
    {
      "type": "Feature",
      "geometry": {
        "type": "Point",
        "coordinates": [
          19.3714962,
          46.8986553
        ]
      },
      "properties": {
        "id": 552828256,
        "osm_type": "way",
        "name": "Reitergasthof",
        "tourism": "motel"
      }
    },
    {
      "type": "Feature",
      "geometry": {
        "type": "Point",
        "coordinates": [
          19.3437589,
          46.5894632
        ]
      },
      "properties": {
        "id": 553296806,
        "osm_type": "way",
        "name": "Lilla Hotel, Restaurant",
        "tourism": "motel"
      }
    },
    {
      "type": "Feature",
      "geometry": {
        "type": "Point",
        "coordinates": [
          19.4692113,
          46.4510046
        ]
      },
      "properties": {
        "id": 562765320,
        "osm_type": "way",
        "tourism": "hotel",
        "contact:phone": "+36 70 328 7892",
        "contact:website": "https://misztral-dolgozoi-hotel.business.site/"
      }
    },
    {
      "type": "Feature",
      "geometry": {
        "type": "Point",
        "coordinates": [
          19.4357856,
          46.9907289
        ]
      },
      "properties": {
        "id": 584877467,
        "osm_type": "way",
        "name": "Mária öröme lelkigyakorlatos ház",
        "tourism": "guest_house",
        "website": "http://mariaorome.hu/"
      }
    },
    {
      "type": "Feature",
      "geometry": {
        "type": "Point",
        "coordinates": [
          18.9148524,
          45.9957018
        ]
      },
      "properties": {
        "id": 614040352,
        "osm_type": "way",
        "name": "Fészek Apartman",
        "tourism": "apartment",
        "phone": "+36 30 234 3654",
        "website": "https://www.szallasvadasz.hu/feszek-apartman-davod/"
      }
    },
    {
      "type": "Feature",
      "geometry": {
        "type": "Point",
        "coordinates": [
          19.7345352,
          46.8936366
        ]
      },
      "properties": {
        "id": 689631831,
        "osm_type": "way",
        "name": "Juniperus Panzió",
        "tourism": "guest_house"
      }
    },
    {
      "type": "Feature",
      "geometry": {
        "type": "Point",
        "coordinates": [
          20.0036405,
          46.8106346
        ]
      },
      "properties": {
        "id": 696801757,
        "osm_type": "way",
        "name": "4",
        "tourism": "chalet"
      }
    },
    {
      "type": "Feature",
      "geometry": {
        "type": "Point",
        "coordinates": [
          20.0034615,
          46.8105489
        ]
      },
      "properties": {
        "id": 696801758,
        "osm_type": "way",
        "name": "3",
        "tourism": "chalet"
      }
    },
    {
      "type": "Feature",
      "geometry": {
        "type": "Point",
        "coordinates": [
          20.0032837,
          46.8104556
        ]
      },
      "properties": {
        "id": 696801759,
        "osm_type": "way",
        "name": "2",
        "tourism": "chalet"
      }
    },
    {
      "type": "Feature",
      "geometry": {
        "type": "Point",
        "coordinates": [
          20.0030962,
          46.8103664
        ]
      },
      "properties": {
        "id": 696801760,
        "osm_type": "way",
        "name": "1",
        "tourism": "chalet"
      }
    },
    {
      "type": "Feature",
      "geometry": {
        "type": "Point",
        "coordinates": [
          20.0033509,
          46.8101849
        ]
      },
      "properties": {
        "id": 696801761,
        "osm_type": "way",
        "name": "5",
        "tourism": "chalet"
      }
    },
    {
      "type": "Feature",
      "geometry": {
        "type": "Point",
        "coordinates": [
          20.0031735,
          46.81009
        ]
      },
      "properties": {
        "id": 696801762,
        "osm_type": "way",
        "name": "6",
        "tourism": "chalet"
      }
    },
    {
      "type": "Feature",
      "geometry": {
        "type": "Point",
        "coordinates": [
          19.9856195,
          46.7781734
        ]
      },
      "properties": {
        "id": 696801791,
        "osm_type": "way",
        "tourism": "guest_house"
      }
    },
    {
      "type": "Feature",
      "geometry": {
        "type": "Point",
        "coordinates": [
          18.9657505,
          46.9082205
        ]
      },
      "properties": {
        "id": 746566660,
        "osm_type": "way",
        "name": "Zarándokszállás",
        "tourism": "guest_house"
      }
    },
    {
      "type": "Feature",
      "geometry": {
        "type": "Point",
        "coordinates": [
          19.3897118,
          46.6108495
        ]
      },
      "properties": {
        "id": 828422036,
        "osm_type": "way",
        "name": "Fekete Villa Panzió",
        "tourism": "guest_house"
      }
    },
    {
      "type": "Feature",
      "geometry": {
        "type": "Point",
        "coordinates": [
          19.9093504,
          46.7691897
        ]
      },
      "properties": {
        "id": 837660282,
        "osm_type": "way",
        "name": "Borsihalmi Művésztelep és Ifjúsági Szállás",
        "tourism": "guest_house"
      }
    },
    {
      "type": "Feature",
      "geometry": {
        "type": "Point",
        "coordinates": [
          19.9091663,
          46.769092
        ]
      },
      "properties": {
        "id": 837660290,
        "osm_type": "way",
        "name": "Borsihalom Ifjúsági Szálló és Művésztelep",
        "tourism": "hostel",
        "contact:phone": "+36 20 344 1114"
      }
    },
    {
      "type": "Feature",
      "geometry": {
        "type": "Point",
        "coordinates": [
          19.0032865,
          46.2967295
        ]
      },
      "properties": {
        "id": 844587912,
        "osm_type": "way",
        "name": "Várkastély vendégház",
        "tourism": "guest_house",
        "contact:phone": "+36 30 377 4291",
        "contact:website": "https://varkastelysukosd.hu/"
      }
    },
    {
      "type": "Feature",
      "geometry": {
        "type": "Point",
        "coordinates": [
          19.6327574,
          46.6690434
        ]
      },
      "properties": {
        "id": 850489655,
        "osm_type": "way",
        "name": "Buzsik Csőszház",
        "tourism": "guest_house"
      }
    },
    {
      "type": "Feature",
      "geometry": {
        "type": "Point",
        "coordinates": [
          19.634749,
          46.6677689
        ]
      },
      "properties": {
        "id": 850489663,
        "osm_type": "way",
        "tourism": "camp_site",
        "tents": "yes"
      }
    },
    {
      "type": "Feature",
      "geometry": {
        "type": "Point",
        "coordinates": [
          19.6198145,
          46.9013528
        ]
      },
      "properties": {
        "id": 857769964,
        "osm_type": "way",
        "name": "Piarista kulcsosház",
        "tourism": "hostel",
        "contact:website": "https://kecskemet.piarista.hu"
      }
    },
    {
      "type": "Feature",
      "geometry": {
        "type": "Point",
        "coordinates": [
          19.6698006,
          46.913181
        ]
      },
      "properties": {
        "id": 892829401,
        "osm_type": "way",
        "name": "Lánchíd Szálló",
        "tourism": "motel"
      }
    },
    {
      "type": "Feature",
      "geometry": {
        "type": "Point",
        "coordinates": [
          19.6880932,
          46.9097081
        ]
      },
      "properties": {
        "id": 907700602,
        "osm_type": "way",
        "name": "Mediterrán Vendégház",
        "tourism": "guest_house",
        "website": "https://mediterranvendeghaz.webnode.hu/"
      }
    },
    {
      "type": "Feature",
      "geometry": {
        "type": "Point",
        "coordinates": [
          19.6727892,
          46.897756
        ]
      },
      "properties": {
        "id": 911001473,
        "osm_type": "way",
        "name": "Four Points by Sheraton",
        "tourism": "hotel",
        "contact:phone": "+36 76 888 500",
        "contact:website": "http://fourpointskecskemet.hu/"
      }
    },
    {
      "type": "Feature",
      "geometry": {
        "type": "Point",
        "coordinates": [
          19.2824703,
          46.6200728
        ]
      },
      "properties": {
        "id": 946963183,
        "osm_type": "way",
        "name": "Petőfi Vendégház",
        "tourism": "apartment"
      }
    },
    {
      "type": "Feature",
      "geometry": {
        "type": "Point",
        "coordinates": [
          19.2723776,
          46.620852
        ]
      },
      "properties": {
        "id": 949345553,
        "osm_type": "way",
        "name": "Termál Hotel",
        "tourism": "hotel"
      }
    },
    {
      "type": "Feature",
      "geometry": {
        "type": "Point",
        "coordinates": [
          19.3285009,
          46.1241709
        ]
      },
      "properties": {
        "id": 1021983098,
        "osm_type": "way",
        "name": "Sárga Csikó Étterem és Panzió",
        "tourism": "guest_house",
        "opening_hours": "24/7",
        "contact:phone": "+36 79 342 569",
        "website": "http://www.sargacsiko.hu"
      }
    },
    {
      "type": "Feature",
      "geometry": {
        "type": "Point",
        "coordinates": [
          19.6653593,
          46.9022682
        ]
      },
      "properties": {
        "id": 1024582896,
        "osm_type": "way",
        "name": "Aqua Hotel",
        "tourism": "hotel",
        "contact:phone": "+36 76 575 355",
        "contact:website": "https://aquahotelkecskemet.hu/furdo/"
      }
    },
    {
      "type": "Feature",
      "geometry": {
        "type": "Point",
        "coordinates": [
          18.7679931,
          46.0809845
        ]
      },
      "properties": {
        "id": 1168212323,
        "osm_type": "way",
        "name": "Claudia`s Eden Wohnmobilstellplatz",
        "tourism": "caravan_site",
        "contact:phone": "+49 176 23550315",
        "contact:website": "https://claudis-eden.de/",
        "check_date": "2023-04-24"
      }
    },
    {
      "type": "Feature",
      "geometry": {
        "type": "Point",
        "coordinates": [
          19.9684785,
          46.8958525
        ]
      },
      "properties": {
        "id": 1173781494,
        "osm_type": "way",
        "name": "Hungarikum Hotel",
        "tourism": "hotel",
        "contact:phone": "+36 76 549 067",
        "contact:website": "https://hungarikumhotel.hu/"
      }
    },
    {
      "type": "Feature",
      "geometry": {
        "type": "Point",
        "coordinates": [
          19.9631262,
          46.8936594
        ]
      },
      "properties": {
        "id": 1174659178,
        "osm_type": "way",
        "name": "Kincsem Fogadó",
        "tourism": "guest_house",
        "contact:website": "https://hungarikumliget.hu/szolgaltatasok/szallas/kincsem-fogado"
      }
    },
    {
      "type": "Feature",
      "geometry": {
        "type": "Point",
        "coordinates": [
          19.9664628,
          46.8930435
        ]
      },
      "properties": {
        "id": 1174659215,
        "osm_type": "way",
        "name": "Avarok Szálláshelye Kemping",
        "tourism": "camp_site"
      }
    },
    {
      "type": "Feature",
      "geometry": {
        "type": "Point",
        "coordinates": [
          19.6845878,
          46.9118522
        ]
      },
      "properties": {
        "id": 1178793403,
        "osm_type": "way",
        "name": "Mediterrán Villa",
        "tourism": "guest_house",
        "website": "https://mediterranvendeghaz.webnode.hu/",
        "check_date": "2026-04-08"
      }
    },
    {
      "type": "Feature",
      "geometry": {
        "type": "Point",
        "coordinates": [
          19.9928322,
          46.8628602
        ]
      },
      "properties": {
        "id": 1190867313,
        "osm_type": "way",
        "name": "Tőserdő kemping",
        "tourism": "camp_site",
        "tents": "yes",
        "contact:website": "https://www.toserdo.hu/szolgaltatasaink/autoskemping"
      }
    },
    {
      "type": "Feature",
      "geometry": {
        "type": "Point",
        "coordinates": [
          19.2582272,
          46.5203433
        ]
      },
      "properties": {
        "id": 1212117262,
        "osm_type": "way",
        "tourism": "apartment"
      }
    },
    {
      "type": "Feature",
      "geometry": {
        "type": "Point",
        "coordinates": [
          18.9129805,
          45.9935696
        ]
      },
      "properties": {
        "id": 1309964216,
        "osm_type": "way",
        "name": "Pipacsos Pihenőház",
        "tourism": "guest_house",
        "phone": "+36 20 215 0050",
        "contact:website": "https://szallas.hu/pipacsos-pihenohaz-davod"
      }
    },
    {
      "type": "Feature",
      "geometry": {
        "type": "Point",
        "coordinates": [
          19.6635529,
          46.9044833
        ]
      },
      "properties": {
        "id": 1334988998,
        "osm_type": "way",
        "name": "Tó kemping",
        "tourism": "camp_site"
      }
    },
    {
      "type": "Feature",
      "geometry": {
        "type": "Point",
        "coordinates": [
          19.2871678,
          46.6184624
        ]
      },
      "properties": {
        "id": 1363852763,
        "osm_type": "way",
        "name": "La'Róna Rooms",
        "tourism": "apartment"
      }
    },
    {
      "type": "Feature",
      "geometry": {
        "type": "Point",
        "coordinates": [
          19.5900045,
          46.6296775
        ]
      },
      "properties": {
        "id": 1420012275,
        "osm_type": "way",
        "name": "Bugaci cserkészház",
        "tourism": "camp_site",
        "contact:website": "https://8ker.cserkesz.hu/bugaci-haz/"
      }
    },
    {
      "type": "Feature",
      "geometry": {
        "type": "Point",
        "coordinates": [
          19.4007389,
          46.5779513
        ]
      },
      "properties": {
        "id": 1426832069,
        "osm_type": "way",
        "name": "Frittman Borpanzió",
        "tourism": "guest_house",
        "contact:phone": "+36 30 757 8485",
        "contact:website": "https://www.frittmann.hu/szallas/"
      }
    },
    {
      "type": "Feature",
      "geometry": {
        "type": "Point",
        "coordinates": [
          19.3862025,
          46.6016735
        ]
      },
      "properties": {
        "id": 1460344602,
        "osm_type": "way",
        "name": "Anna Vendéglő és Panzió",
        "tourism": "guest_house"
      }
    },
    {
      "type": "Feature",
      "geometry": {
        "type": "Point",
        "coordinates": [
          19.4866614,
          46.994654
        ]
      },
      "properties": {
        "id": 1489627472,
        "osm_type": "way",
        "name": "Pagony Fogadó",
        "tourism": "guest_house",
        "website": "https://www.pagony-fogado.hu/"
      }
    },
    {
      "type": "Feature",
      "geometry": {
        "type": "Point",
        "coordinates": [
          19.4391662,
          46.973383
        ]
      },
      "properties": {
        "id": 1489631145,
        "osm_type": "way",
        "name": "Hunor Lovastanya Vendégház",
        "tourism": "guest_house",
        "contact:phone": "+36 20 316 1455"
      }
    },
    {
      "type": "Feature",
      "geometry": {
        "type": "Point",
        "coordinates": [
          18.8928582,
          46.0052538
        ]
      },
      "properties": {
        "id": 6881198,
        "osm_type": "relation",
        "name": "Dávodi Kemping és Szabadidőpark",
        "tourism": "camp_site",
        "phone": "+36 30 641 7368"
      }
    },
    {
      "type": "Feature",
      "geometry": {
        "type": "Point",
        "coordinates": [
          20.1218485,
          46.9377695
        ]
      },
      "properties": {
        "id": 9600239,
        "osm_type": "relation",
        "name": "Barack Hotel",
        "tourism": "hotel"
      }
    },
    {
      "type": "Feature",
      "geometry": {
        "type": "Point",
        "coordinates": [
          19.3931596,
          46.6098975
        ]
      },
      "properties": {
        "id": 11330497,
        "osm_type": "relation",
        "name": "Vadkerti-tó Kemping",
        "tourism": "camp_site",
        "opening_hours": "Jun 01-Aug 31",
        "tents": "yes",
        "contact:website": "https://www.vadkerti-to.hu/"
      }
    }
  ]
}