{
  "type": "FeatureCollection",
  "features": [
    {
      "type": "Feature",
      "geometry": {
        "type": "Point",
        "coordinates": [
          20.2847167,
          44.9495235
        ]
      },
      "properties": {
        "id": 859540425,
        "osm_type": "node",
        "name": "Motel restoran NB",
        "tourism": "motel",
        "phone": "+381 64 3200070"
      }
    },
    {
      "type": "Feature",
      "geometry": {
        "type": "Point",
        "coordinates": [
          20.2842009,
          44.946837
        ]
      },
      "properties": {
        "id": 859540426,
        "osm_type": "node",
        "name": "Oaza",
        "tourism": "motel",
        "opening_hours": "24/7",
        "phone": "+381 22 342382"
      }
    },
    {
      "type": "Feature",
      "geometry": {
        "type": "Point",
        "coordinates": [
          20.0960371,
          45.1358939
        ]
      },
      "properties": {
        "id": 1344627816,
        "osm_type": "node",
        "tourism": "hotel"
      }
    },
    {
      "type": "Feature",
      "geometry": {
        "type": "Point",
        "coordinates": [
          19.9865414,
          44.7353229
        ]
      },
      "properties": {
        "id": 2163020797,
        "osm_type": "node",
        "name": "Обедска бара",
        "tourism": "hotel",
        "website": "http://www.obedskabara.net/"
      }
    },
    {
      "type": "Feature",
      "geometry": {
        "type": "Point",
        "coordinates": [
          19.7908749,
          45.1364572
        ]
      },
      "properties": {
        "id": 2758170868,
        "osm_type": "node",
        "name": "Брвнара Врдник",
        "tourism": "chalet",
        "phone": "+381 66 9 671 447",
        "website": "https://vrdnik.rs/"
      }
    },
    {
      "type": "Feature",
      "geometry": {
        "type": "Point",
        "coordinates": [
          19.2398243,
          45.1393878
        ]
      },
      "properties": {
        "id": 4176308690,
        "osm_type": "node",
        "name": "Dallas",
        "tourism": "hotel"
      }
    },
    {
      "type": "Feature",
      "geometry": {
        "type": "Point",
        "coordinates": [
          19.763538,
          45.108263
        ]
      },
      "properties": {
        "id": 4259506438,
        "osm_type": "node",
        "name": "Jazačka Bajka",
        "tourism": "guest_house"
      }
    },
    {
      "type": "Feature",
      "geometry": {
        "type": "Point",
        "coordinates": [
          19.7897028,
          45.1270274
        ]
      },
      "properties": {
        "id": 4259508389,
        "osm_type": "node",
        "name": "Апартмани Бата и Цеца",
        "tourism": "guest_house"
      }
    },
    {
      "type": "Feature",
      "geometry": {
        "type": "Point",
        "coordinates": [
          19.7892227,
          45.1269006
        ]
      },
      "properties": {
        "id": 4259508390,
        "osm_type": "node",
        "name": "Green House Apartments",
        "tourism": "guest_house"
      }
    },
    {
      "type": "Feature",
      "geometry": {
        "type": "Point",
        "coordinates": [
          19.7901093,
          45.1365437
        ]
      },
      "properties": {
        "id": 4822490621,
        "osm_type": "node",
        "name": "Апартмани „Вера”",
        "tourism": "hostel"
      }
    },
    {
      "type": "Feature",
      "geometry": {
        "type": "Point",
        "coordinates": [
          19.7939313,
          45.1335196
        ]
      },
      "properties": {
        "id": 4829120048,
        "osm_type": "node",
        "name": "Бисер",
        "tourism": "apartment"
      }
    },
    {
      "type": "Feature",
      "geometry": {
        "type": "Point",
        "coordinates": [
          19.5230645,
          44.9608485
        ]
      },
      "properties": {
        "id": 4907872713,
        "osm_type": "node",
        "name": "Засавица",
        "tourism": "camp_site",
        "tents": "yes",
        "phone": "+381 64 6442017",
        "website": "http://www.zasavica.org.rs/en/camping-zasavica-auto-camp/"
      }
    },
    {
      "type": "Feature",
      "geometry": {
        "type": "Point",
        "coordinates": [
          20.1423851,
          44.9996259
        ]
      },
      "properties": {
        "id": 4987026714,
        "osm_type": "node",
        "name": "Вила Атина",
        "tourism": "hotel"
      }
    },
    {
      "type": "Feature",
      "geometry": {
        "type": "Point",
        "coordinates": [
          19.6039256,
          44.967343
        ]
      },
      "properties": {
        "id": 5036255821,
        "osm_type": "node",
        "name": "kod Papište Prenoćište",
        "tourism": "guest_house",
        "phone": "+38122618995",
        "website": "http://www.konacistekodpapiste.co.yu"
      }
    },
    {
      "type": "Feature",
      "geometry": {
        "type": "Point",
        "coordinates": [
          19.79381,
          45.1333003
        ]
      },
      "properties": {
        "id": 5070716806,
        "osm_type": "node",
        "name": "Дренка",
        "tourism": "apartment"
      }
    },
    {
      "type": "Feature",
      "geometry": {
        "type": "Point",
        "coordinates": [
          19.262234,
          45.0419452
        ]
      },
      "properties": {
        "id": 5145926530,
        "osm_type": "node",
        "tourism": "camp_site"
      }
    },
    {
      "type": "Feature",
      "geometry": {
        "type": "Point",
        "coordinates": [
          19.9464572,
          45.1145784
        ]
      },
      "properties": {
        "id": 5158309049,
        "osm_type": "node",
        "tourism": "guest_house"
      }
    },
    {
      "type": "Feature",
      "geometry": {
        "type": "Point",
        "coordinates": [
          20.3090146,
          45.0828452
        ]
      },
      "properties": {
        "id": 5160226703,
        "osm_type": "node",
        "name": "Дунавско Гнездо",
        "tourism": "guest_house"
      }
    },
    {
      "type": "Feature",
      "geometry": {
        "type": "Point",
        "coordinates": [
          20.3091974,
          45.0829391
        ]
      },
      "properties": {
        "id": 5160226704,
        "osm_type": "node",
        "name": "Dunavsko Gnezdo",
        "tourism": "guest_house",
        "phone": "'+381 22 371 099",
        "website": "https://www.sobe-smestaj.com/dunavsko-gnezdo.html"
      }
    },
    {
      "type": "Feature",
      "geometry": {
        "type": "Point",
        "coordinates": [
          20.2593637,
          45.1408851
        ]
      },
      "properties": {
        "id": 5320915838,
        "osm_type": "node",
        "name": "Преноћиште Кеј",
        "tourism": "guest_house"
      }
    },
    {
      "type": "Feature",
      "geometry": {
        "type": "Point",
        "coordinates": [
          19.9895398,
          45.1559771
        ]
      },
      "properties": {
        "id": 5365677031,
        "osm_type": "node",
        "name": "Žuta kuća",
        "tourism": "camp_site"
      }
    },
    {
      "type": "Feature",
      "geometry": {
        "type": "Point",
        "coordinates": [
          19.9685898,
          45.1504544
        ]
      },
      "properties": {
        "id": 5540190221,
        "osm_type": "node",
        "tourism": "guest_house"
      }
    },
    {
      "type": "Feature",
      "geometry": {
        "type": "Point",
        "coordinates": [
          20.0893935,
          44.8826932
        ]
      },
      "properties": {
        "id": 5612308797,
        "osm_type": "node",
        "name": "Европа",
        "tourism": "hotel"
      }
    },
    {
      "type": "Feature",
      "geometry": {
        "type": "Point",
        "coordinates": [
          20.1698493,
          45.0733286
        ]
      },
      "properties": {
        "id": 6118503886,
        "osm_type": "node",
        "tourism": "chalet"
      }
    },
    {
      "type": "Feature",
      "geometry": {
        "type": "Point",
        "coordinates": [
          19.9626354,
          45.1441181
        ]
      },
      "properties": {
        "id": 6366302685,
        "osm_type": "node",
        "name": "SunnySide Kamp",
        "tourism": "camp_site",
        "website": "https://sunnyside.rs/"
      }
    },
    {
      "type": "Feature",
      "geometry": {
        "type": "Point",
        "coordinates": [
          19.7850414,
          45.1353463
        ]
      },
      "properties": {
        "id": 6733855325,
        "osm_type": "node",
        "name": "Ранч Платан",
        "tourism": "chalet",
        "phone": "+381652466970",
        "website": "https://www.rancplatan.com/"
      }
    },
    {
      "type": "Feature",
      "geometry": {
        "type": "Point",
        "coordinates": [
          19.8161414,
          45.0986356
        ]
      },
      "properties": {
        "id": 6771240174,
        "osm_type": "node",
        "name": "Сремска кућа",
        "tourism": "guest_house",
        "phone": "+381 022 2461 007, +381 062 87 77 067"
      }
    },
    {
      "type": "Feature",
      "geometry": {
        "type": "Point",
        "coordinates": [
          20.2083356,
          44.9522781
        ]
      },
      "properties": {
        "id": 8850125577,
        "osm_type": "node",
        "name": "Filia",
        "tourism": "hotel",
        "website": "https://hotelfilia.rs"
      }
    },
    {
      "type": "Feature",
      "geometry": {
        "type": "Point",
        "coordinates": [
          19.7878062,
          45.1289019
        ]
      },
      "properties": {
        "id": 9753484298,
        "osm_type": "node",
        "name": "Apartmani Park Vrdnik",
        "tourism": "apartment",
        "phone": "+38162466837, +381646397636",
        "website": "https://apartmani-park-vrdnik.business.site/"
      }
    },
    {
      "type": "Feature",
      "geometry": {
        "type": "Point",
        "coordinates": [
          19.6104486,
          44.9751193
        ]
      },
      "properties": {
        "id": 9769523118,
        "osm_type": "node",
        "tourism": "guest_house",
        "opening_hours": "Mo-Su 13:00-23:55",
        "phone": "+381 64 2809890"
      }
    },
    {
      "type": "Feature",
      "geometry": {
        "type": "Point",
        "coordinates": [
          19.2269516,
          45.0188108
        ]
      },
      "properties": {
        "id": 9893901621,
        "osm_type": "node",
        "name": "Camping Morovic",
        "tourism": "camp_site",
        "phone": "+381637711060",
        "website": "http://www.campingmorovic.com"
      }
    },
    {
      "type": "Feature",
      "geometry": {
        "type": "Point",
        "coordinates": [
          20.1833376,
          45.1541483
        ]
      },
      "properties": {
        "id": 10004601793,
        "osm_type": "node",
        "name": "Cyclo Camp Vinograd",
        "tourism": "camp_site",
        "opening_hours": "Mo-Su 00:00-24:00",
        "tents": "yes",
        "phone": "+381 64 8951330"
      }
    },
    {
      "type": "Feature",
      "geometry": {
        "type": "Point",
        "coordinates": [
          19.8010935,
          45.1395621
        ]
      },
      "properties": {
        "id": 10959674589,
        "osm_type": "node",
        "name": "Kamp-us Fruška gora",
        "tourism": "camp_site",
        "tents": "yes"
      }
    },
    {
      "type": "Feature",
      "geometry": {
        "type": "Point",
        "coordinates": [
          20.1516033,
          44.9964696
        ]
      },
      "properties": {
        "id": 11097232478,
        "osm_type": "node",
        "name": "Sunny Hill",
        "tourism": "hotel"
      }
    },
    {
      "type": "Feature",
      "geometry": {
        "type": "Point",
        "coordinates": [
          19.2233949,
          45.0069601
        ]
      },
      "properties": {
        "id": 11113323488,
        "osm_type": "node",
        "tourism": "hostel"
      }
    },
    {
      "type": "Feature",
      "geometry": {
        "type": "Point",
        "coordinates": [
          19.782614,
          45.1406884
        ]
      },
      "properties": {
        "id": 11494414354,
        "osm_type": "node",
        "name": "Fruške residence apart hotel recepcija",
        "tourism": "hotel",
        "phone": "+381 22 21 55 271",
        "website": "https://www.fruskeresidence.rs/"
      }
    },
    {
      "type": "Feature",
      "geometry": {
        "type": "Point",
        "coordinates": [
          20.2823744,
          44.9645422
        ]
      },
      "properties": {
        "id": 11764407127,
        "osm_type": "node",
        "name": "Апартман Орхидеја",
        "tourism": "apartment"
      }
    },
    {
      "type": "Feature",
      "geometry": {
        "type": "Point",
        "coordinates": [
          19.7881323,
          45.1275983
        ]
      },
      "properties": {
        "id": 11766479385,
        "osm_type": "node",
        "name": "Тера Нова",
        "tourism": "apartment"
      }
    },
    {
      "type": "Feature",
      "geometry": {
        "type": "Point",
        "coordinates": [
          19.5718405,
          44.9934877
        ]
      },
      "properties": {
        "id": 11851007970,
        "osm_type": "node",
        "name": "Plaza La Rooms",
        "tourism": "hotel",
        "opening_hours": "24/7",
        "phone": "+381606070103",
        "website": "https://www.plazarooms.com/"
      }
    },
    {
      "type": "Feature",
      "geometry": {
        "type": "Point",
        "coordinates": [
          19.7922845,
          45.1222034
        ]
      },
      "properties": {
        "id": 12012721670,
        "osm_type": "node",
        "name": "Кућерак код Бобе",
        "tourism": "guest_house",
        "check_date": "2024-06-26"
      }
    },
    {
      "type": "Feature",
      "geometry": {
        "type": "Point",
        "coordinates": [
          19.787477,
          45.124953
        ]
      },
      "properties": {
        "id": 12012761669,
        "osm_type": "node",
        "name": "Vrdničak 1",
        "tourism": "guest_house",
        "phone": "+381652110989",
        "check_date": "2024-06-26"
      }
    },
    {
      "type": "Feature",
      "geometry": {
        "type": "Point",
        "coordinates": [
          19.7875511,
          45.1249526
        ]
      },
      "properties": {
        "id": 12012761769,
        "osm_type": "node",
        "name": "Vrdničak 2",
        "tourism": "guest_house",
        "phone": "+381 65 2110989",
        "check_date": "2024-06-26"
      }
    },
    {
      "type": "Feature",
      "geometry": {
        "type": "Point",
        "coordinates": [
          19.7814553,
          45.1221742
        ]
      },
      "properties": {
        "id": 12012761869,
        "osm_type": "node",
        "name": "Vrdničak",
        "tourism": "guest_house",
        "phone": "+381 65 2110989",
        "check_date": "2024-06-26"
      }
    },
    {
      "type": "Feature",
      "geometry": {
        "type": "Point",
        "coordinates": [
          19.6497373,
          45.1230604
        ]
      },
      "properties": {
        "id": 12337692176,
        "osm_type": "node",
        "name": "Lovački dom Soko",
        "tourism": "alpine_hut"
      }
    },
    {
      "type": "Feature",
      "geometry": {
        "type": "Point",
        "coordinates": [
          19.6128565,
          44.9671964
        ]
      },
      "properties": {
        "id": 12362515613,
        "osm_type": "node",
        "name": "Santa",
        "tourism": "hotel",
        "phone": "022636999",
        "website": "https://santa.rs/"
      }
    },
    {
      "type": "Feature",
      "geometry": {
        "type": "Point",
        "coordinates": [
          19.8192649,
          45.0341803
        ]
      },
      "properties": {
        "id": 12390595600,
        "osm_type": "node",
        "name": "Борковац",
        "tourism": "hotel",
        "phone": "+381 69 433 9005",
        "website": "https://borkovac.org"
      }
    },
    {
      "type": "Feature",
      "geometry": {
        "type": "Point",
        "coordinates": [
          19.7877653,
          45.1297522
        ]
      },
      "properties": {
        "id": 12402037909,
        "osm_type": "node",
        "name": "Vila Slap",
        "tourism": "apartment",
        "check_date": "2024-12-07"
      }
    },
    {
      "type": "Feature",
      "geometry": {
        "type": "Point",
        "coordinates": [
          19.9623435,
          45.1443035
        ]
      },
      "properties": {
        "id": 13564118101,
        "osm_type": "node",
        "tourism": "guest_house",
        "opening_hours": "Mo-Su 09:00-23:00",
        "phone": "+381631109395"
      }
    },
    {
      "type": "Feature",
      "geometry": {
        "type": "Point",
        "coordinates": [
          19.7887318,
          45.1302094
        ]
      },
      "properties": {
        "id": 13695012801,
        "osm_type": "node",
        "name": "Everest apartmani",
        "tourism": "apartment"
      }
    },
    {
      "type": "Feature",
      "geometry": {
        "type": "Point",
        "coordinates": [
          19.7903622,
          45.1342902
        ]
      },
      "properties": {
        "id": 228449688,
        "osm_type": "way",
        "name": "Хотел Премијер Аква",
        "tourism": "hotel"
      }
    },
    {
      "type": "Feature",
      "geometry": {
        "type": "Point",
        "coordinates": [
          19.6084528,
          44.9665897
        ]
      },
      "properties": {
        "id": 251306951,
        "osm_type": "way",
        "name": "Хотел Сирмиум",
        "tourism": "hotel"
      }
    },
    {
      "type": "Feature",
      "geometry": {
        "type": "Point",
        "coordinates": [
          19.8195799,
          45.0089637
        ]
      },
      "properties": {
        "id": 280902938,
        "osm_type": "way",
        "name": "Парк",
        "tourism": "hotel"
      }
    },
    {
      "type": "Feature",
      "geometry": {
        "type": "Point",
        "coordinates": [
          19.7875067,
          45.1294887
        ]
      },
      "properties": {
        "id": 337139245,
        "osm_type": "way",
        "name": "Апартман Бахус",
        "tourism": "guest_house"
      }
    },
    {
      "type": "Feature",
      "geometry": {
        "type": "Point",
        "coordinates": [
          19.7794911,
          45.1429351
        ]
      },
      "properties": {
        "id": 339937310,
        "osm_type": "way",
        "tourism": "chalet"
      }
    },
    {
      "type": "Feature",
      "geometry": {
        "type": "Point",
        "coordinates": [
          19.7796336,
          45.1429258
        ]
      },
      "properties": {
        "id": 339937311,
        "osm_type": "way",
        "tourism": "chalet"
      }
    },
    {
      "type": "Feature",
      "geometry": {
        "type": "Point",
        "coordinates": [
          19.7790618,
          45.1429679
        ]
      },
      "properties": {
        "id": 339937312,
        "osm_type": "way",
        "tourism": "chalet"
      }
    },
    {
      "type": "Feature",
      "geometry": {
        "type": "Point",
        "coordinates": [
          19.7793477,
          45.1429431
        ]
      },
      "properties": {
        "id": 339937313,
        "osm_type": "way",
        "tourism": "chalet"
      }
    },
    {
      "type": "Feature",
      "geometry": {
        "type": "Point",
        "coordinates": [
          19.7797694,
          45.1429232
        ]
      },
      "properties": {
        "id": 339937314,
        "osm_type": "way",
        "tourism": "chalet"
      }
    },
    {
      "type": "Feature",
      "geometry": {
        "type": "Point",
        "coordinates": [
          19.7799038,
          45.1429335
        ]
      },
      "properties": {
        "id": 339937315,
        "osm_type": "way",
        "tourism": "chalet"
      }
    },
    {
      "type": "Feature",
      "geometry": {
        "type": "Point",
        "coordinates": [
          19.7792077,
          45.1429512
        ]
      },
      "properties": {
        "id": 339937316,
        "osm_type": "way",
        "tourism": "chalet"
      }
    },
    {
      "type": "Feature",
      "geometry": {
        "type": "Point",
        "coordinates": [
          19.7800443,
          45.1429412
        ]
      },
      "properties": {
        "id": 339937317,
        "osm_type": "way",
        "tourism": "chalet"
      }
    },
    {
      "type": "Feature",
      "geometry": {
        "type": "Point",
        "coordinates": [
          19.7922105,
          45.1351226
        ]
      },
      "properties": {
        "id": 339939327,
        "osm_type": "way",
        "name": "Термал",
        "tourism": "hotel",
        "phone": "+38122465819",
        "website": "https://www.termal-vrdnik.com/banja/"
      }
    },
    {
      "type": "Feature",
      "geometry": {
        "type": "Point",
        "coordinates": [
          20.2829938,
          44.9474681
        ]
      },
      "properties": {
        "id": 369763746,
        "osm_type": "way",
        "name": "Новелла Уно",
        "tourism": "hotel",
        "phone": "+381 22 215 0505;+381 22 2150504;+381 60 0102364",
        "website": "https://www.novellauno.rs/"
      }
    },
    {
      "type": "Feature",
      "geometry": {
        "type": "Point",
        "coordinates": [
          20.2597326,
          45.1405356
        ]
      },
      "properties": {
        "id": 499002156,
        "osm_type": "way",
        "name": "Дунавски бисер",
        "tourism": "guest_house"
      }
    },
    {
      "type": "Feature",
      "geometry": {
        "type": "Point",
        "coordinates": [
          20.2802436,
          44.9802201
        ]
      },
      "properties": {
        "id": 514202305,
        "osm_type": "way",
        "name": "Riverinn",
        "tourism": "hotel",
        "phone": "+381 22 802356",
        "website": "https://riverinn.rs/"
      }
    },
    {
      "type": "Feature",
      "geometry": {
        "type": "Point",
        "coordinates": [
          20.0277166,
          45.1092527
        ]
      },
      "properties": {
        "id": 528130920,
        "osm_type": "way",
        "name": "МВ Монограм",
        "tourism": "hotel",
        "opening_hours": "24/7",
        "phone": "+381 62 400 404",
        "website": "https://www.mvmonogram.rs/"
      }
    },
    {
      "type": "Feature",
      "geometry": {
        "type": "Point",
        "coordinates": [
          19.6043606,
          44.9804429
        ]
      },
      "properties": {
        "id": 583997886,
        "osm_type": "way",
        "name": "Svecana sala „Beli andjeo”",
        "tourism": "guest_house"
      }
    },
    {
      "type": "Feature",
      "geometry": {
        "type": "Point",
        "coordinates": [
          19.836982,
          45.150466
        ]
      },
      "properties": {
        "id": 641859159,
        "osm_type": "way",
        "name": "Иришки венац",
        "tourism": "alpine_hut",
        "phone": "+381 66 9370675 (Božo Vučenović)",
        "website": "http://www.planinari-irig.org.rs/"
      }
    },
    {
      "type": "Feature",
      "geometry": {
        "type": "Point",
        "coordinates": [
          20.0215208,
          45.1667288
        ]
      },
      "properties": {
        "id": 642768667,
        "osm_type": "way",
        "name": "Козарица",
        "tourism": "alpine_hut",
        "phone": "+381 61 6541561 (Vladimir Banic)"
      }
    },
    {
      "type": "Feature",
      "geometry": {
        "type": "Point",
        "coordinates": [
          20.0213212,
          45.1672566
        ]
      },
      "properties": {
        "id": 642768669,
        "osm_type": "way",
        "tourism": "camp_site",
        "tents": "yes"
      }
    },
    {
      "type": "Feature",
      "geometry": {
        "type": "Point",
        "coordinates": [
          19.8201942,
          45.0083355
        ]
      },
      "properties": {
        "id": 699406231,
        "osm_type": "way",
        "name": "Avenia",
        "tourism": "hotel",
        "phone": "+381 22 432204",
        "website": "https://avenia.rs"
      }
    },
    {
      "type": "Feature",
      "geometry": {
        "type": "Point",
        "coordinates": [
          19.901597,
          45.138417
        ]
      },
      "properties": {
        "id": 738919848,
        "osm_type": "way",
        "tourism": "apartment"
      }
    },
    {
      "type": "Feature",
      "geometry": {
        "type": "Point",
        "coordinates": [
          19.9015275,
          45.1387306
        ]
      },
      "properties": {
        "id": 738919849,
        "osm_type": "way",
        "tourism": "apartment"
      }
    },
    {
      "type": "Feature",
      "geometry": {
        "type": "Point",
        "coordinates": [
          19.7788989,
          45.1429684
        ]
      },
      "properties": {
        "id": 767517088,
        "osm_type": "way",
        "tourism": "chalet"
      }
    },
    {
      "type": "Feature",
      "geometry": {
        "type": "Point",
        "coordinates": [
          19.7787496,
          45.1429835
        ]
      },
      "properties": {
        "id": 767517089,
        "osm_type": "way",
        "tourism": "chalet"
      }
    },
    {
      "type": "Feature",
      "geometry": {
        "type": "Point",
        "coordinates": [
          19.7805375,
          45.1428504
        ]
      },
      "properties": {
        "id": 767517090,
        "osm_type": "way",
        "name": "Етно хотел Врдничка кула",
        "tourism": "hotel",
        "phone": "+381 22 21 55 271",
        "website": "https://www.etnoselo-vk.rs/"
      }
    },
    {
      "type": "Feature",
      "geometry": {
        "type": "Point",
        "coordinates": [
          20.0764297,
          45.1673421
        ]
      },
      "properties": {
        "id": 864634191,
        "osm_type": "way",
        "name": "Божић",
        "tourism": "hotel",
        "phone": "+381 62 573020"
      }
    },
    {
      "type": "Feature",
      "geometry": {
        "type": "Point",
        "coordinates": [
          20.0742909,
          45.1667195
        ]
      },
      "properties": {
        "id": 864634194,
        "osm_type": "way",
        "name": "Сидро",
        "tourism": "guest_house",
        "website": "https://www.sidro.co.rs/"
      }
    },
    {
      "type": "Feature",
      "geometry": {
        "type": "Point",
        "coordinates": [
          20.0744111,
          45.1668585
        ]
      },
      "properties": {
        "id": 864634195,
        "osm_type": "way",
        "tourism": "guest_house"
      }
    },
    {
      "type": "Feature",
      "geometry": {
        "type": "Point",
        "coordinates": [
          20.0738597,
          45.1666936
        ]
      },
      "properties": {
        "id": 864634196,
        "osm_type": "way",
        "tourism": "guest_house"
      }
    },
    {
      "type": "Feature",
      "geometry": {
        "type": "Point",
        "coordinates": [
          19.7898568,
          45.1432492
        ]
      },
      "properties": {
        "id": 1148831380,
        "osm_type": "way",
        "name": "Apartman Zoja",
        "tourism": "apartment"
      }
    },
    {
      "type": "Feature",
      "geometry": {
        "type": "Point",
        "coordinates": [
          20.0674517,
          45.0551661
        ]
      },
      "properties": {
        "id": 1208539784,
        "osm_type": "way",
        "name": "Monogram lux",
        "tourism": "hotel",
        "phone": "+381 69 1400404"
      }
    },
    {
      "type": "Feature",
      "geometry": {
        "type": "Point",
        "coordinates": [
          20.081194,
          45.0478912
        ]
      },
      "properties": {
        "id": 1211781854,
        "osm_type": "way",
        "name": "Хотел Гранд",
        "tourism": "hotel",
        "phone": "+381 22 560533",
        "website": "https://www.hotelgrand-indjija.com/"
      }
    },
    {
      "type": "Feature",
      "geometry": {
        "type": "Point",
        "coordinates": [
          19.9879497,
          45.1581487
        ]
      },
      "properties": {
        "id": 1223260508,
        "osm_type": "way",
        "tourism": "guest_house"
      }
    },
    {
      "type": "Feature",
      "geometry": {
        "type": "Point",
        "coordinates": [
          20.0219383,
          45.1679468
        ]
      },
      "properties": {
        "id": 1258208494,
        "osm_type": "way",
        "name": "Феријалац",
        "tourism": "alpine_hut"
      }
    },
    {
      "type": "Feature",
      "geometry": {
        "type": "Point",
        "coordinates": [
          19.9414393,
          44.8134482
        ]
      },
      "properties": {
        "id": 1484945208,
        "osm_type": "way",
        "tourism": "chalet"
      }
    },
    {
      "type": "Feature",
      "geometry": {
        "type": "Point",
        "coordinates": [
          19.9414726,
          44.8133699
        ]
      },
      "properties": {
        "id": 1484945209,
        "osm_type": "way",
        "tourism": "chalet"
      }
    },
    {
      "type": "Feature",
      "geometry": {
        "type": "Point",
        "coordinates": [
          19.9415115,
          44.8132827
        ]
      },
      "properties": {
        "id": 1484945210,
        "osm_type": "way",
        "tourism": "chalet"
      }
    },
    {
      "type": "Feature",
      "geometry": {
        "type": "Point",
        "coordinates": [
          19.9416278,
          44.8130272
        ]
      },
      "properties": {
        "id": 1484945211,
        "osm_type": "way",
        "tourism": "chalet"
      }
    },
    {
      "type": "Feature",
      "geometry": {
        "type": "Point",
        "coordinates": [
          19.9415889,
          44.8131144
        ]
      },
      "properties": {
        "id": 1484945212,
        "osm_type": "way",
        "tourism": "chalet"
      }
    },
    {
      "type": "Feature",
      "geometry": {
        "type": "Point",
        "coordinates": [
          19.9415556,
          44.8131927
        ]
      },
      "properties": {
        "id": 1484945213,
        "osm_type": "way",
        "tourism": "chalet"
      }
    },
    {
      "type": "Feature",
      "geometry": {
        "type": "Point",
        "coordinates": [
          19.9416746,
          44.8129435
        ]
      },
      "properties": {
        "id": 1484945214,
        "osm_type": "way",
        "tourism": "chalet"
      }
    },
    {
      "type": "Feature",
      "geometry": {
        "type": "Point",
        "coordinates": [
          19.77947,
          44.825535
        ]
      },
      "properties": {
        "id": 1494569640,
        "osm_type": "way",
        "name": "Konak Tammy",
        "tourism": "hotel"
      }
    },
    {
      "type": "Feature",
      "geometry": {
        "type": "Point",
        "coordinates": [
          19.7800007,
          45.1412619
        ]
      },
      "properties": {
        "id": 19285459,
        "osm_type": "relation",
        "name": "Mövenpick Resort & Spa Fruske Terme",
        "tourism": "hotel",
        "phone": "+381222155240",
        "website": "https://movenpick.accor.com/"
      }
    }
  ]
}