{
  "type": "FeatureCollection",
  "features": [
    {
      "type": "Feature",
      "geometry": {
        "type": "Point",
        "coordinates": [
          33.8472377,
          36.2971421
        ]
      },
      "properties": {
        "id": 26861213,
        "osm_type": "node",
        "name": "Akçakıl",
        "tourism": "camp_site",
        "phone": "+90 324 741 5000",
        "website": "https://www.akcakilcamping.com/"
      }
    },
    {
      "type": "Feature",
      "geometry": {
        "type": "Point",
        "coordinates": [
          34.1595819,
          36.4670373
        ]
      },
      "properties": {
        "id": 26861226,
        "osm_type": "node",
        "name": "Kizkalesi",
        "tourism": "camp_site"
      }
    },
    {
      "type": "Feature",
      "geometry": {
        "type": "Point",
        "coordinates": [
          34.6963463,
          37.3459859
        ]
      },
      "properties": {
        "id": 764588938,
        "osm_type": "node",
        "tourism": "camp_site"
      }
    },
    {
      "type": "Feature",
      "geometry": {
        "type": "Point",
        "coordinates": [
          32.8127638,
          36.0334856
        ]
      },
      "properties": {
        "id": 1243181134,
        "osm_type": "node",
        "name": "Anamurium motel",
        "tourism": "motel"
      }
    },
    {
      "type": "Feature",
      "geometry": {
        "type": "Point",
        "coordinates": [
          32.895115,
          36.1747531
        ]
      },
      "properties": {
        "id": 1532782641,
        "osm_type": "node",
        "name": "Alaköprü Piknik Yeri",
        "tourism": "camp_site",
        "tents": "yes"
      }
    },
    {
      "type": "Feature",
      "geometry": {
        "type": "Point",
        "coordinates": [
          32.6849024,
          36.0442876
        ]
      },
      "properties": {
        "id": 1537046018,
        "osm_type": "node",
        "name": "Pansiyon Mellec",
        "tourism": "guest_house"
      }
    },
    {
      "type": "Feature",
      "geometry": {
        "type": "Point",
        "coordinates": [
          34.1657209,
          36.4674305
        ]
      },
      "properties": {
        "id": 1757257541,
        "osm_type": "node",
        "name": "Sabah",
        "tourism": "hotel"
      }
    },
    {
      "type": "Feature",
      "geometry": {
        "type": "Point",
        "coordinates": [
          32.8625751,
          36.0715798
        ]
      },
      "properties": {
        "id": 1761078732,
        "osm_type": "node",
        "name": "Tayfun",
        "tourism": "hotel"
      }
    },
    {
      "type": "Feature",
      "geometry": {
        "type": "Point",
        "coordinates": [
          33.9332581,
          36.3760332
        ]
      },
      "properties": {
        "id": 1782818956,
        "osm_type": "node",
        "name": "Otel Arısan",
        "tourism": "hotel",
        "opening_hours": "24/7"
      }
    },
    {
      "type": "Feature",
      "geometry": {
        "type": "Point",
        "coordinates": [
          32.8338619,
          36.0743936
        ]
      },
      "properties": {
        "id": 2122332178,
        "osm_type": "node",
        "name": "Kemals Pension",
        "tourism": "hotel"
      }
    },
    {
      "type": "Feature",
      "geometry": {
        "type": "Point",
        "coordinates": [
          32.8083523,
          36.0315598
        ]
      },
      "properties": {
        "id": 2122339093,
        "osm_type": "node",
        "name": "Anemuryum Antikkent Sitesi",
        "tourism": "guest_house"
      }
    },
    {
      "type": "Feature",
      "geometry": {
        "type": "Point",
        "coordinates": [
          33.4404022,
          36.6378707
        ]
      },
      "properties": {
        "id": 2590432095,
        "osm_type": "node",
        "name": "Öğretmenevi",
        "tourism": "hotel"
      }
    },
    {
      "type": "Feature",
      "geometry": {
        "type": "Point",
        "coordinates": [
          33.8815348,
          36.3183983
        ]
      },
      "properties": {
        "id": 3106373410,
        "osm_type": "node",
        "name": "Marina Otel Taşucu",
        "tourism": "hotel",
        "website": "http://www.marinaoteltasucu.com/"
      }
    },
    {
      "type": "Feature",
      "geometry": {
        "type": "Point",
        "coordinates": [
          34.1422878,
          36.4609764
        ]
      },
      "properties": {
        "id": 3726656032,
        "osm_type": "node",
        "name": "Yaka",
        "tourism": "hotel"
      }
    },
    {
      "type": "Feature",
      "geometry": {
        "type": "Point",
        "coordinates": [
          34.7956182,
          36.9569176
        ]
      },
      "properties": {
        "id": 3732054829,
        "osm_type": "node",
        "name": "Eshab-ı Kehf Oteli",
        "tourism": "hotel"
      }
    },
    {
      "type": "Feature",
      "geometry": {
        "type": "Point",
        "coordinates": [
          32.8672755,
          36.0709315
        ]
      },
      "properties": {
        "id": 3793114995,
        "osm_type": "node",
        "name": "Hermes Hotel",
        "tourism": "hotel"
      }
    },
    {
      "type": "Feature",
      "geometry": {
        "type": "Point",
        "coordinates": [
          34.145698,
          36.4627898
        ]
      },
      "properties": {
        "id": 4226441805,
        "osm_type": "node",
        "name": "Bir Umut Otel",
        "tourism": "hotel",
        "phone": "+90 552 637 5658",
        "website": "https://www.birumutotel.com/"
      }
    },
    {
      "type": "Feature",
      "geometry": {
        "type": "Point",
        "coordinates": [
          32.9439066,
          36.1031657
        ]
      },
      "properties": {
        "id": 4239545125,
        "osm_type": "node",
        "name": "Mamure Hotel",
        "tourism": "hotel"
      }
    },
    {
      "type": "Feature",
      "geometry": {
        "type": "Point",
        "coordinates": [
          32.943135,
          36.102786
        ]
      },
      "properties": {
        "id": 4239545126,
        "osm_type": "node",
        "name": "Anamurium Hotel",
        "tourism": "hotel"
      }
    },
    {
      "type": "Feature",
      "geometry": {
        "type": "Point",
        "coordinates": [
          34.7755336,
          36.8083554
        ]
      },
      "properties": {
        "id": 4250619414,
        "osm_type": "node",
        "name": "Unfinished construction",
        "tourism": "chalet"
      }
    },
    {
      "type": "Feature",
      "geometry": {
        "type": "Point",
        "coordinates": [
          34.2417724,
          36.5510173
        ]
      },
      "properties": {
        "id": 4285796194,
        "osm_type": "node",
        "name": "Doğa Sitesi",
        "tourism": "guest_house",
        "opening_hours": "24/7"
      }
    },
    {
      "type": "Feature",
      "geometry": {
        "type": "Point",
        "coordinates": [
          34.2432854,
          36.5531151
        ]
      },
      "properties": {
        "id": 4285829490,
        "osm_type": "node",
        "name": "Liparis 4 Tatil Sitesi",
        "tourism": "guest_house",
        "opening_hours": "24/7"
      }
    },
    {
      "type": "Feature",
      "geometry": {
        "type": "Point",
        "coordinates": [
          32.8647566,
          36.0710545
        ]
      },
      "properties": {
        "id": 4324677290,
        "osm_type": "node",
        "name": "Güneş Apart Hotel",
        "tourism": "hotel",
        "opening_hours": "24/7"
      }
    },
    {
      "type": "Feature",
      "geometry": {
        "type": "Point",
        "coordinates": [
          34.6385779,
          36.8111465
        ]
      },
      "properties": {
        "id": 4348899789,
        "osm_type": "node",
        "name": "Park Yalçın Otel",
        "tourism": "hotel"
      }
    },
    {
      "type": "Feature",
      "geometry": {
        "type": "Point",
        "coordinates": [
          34.205584,
          36.5175635
        ]
      },
      "properties": {
        "id": 4349229691,
        "osm_type": "node",
        "name": "Liparis Hotel",
        "tourism": "hotel",
        "check_date": "2025-08-19"
      }
    },
    {
      "type": "Feature",
      "geometry": {
        "type": "Point",
        "coordinates": [
          34.2182305,
          36.5291572
        ]
      },
      "properties": {
        "id": 4351924295,
        "osm_type": "node",
        "name": "Zirve Apart Otel",
        "tourism": "motel"
      }
    },
    {
      "type": "Feature",
      "geometry": {
        "type": "Point",
        "coordinates": [
          34.224833,
          36.5328727
        ]
      },
      "properties": {
        "id": 4351924296,
        "osm_type": "node",
        "name": "Olbios Marina Tatil Köyü",
        "tourism": "hotel"
      }
    },
    {
      "type": "Feature",
      "geometry": {
        "type": "Point",
        "coordinates": [
          34.1441073,
          36.4599108
        ]
      },
      "properties": {
        "id": 4379413577,
        "osm_type": "node",
        "name": "Hotel Has",
        "tourism": "hotel"
      }
    },
    {
      "type": "Feature",
      "geometry": {
        "type": "Point",
        "coordinates": [
          33.8788854,
          36.3185992
        ]
      },
      "properties": {
        "id": 4524939899,
        "osm_type": "node",
        "name": "Konak Hotel",
        "tourism": "hotel"
      }
    },
    {
      "type": "Feature",
      "geometry": {
        "type": "Point",
        "coordinates": [
          33.8783217,
          36.3187897
        ]
      },
      "properties": {
        "id": 4524939907,
        "osm_type": "node",
        "name": "Arısoy Pansiyon",
        "tourism": "motel"
      }
    },
    {
      "type": "Feature",
      "geometry": {
        "type": "Point",
        "coordinates": [
          33.8775076,
          36.3178467
        ]
      },
      "properties": {
        "id": 4524940803,
        "osm_type": "node",
        "name": "Hotel Fatih",
        "tourism": "hotel"
      }
    },
    {
      "type": "Feature",
      "geometry": {
        "type": "Point",
        "coordinates": [
          33.878583,
          36.3186322
        ]
      },
      "properties": {
        "id": 4524941079,
        "osm_type": "node",
        "name": "Yuvam Hotel",
        "tourism": "hotel",
        "phone": "+90 532 266 0361"
      }
    },
    {
      "type": "Feature",
      "geometry": {
        "type": "Point",
        "coordinates": [
          32.9105512,
          36.0873005
        ]
      },
      "properties": {
        "id": 4526787293,
        "osm_type": "node",
        "name": "Pullu",
        "tourism": "camp_site"
      }
    },
    {
      "type": "Feature",
      "geometry": {
        "type": "Point",
        "coordinates": [
          34.1815224,
          36.4938756
        ]
      },
      "properties": {
        "id": 4859938222,
        "osm_type": "node",
        "name": "Melisa Pansiyon",
        "tourism": "hostel"
      }
    },
    {
      "type": "Feature",
      "geometry": {
        "type": "Point",
        "coordinates": [
          33.4820906,
          36.1563827
        ]
      },
      "properties": {
        "id": 5031116824,
        "osm_type": "node",
        "tourism": "camp_site"
      }
    },
    {
      "type": "Feature",
      "geometry": {
        "type": "Point",
        "coordinates": [
          33.6430937,
          36.1928148
        ]
      },
      "properties": {
        "id": 5144978721,
        "osm_type": "node",
        "tourism": "camp_site"
      }
    },
    {
      "type": "Feature",
      "geometry": {
        "type": "Point",
        "coordinates": [
          34.5341241,
          36.7789397
        ]
      },
      "properties": {
        "id": 5177940113,
        "osm_type": "node",
        "name": "Ayseli",
        "tourism": "hotel"
      }
    },
    {
      "type": "Feature",
      "geometry": {
        "type": "Point",
        "coordinates": [
          33.4012943,
          36.702663
        ]
      },
      "properties": {
        "id": 5541178021,
        "osm_type": "node",
        "name": "Neslihan Otel",
        "tourism": "hotel"
      }
    },
    {
      "type": "Feature",
      "geometry": {
        "type": "Point",
        "coordinates": [
          34.1865984,
          36.4983641
        ]
      },
      "properties": {
        "id": 5699036493,
        "osm_type": "node",
        "name": "Turuva Apart Otel",
        "tourism": "hotel"
      }
    },
    {
      "type": "Feature",
      "geometry": {
        "type": "Point",
        "coordinates": [
          33.6507714,
          36.2009727
        ]
      },
      "properties": {
        "id": 5759345822,
        "osm_type": "node",
        "name": "Şahika Sitesi",
        "tourism": "hostel"
      }
    },
    {
      "type": "Feature",
      "geometry": {
        "type": "Point",
        "coordinates": [
          34.5186953,
          36.734864
        ]
      },
      "properties": {
        "id": 5851226985,
        "osm_type": "node",
        "name": "Soli tatil sitesi",
        "tourism": "guest_house"
      }
    },
    {
      "type": "Feature",
      "geometry": {
        "type": "Point",
        "coordinates": [
          33.9023382,
          36.3679495
        ]
      },
      "properties": {
        "id": 5958249586,
        "osm_type": "node",
        "name": "Zeytin yağı fabrikası",
        "tourism": "chalet"
      }
    },
    {
      "type": "Feature",
      "geometry": {
        "type": "Point",
        "coordinates": [
          32.8578569,
          36.0653385
        ]
      },
      "properties": {
        "id": 6047336518,
        "osm_type": "node",
        "name": "Yagmur",
        "tourism": "hotel"
      }
    },
    {
      "type": "Feature",
      "geometry": {
        "type": "Point",
        "coordinates": [
          32.8928108,
          36.0814029
        ]
      },
      "properties": {
        "id": 6059576102,
        "osm_type": "node",
        "name": "Camping Paradies",
        "tourism": "camp_site"
      }
    },
    {
      "type": "Feature",
      "geometry": {
        "type": "Point",
        "coordinates": [
          32.8912842,
          36.0814824
        ]
      },
      "properties": {
        "id": 6059807714,
        "osm_type": "node",
        "name": "Dragon Motel Camping",
        "tourism": "camp_site"
      }
    },
    {
      "type": "Feature",
      "geometry": {
        "type": "Point",
        "coordinates": [
          34.2656046,
          36.5782613
        ]
      },
      "properties": {
        "id": 6077195596,
        "osm_type": "node",
        "name": "Ayhan Pansiyon",
        "tourism": "hostel",
        "check_date": "2025-08-19"
      }
    },
    {
      "type": "Feature",
      "geometry": {
        "type": "Point",
        "coordinates": [
          34.6243737,
          36.8042087
        ]
      },
      "properties": {
        "id": 6204382085,
        "osm_type": "node",
        "name": "Hostaparkhotel",
        "tourism": "motel"
      }
    },
    {
      "type": "Feature",
      "geometry": {
        "type": "Point",
        "coordinates": [
          33.8876463,
          36.3167708
        ]
      },
      "properties": {
        "id": 6270846295,
        "osm_type": "node",
        "name": "Meltem Pansiyon",
        "tourism": "motel"
      }
    },
    {
      "type": "Feature",
      "geometry": {
        "type": "Point",
        "coordinates": [
          34.6152799,
          36.805164
        ]
      },
      "properties": {
        "id": 6288950272,
        "osm_type": "node",
        "name": "Ramada Otel",
        "tourism": "hotel"
      }
    },
    {
      "type": "Feature",
      "geometry": {
        "type": "Point",
        "coordinates": [
          34.5339204,
          36.7516059
        ]
      },
      "properties": {
        "id": 6448669386,
        "osm_type": "node",
        "name": "Liva otel",
        "tourism": "hotel"
      }
    },
    {
      "type": "Feature",
      "geometry": {
        "type": "Point",
        "coordinates": [
          34.4352966,
          36.6789506
        ]
      },
      "properties": {
        "id": 6461934685,
        "osm_type": "node",
        "name": "Sun Flowers 2",
        "tourism": "apartment"
      }
    },
    {
      "type": "Feature",
      "geometry": {
        "type": "Point",
        "coordinates": [
          33.8850281,
          36.3275818
        ]
      },
      "properties": {
        "id": 6534313201,
        "osm_type": "node",
        "name": "Erkek öğrenci yurdu",
        "tourism": "guest_house"
      }
    },
    {
      "type": "Feature",
      "geometry": {
        "type": "Point",
        "coordinates": [
          34.8958374,
          36.9175411
        ]
      },
      "properties": {
        "id": 6561379488,
        "osm_type": "node",
        "name": "Burhanoğlu Konağ",
        "tourism": "hotel"
      }
    },
    {
      "type": "Feature",
      "geometry": {
        "type": "Point",
        "coordinates": [
          34.4125375,
          36.6636019
        ]
      },
      "properties": {
        "id": 6578863386,
        "osm_type": "node",
        "name": "Liparis 7",
        "tourism": "hotel"
      }
    },
    {
      "type": "Feature",
      "geometry": {
        "type": "Point",
        "coordinates": [
          34.4112407,
          36.6607296
        ]
      },
      "properties": {
        "id": 6578863387,
        "osm_type": "node",
        "name": "Liparis SunLife",
        "tourism": "apartment"
      }
    },
    {
      "type": "Feature",
      "geometry": {
        "type": "Point",
        "coordinates": [
          34.4123556,
          36.6640256
        ]
      },
      "properties": {
        "id": 6578867587,
        "osm_type": "node",
        "name": "Liparis 7",
        "tourism": "apartment"
      }
    },
    {
      "type": "Feature",
      "geometry": {
        "type": "Point",
        "coordinates": [
          34.409069,
          36.6600555
        ]
      },
      "properties": {
        "id": 6681075986,
        "osm_type": "node",
        "name": "Wonasis Resort & Aqua Spa",
        "tourism": "hotel"
      }
    },
    {
      "type": "Feature",
      "geometry": {
        "type": "Point",
        "coordinates": [
          32.962346,
          36.103853
        ]
      },
      "properties": {
        "id": 6698000087,
        "osm_type": "node",
        "name": "Bozyazı Öğretmenevi",
        "tourism": "hotel",
        "opening_hours": "24/7"
      }
    },
    {
      "type": "Feature",
      "geometry": {
        "type": "Point",
        "coordinates": [
          34.6267237,
          36.7992246
        ]
      },
      "properties": {
        "id": 6710133405,
        "osm_type": "node",
        "name": "Otel Özkar",
        "tourism": "hotel"
      }
    },
    {
      "type": "Feature",
      "geometry": {
        "type": "Point",
        "coordinates": [
          34.6276185,
          36.7979197
        ]
      },
      "properties": {
        "id": 6721175790,
        "osm_type": "node",
        "tourism": "motel"
      }
    },
    {
      "type": "Feature",
      "geometry": {
        "type": "Point",
        "coordinates": [
          32.9131367,
          36.0882567
        ]
      },
      "properties": {
        "id": 6840731163,
        "osm_type": "node",
        "tourism": "caravan_site"
      }
    },
    {
      "type": "Feature",
      "geometry": {
        "type": "Point",
        "coordinates": [
          34.8959398,
          36.9170489
        ]
      },
      "properties": {
        "id": 6853138340,
        "osm_type": "node",
        "name": "Zorbaz Otel ",
        "tourism": "hotel"
      }
    },
    {
      "type": "Feature",
      "geometry": {
        "type": "Point",
        "coordinates": [
          33.6157042,
          36.1894935
        ]
      },
      "properties": {
        "id": 6898567786,
        "osm_type": "node",
        "name": "MIA RESORTS PINEPARK HOLIDAY CLUB",
        "tourism": "hotel"
      }
    },
    {
      "type": "Feature",
      "geometry": {
        "type": "Point",
        "coordinates": [
          34.6224647,
          36.795744
        ]
      },
      "properties": {
        "id": 7022244577,
        "osm_type": "node",
        "name": "Atlıhan Oteli",
        "tourism": "hotel"
      }
    },
    {
      "type": "Feature",
      "geometry": {
        "type": "Point",
        "coordinates": [
          34.8701614,
          36.9328982
        ]
      },
      "properties": {
        "id": 7024709301,
        "osm_type": "node",
        "name": "Safir Residence",
        "tourism": "guest_house",
        "opening_hours": "24/7"
      }
    },
    {
      "type": "Feature",
      "geometry": {
        "type": "Point",
        "coordinates": [
          34.6128831,
          36.79133
        ]
      },
      "properties": {
        "id": 7045449485,
        "osm_type": "node",
        "name": "Noax Hotel",
        "tourism": "hotel",
        "phone": "+903242323300"
      }
    },
    {
      "type": "Feature",
      "geometry": {
        "type": "Point",
        "coordinates": [
          34.5418256,
          36.7754778
        ]
      },
      "properties": {
        "id": 7121863685,
        "osm_type": "node",
        "name": "Uparthome",
        "tourism": "hostel",
        "phone": "+903245151818"
      }
    },
    {
      "type": "Feature",
      "geometry": {
        "type": "Point",
        "coordinates": [
          32.8555199,
          36.0621938
        ]
      },
      "properties": {
        "id": 7135088679,
        "osm_type": "node",
        "name": "Anamur Belediyesi 82 Sosyal Tesisleri",
        "tourism": "motel"
      }
    },
    {
      "type": "Feature",
      "geometry": {
        "type": "Point",
        "coordinates": [
          34.0895168,
          36.4176071
        ]
      },
      "properties": {
        "id": 7846935986,
        "osm_type": "node",
        "tourism": "apartment"
      }
    },
    {
      "type": "Feature",
      "geometry": {
        "type": "Point",
        "coordinates": [
          34.0900272,
          36.4178844
        ]
      },
      "properties": {
        "id": 7846988388,
        "osm_type": "node",
        "tourism": "hotel"
      }
    },
    {
      "type": "Feature",
      "geometry": {
        "type": "Point",
        "coordinates": [
          34.0885363,
          36.416687
        ]
      },
      "properties": {
        "id": 7846996985,
        "osm_type": "node",
        "name": "Su Cafe Pansiyon",
        "tourism": "hotel"
      }
    },
    {
      "type": "Feature",
      "geometry": {
        "type": "Point",
        "coordinates": [
          33.4394358,
          36.6430972
        ]
      },
      "properties": {
        "id": 7884088458,
        "osm_type": "node",
        "name": "Deveci Otel",
        "tourism": "hotel"
      }
    },
    {
      "type": "Feature",
      "geometry": {
        "type": "Point",
        "coordinates": [
          34.5411483,
          36.7408746
        ]
      },
      "properties": {
        "id": 8269591018,
        "osm_type": "node",
        "tourism": "caravan_site"
      }
    },
    {
      "type": "Feature",
      "geometry": {
        "type": "Point",
        "coordinates": [
          34.5363912,
          36.7705323
        ]
      },
      "properties": {
        "id": 8280409717,
        "osm_type": "node",
        "name": "PARS 4",
        "tourism": "apartment"
      }
    },
    {
      "type": "Feature",
      "geometry": {
        "type": "Point",
        "coordinates": [
          33.8874976,
          36.3183428
        ]
      },
      "properties": {
        "id": 8625599406,
        "osm_type": "node",
        "name": "Limon Inn",
        "tourism": "hotel",
        "phone": "+90(324)7415666",
        "website": "https://www.limoninn.com/"
      }
    },
    {
      "type": "Feature",
      "geometry": {
        "type": "Point",
        "coordinates": [
          33.8835569,
          36.3177735
        ]
      },
      "properties": {
        "id": 8625676416,
        "osm_type": "node",
        "name": "Otel Kumsalda",
        "tourism": "hotel",
        "phone": "03247413553",
        "website": "tasucukumsalotel.com"
      }
    },
    {
      "type": "Feature",
      "geometry": {
        "type": "Point",
        "coordinates": [
          32.9700619,
          36.1051053
        ]
      },
      "properties": {
        "id": 9174456761,
        "osm_type": "node",
        "name": "Anatolia Suit Otel",
        "tourism": "hotel"
      }
    },
    {
      "type": "Feature",
      "geometry": {
        "type": "Point",
        "coordinates": [
          33.440798,
          36.1551633
        ]
      },
      "properties": {
        "id": 9213288817,
        "osm_type": "node",
        "name": "Moda",
        "tourism": "hotel"
      }
    },
    {
      "type": "Feature",
      "geometry": {
        "type": "Point",
        "coordinates": [
          34.6295452,
          36.8008415
        ]
      },
      "properties": {
        "id": 9217815117,
        "osm_type": "node",
        "name": "Othello Hotel",
        "tourism": "hotel",
        "opening_hours": "24/7"
      }
    },
    {
      "type": "Feature",
      "geometry": {
        "type": "Point",
        "coordinates": [
          34.1448051,
          36.4609462
        ]
      },
      "properties": {
        "id": 9277909002,
        "osm_type": "node",
        "name": "Nisan Otel",
        "tourism": "hotel"
      }
    },
    {
      "type": "Feature",
      "geometry": {
        "type": "Point",
        "coordinates": [
          34.1451337,
          36.4613668
        ]
      },
      "properties": {
        "id": 9277909003,
        "osm_type": "node",
        "name": "Gold",
        "tourism": "hotel"
      }
    },
    {
      "type": "Feature",
      "geometry": {
        "type": "Point",
        "coordinates": [
          34.145882,
          36.4620463
        ]
      },
      "properties": {
        "id": 9277909010,
        "osm_type": "node",
        "name": "Seymen Otel",
        "tourism": "hotel"
      }
    },
    {
      "type": "Feature",
      "geometry": {
        "type": "Point",
        "coordinates": [
          34.2681993,
          36.5784367
        ]
      },
      "properties": {
        "id": 9287451025,
        "osm_type": "node",
        "name": "Kocahasanlı kamp",
        "tourism": "camp_site"
      }
    },
    {
      "type": "Feature",
      "geometry": {
        "type": "Point",
        "coordinates": [
          34.1454381,
          36.4618404
        ]
      },
      "properties": {
        "id": 9296319077,
        "osm_type": "node",
        "name": "Hotel Peyda",
        "tourism": "hotel",
        "phone": "+90 324 523 2607",
        "website": "https://www.kizkalesihotelpeyda.com/"
      }
    },
    {
      "type": "Feature",
      "geometry": {
        "type": "Point",
        "coordinates": [
          34.1452008,
          36.4614661
        ]
      },
      "properties": {
        "id": 9308762952,
        "osm_type": "node",
        "name": "Kale Motel",
        "tourism": "hotel"
      }
    },
    {
      "type": "Feature",
      "geometry": {
        "type": "Point",
        "coordinates": [
          34.1456198,
          36.4618702
        ]
      },
      "properties": {
        "id": 9309945691,
        "osm_type": "node",
        "name": "Peri Hotel",
        "tourism": "hotel"
      }
    },
    {
      "type": "Feature",
      "geometry": {
        "type": "Point",
        "coordinates": [
          34.1457385,
          36.4619159
        ]
      },
      "properties": {
        "id": 9310642878,
        "osm_type": "node",
        "name": "Deniz Hotel",
        "tourism": "hotel"
      }
    },
    {
      "type": "Feature",
      "geometry": {
        "type": "Point",
        "coordinates": [
          34.5423189,
          36.7703276
        ]
      },
      "properties": {
        "id": 9352364017,
        "osm_type": "node",
        "name": "MS Boutique Otel",
        "tourism": "apartment"
      }
    },
    {
      "type": "Feature",
      "geometry": {
        "type": "Point",
        "coordinates": [
          34.5472605,
          36.77666
        ]
      },
      "properties": {
        "id": 9649782317,
        "osm_type": "node",
        "name": "WOM Hotel",
        "tourism": "hotel",
        "website": "http://womhotel.com"
      }
    },
    {
      "type": "Feature",
      "geometry": {
        "type": "Point",
        "coordinates": [
          32.8434724,
          36.0492055
        ]
      },
      "properties": {
        "id": 9894060517,
        "osm_type": "node",
        "tourism": "motel"
      }
    },
    {
      "type": "Feature",
      "geometry": {
        "type": "Point",
        "coordinates": [
          32.8732267,
          36.0750753
        ]
      },
      "properties": {
        "id": 9897742117,
        "osm_type": "node",
        "tourism": "hotel"
      }
    },
    {
      "type": "Feature",
      "geometry": {
        "type": "Point",
        "coordinates": [
          34.1542162,
          36.4807882
        ]
      },
      "properties": {
        "id": 9919692617,
        "osm_type": "node",
        "tourism": "hotel"
      }
    },
    {
      "type": "Feature",
      "geometry": {
        "type": "Point",
        "coordinates": [
          34.5736076,
          36.7848473
        ]
      },
      "properties": {
        "id": 9922271104,
        "osm_type": "node",
        "name": "Marde Hotel",
        "tourism": "hotel",
        "phone": "0324 322 4747",
        "website": "https://www.hotelmarde.com.tr/"
      }
    },
    {
      "type": "Feature",
      "geometry": {
        "type": "Point",
        "coordinates": [
          33.1125778,
          36.1161133
        ]
      },
      "properties": {
        "id": 9953431714,
        "osm_type": "node",
        "tourism": "camp_site"
      }
    },
    {
      "type": "Feature",
      "geometry": {
        "type": "Point",
        "coordinates": [
          33.8841127,
          36.3185165
        ]
      },
      "properties": {
        "id": 9979588519,
        "osm_type": "node",
        "name": "Kaptan Suit Otel",
        "tourism": "hotel"
      }
    },
    {
      "type": "Feature",
      "geometry": {
        "type": "Point",
        "coordinates": [
          33.647131,
          36.1949779
        ]
      },
      "properties": {
        "id": 9979600917,
        "osm_type": "node",
        "tourism": "hotel"
      }
    },
    {
      "type": "Feature",
      "geometry": {
        "type": "Point",
        "coordinates": [
          33.5856517,
          36.166177
        ]
      },
      "properties": {
        "id": 9991608622,
        "osm_type": "node",
        "name": "Toros Holiday Resort",
        "tourism": "hotel"
      }
    },
    {
      "type": "Feature",
      "geometry": {
        "type": "Point",
        "coordinates": [
          33.4979371,
          36.1520551
        ]
      },
      "properties": {
        "id": 10075105469,
        "osm_type": "node",
        "name": "ULU Resort Hotel",
        "tourism": "hotel"
      }
    },
    {
      "type": "Feature",
      "geometry": {
        "type": "Point",
        "coordinates": [
          32.8708844,
          36.0733422
        ]
      },
      "properties": {
        "id": 10177681319,
        "osm_type": "node",
        "name": "Nice Hotel",
        "tourism": "hotel"
      }
    },
    {
      "type": "Feature",
      "geometry": {
        "type": "Point",
        "coordinates": [
          34.1328427,
          36.4788335
        ]
      },
      "properties": {
        "id": 10255877663,
        "osm_type": "node",
        "name": "Adamkayalar",
        "tourism": "hotel",
        "phone": "05323508429"
      }
    },
    {
      "type": "Feature",
      "geometry": {
        "type": "Point",
        "coordinates": [
          34.4095493,
          36.6609783
        ]
      },
      "properties": {
        "id": 10591269805,
        "osm_type": "node",
        "tourism": "guest_house"
      }
    },
    {
      "type": "Feature",
      "geometry": {
        "type": "Point",
        "coordinates": [
          34.6376985,
          36.8123871
        ]
      },
      "properties": {
        "id": 10696689534,
        "osm_type": "node",
        "name": "Gondol Oteli",
        "tourism": "hotel"
      }
    },
    {
      "type": "Feature",
      "geometry": {
        "type": "Point",
        "coordinates": [
          34.5840171,
          36.7793289
        ]
      },
      "properties": {
        "id": 10736452741,
        "osm_type": "node",
        "name": "Navona Oteli",
        "tourism": "hotel"
      }
    },
    {
      "type": "Feature",
      "geometry": {
        "type": "Point",
        "coordinates": [
          34.5405377,
          36.806539
        ]
      },
      "properties": {
        "id": 10795066205,
        "osm_type": "node",
        "tourism": "guest_house"
      }
    },
    {
      "type": "Feature",
      "geometry": {
        "type": "Point",
        "coordinates": [
          34.2649422,
          36.5757217
        ]
      },
      "properties": {
        "id": 11035967462,
        "osm_type": "node",
        "name": "Milyonfest Su Plajı",
        "tourism": "camp_site"
      }
    },
    {
      "type": "Feature",
      "geometry": {
        "type": "Point",
        "coordinates": [
          32.8681041,
          36.0719764
        ]
      },
      "properties": {
        "id": 11092336405,
        "osm_type": "node",
        "name": "Tayfun Hotel",
        "tourism": "hotel"
      }
    },
    {
      "type": "Feature",
      "geometry": {
        "type": "Point",
        "coordinates": [
          34.6388607,
          36.8122784
        ]
      },
      "properties": {
        "id": 11094149506,
        "osm_type": "node",
        "name": "Hotel Yasar",
        "tourism": "hotel"
      }
    },
    {
      "type": "Feature",
      "geometry": {
        "type": "Point",
        "coordinates": [
          34.2640163,
          36.5747584
        ]
      },
      "properties": {
        "id": 11297432269,
        "osm_type": "node",
        "name": "Su Plajı",
        "tourism": "caravan_site"
      }
    },
    {
      "type": "Feature",
      "geometry": {
        "type": "Point",
        "coordinates": [
          34.8961619,
          36.9333075
        ]
      },
      "properties": {
        "id": 11473858114,
        "osm_type": "node",
        "name": "Kamp Kurallari",
        "tourism": "caravan_site"
      }
    },
    {
      "type": "Feature",
      "geometry": {
        "type": "Point",
        "coordinates": [
          33.8177699,
          36.2666356
        ]
      },
      "properties": {
        "id": 11601268477,
        "osm_type": "node",
        "tourism": "camp_site"
      }
    },
    {
      "type": "Feature",
      "geometry": {
        "type": "Point",
        "coordinates": [
          34.5815429,
          36.778698
        ]
      },
      "properties": {
        "id": 12059996470,
        "osm_type": "node",
        "name": "Dorel The Hotel",
        "tourism": "hotel"
      }
    },
    {
      "type": "Feature",
      "geometry": {
        "type": "Point",
        "coordinates": [
          33.6578874,
          36.1902487
        ]
      },
      "properties": {
        "id": 12063722648,
        "osm_type": "node",
        "name": "Marpessa Blue Beach Resort & SPA Hotel",
        "tourism": "hotel"
      }
    },
    {
      "type": "Feature",
      "geometry": {
        "type": "Point",
        "coordinates": [
          33.6501957,
          36.1941489
        ]
      },
      "properties": {
        "id": 12063755738,
        "osm_type": "node",
        "name": "Marvista Deluxe Resort Hotel & Spa",
        "tourism": "hotel"
      }
    },
    {
      "type": "Feature",
      "geometry": {
        "type": "Point",
        "coordinates": [
          34.5689796,
          36.7743161
        ]
      },
      "properties": {
        "id": 12186071341,
        "osm_type": "node",
        "name": "Park Dedeman Mersin Marina",
        "tourism": "hotel"
      }
    },
    {
      "type": "Feature",
      "geometry": {
        "type": "Point",
        "coordinates": [
          33.8871291,
          36.3178483
        ]
      },
      "properties": {
        "id": 12290291396,
        "osm_type": "node",
        "name": "Lotus Boutique Hotel",
        "tourism": "hotel",
        "opening_hours": "24/7",
        "phone": "05309113341"
      }
    },
    {
      "type": "Feature",
      "geometry": {
        "type": "Point",
        "coordinates": [
          33.2127877,
          36.1338934
        ]
      },
      "properties": {
        "id": 12306988971,
        "osm_type": "node",
        "tourism": "camp_site"
      }
    },
    {
      "type": "Feature",
      "geometry": {
        "type": "Point",
        "coordinates": [
          33.3991949,
          36.1570197
        ]
      },
      "properties": {
        "id": 12306990849,
        "osm_type": "node",
        "name": "Old road",
        "tourism": "camp_site"
      }
    },
    {
      "type": "Feature",
      "geometry": {
        "type": "Point",
        "coordinates": [
          33.2046771,
          36.1336311
        ]
      },
      "properties": {
        "id": 12306994142,
        "osm_type": "node",
        "tourism": "camp_site"
      }
    },
    {
      "type": "Feature",
      "geometry": {
        "type": "Point",
        "coordinates": [
          33.8460984,
          36.2946664
        ]
      },
      "properties": {
        "id": 12317557331,
        "osm_type": "node",
        "name": "old road",
        "tourism": "camp_site"
      }
    },
    {
      "type": "Feature",
      "geometry": {
        "type": "Point",
        "coordinates": [
          33.5856009,
          36.1677905
        ]
      },
      "properties": {
        "id": 12317587908,
        "osm_type": "node",
        "tourism": "camp_site"
      }
    },
    {
      "type": "Feature",
      "geometry": {
        "type": "Point",
        "coordinates": [
          34.1741104,
          36.4806318
        ]
      },
      "properties": {
        "id": 12317587909,
        "osm_type": "node",
        "name": "Public beach",
        "tourism": "camp_site"
      }
    },
    {
      "type": "Feature",
      "geometry": {
        "type": "Point",
        "coordinates": [
          34.1336882,
          36.4606155
        ]
      },
      "properties": {
        "id": 12317589310,
        "osm_type": "node",
        "name": "Public beach",
        "tourism": "camp_site"
      }
    },
    {
      "type": "Feature",
      "geometry": {
        "type": "Point",
        "coordinates": [
          34.4905385,
          36.7185125
        ]
      },
      "properties": {
        "id": 12317611649,
        "osm_type": "node",
        "name": "100. Yıl Plajı",
        "tourism": "camp_site"
      }
    },
    {
      "type": "Feature",
      "geometry": {
        "type": "Point",
        "coordinates": [
          34.3169576,
          36.6097512
        ]
      },
      "properties": {
        "id": 12451048986,
        "osm_type": "node",
        "name": "Rest & More by Dedeman",
        "tourism": "hotel",
        "phone": "+90 324 515 9999",
        "website": "https://www.dedeman.com/oteller/rest-more-by-dedeman-mersin-erdemli/iletisim"
      }
    },
    {
      "type": "Feature",
      "geometry": {
        "type": "Point",
        "coordinates": [
          33.3288689,
          36.1489199
        ]
      },
      "properties": {
        "id": 12549597016,
        "osm_type": "node",
        "name": "Aydıncık Öğretmenevi",
        "tourism": "hostel",
        "opening_hours": "24/7"
      }
    },
    {
      "type": "Feature",
      "geometry": {
        "type": "Point",
        "coordinates": [
          34.0728752,
          36.392366
        ]
      },
      "properties": {
        "id": 12854760553,
        "osm_type": "node",
        "name": "Sahil Villa",
        "tourism": "hotel",
        "phone": "+905326994889",
        "website": "https://www.instagram.com/sahilvillasusanoglu?igsh=M3ZwaDQydHhsY2Jt"
      }
    },
    {
      "type": "Feature",
      "geometry": {
        "type": "Point",
        "coordinates": [
          34.5165138,
          36.7392747
        ]
      },
      "properties": {
        "id": 12960978601,
        "osm_type": "node",
        "name": "Kiralık apartman",
        "tourism": "guest_house",
        "phone": "+905510417026",
        "website": "https://www.instagram.com/mersinreal.gayrimenkul/profilecard/?igsh=YWpxdnlrbXh6Zm9h"
      }
    },
    {
      "type": "Feature",
      "geometry": {
        "type": "Point",
        "coordinates": [
          34.5348917,
          36.7803948
        ]
      },
      "properties": {
        "id": 13002594752,
        "osm_type": "node",
        "name": "Genç Apart",
        "tourism": "guest_house"
      }
    },
    {
      "type": "Feature",
      "geometry": {
        "type": "Point",
        "coordinates": [
          34.288473,
          36.5927087
        ]
      },
      "properties": {
        "id": 13036727309,
        "osm_type": "node",
        "name": "Erdemli Çamlığı (Talat Göktepe) Tabiat Parkı Kamp Yeri",
        "tourism": "camp_site"
      }
    },
    {
      "type": "Feature",
      "geometry": {
        "type": "Point",
        "coordinates": [
          34.5764082,
          37.1563134
        ]
      },
      "properties": {
        "id": 13093122101,
        "osm_type": "node",
        "name": "Zevzek Tepesi Kamp Alanı",
        "tourism": "camp_site",
        "opening_hours": "24/7"
      }
    },
    {
      "type": "Feature",
      "geometry": {
        "type": "Point",
        "coordinates": [
          34.6525546,
          36.8208712
        ]
      },
      "properties": {
        "id": 13115377601,
        "osm_type": "node",
        "name": "Metros Hotel",
        "tourism": "hotel"
      }
    },
    {
      "type": "Feature",
      "geometry": {
        "type": "Point",
        "coordinates": [
          34.5573785,
          36.7713309
        ]
      },
      "properties": {
        "id": 13120239693,
        "osm_type": "node",
        "name": "Aria Plus Ev Otel",
        "tourism": "hotel",
        "phone": "+90 541 501 40 46",
        "website": "https://mersinariaplus.com/"
      }
    },
    {
      "type": "Feature",
      "geometry": {
        "type": "Point",
        "coordinates": [
          32.8561974,
          36.0651914
        ]
      },
      "properties": {
        "id": 13185344285,
        "osm_type": "node",
        "name": "Rolli Butik Hotel",
        "tourism": "hotel",
        "phone": "+903248144978"
      }
    },
    {
      "type": "Feature",
      "geometry": {
        "type": "Point",
        "coordinates": [
          33.8722143,
          36.3167365
        ]
      },
      "properties": {
        "id": 13202554525,
        "osm_type": "node",
        "name": "Silifke Taşucu Lütfi Elvan Öğretmenevi ve Akşam Sanat Okulu",
        "tourism": "hotel"
      }
    },
    {
      "type": "Feature",
      "geometry": {
        "type": "Point",
        "coordinates": [
          34.0767485,
          36.4034731
        ]
      },
      "properties": {
        "id": 13208111501,
        "osm_type": "node",
        "name": "AtakentAta",
        "tourism": "caravan_site"
      }
    },
    {
      "type": "Feature",
      "geometry": {
        "type": "Point",
        "coordinates": [
          34.080621,
          36.4133793
        ]
      },
      "properties": {
        "id": 13230417215,
        "osm_type": "node",
        "name": "Clup Efes Otel",
        "tourism": "hotel"
      }
    },
    {
      "type": "Feature",
      "geometry": {
        "type": "Point",
        "coordinates": [
          34.5615535,
          36.9261959
        ]
      },
      "properties": {
        "id": 13332249720,
        "osm_type": "node",
        "name": "Mola Mersin Bungalow",
        "tourism": "hotel"
      }
    },
    {
      "type": "Feature",
      "geometry": {
        "type": "Point",
        "coordinates": [
          34.5549773,
          36.7665856
        ]
      },
      "properties": {
        "id": 13472867003,
        "osm_type": "node",
        "name": "Divan Otel",
        "tourism": "hotel"
      }
    },
    {
      "type": "Feature",
      "geometry": {
        "type": "Point",
        "coordinates": [
          34.5108769,
          36.7426652
        ]
      },
      "properties": {
        "id": 13610291501,
        "osm_type": "node",
        "name": "Orfoz Panorama Apartmanı",
        "tourism": "apartment"
      }
    },
    {
      "type": "Feature",
      "geometry": {
        "type": "Point",
        "coordinates": [
          34.6305402,
          36.7975303
        ]
      },
      "properties": {
        "id": 211507407,
        "osm_type": "way",
        "name": "Mersin Oteli",
        "tourism": "hotel"
      }
    },
    {
      "type": "Feature",
      "geometry": {
        "type": "Point",
        "coordinates": [
          34.8989919,
          36.9341059
        ]
      },
      "properties": {
        "id": 376492463,
        "osm_type": "way",
        "name": "Şelale Hotel",
        "tourism": "hotel"
      }
    },
    {
      "type": "Feature",
      "geometry": {
        "type": "Point",
        "coordinates": [
          34.9001046,
          36.934576
        ]
      },
      "properties": {
        "id": 376492466,
        "osm_type": "way",
        "name": "Uygulama Oteli",
        "tourism": "guest_house"
      }
    },
    {
      "type": "Feature",
      "geometry": {
        "type": "Point",
        "coordinates": [
          34.6132169,
          36.7828615
        ]
      },
      "properties": {
        "id": 392585272,
        "osm_type": "way",
        "name": "Mersin HiltonSA",
        "tourism": "hotel",
        "phone": "+90-324-241-5000",
        "website": "https://www.hilton.com.tr/oteller/turkiye/mersin/mersin-hiltonsa/"
      }
    },
    {
      "type": "Feature",
      "geometry": {
        "type": "Point",
        "coordinates": [
          34.1970769,
          36.5058188
        ]
      },
      "properties": {
        "id": 598830362,
        "osm_type": "way",
        "name": "Lamos Hotel & Convention Center",
        "tourism": "hotel",
        "phone": "+90 324 522 2444"
      }
    },
    {
      "type": "Feature",
      "geometry": {
        "type": "Point",
        "coordinates": [
          32.8464742,
          36.0533324
        ]
      },
      "properties": {
        "id": 622719067,
        "osm_type": "way",
        "name": "İkonyum Otel",
        "tourism": "hotel"
      }
    },
    {
      "type": "Feature",
      "geometry": {
        "type": "Point",
        "coordinates": [
          34.1433909,
          36.4608573
        ]
      },
      "properties": {
        "id": 688472018,
        "osm_type": "way",
        "name": "Sarı Konak Apart",
        "tourism": "guest_house"
      }
    },
    {
      "type": "Feature",
      "geometry": {
        "type": "Point",
        "coordinates": [
          33.4969445,
          36.1525707
        ]
      },
      "properties": {
        "id": 707069430,
        "osm_type": "way",
        "tourism": "hotel"
      }
    },
    {
      "type": "Feature",
      "geometry": {
        "type": "Point",
        "coordinates": [
          34.6305697,
          36.8068994
        ]
      },
      "properties": {
        "id": 757300037,
        "osm_type": "way",
        "tourism": "caravan_site"
      }
    },
    {
      "type": "Feature",
      "geometry": {
        "type": "Point",
        "coordinates": [
          34.6288575,
          36.8007269
        ]
      },
      "properties": {
        "id": 776505554,
        "osm_type": "way",
        "name": "Baranlar hotel",
        "tourism": "hotel"
      }
    },
    {
      "type": "Feature",
      "geometry": {
        "type": "Point",
        "coordinates": [
          34.589283,
          36.7826358
        ]
      },
      "properties": {
        "id": 964324909,
        "osm_type": "way",
        "name": "Forum Suite Otel",
        "tourism": "hotel"
      }
    },
    {
      "type": "Feature",
      "geometry": {
        "type": "Point",
        "coordinates": [
          34.3242863,
          36.6113235
        ]
      },
      "properties": {
        "id": 976283605,
        "osm_type": "way",
        "name": "Now Konaklama",
        "tourism": "hotel",
        "website": "https://nowkonaklama.com/"
      }
    },
    {
      "type": "Feature",
      "geometry": {
        "type": "Point",
        "coordinates": [
          34.5358941,
          36.7752401
        ]
      },
      "properties": {
        "id": 1069350554,
        "osm_type": "way",
        "name": "Upart Home - Ev - Otel Konsepti Apart",
        "tourism": "apartment",
        "phone": "+90 324 515 1818",
        "website": "www.uparthome.com"
      }
    },
    {
      "type": "Feature",
      "geometry": {
        "type": "Point",
        "coordinates": [
          33.8910276,
          36.3158694
        ]
      },
      "properties": {
        "id": 1077394353,
        "osm_type": "way",
        "name": "Zeus Otel",
        "tourism": "hotel"
      }
    },
    {
      "type": "Feature",
      "geometry": {
        "type": "Point",
        "coordinates": [
          34.5735877,
          36.7848667
        ]
      },
      "properties": {
        "id": 1082673217,
        "osm_type": "way",
        "name": "Marde Hotel",
        "tourism": "hotel",
        "phone": "+90 324 322 4747"
      }
    },
    {
      "type": "Feature",
      "geometry": {
        "type": "Point",
        "coordinates": [
          34.624073,
          36.9149706
        ]
      },
      "properties": {
        "id": 1207089331,
        "osm_type": "way",
        "name": "BN Termal Hotel",
        "tourism": "hotel"
      }
    },
    {
      "type": "Feature",
      "geometry": {
        "type": "Point",
        "coordinates": [
          33.9269689,
          36.3798154
        ]
      },
      "properties": {
        "id": 1322972875,
        "osm_type": "way",
        "name": "Göksu Hotel",
        "tourism": "hotel",
        "phone": "0324 712 10 21",
        "website": "https://www.goksuotel.com/"
      }
    },
    {
      "type": "Feature",
      "geometry": {
        "type": "Point",
        "coordinates": [
          34.4518934,
          36.6923903
        ]
      },
      "properties": {
        "id": 1328569715,
        "osm_type": "way",
        "name": "Karavan Park",
        "tourism": "camp_site",
        "tents": "yes"
      }
    },
    {
      "type": "Feature",
      "geometry": {
        "type": "Point",
        "coordinates": [
          33.3232955,
          36.1448498
        ]
      },
      "properties": {
        "id": 1331438065,
        "osm_type": "way",
        "name": "Ünlü Konaklama",
        "tourism": "hotel",
        "phone": "841 4141"
      }
    },
    {
      "type": "Feature",
      "geometry": {
        "type": "Point",
        "coordinates": [
          34.4832108,
          36.9499043
        ]
      },
      "properties": {
        "id": 1431736145,
        "osm_type": "way",
        "name": "Kızılgeçit Tesisleri Piknik ve Kamp Alanı",
        "tourism": "camp_site"
      }
    },
    {
      "type": "Feature",
      "geometry": {
        "type": "Point",
        "coordinates": [
          34.5550937,
          36.7663412
        ]
      },
      "properties": {
        "id": 1469068451,
        "osm_type": "way",
        "name": "Divan Otel",
        "tourism": "hotel",
        "website": "https://www.divan.com.tr/otel/divan-mersin-otel"
      }
    },
    {
      "type": "Feature",
      "geometry": {
        "type": "Point",
        "coordinates": [
          34.5814862,
          36.7773086
        ]
      },
      "properties": {
        "id": 1469080667,
        "osm_type": "way",
        "name": "Mersin Suphi Öner Öğretmenevi",
        "tourism": "hotel",
        "website": "https://suphionerogretmenevi.meb.k12.tr"
      }
    }
  ]
}