{
  "type": "FeatureCollection",
  "features": [
    {
      "type": "Feature",
      "geometry": {
        "type": "Point",
        "coordinates": [
          41.9555543,
          41.4314361
        ]
      },
      "properties": {
        "id": 884597028,
        "osm_type": "node",
        "tourism": "guest_house"
      }
    },
    {
      "type": "Feature",
      "geometry": {
        "type": "Point",
        "coordinates": [
          41.3027614,
          41.3516899
        ]
      },
      "properties": {
        "id": 1844503745,
        "osm_type": "node",
        "tourism": "motel"
      }
    },
    {
      "type": "Feature",
      "geometry": {
        "type": "Point",
        "coordinates": [
          41.3933409,
          40.9676679
        ]
      },
      "properties": {
        "id": 2148088503,
        "osm_type": "node",
        "tourism": "camp_site"
      }
    },
    {
      "type": "Feature",
      "geometry": {
        "type": "Point",
        "coordinates": [
          41.4221715,
          41.3966522
        ]
      },
      "properties": {
        "id": 2580085199,
        "osm_type": "node",
        "name": "Cihan Hotel",
        "tourism": "hotel",
        "phone": "+90 466 3512333",
        "website": "http://www.hotelcihan.com"
      }
    },
    {
      "type": "Feature",
      "geometry": {
        "type": "Point",
        "coordinates": [
          41.2419574,
          40.8594852
        ]
      },
      "properties": {
        "id": 3059889548,
        "osm_type": "node",
        "name": "Kackar Pansyon",
        "tourism": "hotel",
        "website": "http://www.kackar.net/"
      }
    },
    {
      "type": "Feature",
      "geometry": {
        "type": "Point",
        "coordinates": [
          41.3553955,
          41.2525907
        ]
      },
      "properties": {
        "id": 3144541787,
        "osm_type": "node",
        "name": "Mençuna Konakları",
        "tourism": "motel",
        "phone": "+9 0 532 485 49 58",
        "website": "https://www.mencuna.com/"
      }
    },
    {
      "type": "Feature",
      "geometry": {
        "type": "Point",
        "coordinates": [
          41.7941362,
          41.1713327
        ]
      },
      "properties": {
        "id": 3758951640,
        "osm_type": "node",
        "name": "Koliva",
        "tourism": "hotel"
      }
    },
    {
      "type": "Feature",
      "geometry": {
        "type": "Point",
        "coordinates": [
          42.4824274,
          41.3090549
        ]
      },
      "properties": {
        "id": 3761638350,
        "osm_type": "node",
        "name": "Pansyon Karagöl",
        "tourism": "guest_house",
        "phone": "+90 466 531 21 37",
        "website": "http://www.savsatkaragol.com/"
      }
    },
    {
      "type": "Feature",
      "geometry": {
        "type": "Point",
        "coordinates": [
          41.1986707,
          40.8578688
        ]
      },
      "properties": {
        "id": 3884474503,
        "osm_type": "node",
        "name": "Düpedüzü Camp",
        "tourism": "camp_site"
      }
    },
    {
      "type": "Feature",
      "geometry": {
        "type": "Point",
        "coordinates": [
          41.1609914,
          40.8126451
        ]
      },
      "properties": {
        "id": 3884474504,
        "osm_type": "node",
        "tourism": "camp_site"
      }
    },
    {
      "type": "Feature",
      "geometry": {
        "type": "Point",
        "coordinates": [
          41.1761633,
          40.8204809
        ]
      },
      "properties": {
        "id": 3934438254,
        "osm_type": "node",
        "name": "Dilberdüzü Camp",
        "tourism": "camp_site"
      }
    },
    {
      "type": "Feature",
      "geometry": {
        "type": "Point",
        "coordinates": [
          41.2241917,
          40.9083079
        ]
      },
      "properties": {
        "id": 3938202365,
        "osm_type": "node",
        "tourism": "camp_site"
      }
    },
    {
      "type": "Feature",
      "geometry": {
        "type": "Point",
        "coordinates": [
          41.2478122,
          40.9294098
        ]
      },
      "properties": {
        "id": 3938202426,
        "osm_type": "node",
        "name": "Öküz Gölü",
        "tourism": "camp_site"
      }
    },
    {
      "type": "Feature",
      "geometry": {
        "type": "Point",
        "coordinates": [
          41.2481503,
          40.7986678
        ]
      },
      "properties": {
        "id": 3941244683,
        "osm_type": "node",
        "tourism": "camp_site"
      }
    },
    {
      "type": "Feature",
      "geometry": {
        "type": "Point",
        "coordinates": [
          41.3353884,
          40.9771344
        ]
      },
      "properties": {
        "id": 3969385386,
        "osm_type": "node",
        "name": "Satibe Kamp Alanı",
        "tourism": "camp_site"
      }
    },
    {
      "type": "Feature",
      "geometry": {
        "type": "Point",
        "coordinates": [
          41.241351,
          40.9493923
        ]
      },
      "properties": {
        "id": 3969385388,
        "osm_type": "node",
        "tourism": "camp_site"
      }
    },
    {
      "type": "Feature",
      "geometry": {
        "type": "Point",
        "coordinates": [
          41.2722782,
          40.9481726
        ]
      },
      "properties": {
        "id": 3988826611,
        "osm_type": "node",
        "tourism": "camp_site"
      }
    },
    {
      "type": "Feature",
      "geometry": {
        "type": "Point",
        "coordinates": [
          41.8202087,
          41.1855694
        ]
      },
      "properties": {
        "id": 4329356789,
        "osm_type": "node",
        "name": "Grand Artvin Otel",
        "tourism": "hotel"
      }
    },
    {
      "type": "Feature",
      "geometry": {
        "type": "Point",
        "coordinates": [
          41.9528694,
          41.4813154
        ]
      },
      "properties": {
        "id": 4984639521,
        "osm_type": "node",
        "name": "Macahel Han",
        "tourism": "hotel"
      }
    },
    {
      "type": "Feature",
      "geometry": {
        "type": "Point",
        "coordinates": [
          41.7941566,
          41.1712397
        ]
      },
      "properties": {
        "id": 5001064522,
        "osm_type": "node",
        "name": "Koliva Otel",
        "tourism": "hotel",
        "opening_hours": "24/7",
        "phone": "+90 466 212 90 47",
        "website": "https://kolivaotel.com/"
      }
    },
    {
      "type": "Feature",
      "geometry": {
        "type": "Point",
        "coordinates": [
          42.4178979,
          41.2460761
        ]
      },
      "properties": {
        "id": 5003232322,
        "osm_type": "node",
        "name": "Laşet Motel Bungalov",
        "tourism": "motel",
        "opening_hours": "24/7",
        "phone": "+904665712157",
        "website": "http://www.laset.com.tr"
      }
    },
    {
      "type": "Feature",
      "geometry": {
        "type": "Point",
        "coordinates": [
          41.3811725,
          40.968774
        ]
      },
      "properties": {
        "id": 5084250821,
        "osm_type": "node",
        "tourism": "camp_site"
      }
    },
    {
      "type": "Feature",
      "geometry": {
        "type": "Point",
        "coordinates": [
          41.6762398,
          41.3626246
        ]
      },
      "properties": {
        "id": 5241789121,
        "osm_type": "node",
        "tourism": "hostel"
      }
    },
    {
      "type": "Feature",
      "geometry": {
        "type": "Point",
        "coordinates": [
          41.272452,
          40.8696204
        ]
      },
      "properties": {
        "id": 5684400221,
        "osm_type": "node",
        "name": "Canyuva Pansiyon",
        "tourism": "hostel"
      }
    },
    {
      "type": "Feature",
      "geometry": {
        "type": "Point",
        "coordinates": [
          41.4114699,
          41.3865142
        ]
      },
      "properties": {
        "id": 5853383486,
        "osm_type": "node",
        "name": "Evgin",
        "tourism": "motel"
      }
    },
    {
      "type": "Feature",
      "geometry": {
        "type": "Point",
        "coordinates": [
          41.4718389,
          41.4544512
        ]
      },
      "properties": {
        "id": 6536410933,
        "osm_type": "node",
        "tourism": "camp_site"
      }
    },
    {
      "type": "Feature",
      "geometry": {
        "type": "Point",
        "coordinates": [
          42.0666357,
          41.121526
        ]
      },
      "properties": {
        "id": 6627689595,
        "osm_type": "node",
        "name": "Gevhernik Otel",
        "tourism": "hotel"
      }
    },
    {
      "type": "Feature",
      "geometry": {
        "type": "Point",
        "coordinates": [
          42.3257727,
          41.2587533
        ]
      },
      "properties": {
        "id": 6680111385,
        "osm_type": "node",
        "tourism": "camp_site"
      }
    },
    {
      "type": "Feature",
      "geometry": {
        "type": "Point",
        "coordinates": [
          42.5022432,
          41.3590525
        ]
      },
      "properties": {
        "id": 6775333285,
        "osm_type": "node",
        "name": "dishora yayla evi",
        "tourism": "hotel"
      }
    },
    {
      "type": "Feature",
      "geometry": {
        "type": "Point",
        "coordinates": [
          41.8204376,
          41.1816344
        ]
      },
      "properties": {
        "id": 7794425949,
        "osm_type": "node",
        "name": "Artvin polis evi",
        "tourism": "guest_house",
        "website": "https://www.polisevi.com/artvin-polis-evi/"
      }
    },
    {
      "type": "Feature",
      "geometry": {
        "type": "Point",
        "coordinates": [
          41.8117522,
          41.1930613
        ]
      },
      "properties": {
        "id": 8245668179,
        "osm_type": "node",
        "name": "Koru Butik Otel",
        "tourism": "hotel",
        "phone": "+90 466 212 65 65",
        "website": "https://www.facebook.com/korubutikotel"
      }
    },
    {
      "type": "Feature",
      "geometry": {
        "type": "Point",
        "coordinates": [
          41.1629728,
          40.8179981
        ]
      },
      "properties": {
        "id": 8957491418,
        "osm_type": "node",
        "tourism": "camp_site"
      }
    },
    {
      "type": "Feature",
      "geometry": {
        "type": "Point",
        "coordinates": [
          41.3316001,
          41.3109016
        ]
      },
      "properties": {
        "id": 9142529010,
        "osm_type": "node",
        "name": "Olimbera Köy Evi",
        "tourism": "hostel"
      }
    },
    {
      "type": "Feature",
      "geometry": {
        "type": "Point",
        "coordinates": [
          41.4202447,
          41.3945256
        ]
      },
      "properties": {
        "id": 9312109060,
        "osm_type": "node",
        "name": "Karabulut Butik",
        "tourism": "hotel"
      }
    },
    {
      "type": "Feature",
      "geometry": {
        "type": "Point",
        "coordinates": [
          41.4188371,
          41.3934412
        ]
      },
      "properties": {
        "id": 9439519363,
        "osm_type": "node",
        "name": "Heyamo Otel",
        "tourism": "hotel"
      }
    },
    {
      "type": "Feature",
      "geometry": {
        "type": "Point",
        "coordinates": [
          41.5303874,
          41.4945597
        ]
      },
      "properties": {
        "id": 10057276862,
        "osm_type": "node",
        "name": "Butik Otel",
        "tourism": "hotel"
      }
    },
    {
      "type": "Feature",
      "geometry": {
        "type": "Point",
        "coordinates": [
          41.530155,
          41.4912435
        ]
      },
      "properties": {
        "id": 10057276874,
        "osm_type": "node",
        "name": "Sarp",
        "tourism": "hotel"
      }
    },
    {
      "type": "Feature",
      "geometry": {
        "type": "Point",
        "coordinates": [
          41.8190909,
          41.1820967
        ]
      },
      "properties": {
        "id": 10079480313,
        "osm_type": "node",
        "name": "Artvin Belediyesi Semt Konağı",
        "tourism": "guest_house"
      }
    },
    {
      "type": "Feature",
      "geometry": {
        "type": "Point",
        "coordinates": [
          41.8146381,
          41.1669581
        ]
      },
      "properties": {
        "id": 10079700593,
        "osm_type": "node",
        "name": "Mars Hotel",
        "tourism": "hotel"
      }
    },
    {
      "type": "Feature",
      "geometry": {
        "type": "Point",
        "coordinates": [
          41.7921465,
          41.1638778
        ]
      },
      "properties": {
        "id": 10079700606,
        "osm_type": "node",
        "name": "Arena Hotel",
        "tourism": "hotel"
      }
    },
    {
      "type": "Feature",
      "geometry": {
        "type": "Point",
        "coordinates": [
          41.7940992,
          41.1643382
        ]
      },
      "properties": {
        "id": 10079700607,
        "osm_type": "node",
        "name": "Kafkasör Dağ Evleri",
        "tourism": "hotel"
      }
    },
    {
      "type": "Feature",
      "geometry": {
        "type": "Point",
        "coordinates": [
          41.5632509,
          41.2820123
        ]
      },
      "properties": {
        "id": 10119231233,
        "osm_type": "node",
        "name": "Arten Park Hotel",
        "tourism": "hotel"
      }
    },
    {
      "type": "Feature",
      "geometry": {
        "type": "Point",
        "coordinates": [
          41.35773,
          40.9640901
        ]
      },
      "properties": {
        "id": 10152563117,
        "osm_type": "node",
        "tourism": "caravan_site"
      }
    },
    {
      "type": "Feature",
      "geometry": {
        "type": "Point",
        "coordinates": [
          41.3800461,
          40.9690216
        ]
      },
      "properties": {
        "id": 10152563217,
        "osm_type": "node",
        "tourism": "caravan_site"
      }
    },
    {
      "type": "Feature",
      "geometry": {
        "type": "Point",
        "coordinates": [
          41.8385681,
          41.1849816
        ]
      },
      "properties": {
        "id": 10154376447,
        "osm_type": "node",
        "name": "Artvin Apart",
        "tourism": "hotel"
      }
    },
    {
      "type": "Feature",
      "geometry": {
        "type": "Point",
        "coordinates": [
          41.8352173,
          41.1810412
        ]
      },
      "properties": {
        "id": 10154376530,
        "osm_type": "node",
        "name": "Kafkasör",
        "tourism": "hotel"
      }
    },
    {
      "type": "Feature",
      "geometry": {
        "type": "Point",
        "coordinates": [
          41.8324406,
          41.1847982
        ]
      },
      "properties": {
        "id": 10154376545,
        "osm_type": "node",
        "name": "AÇÜ Misafirhanesi",
        "tourism": "hostel"
      }
    },
    {
      "type": "Feature",
      "geometry": {
        "type": "Point",
        "coordinates": [
          41.8336616,
          41.1840246
        ]
      },
      "properties": {
        "id": 10154376546,
        "osm_type": "node",
        "name": "AÇÜ Lojmanları",
        "tourism": "hostel"
      }
    },
    {
      "type": "Feature",
      "geometry": {
        "type": "Point",
        "coordinates": [
          41.8748527,
          41.1948575
        ]
      },
      "properties": {
        "id": 10154376599,
        "osm_type": "node",
        "name": "Dergiz Tatil Köyü",
        "tourism": "hotel"
      }
    },
    {
      "type": "Feature",
      "geometry": {
        "type": "Point",
        "coordinates": [
          41.4133171,
          41.3880317
        ]
      },
      "properties": {
        "id": 10154957061,
        "osm_type": "node",
        "name": "Terzioğlu",
        "tourism": "hotel"
      }
    },
    {
      "type": "Feature",
      "geometry": {
        "type": "Point",
        "coordinates": [
          41.6741683,
          41.3656986
        ]
      },
      "properties": {
        "id": 10155044887,
        "osm_type": "node",
        "name": "Ada Butik",
        "tourism": "hotel"
      }
    },
    {
      "type": "Feature",
      "geometry": {
        "type": "Point",
        "coordinates": [
          41.677059,
          41.362649
        ]
      },
      "properties": {
        "id": 10155044936,
        "osm_type": "node",
        "tourism": "hotel"
      }
    },
    {
      "type": "Feature",
      "geometry": {
        "type": "Point",
        "coordinates": [
          42.3300288,
          41.2589439
        ]
      },
      "properties": {
        "id": 10892492305,
        "osm_type": "node",
        "tourism": "camp_site"
      }
    },
    {
      "type": "Feature",
      "geometry": {
        "type": "Point",
        "coordinates": [
          41.439895,
          41.418695
        ]
      },
      "properties": {
        "id": 10923428107,
        "osm_type": "node",
        "tourism": "camp_site"
      }
    },
    {
      "type": "Feature",
      "geometry": {
        "type": "Point",
        "coordinates": [
          41.551317,
          40.8173746
        ]
      },
      "properties": {
        "id": 10984477812,
        "osm_type": "node",
        "name": "Şehitler Tepesi Oteli",
        "tourism": "hotel"
      }
    },
    {
      "type": "Feature",
      "geometry": {
        "type": "Point",
        "coordinates": [
          41.3824734,
          40.9702052
        ]
      },
      "properties": {
        "id": 11048954305,
        "osm_type": "node",
        "tourism": "guest_house",
        "website": "https://karahanpension.com/"
      }
    },
    {
      "type": "Feature",
      "geometry": {
        "type": "Point",
        "coordinates": [
          41.8200507,
          41.1812707
        ]
      },
      "properties": {
        "id": 11221818646,
        "osm_type": "node",
        "tourism": "hotel"
      }
    },
    {
      "type": "Feature",
      "geometry": {
        "type": "Point",
        "coordinates": [
          41.5134379,
          40.9233522
        ]
      },
      "properties": {
        "id": 11224871637,
        "osm_type": "node",
        "tourism": "hotel"
      }
    },
    {
      "type": "Feature",
      "geometry": {
        "type": "Point",
        "coordinates": [
          42.4865845,
          41.3087223
        ]
      },
      "properties": {
        "id": 11666834956,
        "osm_type": "node",
        "tourism": "camp_site"
      }
    },
    {
      "type": "Feature",
      "geometry": {
        "type": "Point",
        "coordinates": [
          41.2964924,
          41.3494258
        ]
      },
      "properties": {
        "id": 11915770522,
        "osm_type": "node",
        "name": "Arhavi Resort",
        "tourism": "hotel",
        "phone": "+905461000808"
      }
    },
    {
      "type": "Feature",
      "geometry": {
        "type": "Point",
        "coordinates": [
          41.7180221,
          41.3215432
        ]
      },
      "properties": {
        "id": 12145383262,
        "osm_type": "node",
        "name": "Ataman'lar Camping",
        "tourism": "camp_site",
        "tents": "yes",
        "phone": "+90 532 160 50 10"
      }
    },
    {
      "type": "Feature",
      "geometry": {
        "type": "Point",
        "coordinates": [
          41.7059784,
          41.3334169
        ]
      },
      "properties": {
        "id": 12977059002,
        "osm_type": "node",
        "tourism": "camp_site"
      }
    },
    {
      "type": "Feature",
      "geometry": {
        "type": "Point",
        "coordinates": [
          41.528209,
          40.80825
        ]
      },
      "properties": {
        "id": 13098699602,
        "osm_type": "node",
        "name": "Livane Sosyal Tesisleri",
        "tourism": "hotel"
      }
    },
    {
      "type": "Feature",
      "geometry": {
        "type": "Point",
        "coordinates": [
          41.8080952,
          41.1881262
        ]
      },
      "properties": {
        "id": 96620494,
        "osm_type": "way",
        "name": "Sosyal Bilimler Pansiyonu",
        "tourism": "hostel"
      }
    },
    {
      "type": "Feature",
      "geometry": {
        "type": "Point",
        "coordinates": [
          41.9401494,
          41.4863285
        ]
      },
      "properties": {
        "id": 1079727509,
        "osm_type": "way",
        "name": "Green Roof",
        "tourism": "hotel"
      }
    },
    {
      "type": "Feature",
      "geometry": {
        "type": "Point",
        "coordinates": [
          41.8168941,
          41.1795853
        ]
      },
      "properties": {
        "id": 1101055055,
        "osm_type": "way",
        "name": "Artvin Öğretmenevi",
        "tourism": "guest_house",
        "phone": "+90 505 918 2665",
        "website": "https://artvinogretmenevi.com.tr/"
      }
    },
    {
      "type": "Feature",
      "geometry": {
        "type": "Point",
        "coordinates": [
          41.8207746,
          41.1810555
        ]
      },
      "properties": {
        "id": 1101058184,
        "osm_type": "way",
        "name": "Trabzon Otel",
        "tourism": "hotel"
      }
    },
    {
      "type": "Feature",
      "geometry": {
        "type": "Point",
        "coordinates": [
          41.8206845,
          41.1811515
        ]
      },
      "properties": {
        "id": 1101058185,
        "osm_type": "way",
        "name": "Sabah Otel",
        "tourism": "hotel"
      }
    },
    {
      "type": "Feature",
      "geometry": {
        "type": "Point",
        "coordinates": [
          41.8198505,
          41.1817436
        ]
      },
      "properties": {
        "id": 1101424366,
        "osm_type": "way",
        "name": "Artvin Belediyesi İsmet Acar Misafirhanesi",
        "tourism": "guest_house"
      }
    },
    {
      "type": "Feature",
      "geometry": {
        "type": "Point",
        "coordinates": [
          41.6817706,
          41.3682805
        ]
      },
      "properties": {
        "id": 1102560275,
        "osm_type": "way",
        "name": "Şehit Savaş Gedik Lisesi Pansiyonu",
        "tourism": "hostel"
      }
    },
    {
      "type": "Feature",
      "geometry": {
        "type": "Point",
        "coordinates": [
          41.55014,
          41.5182589
        ]
      },
      "properties": {
        "id": 1346362622,
        "osm_type": "way",
        "name": "Sarp Bungalov",
        "tourism": "hotel",
        "phone": "+90 530 258 72 77",
        "check_date": "2024-12-10"
      }
    },
    {
      "type": "Feature",
      "geometry": {
        "type": "Point",
        "coordinates": [
          41.5189906,
          40.8119525
        ]
      },
      "properties": {
        "id": 1382968481,
        "osm_type": "way",
        "name": "Yusufeli Öğretmen Evi ve Akşam Sanat Okulu",
        "tourism": "guest_house"
      }
    }
  ]
}