{
  "type": "FeatureCollection",
  "features": [
    {
      "type": "Feature",
      "geometry": {
        "type": "Point",
        "coordinates": [
          39.5480796,
          39.1056653
        ]
      },
      "properties": {
        "id": 2450985043,
        "osm_type": "node",
        "name": "Has Otel",
        "tourism": "hotel"
      }
    },
    {
      "type": "Feature",
      "geometry": {
        "type": "Point",
        "coordinates": [
          39.554771,
          39.3705549
        ]
      },
      "properties": {
        "id": 5661470024,
        "osm_type": "node",
        "name": "Çatköy",
        "tourism": "camp_site"
      }
    },
    {
      "type": "Feature",
      "geometry": {
        "type": "Point",
        "coordinates": [
          39.4754578,
          39.2212895
        ]
      },
      "properties": {
        "id": 6356718686,
        "osm_type": "node",
        "name": "peter",
        "tourism": "camp_site"
      }
    },
    {
      "type": "Feature",
      "geometry": {
        "type": "Point",
        "coordinates": [
          39.2822176,
          39.3669986
        ]
      },
      "properties": {
        "id": 6918671585,
        "osm_type": "node",
        "name": "Solhesen",
        "tourism": "camp_site"
      }
    },
    {
      "type": "Feature",
      "geometry": {
        "type": "Point",
        "coordinates": [
          39.5544761,
          39.3705874
        ]
      },
      "properties": {
        "id": 7193164585,
        "osm_type": "node",
        "name": "Çat",
        "tourism": "camp_site"
      }
    },
    {
      "type": "Feature",
      "geometry": {
        "type": "Point",
        "coordinates": [
          39.5417626,
          39.1027039
        ]
      },
      "properties": {
        "id": 7794180953,
        "osm_type": "node",
        "name": "Tunceli Polis evi",
        "tourism": "guest_house",
        "website": "https://www.polisevi.com/tunceli-polisevi/"
      }
    },
    {
      "type": "Feature",
      "geometry": {
        "type": "Point",
        "coordinates": [
          39.6049545,
          39.2744259
        ]
      },
      "properties": {
        "id": 9832295917,
        "osm_type": "node",
        "name": "susuz dağ",
        "tourism": "camp_site"
      }
    },
    {
      "type": "Feature",
      "geometry": {
        "type": "Point",
        "coordinates": [
          39.2151757,
          39.3568
        ]
      },
      "properties": {
        "id": 11938006769,
        "osm_type": "node",
        "name": "Çe Mile",
        "tourism": "guest_house"
      }
    },
    {
      "type": "Feature",
      "geometry": {
        "type": "Point",
        "coordinates": [
          39.8195252,
          39.3894838
        ]
      },
      "properties": {
        "id": 12143804906,
        "osm_type": "node",
        "tourism": "camp_site"
      }
    },
    {
      "type": "Feature",
      "geometry": {
        "type": "Point",
        "coordinates": [
          39.2747787,
          39.3508789
        ]
      },
      "properties": {
        "id": 12782224009,
        "osm_type": "node",
        "name": "El Baba",
        "tourism": "camp_site"
      }
    },
    {
      "type": "Feature",
      "geometry": {
        "type": "Point",
        "coordinates": [
          39.5487288,
          39.1071079
        ]
      },
      "properties": {
        "id": 13504588301,
        "osm_type": "node",
        "name": "Peri Otel",
        "tourism": "apartment"
      }
    },
    {
      "type": "Feature",
      "geometry": {
        "type": "Point",
        "coordinates": [
          39.2741381,
          39.3512465
        ]
      },
      "properties": {
        "id": 539490388,
        "osm_type": "way",
        "name": "El Baba",
        "tourism": "hotel"
      }
    },
    {
      "type": "Feature",
      "geometry": {
        "type": "Point",
        "coordinates": [
          39.5443995,
          39.1046627
        ]
      },
      "properties": {
        "id": 988202597,
        "osm_type": "way",
        "name": "Artukbey Camping Otel Tunceli",
        "tourism": "hotel",
        "phone": "+90 555 183 90 24"
      }
    },
    {
      "type": "Feature",
      "geometry": {
        "type": "Point",
        "coordinates": [
          39.5416313,
          39.1027524
        ]
      },
      "properties": {
        "id": 1049472414,
        "osm_type": "way",
        "tourism": "hotel"
      }
    }
  ]
}