{
  "type": "FeatureCollection",
  "features": [
    {
      "type": "Feature",
      "geometry": {
        "type": "Point",
        "coordinates": [
          23.7716105,
          61.4979285
        ]
      },
      "properties": {
        "id": 139812404,
        "osm_type": "node",
        "name": "Scandic Tampere City",
        "tourism": "hotel",
        "phone": "+358 3 2446111",
        "website": "https://www.scandichotels.com/fi/hotellit/scandic-tampere-city"
      }
    },
    {
      "type": "Feature",
      "geometry": {
        "type": "Point",
        "coordinates": [
          23.7794351,
          61.4977487
        ]
      },
      "properties": {
        "id": 269690130,
        "osm_type": "node",
        "name": "Lapland Hotels Tampere",
        "tourism": "hotel",
        "phone": "+358033830000",
        "website": "https://www.laplandhotels.com/FI/kaupunkihotellit/tampere/lapland-hotels-tampere.html"
      }
    },
    {
      "type": "Feature",
      "geometry": {
        "type": "Point",
        "coordinates": [
          24.0741564,
          61.9839011
        ]
      },
      "properties": {
        "id": 279628996,
        "osm_type": "node",
        "name": "Hotelli Ruovesi",
        "tourism": "hotel",
        "phone": "+358 3 476 2273"
      }
    },
    {
      "type": "Feature",
      "geometry": {
        "type": "Point",
        "coordinates": [
          23.0205198,
          61.7763755
        ]
      },
      "properties": {
        "id": 354797668,
        "osm_type": "node",
        "name": "Ikaalinen Spa & Resort",
        "tourism": "hotel",
        "phone": "+358 3 4511",
        "contact:phone": "+358 3 4511",
        "website": "https://ikaalinenspa.fi/",
        "contact:website": "https://ikaalinenspa.fi/",
        "check_date": "2026-04-04"
      }
    },
    {
      "type": "Feature",
      "geometry": {
        "type": "Point",
        "coordinates": [
          23.0540482,
          61.7711697
        ]
      },
      "properties": {
        "id": 420394933,
        "osm_type": "node",
        "name": "Hotelli Ikahani",
        "tourism": "hotel",
        "website": "https://ikahani.fi/"
      }
    },
    {
      "type": "Feature",
      "geometry": {
        "type": "Point",
        "coordinates": [
          23.7309969,
          61.4931699
        ]
      },
      "properties": {
        "id": 443713756,
        "osm_type": "node",
        "name": "Scandic Rosendahl",
        "tourism": "hotel",
        "website": "https://www.scandichotels.fi/hotellit/suomi/tampere/scandic-rosendahl"
      }
    },
    {
      "type": "Feature",
      "geometry": {
        "type": "Point",
        "coordinates": [
          23.7684863,
          61.5021809
        ]
      },
      "properties": {
        "id": 455947626,
        "osm_type": "node",
        "name": "Hostel Sofia",
        "tourism": "hostel",
        "phone": "+358 3 254 4020"
      }
    },
    {
      "type": "Feature",
      "geometry": {
        "type": "Point",
        "coordinates": [
          23.3957851,
          61.9219146
        ]
      },
      "properties": {
        "id": 523614505,
        "osm_type": "node",
        "name": "Haukilammen telttailualue",
        "tourism": "camp_site"
      }
    },
    {
      "type": "Feature",
      "geometry": {
        "type": "Point",
        "coordinates": [
          24.1149286,
          61.5963522
        ]
      },
      "properties": {
        "id": 534951613,
        "osm_type": "node",
        "name": "Norojärven laavu",
        "tourism": "camp_site",
        "tents": "no"
      }
    },
    {
      "type": "Feature",
      "geometry": {
        "type": "Point",
        "coordinates": [
          25.0199012,
          61.6849447
        ]
      },
      "properties": {
        "id": 550710029,
        "osm_type": "node",
        "tourism": "camp_site"
      }
    },
    {
      "type": "Feature",
      "geometry": {
        "type": "Point",
        "coordinates": [
          23.7541354,
          61.4931524
        ]
      },
      "properties": {
        "id": 570087985,
        "osm_type": "node",
        "name": "Scandic Hämeenpuisto",
        "tourism": "hotel",
        "phone": "+358 3 4108 1628",
        "website": "https://www.scandichotels.fi/hotellit/suomi/tampere/scandic-tampere-hameenpuisto"
      }
    },
    {
      "type": "Feature",
      "geometry": {
        "type": "Point",
        "coordinates": [
          22.9087365,
          61.3421105
        ]
      },
      "properties": {
        "id": 818572767,
        "osm_type": "node",
        "name": "Vammalan seurahuone",
        "tourism": "hotel",
        "contact:website": "http://www.vammalanseurahuone.fi"
      }
    },
    {
      "type": "Feature",
      "geometry": {
        "type": "Point",
        "coordinates": [
          23.6677354,
          62.1569589
        ]
      },
      "properties": {
        "id": 823464326,
        "osm_type": "node",
        "name": "Matkailumaatila Haapamäki",
        "tourism": "chalet",
        "website": "https://www.matkailutilahaapamaki.com/"
      }
    },
    {
      "type": "Feature",
      "geometry": {
        "type": "Point",
        "coordinates": [
          23.5266579,
          61.1133585
        ]
      },
      "properties": {
        "id": 823578677,
        "osm_type": "node",
        "name": "Metsälinnan Kartano",
        "tourism": "guest_house",
        "website": "https://metsalinnankartano.fi/"
      }
    },
    {
      "type": "Feature",
      "geometry": {
        "type": "Point",
        "coordinates": [
          23.7817329,
          62.0228186
        ]
      },
      "properties": {
        "id": 844947658,
        "osm_type": "node",
        "tourism": "camp_site"
      }
    },
    {
      "type": "Feature",
      "geometry": {
        "type": "Point",
        "coordinates": [
          23.6765276,
          61.509084
        ]
      },
      "properties": {
        "id": 845677288,
        "osm_type": "node",
        "name": "Hotelli Haapalinna",
        "tourism": "hotel"
      }
    },
    {
      "type": "Feature",
      "geometry": {
        "type": "Point",
        "coordinates": [
          23.7544156,
          61.4974131
        ]
      },
      "properties": {
        "id": 894849824,
        "osm_type": "node",
        "name": "Forenom Koski",
        "tourism": "chalet",
        "website": "https://www.forenom.com/fi/"
      }
    },
    {
      "type": "Feature",
      "geometry": {
        "type": "Point",
        "coordinates": [
          22.921355,
          61.3488934
        ]
      },
      "properties": {
        "id": 980288241,
        "osm_type": "node",
        "name": "Tervakallio",
        "tourism": "camp_site",
        "tents": "yes",
        "phone": "+358 3 5142 720",
        "website": "https://tervakallio.com"
      }
    },
    {
      "type": "Feature",
      "geometry": {
        "type": "Point",
        "coordinates": [
          24.0388194,
          61.2709656
        ]
      },
      "properties": {
        "id": 998535074,
        "osm_type": "node",
        "name": "Hotelli Waltikka",
        "tourism": "hotel",
        "website": "https://www.waltikka.fi/"
      }
    },
    {
      "type": "Feature",
      "geometry": {
        "type": "Point",
        "coordinates": [
          23.5117142,
          61.4785178
        ]
      },
      "properties": {
        "id": 1033289273,
        "osm_type": "node",
        "name": "Hotelli Iisoppi",
        "tourism": "hotel"
      }
    },
    {
      "type": "Feature",
      "geometry": {
        "type": "Point",
        "coordinates": [
          24.6216954,
          62.0287326
        ]
      },
      "properties": {
        "id": 1228256938,
        "osm_type": "node",
        "name": "Hotelli Alexander",
        "tourism": "hotel",
        "website": "https://www.hotellialexander.fi/"
      }
    },
    {
      "type": "Feature",
      "geometry": {
        "type": "Point",
        "coordinates": [
          23.5302493,
          61.0780988
        ]
      },
      "properties": {
        "id": 1277429913,
        "osm_type": "node",
        "name": "Motelli Pentinkulma",
        "tourism": "motel"
      }
    },
    {
      "type": "Feature",
      "geometry": {
        "type": "Point",
        "coordinates": [
          24.3395165,
          61.6284065
        ]
      },
      "properties": {
        "id": 1329842217,
        "osm_type": "node",
        "name": "Säynäniemen leirintä",
        "tourism": "camp_site"
      }
    },
    {
      "type": "Feature",
      "geometry": {
        "type": "Point",
        "coordinates": [
          23.7689237,
          61.4977788
        ]
      },
      "properties": {
        "id": 1416629194,
        "osm_type": "node",
        "name": "Omena-hotelli Tampere",
        "tourism": "hotel",
        "website": "https://www.omenahotels.com/fi/hotellit/tampere/",
        "check_date": "2026-03-07"
      }
    },
    {
      "type": "Feature",
      "geometry": {
        "type": "Point",
        "coordinates": [
          23.7385315,
          61.1931269
        ]
      },
      "properties": {
        "id": 1590112389,
        "osm_type": "node",
        "name": "Pumppari Camping",
        "tourism": "caravan_site"
      }
    },
    {
      "type": "Feature",
      "geometry": {
        "type": "Point",
        "coordinates": [
          24.256132,
          61.3479605
        ]
      },
      "properties": {
        "id": 1597749096,
        "osm_type": "node",
        "name": "Aapiskukko",
        "tourism": "hotel"
      }
    },
    {
      "type": "Feature",
      "geometry": {
        "type": "Point",
        "coordinates": [
          24.3132216,
          61.870824
        ]
      },
      "properties": {
        "id": 1602061647,
        "osm_type": "node",
        "name": "Mäkelän Lomatuvat",
        "tourism": "guest_house",
        "website": "www.makelanlomatuvat.fi"
      }
    },
    {
      "type": "Feature",
      "geometry": {
        "type": "Point",
        "coordinates": [
          23.7668514,
          61.210771
        ]
      },
      "properties": {
        "id": 1661112565,
        "osm_type": "node",
        "name": "Hotelli Seurahuone",
        "tourism": "hotel"
      }
    },
    {
      "type": "Feature",
      "geometry": {
        "type": "Point",
        "coordinates": [
          23.1611958,
          61.6202545
        ]
      },
      "properties": {
        "id": 1854479774,
        "osm_type": "node",
        "name": "Frantsila Hyvän olon keskus",
        "tourism": "hostel"
      }
    },
    {
      "type": "Feature",
      "geometry": {
        "type": "Point",
        "coordinates": [
          23.0256599,
          61.7738736
        ]
      },
      "properties": {
        "id": 2172144599,
        "osm_type": "node",
        "tourism": "caravan_site"
      }
    },
    {
      "type": "Feature",
      "geometry": {
        "type": "Point",
        "coordinates": [
          23.0486486,
          61.7888796
        ]
      },
      "properties": {
        "id": 2172164020,
        "osm_type": "node",
        "name": "Kauppilan maatilamatkailu",
        "tourism": "guest_house"
      }
    },
    {
      "type": "Feature",
      "geometry": {
        "type": "Point",
        "coordinates": [
          23.8934952,
          61.9923698
        ]
      },
      "properties": {
        "id": 2312895980,
        "osm_type": "node",
        "name": "Ruokejärvet",
        "tourism": "camp_site"
      }
    },
    {
      "type": "Feature",
      "geometry": {
        "type": "Point",
        "coordinates": [
          24.3330795,
          61.4522082
        ]
      },
      "properties": {
        "id": 2320492374,
        "osm_type": "node",
        "name": "B&B Ranta-Hölli",
        "tourism": "guest_house",
        "phone": "+358 3 3764 574"
      }
    },
    {
      "type": "Feature",
      "geometry": {
        "type": "Point",
        "coordinates": [
          23.7658685,
          61.4990287
        ]
      },
      "properties": {
        "id": 2377058513,
        "osm_type": "node",
        "name": "Scandic Tampere Koskipuisto",
        "tourism": "hotel",
        "phone": "+358 3 4108 1626",
        "website": "https://www.scandichotels.fi/hotellit/suomi/tampere/scandic-tampere-koskipuisto"
      }
    },
    {
      "type": "Feature",
      "geometry": {
        "type": "Point",
        "coordinates": [
          23.4341692,
          61.0440201
        ]
      },
      "properties": {
        "id": 2403295816,
        "osm_type": "node",
        "name": "Kylähotelli 1793",
        "tourism": "hotel",
        "phone": "+358 (0)40 503 0410",
        "website": "https://nuutajarvenpruuki.fi/kylahotelli-1793"
      }
    },
    {
      "type": "Feature",
      "geometry": {
        "type": "Point",
        "coordinates": [
          23.8633436,
          61.1686734
        ]
      },
      "properties": {
        "id": 3276973365,
        "osm_type": "node",
        "name": "Hotel Ackas",
        "tourism": "hotel"
      }
    },
    {
      "type": "Feature",
      "geometry": {
        "type": "Point",
        "coordinates": [
          23.7767232,
          61.4966844
        ]
      },
      "properties": {
        "id": 3677731311,
        "osm_type": "node",
        "name": "Original Sokos Hotel Villa",
        "tourism": "hotel",
        "phone": "+358201234633",
        "website": "https://www.sokoshotels.fi/fi/tampere/sokos-hotel-villa"
      }
    },
    {
      "type": "Feature",
      "geometry": {
        "type": "Point",
        "coordinates": [
          23.7726102,
          61.499781
        ]
      },
      "properties": {
        "id": 3699583411,
        "osm_type": "node",
        "name": "Scandic Postitalo",
        "tourism": "hotel",
        "phone": "+358300308486",
        "website": "https://www.scandichotels.com/fi/hotellit/scandic-postitalo"
      }
    },
    {
      "type": "Feature",
      "geometry": {
        "type": "Point",
        "coordinates": [
          23.7792796,
          61.4961361
        ]
      },
      "properties": {
        "id": 4796258922,
        "osm_type": "node",
        "name": "Dream Hostel",
        "tourism": "hostel",
        "phone": "+358 45 2360517",
        "website": "https://www.dreamhostel.fi/"
      }
    },
    {
      "type": "Feature",
      "geometry": {
        "type": "Point",
        "coordinates": [
          23.9070458,
          61.8555037
        ]
      },
      "properties": {
        "id": 5013678732,
        "osm_type": "node",
        "tourism": "chalet"
      }
    },
    {
      "type": "Feature",
      "geometry": {
        "type": "Point",
        "coordinates": [
          23.8139801,
          61.7033556
        ]
      },
      "properties": {
        "id": 5069090522,
        "osm_type": "node",
        "tourism": "chalet"
      }
    },
    {
      "type": "Feature",
      "geometry": {
        "type": "Point",
        "coordinates": [
          22.9707476,
          61.2125066
        ]
      },
      "properties": {
        "id": 5094780122,
        "osm_type": "node",
        "name": "Jonna/jari",
        "tourism": "motel"
      }
    },
    {
      "type": "Feature",
      "geometry": {
        "type": "Point",
        "coordinates": [
          24.9665662,
          61.713869
        ]
      },
      "properties": {
        "id": 5247285325,
        "osm_type": "node",
        "name": "Kalalahti telttailualue",
        "tourism": "camp_site"
      }
    },
    {
      "type": "Feature",
      "geometry": {
        "type": "Point",
        "coordinates": [
          24.9700844,
          61.7200165
        ]
      },
      "properties": {
        "id": 5247285430,
        "osm_type": "node",
        "name": "Renusaari telttailualue",
        "tourism": "camp_site"
      }
    },
    {
      "type": "Feature",
      "geometry": {
        "type": "Point",
        "coordinates": [
          25.0106021,
          61.7014742
        ]
      },
      "properties": {
        "id": 5247285664,
        "osm_type": "node",
        "name": "Vahterjärvi telttailupaikka",
        "tourism": "camp_site"
      }
    },
    {
      "type": "Feature",
      "geometry": {
        "type": "Point",
        "coordinates": [
          24.0692069,
          61.9862673
        ]
      },
      "properties": {
        "id": 5586262141,
        "osm_type": "node",
        "name": "Hotelli Liera & Hostelli Lieran Sellit",
        "tourism": "hotel"
      }
    },
    {
      "type": "Feature",
      "geometry": {
        "type": "Point",
        "coordinates": [
          23.4758135,
          61.9298253
        ]
      },
      "properties": {
        "id": 5821548708,
        "osm_type": "node",
        "tourism": "camp_site"
      }
    },
    {
      "type": "Feature",
      "geometry": {
        "type": "Point",
        "coordinates": [
          23.5927346,
          61.1765366
        ]
      },
      "properties": {
        "id": 6208610293,
        "osm_type": "node",
        "name": "Savikoski Caravan",
        "tourism": "caravan_site"
      }
    },
    {
      "type": "Feature",
      "geometry": {
        "type": "Point",
        "coordinates": [
          23.7387899,
          61.4719837
        ]
      },
      "properties": {
        "id": 6581307145,
        "osm_type": "node",
        "name": "Tampere Camping Härmälä",
        "tourism": "caravan_site",
        "website": "https://www.suomicamping.fi/harmala"
      }
    },
    {
      "type": "Feature",
      "geometry": {
        "type": "Point",
        "coordinates": [
          24.1167579,
          61.3598817
        ]
      },
      "properties": {
        "id": 6964252587,
        "osm_type": "node",
        "name": "Villa Elegante",
        "tourism": "chalet",
        "website": "https://uotilaloma.fi/"
      }
    },
    {
      "type": "Feature",
      "geometry": {
        "type": "Point",
        "coordinates": [
          24.1156796,
          61.3604242
        ]
      },
      "properties": {
        "id": 6964252588,
        "osm_type": "node",
        "name": "Villa Grande",
        "tourism": "chalet",
        "website": "https://uotilaloma.fi/"
      }
    },
    {
      "type": "Feature",
      "geometry": {
        "type": "Point",
        "coordinates": [
          24.6445725,
          62.0276447
        ]
      },
      "properties": {
        "id": 7795518067,
        "osm_type": "node",
        "name": "Mäntän Klubi",
        "tourism": "hotel",
        "phone": "+358 3 474 5900",
        "website": "https://www.klubin.fi/fi/mantan-klubi"
      }
    },
    {
      "type": "Feature",
      "geometry": {
        "type": "Point",
        "coordinates": [
          24.6136693,
          62.026286
        ]
      },
      "properties": {
        "id": 7797361267,
        "osm_type": "node",
        "name": "Art Hotel Honkahovi",
        "tourism": "hotel"
      }
    },
    {
      "type": "Feature",
      "geometry": {
        "type": "Point",
        "coordinates": [
          23.7447842,
          61.4980867
        ]
      },
      "properties": {
        "id": 8014482967,
        "osm_type": "node",
        "name": "Forenom Serviced Apartments Tampere Pyynikki",
        "tourism": "hotel",
        "website": "https://www.forenom.com/fi/"
      }
    },
    {
      "type": "Feature",
      "geometry": {
        "type": "Point",
        "coordinates": [
          23.6738072,
          61.5728455
        ]
      },
      "properties": {
        "id": 8062705315,
        "osm_type": "node",
        "name": "Valkeekiven leirikeskus",
        "tourism": "camp_site"
      }
    },
    {
      "type": "Feature",
      "geometry": {
        "type": "Point",
        "coordinates": [
          22.9085779,
          61.3407624
        ]
      },
      "properties": {
        "id": 8368121678,
        "osm_type": "node",
        "name": "Putiikkihotelli Pyynpesä",
        "tourism": "hotel",
        "website": "https://www.pyynpesa.fi/putiikkihotelli-pyynpesa/"
      }
    },
    {
      "type": "Feature",
      "geometry": {
        "type": "Point",
        "coordinates": [
          23.7003857,
          61.5412294
        ]
      },
      "properties": {
        "id": 8691525766,
        "osm_type": "node",
        "name": "Torpan kurssikeskus",
        "tourism": "camp_site"
      }
    },
    {
      "type": "Feature",
      "geometry": {
        "type": "Point",
        "coordinates": [
          23.7759863,
          61.4985707
        ]
      },
      "properties": {
        "id": 8836691902,
        "osm_type": "node",
        "name": "Hotel Citi Inn",
        "tourism": "hotel",
        "phone": "+35810662114",
        "website": "https://citiinn.fi/",
        "check_date": "2024-12-29"
      }
    },
    {
      "type": "Feature",
      "geometry": {
        "type": "Point",
        "coordinates": [
          23.7747609,
          61.4937023
        ]
      },
      "properties": {
        "id": 9323667560,
        "osm_type": "node",
        "name": "Lapland Hotels Arena",
        "tourism": "hotel",
        "phone": "+358 3 383 0500",
        "website": "https://www.laplandhotels.com/fi/hotellit-ja-kohteet/tampere/lapland-hotels-arena"
      }
    },
    {
      "type": "Feature",
      "geometry": {
        "type": "Point",
        "coordinates": [
          23.9017679,
          61.1906441
        ]
      },
      "properties": {
        "id": 9695613897,
        "osm_type": "node",
        "name": "BestPark Akaa Toijalan Satama",
        "tourism": "caravan_site",
        "tents": "yes",
        "website": "https://www.bestpark.com/fi/park/toijala-marina-akaa/"
      }
    },
    {
      "type": "Feature",
      "geometry": {
        "type": "Point",
        "coordinates": [
          23.0184403,
          61.7760824
        ]
      },
      "properties": {
        "id": 9695615069,
        "osm_type": "node",
        "name": "BestPark Ikaalinen Spa",
        "tourism": "caravan_site",
        "tents": "no",
        "website": "https://www.bestpark.com/fi/park/ikaalinen/"
      }
    },
    {
      "type": "Feature",
      "geometry": {
        "type": "Point",
        "coordinates": [
          24.5943944,
          61.9944328
        ]
      },
      "properties": {
        "id": 9701051629,
        "osm_type": "node",
        "name": "Rapukartano",
        "tourism": "hotel",
        "phone": "+358 44 592 9429",
        "website": "https://www.rapukartano.fi/"
      }
    },
    {
      "type": "Feature",
      "geometry": {
        "type": "Point",
        "coordinates": [
          23.837868,
          61.8148446
        ]
      },
      "properties": {
        "id": 9713919011,
        "osm_type": "node",
        "name": "Niemi-Kapeen tila",
        "tourism": "chalet",
        "phone": "+358 46 591 3298",
        "website": "https://www.niemikapee.fi/"
      }
    },
    {
      "type": "Feature",
      "geometry": {
        "type": "Point",
        "coordinates": [
          23.799017,
          61.702465
        ]
      },
      "properties": {
        "id": 9726628655,
        "osm_type": "node",
        "name": "Kokoushotelli Murikanranta",
        "tourism": "hotel",
        "phone": "+358207613730",
        "website": "https://murikanranta.fi/"
      }
    },
    {
      "type": "Feature",
      "geometry": {
        "type": "Point",
        "coordinates": [
          24.6147795,
          61.6459644
        ]
      },
      "properties": {
        "id": 10242046244,
        "osm_type": "node",
        "name": "Lomakylä Solaniemi",
        "tourism": "chalet"
      }
    },
    {
      "type": "Feature",
      "geometry": {
        "type": "Point",
        "coordinates": [
          24.6168638,
          61.6472822
        ]
      },
      "properties": {
        "id": 10242046303,
        "osm_type": "node",
        "name": "AaltoSaha Kokous- ja Juhlahuvila",
        "tourism": "hotel"
      }
    },
    {
      "type": "Feature",
      "geometry": {
        "type": "Point",
        "coordinates": [
          23.7626861,
          61.4838196
        ]
      },
      "properties": {
        "id": 10738612798,
        "osm_type": "node",
        "name": "Hotelli Ville",
        "tourism": "hotel",
        "phone": "+358445002088",
        "website": "https://www.hotelliville.fi/"
      }
    },
    {
      "type": "Feature",
      "geometry": {
        "type": "Point",
        "coordinates": [
          24.0717476,
          61.4607153
        ]
      },
      "properties": {
        "id": 11159111130,
        "osm_type": "node",
        "name": "Hotelli Kuohu",
        "tourism": "hotel",
        "phone": "+358 10 2007 300",
        "website": "https://hotellikuohu.fi/"
      }
    },
    {
      "type": "Feature",
      "geometry": {
        "type": "Point",
        "coordinates": [
          23.6459716,
          61.3414058
        ]
      },
      "properties": {
        "id": 11163088708,
        "osm_type": "node",
        "tourism": "caravan_site"
      }
    },
    {
      "type": "Feature",
      "geometry": {
        "type": "Point",
        "coordinates": [
          24.217102,
          61.4999283
        ]
      },
      "properties": {
        "id": 11734275590,
        "osm_type": "node",
        "name": "Lake escape destination",
        "tourism": "camp_site",
        "tents": "yes"
      }
    },
    {
      "type": "Feature",
      "geometry": {
        "type": "Point",
        "coordinates": [
          25.1890384,
          61.5639726
        ]
      },
      "properties": {
        "id": 11919530530,
        "osm_type": "node",
        "name": "Kuhmoisten Matkaparkki",
        "tourism": "camp_site"
      }
    },
    {
      "type": "Feature",
      "geometry": {
        "type": "Point",
        "coordinates": [
          23.8940256,
          61.3630818
        ]
      },
      "properties": {
        "id": 11964352942,
        "osm_type": "node",
        "name": "Tervajärven leirikeskus",
        "tourism": "camp_site"
      }
    },
    {
      "type": "Feature",
      "geometry": {
        "type": "Point",
        "coordinates": [
          23.4383406,
          61.0488285
        ]
      },
      "properties": {
        "id": 12042466402,
        "osm_type": "node",
        "name": "Jaskan Mökit",
        "tourism": "camp_site"
      }
    },
    {
      "type": "Feature",
      "geometry": {
        "type": "Point",
        "coordinates": [
          23.7344247,
          61.4984349
        ]
      },
      "properties": {
        "id": 12184505922,
        "osm_type": "node",
        "name": "Tredun Helmi",
        "tourism": "hostel",
        "phone": "03 5656 7700",
        "website": "https://kauppa.tredu.fi/tuote-osasto/hostel-tredun-helmi/"
      }
    },
    {
      "type": "Feature",
      "geometry": {
        "type": "Point",
        "coordinates": [
          23.7690363,
          62.241516
        ]
      },
      "properties": {
        "id": 12242056989,
        "osm_type": "node",
        "name": "Hotelli Tarjanne",
        "tourism": "hotel",
        "phone": "0414610165",
        "website": "https://www.hotellitarjanne.fi/"
      }
    },
    {
      "type": "Feature",
      "geometry": {
        "type": "Point",
        "coordinates": [
          23.8139107,
          61.6597403
        ]
      },
      "properties": {
        "id": 12532241385,
        "osm_type": "node",
        "name": "Toijalan tila",
        "tourism": "chalet",
        "website": "https://www.toijala.net/fi"
      }
    },
    {
      "type": "Feature",
      "geometry": {
        "type": "Point",
        "coordinates": [
          23.0274131,
          61.7738191
        ]
      },
      "properties": {
        "id": 13697902209,
        "osm_type": "node",
        "name": "Hotelli Terme",
        "tourism": "hotel",
        "website": "https://jplomat.fi/hotelli-terme"
      }
    },
    {
      "type": "Feature",
      "geometry": {
        "type": "Point",
        "coordinates": [
          23.0255064,
          61.7751992
        ]
      },
      "properties": {
        "id": 13697902210,
        "osm_type": "node",
        "name": "Kylpylä-Hotelli",
        "tourism": "hotel",
        "website": "https://jplomat.fi/kylpyla-hotelli"
      }
    },
    {
      "type": "Feature",
      "geometry": {
        "type": "Point",
        "coordinates": [
          23.4430306,
          61.9172241
        ]
      },
      "properties": {
        "id": 13698101499,
        "osm_type": "node",
        "name": "Jokiristi",
        "tourism": "camp_site"
      }
    },
    {
      "type": "Feature",
      "geometry": {
        "type": "Point",
        "coordinates": [
          23.7981251,
          61.2395043
        ]
      },
      "properties": {
        "id": 13725498583,
        "osm_type": "node",
        "name": "Mantereen tila",
        "tourism": "guest_house"
      }
    },
    {
      "type": "Feature",
      "geometry": {
        "type": "Point",
        "coordinates": [
          23.8554427,
          61.4443445
        ]
      },
      "properties": {
        "id": 78336942,
        "osm_type": "way",
        "name": "Hotel Hermica",
        "tourism": "hotel",
        "phone": "+358 3 365 1111",
        "website": "https://hermica.fi/"
      }
    },
    {
      "type": "Feature",
      "geometry": {
        "type": "Point",
        "coordinates": [
          23.5304309,
          61.467781
        ]
      },
      "properties": {
        "id": 87754458,
        "osm_type": "way",
        "name": "Kylpylähotelli Scandic Eden Nokia",
        "tourism": "hotel",
        "phone": "+35832801111"
      }
    },
    {
      "type": "Feature",
      "geometry": {
        "type": "Point",
        "coordinates": [
          23.7649903,
          61.5009522
        ]
      },
      "properties": {
        "id": 87888862,
        "osm_type": "way",
        "name": "Radisson Blu Grand Hotel Tammer",
        "tourism": "hotel",
        "phone": "+358 20 1234 632",
        "website": "https://www.radissonhotels.com/fi-fi/hotellit/radisson-blu-tampere-grand-tammer"
      }
    },
    {
      "type": "Feature",
      "geometry": {
        "type": "Point",
        "coordinates": [
          23.7450327,
          61.498091
        ]
      },
      "properties": {
        "id": 93350138,
        "osm_type": "way",
        "name": "Tampere Suites",
        "tourism": "chalet",
        "website": "http://www.yit.fi/yit_fi/loma-asunnot/ea/kartta/Tampere-Suites"
      }
    },
    {
      "type": "Feature",
      "geometry": {
        "type": "Point",
        "coordinates": [
          23.738744,
          61.4726683
        ]
      },
      "properties": {
        "id": 96706277,
        "osm_type": "way",
        "name": "Härmälän leirintäalue",
        "tourism": "camp_site"
      }
    },
    {
      "type": "Feature",
      "geometry": {
        "type": "Point",
        "coordinates": [
          23.7386005,
          61.4720231
        ]
      },
      "properties": {
        "id": 96725547,
        "osm_type": "way",
        "name": "Harmala",
        "tourism": "camp_site",
        "phone": "+358207199777",
        "website": "https://harmalacamping.fi/"
      }
    },
    {
      "type": "Feature",
      "geometry": {
        "type": "Point",
        "coordinates": [
          23.7857328,
          61.5057307
        ]
      },
      "properties": {
        "id": 100180891,
        "osm_type": "way",
        "name": "Hotelli Kauppi",
        "tourism": "hotel",
        "phone": "+35832535353",
        "website": "https://hotellikauppi.fi/"
      }
    },
    {
      "type": "Feature",
      "geometry": {
        "type": "Point",
        "coordinates": [
          23.6316054,
          61.5231086
        ]
      },
      "properties": {
        "id": 129829747,
        "osm_type": "way",
        "name": "Hotelli Lamminpää",
        "tourism": "hotel",
        "phone": "+358 3 345 3336",
        "website": "https://hotellilamminpaa.net/"
      }
    },
    {
      "type": "Feature",
      "geometry": {
        "type": "Point",
        "coordinates": [
          23.7944032,
          61.3576698
        ]
      },
      "properties": {
        "id": 145909399,
        "osm_type": "way",
        "name": "BestPark Ideapark Lempäälä",
        "tourism": "caravan_site",
        "website": "https://www.bestpark.com/fi/park/lempaala-ideapark/"
      }
    },
    {
      "type": "Feature",
      "geometry": {
        "type": "Point",
        "coordinates": [
          23.8160518,
          61.5071294
        ]
      },
      "properties": {
        "id": 147537879,
        "osm_type": "way",
        "name": "Norlandia Care (Potilashotelli)",
        "tourism": "hotel",
        "phone": "+358-50-384-4400",
        "website": "https://norlandia.no/fi/hotel/tampere"
      }
    },
    {
      "type": "Feature",
      "geometry": {
        "type": "Point",
        "coordinates": [
          24.5017694,
          61.3874397
        ]
      },
      "properties": {
        "id": 147857101,
        "osm_type": "way",
        "name": "Sappee Caravan",
        "tourism": "caravan_site"
      }
    },
    {
      "type": "Feature",
      "geometry": {
        "type": "Point",
        "coordinates": [
          24.5064231,
          61.3881417
        ]
      },
      "properties": {
        "id": 147857102,
        "osm_type": "way",
        "name": "Sappee Chalets",
        "tourism": "hotel",
        "contact:phone": "+358207559975",
        "contact:website": "https://www.sappee.fi/sappee-chalets-huoneistohotelli/"
      }
    },
    {
      "type": "Feature",
      "geometry": {
        "type": "Point",
        "coordinates": [
          23.782174,
          62.2494468
        ]
      },
      "properties": {
        "id": 154284663,
        "osm_type": "way",
        "name": "Kitusen Kievari",
        "tourism": "motel"
      }
    },
    {
      "type": "Feature",
      "geometry": {
        "type": "Point",
        "coordinates": [
          23.7856067,
          61.4858985
        ]
      },
      "properties": {
        "id": 161254685,
        "osm_type": "way",
        "name": "Lillan Hotel",
        "tourism": "hotel",
        "website": "https://www.lillan.fi/"
      }
    },
    {
      "type": "Feature",
      "geometry": {
        "type": "Point",
        "coordinates": [
          23.0475446,
          61.4053145
        ]
      },
      "properties": {
        "id": 209246721,
        "osm_type": "way",
        "name": "Hotelli Ellivuori",
        "tourism": "hotel",
        "website": "https://www.ellivuoriresort.fi/"
      }
    },
    {
      "type": "Feature",
      "geometry": {
        "type": "Point",
        "coordinates": [
          23.5823178,
          61.6400448
        ]
      },
      "properties": {
        "id": 220923288,
        "osm_type": "way",
        "name": "Peltomäen retkeilyalue",
        "tourism": "caravan_site"
      }
    },
    {
      "type": "Feature",
      "geometry": {
        "type": "Point",
        "coordinates": [
          23.8405689,
          61.535847
        ]
      },
      "properties": {
        "id": 233522836,
        "osm_type": "way",
        "name": "Aito toimintakeskus",
        "tourism": "apartment",
        "phone": "040 804 8008",
        "website": "https://tampereenseurakunnat.fi/kirkko_tampereella/kirkot_ja_muut_tilat/leiri-_ja_kurssikeskukset?place_id__31186=427"
      }
    },
    {
      "type": "Feature",
      "geometry": {
        "type": "Point",
        "coordinates": [
          23.7758981,
          61.4968954
        ]
      },
      "properties": {
        "id": 243040584,
        "osm_type": "way",
        "name": "Solo Sokos Hotel Torni Tampere",
        "tourism": "hotel",
        "phone": "+358201234634",
        "website": "https://www.sokoshotels.fi/fi/tampere/solo-sokos-hotel-torni-tampere",
        "check_date": "2025-04-26"
      }
    },
    {
      "type": "Feature",
      "geometry": {
        "type": "Point",
        "coordinates": [
          23.6976147,
          62.3305548
        ]
      },
      "properties": {
        "id": 255809068,
        "osm_type": "way",
        "tourism": "guest_house"
      }
    },
    {
      "type": "Feature",
      "geometry": {
        "type": "Point",
        "coordinates": [
          23.6987947,
          62.3298231
        ]
      },
      "properties": {
        "id": 255809080,
        "osm_type": "way",
        "tourism": "guest_house"
      }
    },
    {
      "type": "Feature",
      "geometry": {
        "type": "Point",
        "coordinates": [
          23.76657,
          61.4962495
        ]
      },
      "properties": {
        "id": 264962424,
        "osm_type": "way",
        "name": "Sokos Hotel Ilves",
        "tourism": "hotel",
        "phone": "+358201234631",
        "website": "https://www.sokoshotels.fi/fi/tampere/sokos-hotel-ilves/",
        "check_date": "2022-05-23"
      }
    },
    {
      "type": "Feature",
      "geometry": {
        "type": "Point",
        "coordinates": [
          23.8242977,
          61.6985864
        ]
      },
      "properties": {
        "id": 292324789,
        "osm_type": "way",
        "tourism": "caravan_site",
        "phone": "+358504123123",
        "website": "https://sfcpirkanmaa.fi/omat-alueet/maisansalo/"
      }
    },
    {
      "type": "Feature",
      "geometry": {
        "type": "Point",
        "coordinates": [
          23.8023186,
          62.0301989
        ]
      },
      "properties": {
        "id": 360036787,
        "osm_type": "way",
        "name": "Haukanhieta",
        "tourism": "camp_site"
      }
    },
    {
      "type": "Feature",
      "geometry": {
        "type": "Point",
        "coordinates": [
          23.8212132,
          62.0439428
        ]
      },
      "properties": {
        "id": 360052704,
        "osm_type": "way",
        "name": "Iso Ruokejärvi",
        "tourism": "camp_site"
      }
    },
    {
      "type": "Feature",
      "geometry": {
        "type": "Point",
        "coordinates": [
          23.8827773,
          62.0411776
        ]
      },
      "properties": {
        "id": 360053074,
        "osm_type": "way",
        "name": "Luomajärvi",
        "tourism": "camp_site"
      }
    },
    {
      "type": "Feature",
      "geometry": {
        "type": "Point",
        "coordinates": [
          23.7753933,
          61.4993101
        ]
      },
      "properties": {
        "id": 407503927,
        "osm_type": "way",
        "name": "Scandic Tampere Station",
        "tourism": "hotel",
        "phone": "+358 3 3398000",
        "website": "https://www.scandichotels.fi/hotellit/suomi/tampere/scandic-tampere-station"
      }
    },
    {
      "type": "Feature",
      "geometry": {
        "type": "Point",
        "coordinates": [
          23.4482801,
          61.4959489
        ]
      },
      "properties": {
        "id": 458922725,
        "osm_type": "way",
        "tourism": "chalet"
      }
    },
    {
      "type": "Feature",
      "geometry": {
        "type": "Point",
        "coordinates": [
          24.0722222,
          61.9938372
        ]
      },
      "properties": {
        "id": 525227832,
        "osm_type": "way",
        "name": "Haapasaaren leirintäalue",
        "tourism": "camp_site",
        "phone": "+358 44-0800290",
        "website": "https://haapasaari.fi"
      }
    },
    {
      "type": "Feature",
      "geometry": {
        "type": "Point",
        "coordinates": [
          23.8967258,
          61.3067906
        ]
      },
      "properties": {
        "id": 533169328,
        "osm_type": "way",
        "tourism": "chalet"
      }
    },
    {
      "type": "Feature",
      "geometry": {
        "type": "Point",
        "coordinates": [
          23.4067733,
          61.0729672
        ]
      },
      "properties": {
        "id": 575920767,
        "osm_type": "way",
        "name": "Kajaniemi Camping",
        "tourism": "camp_site",
        "website": "https://www.taikayocamping.fi/"
      }
    },
    {
      "type": "Feature",
      "geometry": {
        "type": "Point",
        "coordinates": [
          23.4655172,
          61.7678809
        ]
      },
      "properties": {
        "id": 609248028,
        "osm_type": "way",
        "name": "Hilja",
        "tourism": "chalet"
      }
    },
    {
      "type": "Feature",
      "geometry": {
        "type": "Point",
        "coordinates": [
          23.4651852,
          61.7682399
        ]
      },
      "properties": {
        "id": 609248029,
        "osm_type": "way",
        "name": "Ilona",
        "tourism": "chalet"
      }
    },
    {
      "type": "Feature",
      "geometry": {
        "type": "Point",
        "coordinates": [
          23.6729021,
          61.6718233
        ]
      },
      "properties": {
        "id": 610612242,
        "osm_type": "way",
        "name": "Koljonranta",
        "tourism": "chalet"
      }
    },
    {
      "type": "Feature",
      "geometry": {
        "type": "Point",
        "coordinates": [
          23.0071207,
          62.0104596
        ]
      },
      "properties": {
        "id": 615645074,
        "osm_type": "way",
        "name": "Pahkalanniemi Camping",
        "tourism": "camp_site",
        "phone": "+358 3 44 82 038",
        "website": "http://www.pahkalanniemi-camping.fi"
      }
    },
    {
      "type": "Feature",
      "geometry": {
        "type": "Point",
        "coordinates": [
          24.0513204,
          61.2690536
        ]
      },
      "properties": {
        "id": 621964340,
        "osm_type": "way",
        "name": "Apianlahti Camping",
        "tourism": "camp_site",
        "tents": "yes"
      }
    },
    {
      "type": "Feature",
      "geometry": {
        "type": "Point",
        "coordinates": [
          24.1154667,
          61.184441
        ]
      },
      "properties": {
        "id": 621964662,
        "osm_type": "way",
        "name": "SFC Hakalanranta",
        "tourism": "caravan_site"
      }
    },
    {
      "type": "Feature",
      "geometry": {
        "type": "Point",
        "coordinates": [
          24.4215784,
          61.3526543
        ]
      },
      "properties": {
        "id": 624418601,
        "osm_type": "way",
        "name": "Kukkolan leirikeskus",
        "tourism": "camp_site"
      }
    },
    {
      "type": "Feature",
      "geometry": {
        "type": "Point",
        "coordinates": [
          24.5589369,
          61.5785937
        ]
      },
      "properties": {
        "id": 636603362,
        "osm_type": "way",
        "name": "Eräjärven Eerola",
        "tourism": "guest_house"
      }
    },
    {
      "type": "Feature",
      "geometry": {
        "type": "Point",
        "coordinates": [
          24.1653427,
          61.3961741
        ]
      },
      "properties": {
        "id": 652410097,
        "osm_type": "way",
        "name": "Villa Vuorikotka",
        "tourism": "chalet"
      }
    },
    {
      "type": "Feature",
      "geometry": {
        "type": "Point",
        "coordinates": [
          23.0470457,
          61.403612
        ]
      },
      "properties": {
        "id": 684220705,
        "osm_type": "way",
        "name": "VuoriCaravan",
        "tourism": "camp_site",
        "tents": "yes"
      }
    },
    {
      "type": "Feature",
      "geometry": {
        "type": "Point",
        "coordinates": [
          24.1429116,
          62.0765594
        ]
      },
      "properties": {
        "id": 700083340,
        "osm_type": "way",
        "name": "Ylä-Tuuhosen maatila",
        "tourism": "guest_house"
      }
    },
    {
      "type": "Feature",
      "geometry": {
        "type": "Point",
        "coordinates": [
          24.0941136,
          61.3544691
        ]
      },
      "properties": {
        "id": 744108880,
        "osm_type": "way",
        "name": "Isokarhu",
        "tourism": "chalet",
        "website": "https://uotilaloma.fi/"
      }
    },
    {
      "type": "Feature",
      "geometry": {
        "type": "Point",
        "coordinates": [
          24.0957023,
          61.3543375
        ]
      },
      "properties": {
        "id": 744108881,
        "osm_type": "way",
        "name": "Pikkukarhu",
        "tourism": "chalet",
        "website": "https://uotilaloma.fi/"
      }
    },
    {
      "type": "Feature",
      "geometry": {
        "type": "Point",
        "coordinates": [
          23.7806961,
          61.4955901
        ]
      },
      "properties": {
        "id": 751262295,
        "osm_type": "way",
        "name": "Courtyard by Marriott Tampere City",
        "tourism": "hotel",
        "phone": "+358-29-3575 700",
        "website": "https://www.marriott.com/en-us/hotels/tmpcy-courtyard-tampere-city/overview/"
      }
    },
    {
      "type": "Feature",
      "geometry": {
        "type": "Point",
        "coordinates": [
          23.4141682,
          61.580353
        ]
      },
      "properties": {
        "id": 790827936,
        "osm_type": "way",
        "tourism": "hotel"
      }
    },
    {
      "type": "Feature",
      "geometry": {
        "type": "Point",
        "coordinates": [
          23.4432012,
          61.896365
        ]
      },
      "properties": {
        "id": 813254904,
        "osm_type": "way",
        "name": "Jaulin kämppä",
        "tourism": "chalet",
        "phone": "+358400358722",
        "website": "https://jaulinkampat.fi/"
      }
    },
    {
      "type": "Feature",
      "geometry": {
        "type": "Point",
        "coordinates": [
          23.442756,
          61.8966155
        ]
      },
      "properties": {
        "id": 813254906,
        "osm_type": "way",
        "name": "Kallen-Talli",
        "tourism": "chalet",
        "phone": "+358400358722",
        "website": "https://jaulinkampat.fi/"
      }
    },
    {
      "type": "Feature",
      "geometry": {
        "type": "Point",
        "coordinates": [
          23.8968181,
          61.3090266
        ]
      },
      "properties": {
        "id": 818669194,
        "osm_type": "way",
        "tourism": "chalet"
      }
    },
    {
      "type": "Feature",
      "geometry": {
        "type": "Point",
        "coordinates": [
          23.0494337,
          61.4067496
        ]
      },
      "properties": {
        "id": 892835952,
        "osm_type": "way",
        "name": "Ellivuoren RantaVilla",
        "tourism": "chalet"
      }
    },
    {
      "type": "Feature",
      "geometry": {
        "type": "Point",
        "coordinates": [
          23.0386316,
          61.4028765
        ]
      },
      "properties": {
        "id": 892835959,
        "osm_type": "way",
        "name": "Villa Satuniemi",
        "tourism": "chalet"
      }
    },
    {
      "type": "Feature",
      "geometry": {
        "type": "Point",
        "coordinates": [
          23.0390067,
          61.4031961
        ]
      },
      "properties": {
        "id": 892835962,
        "osm_type": "way",
        "tourism": "chalet"
      }
    },
    {
      "type": "Feature",
      "geometry": {
        "type": "Point",
        "coordinates": [
          23.0393713,
          61.4035142
        ]
      },
      "properties": {
        "id": 892835965,
        "osm_type": "way",
        "tourism": "chalet"
      }
    },
    {
      "type": "Feature",
      "geometry": {
        "type": "Point",
        "coordinates": [
          23.0398975,
          61.4027512
        ]
      },
      "properties": {
        "id": 892835966,
        "osm_type": "way",
        "tourism": "chalet"
      }
    },
    {
      "type": "Feature",
      "geometry": {
        "type": "Point",
        "coordinates": [
          23.0404014,
          61.4028999
        ]
      },
      "properties": {
        "id": 892835967,
        "osm_type": "way",
        "tourism": "chalet"
      }
    },
    {
      "type": "Feature",
      "geometry": {
        "type": "Point",
        "coordinates": [
          23.0407352,
          61.4030263
        ]
      },
      "properties": {
        "id": 892835968,
        "osm_type": "way",
        "tourism": "chalet"
      }
    },
    {
      "type": "Feature",
      "geometry": {
        "type": "Point",
        "coordinates": [
          23.0409377,
          61.403134
        ]
      },
      "properties": {
        "id": 892835969,
        "osm_type": "way",
        "tourism": "chalet"
      }
    },
    {
      "type": "Feature",
      "geometry": {
        "type": "Point",
        "coordinates": [
          24.4970385,
          62.0151335
        ]
      },
      "properties": {
        "id": 1059084312,
        "osm_type": "way",
        "tourism": "camp_site"
      }
    },
    {
      "type": "Feature",
      "geometry": {
        "type": "Point",
        "coordinates": [
          23.7737544,
          61.5112956
        ]
      },
      "properties": {
        "id": 1113130671,
        "osm_type": "way",
        "name": "Holiday Club Tampereen Kehräämö",
        "tourism": "hotel",
        "phone": "+358306870000",
        "website": "https://www.holidayclubresorts.com/fi/kylpylahotellit-resortit/tampereen-kehraamo/"
      }
    },
    {
      "type": "Feature",
      "geometry": {
        "type": "Point",
        "coordinates": [
          23.7773525,
          61.2973791
        ]
      },
      "properties": {
        "id": 1118031598,
        "osm_type": "way",
        "name": "Vaihmalan Hovi",
        "tourism": "hotel",
        "website": "https://vaihmalanhovi.fi/"
      }
    },
    {
      "type": "Feature",
      "geometry": {
        "type": "Point",
        "coordinates": [
          22.578013,
          61.4545981
        ]
      },
      "properties": {
        "id": 1132216627,
        "osm_type": "way",
        "name": "Kiikoisten kirkkotupa",
        "tourism": "hotel"
      }
    },
    {
      "type": "Feature",
      "geometry": {
        "type": "Point",
        "coordinates": [
          23.2557403,
          61.9478323
        ]
      },
      "properties": {
        "id": 1136141295,
        "osm_type": "way",
        "tourism": "chalet"
      }
    },
    {
      "type": "Feature",
      "geometry": {
        "type": "Point",
        "coordinates": [
          24.0630662,
          61.1872133
        ]
      },
      "properties": {
        "id": 1177573513,
        "osm_type": "way",
        "name": "Pappilanniemen leirikeskus",
        "tourism": "camp_site"
      }
    },
    {
      "type": "Feature",
      "geometry": {
        "type": "Point",
        "coordinates": [
          24.1051072,
          61.1728612
        ]
      },
      "properties": {
        "id": 1177573520,
        "osm_type": "way",
        "tourism": "chalet"
      }
    },
    {
      "type": "Feature",
      "geometry": {
        "type": "Point",
        "coordinates": [
          24.5052119,
          61.6211178
        ]
      },
      "properties": {
        "id": 1188027708,
        "osm_type": "way",
        "tourism": "caravan_site"
      }
    },
    {
      "type": "Feature",
      "geometry": {
        "type": "Point",
        "coordinates": [
          23.0514114,
          61.4049883
        ]
      },
      "properties": {
        "id": 1190305218,
        "osm_type": "way",
        "tourism": "chalet"
      }
    },
    {
      "type": "Feature",
      "geometry": {
        "type": "Point",
        "coordinates": [
          23.0510869,
          61.4051714
        ]
      },
      "properties": {
        "id": 1190305219,
        "osm_type": "way",
        "tourism": "chalet"
      }
    },
    {
      "type": "Feature",
      "geometry": {
        "type": "Point",
        "coordinates": [
          23.0512866,
          61.4051663
        ]
      },
      "properties": {
        "id": 1190305220,
        "osm_type": "way",
        "tourism": "chalet"
      }
    },
    {
      "type": "Feature",
      "geometry": {
        "type": "Point",
        "coordinates": [
          23.0512831,
          61.4053024
        ]
      },
      "properties": {
        "id": 1190305221,
        "osm_type": "way",
        "tourism": "chalet"
      }
    },
    {
      "type": "Feature",
      "geometry": {
        "type": "Point",
        "coordinates": [
          23.0500105,
          61.4053498
        ]
      },
      "properties": {
        "id": 1190305226,
        "osm_type": "way",
        "name": "Chalet Sviitti",
        "tourism": "chalet"
      }
    },
    {
      "type": "Feature",
      "geometry": {
        "type": "Point",
        "coordinates": [
          24.62294,
          61.3435629
        ]
      },
      "properties": {
        "id": 1190748937,
        "osm_type": "way",
        "tourism": "chalet"
      }
    },
    {
      "type": "Feature",
      "geometry": {
        "type": "Point",
        "coordinates": [
          24.6216686,
          61.3419708
        ]
      },
      "properties": {
        "id": 1190748944,
        "osm_type": "way",
        "tourism": "chalet"
      }
    },
    {
      "type": "Feature",
      "geometry": {
        "type": "Point",
        "coordinates": [
          24.6187158,
          61.3427404
        ]
      },
      "properties": {
        "id": 1190748948,
        "osm_type": "way",
        "tourism": "chalet"
      }
    },
    {
      "type": "Feature",
      "geometry": {
        "type": "Point",
        "coordinates": [
          23.7476349,
          61.3190292
        ]
      },
      "properties": {
        "id": 1202328958,
        "osm_type": "way",
        "name": "Lempäälän luontaiskylpylä",
        "tourism": "hotel"
      }
    },
    {
      "type": "Feature",
      "geometry": {
        "type": "Point",
        "coordinates": [
          24.0013451,
          61.2908092
        ]
      },
      "properties": {
        "id": 1216241746,
        "osm_type": "way",
        "tourism": "guest_house"
      }
    },
    {
      "type": "Feature",
      "geometry": {
        "type": "Point",
        "coordinates": [
          23.8392107,
          62.1936068
        ]
      },
      "properties": {
        "id": 1256166513,
        "osm_type": "way",
        "name": "SFC Vankkurimännikkö",
        "tourism": "caravan_site",
        "website": "https://sfcpirkanmaa.fi/omat-alueet/vankkurimannikko/"
      }
    },
    {
      "type": "Feature",
      "geometry": {
        "type": "Point",
        "coordinates": [
          24.5380752,
          61.5243649
        ]
      },
      "properties": {
        "id": 1258684808,
        "osm_type": "way",
        "name": "Lake escape destination",
        "tourism": "camp_site",
        "tents": "yes",
        "website": "https://kesapaiva.fi"
      }
    },
    {
      "type": "Feature",
      "geometry": {
        "type": "Point",
        "coordinates": [
          24.0471715,
          61.6554448
        ]
      },
      "properties": {
        "id": 1267497149,
        "osm_type": "way",
        "name": "Palttala",
        "tourism": "chalet"
      }
    },
    {
      "type": "Feature",
      "geometry": {
        "type": "Point",
        "coordinates": [
          23.0229107,
          61.7215055
        ]
      },
      "properties": {
        "id": 1280148554,
        "osm_type": "way",
        "name": "Aurinkoranta",
        "tourism": "chalet"
      }
    },
    {
      "type": "Feature",
      "geometry": {
        "type": "Point",
        "coordinates": [
          23.034686,
          61.2410035
        ]
      },
      "properties": {
        "id": 1287427892,
        "osm_type": "way",
        "name": "Pirunnielu",
        "tourism": "chalet"
      }
    },
    {
      "type": "Feature",
      "geometry": {
        "type": "Point",
        "coordinates": [
          23.0086624,
          61.3356776
        ]
      },
      "properties": {
        "id": 1290047350,
        "osm_type": "way",
        "name": "Villa Meka",
        "tourism": "chalet"
      }
    },
    {
      "type": "Feature",
      "geometry": {
        "type": "Point",
        "coordinates": [
          23.0193618,
          61.7177865
        ]
      },
      "properties": {
        "id": 1292875888,
        "osm_type": "way",
        "name": "Kallioranta",
        "tourism": "chalet",
        "website": "https://www.lintukodonlomamokit.com/kallioranta.html"
      }
    },
    {
      "type": "Feature",
      "geometry": {
        "type": "Point",
        "coordinates": [
          22.9096612,
          61.3390953
        ]
      },
      "properties": {
        "id": 1302718881,
        "osm_type": "way",
        "name": "Gardenhouse",
        "tourism": "apartment",
        "website": "https://shorturl.at/S9QOD",
        "check_date": "2025-04-06"
      }
    },
    {
      "type": "Feature",
      "geometry": {
        "type": "Point",
        "coordinates": [
          23.7852257,
          61.494165
        ]
      },
      "properties": {
        "id": 1312627616,
        "osm_type": "way",
        "name": "Hostel Teopolis",
        "tourism": "hostel",
        "website": "https://www.booking.com/hotel/fi/hostel-teopolis.fi.html"
      }
    },
    {
      "type": "Feature",
      "geometry": {
        "type": "Point",
        "coordinates": [
          23.0512278,
          61.4049899
        ]
      },
      "properties": {
        "id": 1375664433,
        "osm_type": "way",
        "tourism": "chalet"
      }
    },
    {
      "type": "Feature",
      "geometry": {
        "type": "Point",
        "coordinates": [
          23.0510394,
          61.4049925
        ]
      },
      "properties": {
        "id": 1375664434,
        "osm_type": "way",
        "tourism": "chalet"
      }
    },
    {
      "type": "Feature",
      "geometry": {
        "type": "Point",
        "coordinates": [
          23.0508538,
          61.404999
        ]
      },
      "properties": {
        "id": 1375664435,
        "osm_type": "way",
        "tourism": "chalet"
      }
    },
    {
      "type": "Feature",
      "geometry": {
        "type": "Point",
        "coordinates": [
          23.0491703,
          61.4039636
        ]
      },
      "properties": {
        "id": 1375664439,
        "osm_type": "way",
        "tourism": "chalet"
      }
    },
    {
      "type": "Feature",
      "geometry": {
        "type": "Point",
        "coordinates": [
          23.049738,
          61.4039127
        ]
      },
      "properties": {
        "id": 1375664440,
        "osm_type": "way",
        "name": "Villa Hirvi",
        "tourism": "chalet"
      }
    },
    {
      "type": "Feature",
      "geometry": {
        "type": "Point",
        "coordinates": [
          23.0491737,
          61.4036096
        ]
      },
      "properties": {
        "id": 1375664441,
        "osm_type": "way",
        "name": "PerheVilla",
        "tourism": "chalet"
      }
    },
    {
      "type": "Feature",
      "geometry": {
        "type": "Point",
        "coordinates": [
          23.0516728,
          61.4035483
        ]
      },
      "properties": {
        "id": 1375664442,
        "osm_type": "way",
        "tourism": "chalet"
      }
    },
    {
      "type": "Feature",
      "geometry": {
        "type": "Point",
        "coordinates": [
          23.0514664,
          61.4029831
        ]
      },
      "properties": {
        "id": 1375664443,
        "osm_type": "way",
        "name": "Villa Aalto",
        "tourism": "chalet"
      }
    },
    {
      "type": "Feature",
      "geometry": {
        "type": "Point",
        "coordinates": [
          23.0448161,
          61.4034603
        ]
      },
      "properties": {
        "id": 1375664454,
        "osm_type": "way",
        "name": "Musta Pikkuvilla",
        "tourism": "chalet"
      }
    },
    {
      "type": "Feature",
      "geometry": {
        "type": "Point",
        "coordinates": [
          23.0435386,
          61.4035514
        ]
      },
      "properties": {
        "id": 1375664455,
        "osm_type": "way",
        "tourism": "chalet"
      }
    },
    {
      "type": "Feature",
      "geometry": {
        "type": "Point",
        "coordinates": [
          23.043677,
          61.4036687
        ]
      },
      "properties": {
        "id": 1375664456,
        "osm_type": "way",
        "tourism": "chalet"
      }
    },
    {
      "type": "Feature",
      "geometry": {
        "type": "Point",
        "coordinates": [
          23.038288,
          61.4026147
        ]
      },
      "properties": {
        "id": 1375664458,
        "osm_type": "way",
        "tourism": "chalet"
      }
    },
    {
      "type": "Feature",
      "geometry": {
        "type": "Point",
        "coordinates": [
          23.0442682,
          61.4054039
        ]
      },
      "properties": {
        "id": 1375664459,
        "osm_type": "way",
        "tourism": "chalet"
      }
    },
    {
      "type": "Feature",
      "geometry": {
        "type": "Point",
        "coordinates": [
          23.0441529,
          61.4056104
        ]
      },
      "properties": {
        "id": 1375664460,
        "osm_type": "way",
        "tourism": "chalet"
      }
    },
    {
      "type": "Feature",
      "geometry": {
        "type": "Point",
        "coordinates": [
          23.0440482,
          61.4058374
        ]
      },
      "properties": {
        "id": 1375664461,
        "osm_type": "way",
        "tourism": "chalet"
      }
    },
    {
      "type": "Feature",
      "geometry": {
        "type": "Point",
        "coordinates": [
          23.0439186,
          61.406054
        ]
      },
      "properties": {
        "id": 1375664462,
        "osm_type": "way",
        "tourism": "chalet"
      }
    },
    {
      "type": "Feature",
      "geometry": {
        "type": "Point",
        "coordinates": [
          23.0435778,
          61.7784209
        ]
      },
      "properties": {
        "id": 1434895967,
        "osm_type": "way",
        "name": "Toivolansaaren leirintäalue",
        "tourism": "camp_site"
      }
    }
  ]
}