{
  "type": "FeatureCollection",
  "features": [
    {
      "type": "Feature",
      "geometry": {
        "type": "Point",
        "coordinates": [
          39.126647,
          40.1892174
        ]
      },
      "properties": {
        "id": 1955720544,
        "osm_type": "node",
        "tourism": "hotel"
      }
    },
    {
      "type": "Feature",
      "geometry": {
        "type": "Point",
        "coordinates": [
          39.4724268,
          40.4618245
        ]
      },
      "properties": {
        "id": 5060291037,
        "osm_type": "node",
        "name": "Ataç Konağı",
        "tourism": "hotel"
      }
    },
    {
      "type": "Feature",
      "geometry": {
        "type": "Point",
        "coordinates": [
          39.2941112,
          40.5564461
        ]
      },
      "properties": {
        "id": 5368175626,
        "osm_type": "node",
        "name": "Kale Palace hotel",
        "tourism": "hotel"
      }
    },
    {
      "type": "Feature",
      "geometry": {
        "type": "Point",
        "coordinates": [
          39.7295305,
          40.6265742
        ]
      },
      "properties": {
        "id": 8794211857,
        "osm_type": "node",
        "name": "Yayla Evi",
        "tourism": "alpine_hut",
        "phone": "+90 536 583 70 12"
      }
    },
    {
      "type": "Feature",
      "geometry": {
        "type": "Point",
        "coordinates": [
          39.352763,
          40.4466216
        ]
      },
      "properties": {
        "id": 9969243186,
        "osm_type": "node",
        "name": "Wild Camping Spot",
        "tourism": "camp_site"
      }
    },
    {
      "type": "Feature",
      "geometry": {
        "type": "Point",
        "coordinates": [
          39.4903087,
          40.455659
        ]
      },
      "properties": {
        "id": 10101947822,
        "osm_type": "node",
        "tourism": "hotel"
      }
    },
    {
      "type": "Feature",
      "geometry": {
        "type": "Point",
        "coordinates": [
          39.4629722,
          40.4664466
        ]
      },
      "properties": {
        "id": 11098838814,
        "osm_type": "node",
        "name": "Ramada",
        "tourism": "hotel"
      }
    },
    {
      "type": "Feature",
      "geometry": {
        "type": "Point",
        "coordinates": [
          39.6939398,
          40.6157843
        ]
      },
      "properties": {
        "id": 11258087847,
        "osm_type": "node",
        "tourism": "hotel"
      }
    },
    {
      "type": "Feature",
      "geometry": {
        "type": "Point",
        "coordinates": [
          39.4032532,
          40.6408918
        ]
      },
      "properties": {
        "id": 307194978,
        "osm_type": "way",
        "name": "Zigana GümüşKayak YaylaKent",
        "tourism": "hotel"
      }
    },
    {
      "type": "Feature",
      "geometry": {
        "type": "Point",
        "coordinates": [
          39.5218275,
          40.2748452
        ]
      },
      "properties": {
        "id": 1143833328,
        "osm_type": "way",
        "tourism": "guest_house"
      }
    },
    {
      "type": "Feature",
      "geometry": {
        "type": "Point",
        "coordinates": [
          39.3273809,
          40.39987
        ]
      },
      "properties": {
        "id": 1182872029,
        "osm_type": "way",
        "name": "İKİ SAHRAN KÖY MİSAFİR EVİ",
        "tourism": "guest_house"
      }
    },
    {
      "type": "Feature",
      "geometry": {
        "type": "Point",
        "coordinates": [
          39.3196646,
          40.4050103
        ]
      },
      "properties": {
        "id": 1200791921,
        "osm_type": "way",
        "tourism": "alpine_hut"
      }
    },
    {
      "type": "Feature",
      "geometry": {
        "type": "Point",
        "coordinates": [
          39.3176368,
          40.393766
        ]
      },
      "properties": {
        "id": 1200791929,
        "osm_type": "way",
        "tourism": "alpine_hut"
      }
    },
    {
      "type": "Feature",
      "geometry": {
        "type": "Point",
        "coordinates": [
          39.42977,
          40.1338417
        ]
      },
      "properties": {
        "id": 1346045406,
        "osm_type": "way",
        "name": "Kelkit Öğretmenevi",
        "tourism": "hotel"
      }
    },
    {
      "type": "Feature",
      "geometry": {
        "type": "Point",
        "coordinates": [
          39.4297473,
          40.1340114
        ]
      },
      "properties": {
        "id": 1346045411,
        "osm_type": "way",
        "name": "Kelkit Öğretmenevi",
        "tourism": "hotel"
      }
    }
  ]
}