{
  "type": "FeatureCollection",
  "features": [
    {
      "type": "Feature",
      "geometry": {
        "type": "Point",
        "coordinates": [
          35.4543593,
          38.7263617
        ]
      },
      "properties": {
        "id": 1491172718,
        "osm_type": "node",
        "name": "Selçuk",
        "tourism": "hotel"
      }
    },
    {
      "type": "Feature",
      "geometry": {
        "type": "Point",
        "coordinates": [
          35.4855777,
          38.7232818
        ]
      },
      "properties": {
        "id": 2666984906,
        "osm_type": "node",
        "name": "Wyndham Grand Kayseri",
        "tourism": "hotel"
      }
    },
    {
      "type": "Feature",
      "geometry": {
        "type": "Point",
        "coordinates": [
          35.4919326,
          38.7212773
        ]
      },
      "properties": {
        "id": 2666984907,
        "osm_type": "node",
        "name": "Hunat Hotel",
        "tourism": "hotel"
      }
    },
    {
      "type": "Feature",
      "geometry": {
        "type": "Point",
        "coordinates": [
          35.4958114,
          38.7354144
        ]
      },
      "properties": {
        "id": 2713167561,
        "osm_type": "node",
        "name": "Ibis Kayseri",
        "tourism": "hotel"
      }
    },
    {
      "type": "Feature",
      "geometry": {
        "type": "Point",
        "coordinates": [
          35.4730278,
          38.7227845
        ]
      },
      "properties": {
        "id": 3274596461,
        "osm_type": "node",
        "name": "Park Otel",
        "tourism": "hotel",
        "phone": "+90 352 320 8384",
        "website": "http://www.kayseriparkhotel.com/"
      }
    },
    {
      "type": "Feature",
      "geometry": {
        "type": "Point",
        "coordinates": [
          35.2822443,
          37.8013454
        ]
      },
      "properties": {
        "id": 4966258525,
        "osm_type": "node",
        "name": "Soğuk Pinar",
        "tourism": "camp_site"
      }
    },
    {
      "type": "Feature",
      "geometry": {
        "type": "Point",
        "coordinates": [
          34.972549,
          38.3434102
        ]
      },
      "properties": {
        "id": 5188164522,
        "osm_type": "node",
        "name": "Soğanlı Kapadokya Restaurant",
        "tourism": "camp_site",
        "tents": "yes"
      }
    },
    {
      "type": "Feature",
      "geometry": {
        "type": "Point",
        "coordinates": [
          35.4862421,
          38.7188644
        ]
      },
      "properties": {
        "id": 5254277032,
        "osm_type": "node",
        "name": "Otel Alba",
        "tourism": "hotel"
      }
    },
    {
      "type": "Feature",
      "geometry": {
        "type": "Point",
        "coordinates": [
          35.4851512,
          38.7167636
        ]
      },
      "properties": {
        "id": 5266330100,
        "osm_type": "node",
        "name": "Vatan Konukevi",
        "tourism": "guest_house"
      }
    },
    {
      "type": "Feature",
      "geometry": {
        "type": "Point",
        "coordinates": [
          35.7321427,
          38.4055693
        ]
      },
      "properties": {
        "id": 5699527922,
        "osm_type": "node",
        "tourism": "hotel"
      }
    },
    {
      "type": "Feature",
      "geometry": {
        "type": "Point",
        "coordinates": [
          35.4009292,
          38.7475611
        ]
      },
      "properties": {
        "id": 6013774441,
        "osm_type": "node",
        "name": "Crowne Plaza Kayseri",
        "tourism": "hotel"
      }
    },
    {
      "type": "Feature",
      "geometry": {
        "type": "Point",
        "coordinates": [
          35.5605355,
          38.6886576
        ]
      },
      "properties": {
        "id": 6223435185,
        "osm_type": "node",
        "name": "PRIME INN",
        "tourism": "hotel",
        "opening_hours": "24/7",
        "phone": "+90 505 745 14 38",
        "website": "http://www. primeinn.com.tr"
      }
    },
    {
      "type": "Feature",
      "geometry": {
        "type": "Point",
        "coordinates": [
          35.5029455,
          38.7355687
        ]
      },
      "properties": {
        "id": 6413975887,
        "osm_type": "node",
        "name": "Fier",
        "tourism": "hotel"
      }
    },
    {
      "type": "Feature",
      "geometry": {
        "type": "Point",
        "coordinates": [
          35.4735031,
          38.7167948
        ]
      },
      "properties": {
        "id": 6743460966,
        "osm_type": "node",
        "tourism": "hotel"
      }
    },
    {
      "type": "Feature",
      "geometry": {
        "type": "Point",
        "coordinates": [
          35.6384379,
          38.7680483
        ]
      },
      "properties": {
        "id": 7078784988,
        "osm_type": "node",
        "tourism": "camp_site"
      }
    },
    {
      "type": "Feature",
      "geometry": {
        "type": "Point",
        "coordinates": [
          35.5821918,
          38.6898867
        ]
      },
      "properties": {
        "id": 7078784989,
        "osm_type": "node",
        "tourism": "camp_site"
      }
    },
    {
      "type": "Feature",
      "geometry": {
        "type": "Point",
        "coordinates": [
          35.0693344,
          38.4147216
        ]
      },
      "properties": {
        "id": 7089708385,
        "osm_type": "node",
        "name": "Erdemli Valley",
        "tourism": "camp_site"
      }
    },
    {
      "type": "Feature",
      "geometry": {
        "type": "Point",
        "coordinates": [
          35.5255699,
          38.5300283
        ]
      },
      "properties": {
        "id": 7099423188,
        "osm_type": "node",
        "name": "Magna",
        "tourism": "hotel"
      }
    },
    {
      "type": "Feature",
      "geometry": {
        "type": "Point",
        "coordinates": [
          35.3321385,
          37.907957
        ]
      },
      "properties": {
        "id": 7132414427,
        "osm_type": "node",
        "tourism": "camp_site"
      }
    },
    {
      "type": "Feature",
      "geometry": {
        "type": "Point",
        "coordinates": [
          35.5442054,
          38.742571
        ]
      },
      "properties": {
        "id": 7508253086,
        "osm_type": "node",
        "name": "Кайзери лофт",
        "tourism": "hotel"
      }
    },
    {
      "type": "Feature",
      "geometry": {
        "type": "Point",
        "coordinates": [
          35.4397467,
          37.7931503
        ]
      },
      "properties": {
        "id": 7990861886,
        "osm_type": "node",
        "tourism": "camp_site"
      }
    },
    {
      "type": "Feature",
      "geometry": {
        "type": "Point",
        "coordinates": [
          35.5561257,
          38.7018184
        ]
      },
      "properties": {
        "id": 9502134119,
        "osm_type": "node",
        "name": "Duman Safir",
        "tourism": "apartment"
      }
    },
    {
      "type": "Feature",
      "geometry": {
        "type": "Point",
        "coordinates": [
          35.4797245,
          38.7216175
        ]
      },
      "properties": {
        "id": 10021955476,
        "osm_type": "node",
        "name": "Holiday Inn",
        "tourism": "hotel",
        "check_date": "2022-09-13"
      }
    },
    {
      "type": "Feature",
      "geometry": {
        "type": "Point",
        "coordinates": [
          35.5317754,
          38.543114
        ]
      },
      "properties": {
        "id": 10032087418,
        "osm_type": "node",
        "tourism": "camp_site"
      }
    },
    {
      "type": "Feature",
      "geometry": {
        "type": "Point",
        "coordinates": [
          35.3961158,
          37.7691568
        ]
      },
      "properties": {
        "id": 10109913384,
        "osm_type": "node",
        "tourism": "hotel"
      }
    },
    {
      "type": "Feature",
      "geometry": {
        "type": "Point",
        "coordinates": [
          36.3916197,
          38.7228116
        ]
      },
      "properties": {
        "id": 10197273683,
        "osm_type": "node",
        "name": "Aziziye",
        "tourism": "hotel"
      }
    },
    {
      "type": "Feature",
      "geometry": {
        "type": "Point",
        "coordinates": [
          36.3910451,
          38.7228357
        ]
      },
      "properties": {
        "id": 10197273684,
        "osm_type": "node",
        "name": "Saray",
        "tourism": "hostel"
      }
    },
    {
      "type": "Feature",
      "geometry": {
        "type": "Point",
        "coordinates": [
          36.4027749,
          38.7274029
        ]
      },
      "properties": {
        "id": 10197273707,
        "osm_type": "node",
        "name": "B.K Dinlenme",
        "tourism": "hotel"
      }
    },
    {
      "type": "Feature",
      "geometry": {
        "type": "Point",
        "coordinates": [
          35.4860364,
          38.7186691
        ]
      },
      "properties": {
        "id": 10240361079,
        "osm_type": "node",
        "name": "Hotel Talaslioğlu",
        "tourism": "hotel",
        "check_date": "2022-12-05"
      }
    },
    {
      "type": "Feature",
      "geometry": {
        "type": "Point",
        "coordinates": [
          35.5266218,
          38.5321923
        ]
      },
      "properties": {
        "id": 10726317471,
        "osm_type": "node",
        "name": "Radisson Blu Hotel, Mount Erciyes",
        "tourism": "hotel",
        "phone": "+90 352 315 15 15",
        "website": "https://www.radissonhotels.com/en-us/hotels/radisson-blu-mount-erciyes"
      }
    },
    {
      "type": "Feature",
      "geometry": {
        "type": "Point",
        "coordinates": [
          35.5642523,
          38.7322251
        ]
      },
      "properties": {
        "id": 10916758605,
        "osm_type": "node",
        "name": "Emt residans",
        "tourism": "hostel"
      }
    },
    {
      "type": "Feature",
      "geometry": {
        "type": "Point",
        "coordinates": [
          35.4918659,
          38.7244039
        ]
      },
      "properties": {
        "id": 11252269624,
        "osm_type": "node",
        "name": "Atatürkçü Düşünce Derneği",
        "tourism": "apartment"
      }
    },
    {
      "type": "Feature",
      "geometry": {
        "type": "Point",
        "coordinates": [
          36.5895689,
          38.9308841
        ]
      },
      "properties": {
        "id": 12143804903,
        "osm_type": "node",
        "tourism": "camp_site"
      }
    },
    {
      "type": "Feature",
      "geometry": {
        "type": "Point",
        "coordinates": [
          35.4794701,
          38.7214693
        ]
      },
      "properties": {
        "id": 12419549201,
        "osm_type": "node",
        "tourism": "hotel"
      }
    },
    {
      "type": "Feature",
      "geometry": {
        "type": "Point",
        "coordinates": [
          35.4921149,
          37.902627
        ]
      },
      "properties": {
        "id": 12806677565,
        "osm_type": "node",
        "tourism": "camp_site"
      }
    },
    {
      "type": "Feature",
      "geometry": {
        "type": "Point",
        "coordinates": [
          35.4930044,
          38.3885739
        ]
      },
      "properties": {
        "id": 12822614632,
        "osm_type": "node",
        "name": "Otel Kattas",
        "tourism": "hotel"
      }
    },
    {
      "type": "Feature",
      "geometry": {
        "type": "Point",
        "coordinates": [
          35.5133437,
          38.7387213
        ]
      },
      "properties": {
        "id": 13115964301,
        "osm_type": "node",
        "name": "Fier Life Center",
        "tourism": "hotel",
        "phone": "+90 352 333 36 36",
        "website": "https://fier.com.tr"
      }
    },
    {
      "type": "Feature",
      "geometry": {
        "type": "Point",
        "coordinates": [
          35.5287374,
          38.5296131
        ]
      },
      "properties": {
        "id": 13234245495,
        "osm_type": "node",
        "name": "Library Hotel Erciyes | Ski & Mountain Luxury Hotel",
        "tourism": "hotel"
      }
    },
    {
      "type": "Feature",
      "geometry": {
        "type": "Point",
        "coordinates": [
          35.5292963,
          38.53055
        ]
      },
      "properties": {
        "id": 13234245496,
        "osm_type": "node",
        "name": "Peony Palace Hotel",
        "tourism": "hotel"
      }
    },
    {
      "type": "Feature",
      "geometry": {
        "type": "Point",
        "coordinates": [
          35.5289736,
          38.5316698
        ]
      },
      "properties": {
        "id": 13234278535,
        "osm_type": "node",
        "name": "Radisson Blu Hotel, Mount Erciyes Lake Side",
        "tourism": "hotel"
      }
    },
    {
      "type": "Feature",
      "geometry": {
        "type": "Point",
        "coordinates": [
          35.528983,
          38.532225
        ]
      },
      "properties": {
        "id": 13234278536,
        "osm_type": "node",
        "name": "Liv Hotels Erciyes",
        "tourism": "hotel"
      }
    },
    {
      "type": "Feature",
      "geometry": {
        "type": "Point",
        "coordinates": [
          35.4933646,
          38.713033
        ]
      },
      "properties": {
        "id": 13479073317,
        "osm_type": "node",
        "tourism": "hotel",
        "contact:phone": "+903522203111",
        "contact:website": "https://www.korkmazrezidanshotel.com"
      }
    },
    {
      "type": "Feature",
      "geometry": {
        "type": "Point",
        "coordinates": [
          35.4957175,
          38.7234558
        ]
      },
      "properties": {
        "id": 13739875501,
        "osm_type": "node",
        "name": "Radisson Blu Hotel Kayseri",
        "tourism": "hotel",
        "phone": "+90 352 315 50 00",
        "website": "https://www.radissonhotels.com/tr-tr/oteller/radisson-blu-kayseri",
        "check_date": "2026-04-18"
      }
    },
    {
      "type": "Feature",
      "geometry": {
        "type": "Point",
        "coordinates": [
          35.0117439,
          38.7913398
        ]
      },
      "properties": {
        "id": 169153387,
        "osm_type": "way",
        "name": "Bulut",
        "tourism": "hotel"
      }
    },
    {
      "type": "Feature",
      "geometry": {
        "type": "Point",
        "coordinates": [
          35.4954544,
          38.7352035
        ]
      },
      "properties": {
        "id": 205398157,
        "osm_type": "way",
        "name": "Novotel",
        "tourism": "hotel"
      }
    },
    {
      "type": "Feature",
      "geometry": {
        "type": "Point",
        "coordinates": [
          35.4957639,
          38.7354534
        ]
      },
      "properties": {
        "id": 205398158,
        "osm_type": "way",
        "name": "Ibis",
        "tourism": "hotel"
      }
    },
    {
      "type": "Feature",
      "geometry": {
        "type": "Point",
        "coordinates": [
          35.4771613,
          38.7239835
        ]
      },
      "properties": {
        "id": 206885649,
        "osm_type": "way",
        "name": "City One Hotel",
        "tourism": "hotel",
        "phone": "+903522070000",
        "website": "http://www.cityonekayseri.com/"
      }
    },
    {
      "type": "Feature",
      "geometry": {
        "type": "Point",
        "coordinates": [
          35.179153,
          37.8022058
        ]
      },
      "properties": {
        "id": 232242523,
        "osm_type": "way",
        "name": "Yedi Göller Camp",
        "tourism": "camp_site"
      }
    },
    {
      "type": "Feature",
      "geometry": {
        "type": "Point",
        "coordinates": [
          35.4848377,
          38.7172652
        ]
      },
      "properties": {
        "id": 406494269,
        "osm_type": "way",
        "name": "Demirel Garden",
        "tourism": "hotel"
      }
    },
    {
      "type": "Feature",
      "geometry": {
        "type": "Point",
        "coordinates": [
          35.4851718,
          38.7167652
        ]
      },
      "properties": {
        "id": 406606683,
        "osm_type": "way",
        "name": "Vatan Konukevi",
        "tourism": "guest_house"
      }
    },
    {
      "type": "Feature",
      "geometry": {
        "type": "Point",
        "coordinates": [
          35.5280183,
          38.5316263
        ]
      },
      "properties": {
        "id": 531481102,
        "osm_type": "way",
        "name": "DAS 3917",
        "tourism": "hotel"
      }
    },
    {
      "type": "Feature",
      "geometry": {
        "type": "Point",
        "coordinates": [
          35.5270432,
          38.5373712
        ]
      },
      "properties": {
        "id": 531481128,
        "osm_type": "way",
        "name": "Grand Eras Hotel Erciyes",
        "tourism": "hotel"
      }
    },
    {
      "type": "Feature",
      "geometry": {
        "type": "Point",
        "coordinates": [
          35.5289328,
          38.5333398
        ]
      },
      "properties": {
        "id": 531481134,
        "osm_type": "way",
        "name": "Mirada Del Lago Hotel",
        "tourism": "hotel"
      }
    },
    {
      "type": "Feature",
      "geometry": {
        "type": "Point",
        "coordinates": [
          36.3993534,
          38.7182954
        ]
      },
      "properties": {
        "id": 680073509,
        "osm_type": "way",
        "name": "Alparslan Türkeş Parkı",
        "tourism": "camp_site"
      }
    },
    {
      "type": "Feature",
      "geometry": {
        "type": "Point",
        "coordinates": [
          35.5440433,
          38.7425482
        ]
      },
      "properties": {
        "id": 762073950,
        "osm_type": "way",
        "name": "Kayseri Loft Hotel",
        "tourism": "hotel"
      }
    },
    {
      "type": "Feature",
      "geometry": {
        "type": "Point",
        "coordinates": [
          35.4763953,
          38.736059
        ]
      },
      "properties": {
        "id": 868658355,
        "osm_type": "way",
        "name": "AGÜ Misafirhanesi",
        "tourism": "guest_house"
      }
    },
    {
      "type": "Feature",
      "geometry": {
        "type": "Point",
        "coordinates": [
          35.5317646,
          38.5418394
        ]
      },
      "properties": {
        "id": 1095447645,
        "osm_type": "way",
        "tourism": "camp_site"
      }
    },
    {
      "type": "Feature",
      "geometry": {
        "type": "Point",
        "coordinates": [
          35.4306896,
          38.7329038
        ]
      },
      "properties": {
        "id": 1104436265,
        "osm_type": "way",
        "name": "Divan City Otel",
        "tourism": "hotel",
        "website": "https://www.divan.com.tr/hotel/divan-city-kayseri-hotel"
      }
    },
    {
      "type": "Feature",
      "geometry": {
        "type": "Point",
        "coordinates": [
          35.5293305,
          38.6996581
        ]
      },
      "properties": {
        "id": 1111515751,
        "osm_type": "way",
        "name": "The Emar Otel Deluxe",
        "tourism": "hotel",
        "website": "https://theemarotel.com/"
      }
    },
    {
      "type": "Feature",
      "geometry": {
        "type": "Point",
        "coordinates": [
          35.5266306,
          38.5322439
        ]
      },
      "properties": {
        "id": 1353223009,
        "osm_type": "way",
        "name": "Radisson Blu Hotel, Mount Erciyes",
        "tourism": "hotel"
      }
    },
    {
      "type": "Feature",
      "geometry": {
        "type": "Point",
        "coordinates": [
          35.3907666,
          37.7786975
        ]
      },
      "properties": {
        "id": 1383487013,
        "osm_type": "way",
        "tourism": "guest_house"
      }
    }
  ]
}