{
  "type": "FeatureCollection",
  "features": [
    {
      "type": "Feature",
      "geometry": {
        "type": "Point",
        "coordinates": [
          17.8582501,
          45.5170009
        ]
      },
      "properties": {
        "id": 927293726,
        "osm_type": "node",
        "tourism": "camp_site"
      }
    },
    {
      "type": "Feature",
      "geometry": {
        "type": "Point",
        "coordinates": [
          17.9648894,
          45.5673805
        ]
      },
      "properties": {
        "id": 1342304916,
        "osm_type": "node",
        "name": "Pansion",
        "tourism": "guest_house"
      }
    },
    {
      "type": "Feature",
      "geometry": {
        "type": "Point",
        "coordinates": [
          17.3315745,
          45.8510842
        ]
      },
      "properties": {
        "id": 1805000547,
        "osm_type": "node",
        "tourism": "hotel"
      }
    },
    {
      "type": "Feature",
      "geometry": {
        "type": "Point",
        "coordinates": [
          17.307526,
          45.8607831
        ]
      },
      "properties": {
        "id": 11075330905,
        "osm_type": "node",
        "name": "Prenoćište Slavonska kuća",
        "tourism": "hostel"
      }
    },
    {
      "type": "Feature",
      "geometry": {
        "type": "Point",
        "coordinates": [
          17.7027941,
          45.7060505
        ]
      },
      "properties": {
        "id": 154108617,
        "osm_type": "way",
        "name": "Buisness Club",
        "tourism": "motel"
      }
    },
    {
      "type": "Feature",
      "geometry": {
        "type": "Point",
        "coordinates": [
          17.6253549,
          45.773909
        ]
      },
      "properties": {
        "id": 179462845,
        "osm_type": "way",
        "name": "Višnjica",
        "tourism": "hotel",
        "phone": "+38533401650",
        "website": "https://www.visnjica.hr/"
      }
    },
    {
      "type": "Feature",
      "geometry": {
        "type": "Point",
        "coordinates": [
          17.3875279,
          45.8043841
        ]
      },
      "properties": {
        "id": 186362636,
        "osm_type": "way",
        "name": "Hotel Šulentić",
        "tourism": "hotel",
        "phone": "+385033 731282"
      }
    },
    {
      "type": "Feature",
      "geometry": {
        "type": "Point",
        "coordinates": [
          17.6846066,
          45.5221222
        ]
      },
      "properties": {
        "id": 186925761,
        "osm_type": "way",
        "name": "Planinarski dom Jankovac",
        "tourism": "alpine_hut"
      }
    },
    {
      "type": "Feature",
      "geometry": {
        "type": "Point",
        "coordinates": [
          17.286307,
          45.830624
        ]
      },
      "properties": {
        "id": 334467444,
        "osm_type": "way",
        "name": "Mozart",
        "tourism": "hotel",
        "website": "http://www.hotelmozart.hr/"
      }
    },
    {
      "type": "Feature",
      "geometry": {
        "type": "Point",
        "coordinates": [
          17.3918102,
          45.8093146
        ]
      },
      "properties": {
        "id": 642819933,
        "osm_type": "way",
        "name": "Villa Magnolia",
        "tourism": "hotel"
      }
    },
    {
      "type": "Feature",
      "geometry": {
        "type": "Point",
        "coordinates": [
          17.8809085,
          45.5284575
        ]
      },
      "properties": {
        "id": 744734084,
        "osm_type": "way",
        "name": "Hotel Dukat",
        "tourism": "hotel"
      }
    },
    {
      "type": "Feature",
      "geometry": {
        "type": "Point",
        "coordinates": [
          17.8806673,
          45.5292154
        ]
      },
      "properties": {
        "id": 744754186,
        "osm_type": "way",
        "name": "Hotel “Ružica grad”",
        "tourism": "hotel",
        "phone": "091 / 945 6018",
        "website": "http://www.hotel-ruzica.net"
      }
    },
    {
      "type": "Feature",
      "geometry": {
        "type": "Point",
        "coordinates": [
          17.3516767,
          45.9729688
        ]
      },
      "properties": {
        "id": 1224876637,
        "osm_type": "way",
        "name": "Kuća za odmor Japin konak",
        "tourism": "apartment"
      }
    },
    {
      "type": "Feature",
      "geometry": {
        "type": "Point",
        "coordinates": [
          17.7130714,
          45.5519558
        ]
      },
      "properties": {
        "id": 1388937133,
        "osm_type": "way",
        "name": "Little House on Papuk",
        "tourism": "chalet"
      }
    },
    {
      "type": "Feature",
      "geometry": {
        "type": "Point",
        "coordinates": [
          17.4981192,
          45.5618055
        ]
      },
      "properties": {
        "id": 1425900720,
        "osm_type": "way",
        "name": "Lovački dom Đedovica",
        "tourism": "chalet"
      }
    }
  ]
}