{
  "type": "FeatureCollection",
  "features": [
    {
      "type": "Feature",
      "geometry": {
        "type": "Point",
        "coordinates": [
          34.2611892,
          38.3005386
        ]
      },
      "properties": {
        "id": 503576502,
        "osm_type": "node",
        "name": "Piri",
        "tourism": "guest_house"
      }
    },
    {
      "type": "Feature",
      "geometry": {
        "type": "Point",
        "coordinates": [
          34.2528991,
          38.3222798
        ]
      },
      "properties": {
        "id": 2401468223,
        "osm_type": "node",
        "name": "Çatlak Hotel",
        "tourism": "hotel",
        "website": "http://www.catlakturizm.com.tr"
      }
    },
    {
      "type": "Feature",
      "geometry": {
        "type": "Point",
        "coordinates": [
          33.5567654,
          38.2485181
        ]
      },
      "properties": {
        "id": 2893948794,
        "osm_type": "node",
        "name": "Kervan Pansion-Camping",
        "tourism": "hotel",
        "phone": "+90 382 2422325"
      }
    },
    {
      "type": "Feature",
      "geometry": {
        "type": "Point",
        "coordinates": [
          33.9708246,
          38.3539083
        ]
      },
      "properties": {
        "id": 3242262425,
        "osm_type": "node",
        "name": "Abaylar Otel",
        "tourism": "hotel"
      }
    },
    {
      "type": "Feature",
      "geometry": {
        "type": "Point",
        "coordinates": [
          34.0259304,
          38.369214
        ]
      },
      "properties": {
        "id": 3282464893,
        "osm_type": "node",
        "name": "Otel Vadim",
        "tourism": "hotel"
      }
    },
    {
      "type": "Feature",
      "geometry": {
        "type": "Point",
        "coordinates": [
          34.0080542,
          38.3651092
        ]
      },
      "properties": {
        "id": 3605241534,
        "osm_type": "node",
        "name": "Ahsaray Otel",
        "tourism": "hotel"
      }
    },
    {
      "type": "Feature",
      "geometry": {
        "type": "Point",
        "coordinates": [
          34.0177361,
          38.3676266
        ]
      },
      "properties": {
        "id": 3625022502,
        "osm_type": "node",
        "name": "Kuzucular Park Otel",
        "tourism": "hotel"
      }
    },
    {
      "type": "Feature",
      "geometry": {
        "type": "Point",
        "coordinates": [
          34.264143,
          38.2868651
        ]
      },
      "properties": {
        "id": 4881331687,
        "osm_type": "node",
        "name": "Kayabaşı",
        "tourism": "guest_house"
      }
    },
    {
      "type": "Feature",
      "geometry": {
        "type": "Point",
        "coordinates": [
          34.2744863,
          38.2908136
        ]
      },
      "properties": {
        "id": 5225933701,
        "osm_type": "node",
        "tourism": "camp_site"
      }
    },
    {
      "type": "Feature",
      "geometry": {
        "type": "Point",
        "coordinates": [
          34.2784489,
          38.2792216
        ]
      },
      "properties": {
        "id": 5225933930,
        "osm_type": "node",
        "tourism": "camp_site"
      }
    },
    {
      "type": "Feature",
      "geometry": {
        "type": "Point",
        "coordinates": [
          34.2750132,
          38.293999
        ]
      },
      "properties": {
        "id": 5225933959,
        "osm_type": "node",
        "tourism": "camp_site"
      }
    },
    {
      "type": "Feature",
      "geometry": {
        "type": "Point",
        "coordinates": [
          34.0047914,
          38.3689733
        ]
      },
      "properties": {
        "id": 5265200423,
        "osm_type": "node",
        "name": "Hayal Otel",
        "tourism": "hotel"
      }
    },
    {
      "type": "Feature",
      "geometry": {
        "type": "Point",
        "coordinates": [
          34.2826197,
          38.2478167
        ]
      },
      "properties": {
        "id": 6535005214,
        "osm_type": "node",
        "name": "Yeşil Vadi Otel",
        "tourism": "hotel"
      }
    },
    {
      "type": "Feature",
      "geometry": {
        "type": "Point",
        "coordinates": [
          34.2820458,
          38.2759935
        ]
      },
      "properties": {
        "id": 6743558588,
        "osm_type": "node",
        "tourism": "camp_site"
      }
    },
    {
      "type": "Feature",
      "geometry": {
        "type": "Point",
        "coordinates": [
          33.5078848,
          38.2514772
        ]
      },
      "properties": {
        "id": 7389129885,
        "osm_type": "node",
        "name": "Grandhan",
        "tourism": "hotel"
      }
    },
    {
      "type": "Feature",
      "geometry": {
        "type": "Point",
        "coordinates": [
          34.0048874,
          38.3686088
        ]
      },
      "properties": {
        "id": 7794355828,
        "osm_type": "node",
        "name": "Aksaray Polis evi",
        "tourism": "guest_house",
        "website": "https://www.polisevi.com/aksaray-polisevi/"
      }
    },
    {
      "type": "Feature",
      "geometry": {
        "type": "Point",
        "coordinates": [
          34.0265879,
          38.3697317
        ]
      },
      "properties": {
        "id": 7879471642,
        "osm_type": "node",
        "name": "Mevlana Otel",
        "tourism": "hotel",
        "phone": "+90 382 213 38 97"
      }
    },
    {
      "type": "Feature",
      "geometry": {
        "type": "Point",
        "coordinates": [
          33.9576467,
          38.3483808
        ]
      },
      "properties": {
        "id": 8289521350,
        "osm_type": "node",
        "name": "Mavi Otel",
        "tourism": "hotel"
      }
    },
    {
      "type": "Feature",
      "geometry": {
        "type": "Point",
        "coordinates": [
          34.0369077,
          38.7380132
        ]
      },
      "properties": {
        "id": 8367750805,
        "osm_type": "node",
        "name": "Ortaköy Öğretmenler Evi",
        "tourism": "hotel"
      }
    },
    {
      "type": "Feature",
      "geometry": {
        "type": "Point",
        "coordinates": [
          34.0385413,
          38.7339905
        ]
      },
      "properties": {
        "id": 8586995109,
        "osm_type": "node",
        "name": "Berilhan Otel",
        "tourism": "hotel"
      }
    },
    {
      "type": "Feature",
      "geometry": {
        "type": "Point",
        "coordinates": [
          34.037069,
          38.7347601
        ]
      },
      "properties": {
        "id": 8587032100,
        "osm_type": "node",
        "name": "Fatih Otel",
        "tourism": "hotel"
      }
    },
    {
      "type": "Feature",
      "geometry": {
        "type": "Point",
        "coordinates": [
          34.0238421,
          38.3709442
        ]
      },
      "properties": {
        "id": 8707564616,
        "osm_type": "node",
        "name": "Süvari hotel",
        "tourism": "hotel"
      }
    },
    {
      "type": "Feature",
      "geometry": {
        "type": "Point",
        "coordinates": [
          34.0201798,
          38.3690582
        ]
      },
      "properties": {
        "id": 8975547258,
        "osm_type": "node",
        "name": "Nenessa Hotel",
        "tourism": "hotel"
      }
    },
    {
      "type": "Feature",
      "geometry": {
        "type": "Point",
        "coordinates": [
          33.5479966,
          38.2492712
        ]
      },
      "properties": {
        "id": 9752452570,
        "osm_type": "node",
        "name": "Sultanhanı Pansion Camping",
        "tourism": "camp_site",
        "phone": "+903822422008"
      }
    },
    {
      "type": "Feature",
      "geometry": {
        "type": "Point",
        "coordinates": [
          34.2795689,
          38.278269
        ]
      },
      "properties": {
        "id": 9798199139,
        "osm_type": "node",
        "tourism": "camp_site"
      }
    },
    {
      "type": "Feature",
      "geometry": {
        "type": "Point",
        "coordinates": [
          33.9962153,
          38.3614081
        ]
      },
      "properties": {
        "id": 9798211613,
        "osm_type": "node",
        "name": "Grand Çakiroglu Suit Hotel",
        "tourism": "hotel"
      }
    },
    {
      "type": "Feature",
      "geometry": {
        "type": "Point",
        "coordinates": [
          33.4574335,
          38.4751758
        ]
      },
      "properties": {
        "id": 10206908562,
        "osm_type": "node",
        "name": "Salt Desert Camp",
        "tourism": "camp_site",
        "tents": "yes"
      }
    },
    {
      "type": "Feature",
      "geometry": {
        "type": "Point",
        "coordinates": [
          34.2628361,
          38.2985737
        ]
      },
      "properties": {
        "id": 11223099937,
        "osm_type": "node",
        "tourism": "camp_site"
      }
    },
    {
      "type": "Feature",
      "geometry": {
        "type": "Point",
        "coordinates": [
          34.229083,
          38.3526716
        ]
      },
      "properties": {
        "id": 11225318337,
        "osm_type": "node",
        "tourism": "camp_site"
      }
    },
    {
      "type": "Feature",
      "geometry": {
        "type": "Point",
        "coordinates": [
          34.3711201,
          38.2774739
        ]
      },
      "properties": {
        "id": 11834403254,
        "osm_type": "node",
        "name": "sunlight pansiyon",
        "tourism": "hostel"
      }
    },
    {
      "type": "Feature",
      "geometry": {
        "type": "Point",
        "coordinates": [
          33.9951109,
          38.3842932
        ]
      },
      "properties": {
        "id": 12030856832,
        "osm_type": "node",
        "name": "QUALA Hotel",
        "tourism": "hotel",
        "website": "https://www.qualahotels.com/"
      }
    },
    {
      "type": "Feature",
      "geometry": {
        "type": "Point",
        "coordinates": [
          34.0566114,
          38.3838419
        ]
      },
      "properties": {
        "id": 12143738700,
        "osm_type": "node",
        "tourism": "camp_site"
      }
    },
    {
      "type": "Feature",
      "geometry": {
        "type": "Point",
        "coordinates": [
          34.264743,
          38.2982929
        ]
      },
      "properties": {
        "id": 12218470001,
        "osm_type": "node",
        "tourism": "camp_site"
      }
    },
    {
      "type": "Feature",
      "geometry": {
        "type": "Point",
        "coordinates": [
          34.2568134,
          38.3011921
        ]
      },
      "properties": {
        "id": 12218528002,
        "osm_type": "node",
        "tourism": "camp_site"
      }
    },
    {
      "type": "Feature",
      "geometry": {
        "type": "Point",
        "coordinates": [
          34.2890047,
          38.2698681
        ]
      },
      "properties": {
        "id": 12813410873,
        "osm_type": "node",
        "tourism": "camp_site"
      }
    },
    {
      "type": "Feature",
      "geometry": {
        "type": "Point",
        "coordinates": [
          34.2890047,
          38.2698681
        ]
      },
      "properties": {
        "id": 12813411163,
        "osm_type": "node",
        "tourism": "camp_site"
      }
    },
    {
      "type": "Feature",
      "geometry": {
        "type": "Point",
        "coordinates": [
          34.370746,
          38.2773018
        ]
      },
      "properties": {
        "id": 13175557687,
        "osm_type": "node",
        "name": "Konaklari Otel",
        "tourism": "hotel",
        "phone": "+905545411402"
      }
    },
    {
      "type": "Feature",
      "geometry": {
        "type": "Point",
        "coordinates": [
          33.5480212,
          38.2482791
        ]
      },
      "properties": {
        "id": 13762477736,
        "osm_type": "node",
        "name": "Kervan Hotel",
        "tourism": "hotel"
      }
    },
    {
      "type": "Feature",
      "geometry": {
        "type": "Point",
        "coordinates": [
          34.1643032,
          38.1611635
        ]
      },
      "properties": {
        "id": 152232693,
        "osm_type": "way",
        "name": "Karbeyaz",
        "tourism": "hotel"
      }
    },
    {
      "type": "Feature",
      "geometry": {
        "type": "Point",
        "coordinates": [
          34.2682784,
          38.2769238
        ]
      },
      "properties": {
        "id": 242380934,
        "osm_type": "way",
        "name": "Kapadokus Termal Tatil Köyü",
        "tourism": "hotel"
      }
    },
    {
      "type": "Feature",
      "geometry": {
        "type": "Point",
        "coordinates": [
          33.5074451,
          38.2515217
        ]
      },
      "properties": {
        "id": 279356691,
        "osm_type": "way",
        "name": "Grandhan",
        "tourism": "hotel"
      }
    },
    {
      "type": "Feature",
      "geometry": {
        "type": "Point",
        "coordinates": [
          34.3730235,
          38.2784032
        ]
      },
      "properties": {
        "id": 304488058,
        "osm_type": "way",
        "name": "Hotel Karballa",
        "tourism": "hotel",
        "phone": "+90 382 451 21 03",
        "website": "http://www.karballahotel.com"
      }
    },
    {
      "type": "Feature",
      "geometry": {
        "type": "Point",
        "coordinates": [
          34.0283997,
          38.4014808
        ]
      },
      "properties": {
        "id": 316482075,
        "osm_type": "way",
        "name": "Grand Altuntaş Hotel",
        "tourism": "hotel",
        "phone": "+90 382 212 0808",
        "website": "https://www.grandaltuntas.com.tr/"
      }
    },
    {
      "type": "Feature",
      "geometry": {
        "type": "Point",
        "coordinates": [
          33.9941771,
          38.387136
        ]
      },
      "properties": {
        "id": 317781030,
        "osm_type": "way",
        "name": "Ağaçlı Melendiz Otel",
        "tourism": "hotel",
        "phone": "+903822152400",
        "website": "https://www.agacliotel.com/"
      }
    },
    {
      "type": "Feature",
      "geometry": {
        "type": "Point",
        "coordinates": [
          33.9706166,
          38.3537848
        ]
      },
      "properties": {
        "id": 317856141,
        "osm_type": "way",
        "name": "Abaylar Otel",
        "tourism": "hotel"
      }
    },
    {
      "type": "Feature",
      "geometry": {
        "type": "Point",
        "coordinates": [
          34.0266304,
          38.3713986
        ]
      },
      "properties": {
        "id": 333886032,
        "osm_type": "way",
        "name": "Grand Saatcioglu Otel",
        "tourism": "hotel"
      }
    },
    {
      "type": "Feature",
      "geometry": {
        "type": "Point",
        "coordinates": [
          34.3078524,
          38.2396134
        ]
      },
      "properties": {
        "id": 339220751,
        "osm_type": "way",
        "name": "Star Pension/Camping",
        "tourism": "camp_site",
        "tents": "yes"
      }
    },
    {
      "type": "Feature",
      "geometry": {
        "type": "Point",
        "coordinates": [
          34.3076266,
          38.2397189
        ]
      },
      "properties": {
        "id": 339220752,
        "osm_type": "way",
        "name": "Star pension",
        "tourism": "guest_house"
      }
    },
    {
      "type": "Feature",
      "geometry": {
        "type": "Point",
        "coordinates": [
          34.0257942,
          38.3799173
        ]
      },
      "properties": {
        "id": 358500669,
        "osm_type": "way",
        "name": "Aksaray Ögretmenevi",
        "tourism": "hotel"
      }
    },
    {
      "type": "Feature",
      "geometry": {
        "type": "Point",
        "coordinates": [
          33.994035,
          38.3865496
        ]
      },
      "properties": {
        "id": 452542502,
        "osm_type": "way",
        "name": "Ağaçlı Motel",
        "tourism": "motel"
      }
    },
    {
      "type": "Feature",
      "geometry": {
        "type": "Point",
        "coordinates": [
          34.2957798,
          38.2410507
        ]
      },
      "properties": {
        "id": 543288855,
        "osm_type": "way",
        "tourism": "hotel"
      }
    },
    {
      "type": "Feature",
      "geometry": {
        "type": "Point",
        "coordinates": [
          34.2959764,
          38.2413215
        ]
      },
      "properties": {
        "id": 543288857,
        "osm_type": "way",
        "name": "Akar Otel",
        "tourism": "hotel"
      }
    },
    {
      "type": "Feature",
      "geometry": {
        "type": "Point",
        "coordinates": [
          34.0317476,
          38.3754093
        ]
      },
      "properties": {
        "id": 1167938050,
        "osm_type": "way",
        "name": "Aksaray Liva Otel",
        "tourism": "hotel"
      }
    },
    {
      "type": "Feature",
      "geometry": {
        "type": "Point",
        "coordinates": [
          33.9621041,
          38.3516231
        ]
      },
      "properties": {
        "id": 1426611989,
        "osm_type": "way",
        "name": "Akmer Otel",
        "tourism": "hotel"
      }
    },
    {
      "type": "Feature",
      "geometry": {
        "type": "Point",
        "coordinates": [
          33.548021,
          38.2493041
        ]
      },
      "properties": {
        "id": 1501169522,
        "osm_type": "way",
        "tourism": "camp_site"
      }
    }
  ]
}