{
  "type": "FeatureCollection",
  "features": [
    {
      "type": "Feature",
      "geometry": {
        "type": "Point",
        "coordinates": [
          18.8496548,
          45.826424
        ]
      },
      "properties": {
        "id": 406481898,
        "osm_type": "node",
        "name": "Kod Ilone",
        "tourism": "guest_house"
      }
    },
    {
      "type": "Feature",
      "geometry": {
        "type": "Point",
        "coordinates": [
          18.0822549,
          45.7152758
        ]
      },
      "properties": {
        "id": 455969536,
        "osm_type": "node",
        "name": "Seljačko domaćinstvo Blanje",
        "tourism": "guest_house"
      }
    },
    {
      "type": "Feature",
      "geometry": {
        "type": "Point",
        "coordinates": [
          18.4602767,
          45.5807366
        ]
      },
      "properties": {
        "id": 474359950,
        "osm_type": "node",
        "name": "Termia",
        "tourism": "hotel",
        "website": "https://www.bizovacke-toplice.hr/hoteltermia.aspx"
      }
    },
    {
      "type": "Feature",
      "geometry": {
        "type": "Point",
        "coordinates": [
          18.6970616,
          45.5605079
        ]
      },
      "properties": {
        "id": 528615081,
        "osm_type": "node",
        "name": "Maksimilian",
        "tourism": "guest_house",
        "phone": "+385 31 497 567",
        "website": "http://www.maksimilian.hr"
      }
    },
    {
      "type": "Feature",
      "geometry": {
        "type": "Point",
        "coordinates": [
          18.6754113,
          45.5589148
        ]
      },
      "properties": {
        "id": 685040256,
        "osm_type": "node",
        "name": "Regina",
        "tourism": "guest_house",
        "website": "www.reginaosijek.hr"
      }
    },
    {
      "type": "Feature",
      "geometry": {
        "type": "Point",
        "coordinates": [
          19.0666047,
          45.526849
        ]
      },
      "properties": {
        "id": 685251239,
        "osm_type": "node",
        "name": "Neda i Dubravko Casa",
        "tourism": "guest_house"
      }
    },
    {
      "type": "Feature",
      "geometry": {
        "type": "Point",
        "coordinates": [
          18.7453447,
          45.5931613
        ]
      },
      "properties": {
        "id": 741564761,
        "osm_type": "node",
        "name": "Vrata Baranje",
        "tourism": "guest_house",
        "contact:phone": "750-057"
      }
    },
    {
      "type": "Feature",
      "geometry": {
        "type": "Point",
        "coordinates": [
          18.7435277,
          45.5932393
        ]
      },
      "properties": {
        "id": 741564763,
        "osm_type": "node",
        "name": "Seosko gospodarstvo Lackovići",
        "tourism": "guest_house",
        "contact:phone": "750-850"
      }
    },
    {
      "type": "Feature",
      "geometry": {
        "type": "Point",
        "coordinates": [
          18.7389901,
          45.6087046
        ]
      },
      "properties": {
        "id": 741588236,
        "osm_type": "node",
        "name": "Sobe",
        "tourism": "guest_house",
        "contact:phone": "750-827"
      }
    },
    {
      "type": "Feature",
      "geometry": {
        "type": "Point",
        "coordinates": [
          18.4016461,
          45.3240352
        ]
      },
      "properties": {
        "id": 797657194,
        "osm_type": "node",
        "name": "Hotel Blaža",
        "tourism": "hotel",
        "website": "http://www.hotel-blaza.hr/"
      }
    },
    {
      "type": "Feature",
      "geometry": {
        "type": "Point",
        "coordinates": [
          18.6751235,
          45.5621434
        ]
      },
      "properties": {
        "id": 830170645,
        "osm_type": "node",
        "name": "Strossmayer Bischof",
        "tourism": "hotel"
      }
    },
    {
      "type": "Feature",
      "geometry": {
        "type": "Point",
        "coordinates": [
          18.4080718,
          45.6818797
        ]
      },
      "properties": {
        "id": 880503055,
        "osm_type": "node",
        "name": "Anica - sobe za iznajmljivanje",
        "tourism": "guest_house"
      }
    },
    {
      "type": "Feature",
      "geometry": {
        "type": "Point",
        "coordinates": [
          18.6944846,
          45.5604529
        ]
      },
      "properties": {
        "id": 940334227,
        "osm_type": "node",
        "name": "Tufna",
        "tourism": "hostel"
      }
    },
    {
      "type": "Feature",
      "geometry": {
        "type": "Point",
        "coordinates": [
          18.6811953,
          45.5550919
        ]
      },
      "properties": {
        "id": 1099473824,
        "osm_type": "node",
        "name": "Perla",
        "tourism": "hostel",
        "phone": "0981866349"
      }
    },
    {
      "type": "Feature",
      "geometry": {
        "type": "Point",
        "coordinates": [
          18.6808372,
          45.5543343
        ]
      },
      "properties": {
        "id": 1262216309,
        "osm_type": "node",
        "name": "Villa Ariston",
        "tourism": "hotel",
        "website": "http://www.hotelaristonosijek.hr/"
      }
    },
    {
      "type": "Feature",
      "geometry": {
        "type": "Point",
        "coordinates": [
          18.6755885,
          45.7599598
        ]
      },
      "properties": {
        "id": 1344344375,
        "osm_type": "node",
        "name": "Ivica i Marica",
        "tourism": "guest_house"
      }
    },
    {
      "type": "Feature",
      "geometry": {
        "type": "Point",
        "coordinates": [
          18.7806457,
          45.7850654
        ]
      },
      "properties": {
        "id": 1344344393,
        "osm_type": "node",
        "name": "Podrumi Kolar Suza Baranje",
        "tourism": "guest_house",
        "website": "https://suzabaranje.com/"
      }
    },
    {
      "type": "Feature",
      "geometry": {
        "type": "Point",
        "coordinates": [
          18.8059568,
          45.8053122
        ]
      },
      "properties": {
        "id": 1344344434,
        "osm_type": "node",
        "name": "Baranjski Dvori",
        "tourism": "guest_house"
      }
    },
    {
      "type": "Feature",
      "geometry": {
        "type": "Point",
        "coordinates": [
          18.7445761,
          45.6111698
        ]
      },
      "properties": {
        "id": 1999058502,
        "osm_type": "node",
        "name": "Mazur",
        "tourism": "guest_house"
      }
    },
    {
      "type": "Feature",
      "geometry": {
        "type": "Point",
        "coordinates": [
          18.6812744,
          45.5548471
        ]
      },
      "properties": {
        "id": 2995081798,
        "osm_type": "node",
        "name": "Zrinjevac",
        "tourism": "hostel"
      }
    },
    {
      "type": "Feature",
      "geometry": {
        "type": "Point",
        "coordinates": [
          18.4082303,
          45.3137781
        ]
      },
      "properties": {
        "id": 3734827649,
        "osm_type": "node",
        "name": "Apartman Dakovo",
        "tourism": "guest_house",
        "phone": "+385 989313605",
        "website": "https://www.booking.com/hotel/hr/apartment-dakovo.de.html"
      }
    },
    {
      "type": "Feature",
      "geometry": {
        "type": "Point",
        "coordinates": [
          18.6520606,
          45.5609221
        ]
      },
      "properties": {
        "id": 3739705159,
        "osm_type": "node",
        "name": "Ritam",
        "tourism": "hotel"
      }
    },
    {
      "type": "Feature",
      "geometry": {
        "type": "Point",
        "coordinates": [
          18.6748406,
          45.5621308
        ]
      },
      "properties": {
        "id": 4874625716,
        "osm_type": "node",
        "name": "Sobe Lišnić",
        "tourism": "hotel",
        "website": "https://www.sobe-lisnic.com/"
      }
    },
    {
      "type": "Feature",
      "geometry": {
        "type": "Point",
        "coordinates": [
          18.4096745,
          45.2994291
        ]
      },
      "properties": {
        "id": 5168672230,
        "osm_type": "node",
        "tourism": "apartment",
        "phone": "+385 99 5180642; +385 98 9130825"
      }
    },
    {
      "type": "Feature",
      "geometry": {
        "type": "Point",
        "coordinates": [
          18.6840608,
          45.5546031
        ]
      },
      "properties": {
        "id": 5337275122,
        "osm_type": "node",
        "tourism": "apartment"
      }
    },
    {
      "type": "Feature",
      "geometry": {
        "type": "Point",
        "coordinates": [
          18.9930773,
          45.4895026
        ]
      },
      "properties": {
        "id": 5996411964,
        "osm_type": "node",
        "name": "Kuća za odmor Kod Štefa",
        "tourism": "guest_house",
        "phone": "+385915327712",
        "website": "https://sites.google.com/site/kodstefa/home.hr"
      }
    },
    {
      "type": "Feature",
      "geometry": {
        "type": "Point",
        "coordinates": [
          18.9915236,
          45.4880058
        ]
      },
      "properties": {
        "id": 5996411965,
        "osm_type": "node",
        "name": "Bakina kuća Dalj",
        "tourism": "guest_house",
        "phone": "+385992126011"
      }
    },
    {
      "type": "Feature",
      "geometry": {
        "type": "Point",
        "coordinates": [
          19.0630153,
          45.5203165
        ]
      },
      "properties": {
        "id": 5996411976,
        "osm_type": "node",
        "name": "Kuća za odmor Petra",
        "tourism": "guest_house",
        "phone": "+385957056343"
      }
    },
    {
      "type": "Feature",
      "geometry": {
        "type": "Point",
        "coordinates": [
          19.0605111,
          45.5254691
        ]
      },
      "properties": {
        "id": 5996411981,
        "osm_type": "node",
        "name": "Ruralna kuća za odmor Erkheim",
        "tourism": "guest_house",
        "phone": "+385918812608"
      }
    },
    {
      "type": "Feature",
      "geometry": {
        "type": "Point",
        "coordinates": [
          19.0604802,
          45.5254385
        ]
      },
      "properties": {
        "id": 5996411982,
        "osm_type": "node",
        "name": "Etno kuća Stari Dud",
        "tourism": "guest_house",
        "phone": "+38531596056"
      }
    },
    {
      "type": "Feature",
      "geometry": {
        "type": "Point",
        "coordinates": [
          19.0368385,
          45.5300831
        ]
      },
      "properties": {
        "id": 5996412885,
        "osm_type": "node",
        "name": "Kuća za odmor Peter",
        "tourism": "guest_house"
      }
    },
    {
      "type": "Feature",
      "geometry": {
        "type": "Point",
        "coordinates": [
          19.0309821,
          45.5296241
        ]
      },
      "properties": {
        "id": 5996412887,
        "osm_type": "node",
        "name": "Ruralna kuća za odmor Brzica",
        "tourism": "guest_house",
        "phone": "+385912973410"
      }
    },
    {
      "type": "Feature",
      "geometry": {
        "type": "Point",
        "coordinates": [
          18.9708355,
          45.5278986
        ]
      },
      "properties": {
        "id": 5996412889,
        "osm_type": "node",
        "name": "Sobe za odmor Vila Katarina",
        "tourism": "apartment",
        "phone": "+385913700000"
      }
    },
    {
      "type": "Feature",
      "geometry": {
        "type": "Point",
        "coordinates": [
          18.9545515,
          45.5288086
        ]
      },
      "properties": {
        "id": 5996412890,
        "osm_type": "node",
        "name": "Kuća za odmor Pod dudom",
        "tourism": "guest_house",
        "phone": "+385989828300"
      }
    },
    {
      "type": "Feature",
      "geometry": {
        "type": "Point",
        "coordinates": [
          18.9533802,
          45.5289179
        ]
      },
      "properties": {
        "id": 5996412891,
        "osm_type": "node",
        "name": "Seljačko domaćinstvo Kod Mare Bure",
        "tourism": "guest_house",
        "phone": "+38531595072",
        "website": "http://www.opg-bede.hr"
      }
    },
    {
      "type": "Feature",
      "geometry": {
        "type": "Point",
        "coordinates": [
          18.9529633,
          45.5289167
        ]
      },
      "properties": {
        "id": 5996412892,
        "osm_type": "node",
        "name": "Seoski turizam Kod Joze Trskana",
        "tourism": "guest_house",
        "phone": "+385915846008",
        "website": "http://www.kodjozetrskana.com",
        "check_date": "2024-12-14"
      }
    },
    {
      "type": "Feature",
      "geometry": {
        "type": "Point",
        "coordinates": [
          18.945413,
          45.5282765
        ]
      },
      "properties": {
        "id": 5996412894,
        "osm_type": "node",
        "name": "Seljačko domaćinstvo Silvana Gostić",
        "tourism": "apartment",
        "phone": "+38531595172"
      }
    },
    {
      "type": "Feature",
      "geometry": {
        "type": "Point",
        "coordinates": [
          18.6791468,
          45.5569849
        ]
      },
      "properties": {
        "id": 6700120241,
        "osm_type": "node",
        "name": "NFM apartmani",
        "tourism": "apartment"
      }
    },
    {
      "type": "Feature",
      "geometry": {
        "type": "Point",
        "coordinates": [
          17.9380416,
          45.49211
        ]
      },
      "properties": {
        "id": 6885059985,
        "osm_type": "node",
        "name": "Planinska kuća Tivanovo",
        "tourism": "alpine_hut"
      }
    },
    {
      "type": "Feature",
      "geometry": {
        "type": "Point",
        "coordinates": [
          18.7017371,
          45.5522913
        ]
      },
      "properties": {
        "id": 6949782507,
        "osm_type": "node",
        "name": "Apartman Novi Grad",
        "tourism": "guest_house"
      }
    },
    {
      "type": "Feature",
      "geometry": {
        "type": "Point",
        "coordinates": [
          18.1649413,
          45.388154
        ]
      },
      "properties": {
        "id": 8520796044,
        "osm_type": "node",
        "name": "Planinarska kuća \"Borovik\"",
        "tourism": "alpine_hut"
      }
    },
    {
      "type": "Feature",
      "geometry": {
        "type": "Point",
        "coordinates": [
          18.6389372,
          45.5747878
        ]
      },
      "properties": {
        "id": 9715641405,
        "osm_type": "node",
        "tourism": "camp_site"
      }
    },
    {
      "type": "Feature",
      "geometry": {
        "type": "Point",
        "coordinates": [
          18.7948863,
          45.7930287
        ]
      },
      "properties": {
        "id": 11200382753,
        "osm_type": "node",
        "name": "Oaza mira Zmajevac",
        "tourism": "apartment"
      }
    },
    {
      "type": "Feature",
      "geometry": {
        "type": "Point",
        "coordinates": [
          18.6789347,
          45.5480686
        ]
      },
      "properties": {
        "id": 12386355502,
        "osm_type": "node",
        "tourism": "apartment"
      }
    },
    {
      "type": "Feature",
      "geometry": {
        "type": "Point",
        "coordinates": [
          18.1861923,
          45.7601157
        ]
      },
      "properties": {
        "id": 38484774,
        "osm_type": "way",
        "name": "Hotel Borik",
        "tourism": "hotel"
      }
    },
    {
      "type": "Feature",
      "geometry": {
        "type": "Point",
        "coordinates": [
          18.6797761,
          45.562229
        ]
      },
      "properties": {
        "id": 40467690,
        "osm_type": "way",
        "name": "Hotel Osijek",
        "tourism": "hotel",
        "phone": "+385 31 230 333",
        "website": "https://www.hotelosijek.hr/"
      }
    },
    {
      "type": "Feature",
      "geometry": {
        "type": "Point",
        "coordinates": [
          18.1666072,
          45.7660988
        ]
      },
      "properties": {
        "id": 40924811,
        "osm_type": "way",
        "name": "Hotel Slavona",
        "tourism": "hotel",
        "phone": "+385 31 63 31 73",
        "website": "http://www.hotel-slavona.hr/"
      }
    },
    {
      "type": "Feature",
      "geometry": {
        "type": "Point",
        "coordinates": [
          18.620984,
          45.7645909
        ]
      },
      "properties": {
        "id": 58822394,
        "osm_type": "way",
        "name": "Patria",
        "tourism": "hotel",
        "website": "https://www.hotelpatria.hr/"
      }
    },
    {
      "type": "Feature",
      "geometry": {
        "type": "Point",
        "coordinates": [
          18.5726647,
          45.5906935
        ]
      },
      "properties": {
        "id": 77929949,
        "osm_type": "way",
        "name": "Villa Ivanić",
        "tourism": "guest_house",
        "phone": "+385 31 356-200",
        "website": "http://villaivanic.hr"
      }
    },
    {
      "type": "Feature",
      "geometry": {
        "type": "Point",
        "coordinates": [
          18.676311,
          45.5615477
        ]
      },
      "properties": {
        "id": 79641339,
        "osm_type": "way",
        "name": "Hotel Central",
        "tourism": "hotel",
        "phone": "+385 31 283 399",
        "website": "https://www.hotel-central-os.hr/"
      }
    },
    {
      "type": "Feature",
      "geometry": {
        "type": "Point",
        "coordinates": [
          18.6775637,
          45.5554769
        ]
      },
      "properties": {
        "id": 95631481,
        "osm_type": "way",
        "name": "Hotel Drava",
        "tourism": "hotel",
        "phone": "+385 31 250-500",
        "website": "http://www.hotel-drava.com/"
      }
    },
    {
      "type": "Feature",
      "geometry": {
        "type": "Point",
        "coordinates": [
          18.4265434,
          45.6550917
        ]
      },
      "properties": {
        "id": 97977707,
        "osm_type": "way",
        "name": "Hotel Villa Valpovo",
        "tourism": "hotel"
      }
    },
    {
      "type": "Feature",
      "geometry": {
        "type": "Point",
        "coordinates": [
          18.6678492,
          45.5682478
        ]
      },
      "properties": {
        "id": 167566653,
        "osm_type": "way",
        "name": "Zoo Hotel",
        "tourism": "hotel",
        "opening_hours": "24/7",
        "phone": "0038531544000",
        "website": "https://www.zoo-hotel.hr/"
      }
    },
    {
      "type": "Feature",
      "geometry": {
        "type": "Point",
        "coordinates": [
          18.5961692,
          45.5274922
        ]
      },
      "properties": {
        "id": 222962227,
        "osm_type": "way",
        "name": "Hotel Zelenkrov",
        "tourism": "hotel"
      }
    },
    {
      "type": "Feature",
      "geometry": {
        "type": "Point",
        "coordinates": [
          18.4128701,
          45.3099147
        ]
      },
      "properties": {
        "id": 277248903,
        "osm_type": "way",
        "tourism": "hotel"
      }
    },
    {
      "type": "Feature",
      "geometry": {
        "type": "Point",
        "coordinates": [
          18.4120845,
          45.3097035
        ]
      },
      "properties": {
        "id": 277248906,
        "osm_type": "way",
        "tourism": "hotel"
      }
    },
    {
      "type": "Feature",
      "geometry": {
        "type": "Point",
        "coordinates": [
          18.675367,
          45.5587266
        ]
      },
      "properties": {
        "id": 309895424,
        "osm_type": "way",
        "name": "Hotel Waldinger",
        "tourism": "hotel",
        "phone": "+385 (31) 250 450",
        "website": "https://waldinger.hr"
      }
    },
    {
      "type": "Feature",
      "geometry": {
        "type": "Point",
        "coordinates": [
          18.9493799,
          45.5279666
        ]
      },
      "properties": {
        "id": 323368242,
        "osm_type": "way",
        "name": "Zeko",
        "tourism": "guest_house",
        "check_date": "2024-12-14"
      }
    },
    {
      "type": "Feature",
      "geometry": {
        "type": "Point",
        "coordinates": [
          18.9525485,
          45.5284175
        ]
      },
      "properties": {
        "id": 337408060,
        "osm_type": "way",
        "name": "OPG Siniša Petrijevčanin",
        "tourism": "guest_house",
        "phone": "+385915587771",
        "website": "https://sites.google.com/site/petrijevcaninfamily"
      }
    },
    {
      "type": "Feature",
      "geometry": {
        "type": "Point",
        "coordinates": [
          18.7677548,
          45.6641466
        ]
      },
      "properties": {
        "id": 381838242,
        "osm_type": "way",
        "name": "Hotel Lug",
        "tourism": "hotel",
        "website": "https://bts.hr/"
      }
    },
    {
      "type": "Feature",
      "geometry": {
        "type": "Point",
        "coordinates": [
          18.7427562,
          45.6042116
        ]
      },
      "properties": {
        "id": 529384254,
        "osm_type": "way",
        "name": "Kuća za odmor Kovačević",
        "tourism": "guest_house",
        "contact:phone": "750-123"
      }
    },
    {
      "type": "Feature",
      "geometry": {
        "type": "Point",
        "coordinates": [
          18.5458123,
          45.3016922
        ]
      },
      "properties": {
        "id": 529493339,
        "osm_type": "way",
        "name": "Country house Vrba",
        "tourism": "guest_house"
      }
    },
    {
      "type": "Feature",
      "geometry": {
        "type": "Point",
        "coordinates": [
          18.4237067,
          45.3374596
        ]
      },
      "properties": {
        "id": 529561523,
        "osm_type": "way",
        "name": "Pansion Budimir",
        "tourism": "hotel",
        "phone": "098/523-023;095/914-9323;031/497-860",
        "website": "https://pansion-budimir.hr/"
      }
    },
    {
      "type": "Feature",
      "geometry": {
        "type": "Point",
        "coordinates": [
          18.4213723,
          45.3369711
        ]
      },
      "properties": {
        "id": 529561524,
        "osm_type": "way",
        "name": "Hotel Đakovo",
        "tourism": "hotel",
        "phone": "031/840-570",
        "website": "http://www.hotel-djakovo.hr/",
        "check_date": "2024-04-27"
      }
    },
    {
      "type": "Feature",
      "geometry": {
        "type": "Point",
        "coordinates": [
          18.6636416,
          45.8063383
        ]
      },
      "properties": {
        "id": 529635300,
        "osm_type": "way",
        "name": "Farm stay Novačić",
        "tourism": "guest_house"
      }
    },
    {
      "type": "Feature",
      "geometry": {
        "type": "Point",
        "coordinates": [
          18.7833151,
          45.8438436
        ]
      },
      "properties": {
        "id": 529636418,
        "osm_type": "way",
        "name": "Baranjski tulipan",
        "tourism": "guest_house"
      }
    },
    {
      "type": "Feature",
      "geometry": {
        "type": "Point",
        "coordinates": [
          18.7725125,
          45.8391541
        ]
      },
      "properties": {
        "id": 529712796,
        "osm_type": "way",
        "name": "Kostolić",
        "tourism": "guest_house"
      }
    },
    {
      "type": "Feature",
      "geometry": {
        "type": "Point",
        "coordinates": [
          18.7053717,
          45.5509383
        ]
      },
      "properties": {
        "id": 560062756,
        "osm_type": "way",
        "name": "Hotel Millenium",
        "tourism": "hotel",
        "phone": "+385 31 531 330",
        "website": "http://www.hotel-millennium.hr/"
      }
    },
    {
      "type": "Feature",
      "geometry": {
        "type": "Point",
        "coordinates": [
          18.7036773,
          45.5498221
        ]
      },
      "properties": {
        "id": 561630387,
        "osm_type": "way",
        "name": "Hotel Silver",
        "tourism": "hotel",
        "phone": "+385 31 582-535",
        "website": "https://hotel-silver.hr/"
      }
    },
    {
      "type": "Feature",
      "geometry": {
        "type": "Point",
        "coordinates": [
          18.7100302,
          45.5500085
        ]
      },
      "properties": {
        "id": 561640826,
        "osm_type": "way",
        "name": "Prenoćište Lipe",
        "tourism": "guest_house"
      }
    },
    {
      "type": "Feature",
      "geometry": {
        "type": "Point",
        "coordinates": [
          18.0917273,
          45.4910295
        ]
      },
      "properties": {
        "id": 585983938,
        "osm_type": "way",
        "name": "Hotel Park Našice",
        "tourism": "hotel",
        "phone": "031/613-822",
        "website": "https://hotel-park.hr/"
      }
    },
    {
      "type": "Feature",
      "geometry": {
        "type": "Point",
        "coordinates": [
          18.7072772,
          45.5521884
        ]
      },
      "properties": {
        "id": 666759977,
        "osm_type": "way",
        "name": "Sobe Novi Grad",
        "tourism": "guest_house",
        "phone": "+385 98 900 02 10",
        "website": "http://sobe-novi-grad.hr"
      }
    },
    {
      "type": "Feature",
      "geometry": {
        "type": "Point",
        "coordinates": [
          18.7620176,
          45.5987799
        ]
      },
      "properties": {
        "id": 727896044,
        "osm_type": "way",
        "name": "Sobe za iznajmljivanje",
        "tourism": "guest_house",
        "phone": "+385 95 828 3921",
        "website": "http://www.capistro.hr/?page_id=2"
      }
    },
    {
      "type": "Feature",
      "geometry": {
        "type": "Point",
        "coordinates": [
          18.1899199,
          45.3916281
        ]
      },
      "properties": {
        "id": 815236102,
        "osm_type": "way",
        "name": "Kamp Borovik",
        "tourism": "camp_site",
        "website": "https://hr-hr.facebook.com/campborovik/"
      }
    },
    {
      "type": "Feature",
      "geometry": {
        "type": "Point",
        "coordinates": [
          18.7822258,
          45.7854368
        ]
      },
      "properties": {
        "id": 1378307851,
        "osm_type": "way",
        "name": "Camping Suza Baranje",
        "tourism": "camp_site",
        "website": "http://camping.suzabaranje.com/en/"
      }
    },
    {
      "type": "Feature",
      "geometry": {
        "type": "Point",
        "coordinates": [
          18.7844848,
          45.5983996
        ]
      },
      "properties": {
        "id": 1408286455,
        "osm_type": "way",
        "name": "Family Camp Kopačevo",
        "tourism": "camp_site",
        "phone": "+385 31 752 106",
        "website": "https://www.camping.hr/hr/kampovi/family-camper-stop"
      }
    }
  ]
}