{
  "type": "FeatureCollection",
  "features": [
    {
      "type": "Feature",
      "geometry": {
        "type": "Point",
        "coordinates": [
          22.6513836,
          42.8354935
        ]
      },
      "properties": {
        "id": 30361133,
        "osm_type": "node",
        "name": "Спа Хотел Ерма",
        "tourism": "hotel",
        "website": "http://www.tranhotels.com/"
      }
    },
    {
      "type": "Feature",
      "geometry": {
        "type": "Point",
        "coordinates": [
          22.5818381,
          42.869887
        ]
      },
      "properties": {
        "id": 30361137,
        "osm_type": "node",
        "name": "х. Руй",
        "tourism": "alpine_hut"
      }
    },
    {
      "type": "Feature",
      "geometry": {
        "type": "Point",
        "coordinates": [
          22.649218,
          42.8451485
        ]
      },
      "properties": {
        "id": 274090285,
        "osm_type": "node",
        "name": "хижа \"Ерма\"",
        "tourism": "alpine_hut",
        "check_date": "2025-11-17"
      }
    },
    {
      "type": "Feature",
      "geometry": {
        "type": "Point",
        "coordinates": [
          22.8150707,
          42.5589556
        ]
      },
      "properties": {
        "id": 300806393,
        "osm_type": "node",
        "name": "НДЕК Ковачевци",
        "tourism": "hotel"
      }
    },
    {
      "type": "Feature",
      "geometry": {
        "type": "Point",
        "coordinates": [
          22.4734995,
          42.8070198
        ]
      },
      "properties": {
        "id": 1245327322,
        "osm_type": "node",
        "name": "Слищовци",
        "tourism": "motel"
      }
    },
    {
      "type": "Feature",
      "geometry": {
        "type": "Point",
        "coordinates": [
          22.5548355,
          42.8057546
        ]
      },
      "properties": {
        "id": 2170852478,
        "osm_type": "node",
        "name": "Хотел Ярловци",
        "tourism": "hotel",
        "website": "http://www.yarlovtzi.com/"
      }
    },
    {
      "type": "Feature",
      "geometry": {
        "type": "Point",
        "coordinates": [
          22.6499358,
          42.8344049
        ]
      },
      "properties": {
        "id": 2170910496,
        "osm_type": "node",
        "name": "Хотел на кьоше",
        "tourism": "hotel",
        "website": "http://hotel-tran.com/"
      }
    },
    {
      "type": "Feature",
      "geometry": {
        "type": "Point",
        "coordinates": [
          23.2111812,
          42.5669568
        ]
      },
      "properties": {
        "id": 3958685555,
        "osm_type": "node",
        "name": "Танчовица",
        "tourism": "camp_site"
      }
    },
    {
      "type": "Feature",
      "geometry": {
        "type": "Point",
        "coordinates": [
          22.936246,
          42.6001842
        ]
      },
      "properties": {
        "id": 4610726790,
        "osm_type": "node",
        "tourism": "guest_house"
      }
    },
    {
      "type": "Feature",
      "geometry": {
        "type": "Point",
        "coordinates": [
          22.9026574,
          42.7018831
        ]
      },
      "properties": {
        "id": 4758393318,
        "osm_type": "node",
        "name": "Слаковци",
        "tourism": "hotel"
      }
    },
    {
      "type": "Feature",
      "geometry": {
        "type": "Point",
        "coordinates": [
          23.0359167,
          42.5700051
        ]
      },
      "properties": {
        "id": 6203736545,
        "osm_type": "node",
        "name": "Хижа Славей",
        "tourism": "alpine_hut",
        "phone": "+359 88 473 1438"
      }
    },
    {
      "type": "Feature",
      "geometry": {
        "type": "Point",
        "coordinates": [
          23.059414,
          42.5583402
        ]
      },
      "properties": {
        "id": 6204776170,
        "osm_type": "node",
        "name": "Кралев дол",
        "tourism": "alpine_hut"
      }
    },
    {
      "type": "Feature",
      "geometry": {
        "type": "Point",
        "coordinates": [
          22.8448694,
          42.6384533
        ]
      },
      "properties": {
        "id": 6423423361,
        "osm_type": "node",
        "tourism": "guest_house"
      }
    },
    {
      "type": "Feature",
      "geometry": {
        "type": "Point",
        "coordinates": [
          23.005786,
          42.4256089
        ]
      },
      "properties": {
        "id": 6483267585,
        "osm_type": "node",
        "name": "Село",
        "tourism": "camp_site"
      }
    },
    {
      "type": "Feature",
      "geometry": {
        "type": "Point",
        "coordinates": [
          22.9087852,
          42.7334593
        ]
      },
      "properties": {
        "id": 6634673613,
        "osm_type": "node",
        "name": "Хижата",
        "tourism": "hotel"
      }
    },
    {
      "type": "Feature",
      "geometry": {
        "type": "Point",
        "coordinates": [
          22.5945145,
          42.7009303
        ]
      },
      "properties": {
        "id": 7366287689,
        "osm_type": "node",
        "name": "Комплекс Горочевци",
        "tourism": "guest_house"
      }
    },
    {
      "type": "Feature",
      "geometry": {
        "type": "Point",
        "coordinates": [
          23.0115893,
          42.632663
        ]
      },
      "properties": {
        "id": 7398791662,
        "osm_type": "node",
        "name": "Рис",
        "tourism": "motel"
      }
    },
    {
      "type": "Feature",
      "geometry": {
        "type": "Point",
        "coordinates": [
          22.7635162,
          42.5830708
        ]
      },
      "properties": {
        "id": 9405259794,
        "osm_type": "node",
        "name": "Хижа Джамен",
        "tourism": "alpine_hut"
      }
    },
    {
      "type": "Feature",
      "geometry": {
        "type": "Point",
        "coordinates": [
          23.1190959,
          42.5903338
        ]
      },
      "properties": {
        "id": 10293545042,
        "osm_type": "node",
        "name": "Antique",
        "tourism": "hotel"
      }
    },
    {
      "type": "Feature",
      "geometry": {
        "type": "Point",
        "coordinates": [
          22.485217,
          42.7824547
        ]
      },
      "properties": {
        "id": 10815955910,
        "osm_type": "node",
        "name": "Детски лагер Реяновци - бивш",
        "tourism": "camp_site"
      }
    },
    {
      "type": "Feature",
      "geometry": {
        "type": "Point",
        "coordinates": [
          23.0314104,
          42.6048893
        ]
      },
      "properties": {
        "id": 10893129410,
        "osm_type": "node",
        "name": "Струма",
        "tourism": "hotel"
      }
    },
    {
      "type": "Feature",
      "geometry": {
        "type": "Point",
        "coordinates": [
          22.8295986,
          42.4074659
        ]
      },
      "properties": {
        "id": 12298696101,
        "osm_type": "node",
        "name": "Вила за гости Мечта",
        "tourism": "guest_house",
        "opening_hours": "24/7",
        "phone": "+359894892270",
        "website": "https://www.instagram.com/villa.mechta/"
      }
    },
    {
      "type": "Feature",
      "geometry": {
        "type": "Point",
        "coordinates": [
          23.127281,
          42.6454929
        ]
      },
      "properties": {
        "id": 12581993041,
        "osm_type": "node",
        "name": "Ливада spot",
        "tourism": "camp_site"
      }
    },
    {
      "type": "Feature",
      "geometry": {
        "type": "Point",
        "coordinates": [
          23.1674461,
          42.5870122
        ]
      },
      "properties": {
        "id": 150131629,
        "osm_type": "way",
        "name": "Общинска почивна станция",
        "tourism": "hotel"
      }
    },
    {
      "type": "Feature",
      "geometry": {
        "type": "Point",
        "coordinates": [
          23.1639325,
          42.5873164
        ]
      },
      "properties": {
        "id": 150131630,
        "osm_type": "way",
        "tourism": "camp_site"
      }
    },
    {
      "type": "Feature",
      "geometry": {
        "type": "Point",
        "coordinates": [
          23.1682773,
          42.5455024
        ]
      },
      "properties": {
        "id": 338283176,
        "osm_type": "way",
        "name": "ЛОВНА РЕЗИДЕНЦИЯ \"ВИТОШКО - СТУДЕНА\" ",
        "tourism": "hotel"
      }
    },
    {
      "type": "Feature",
      "geometry": {
        "type": "Point",
        "coordinates": [
          23.2035221,
          42.572948
        ]
      },
      "properties": {
        "id": 392680123,
        "osm_type": "way",
        "name": "хижа Селимица",
        "tourism": "alpine_hut",
        "phone": "+359 87 625 6286",
        "website": "https://hija.selimica.com/"
      }
    },
    {
      "type": "Feature",
      "geometry": {
        "type": "Point",
        "coordinates": [
          22.9066923,
          42.7355806
        ]
      },
      "properties": {
        "id": 464157034,
        "osm_type": "way",
        "name": "Бърдото",
        "tourism": "hotel",
        "website": "http://bardoto.com/gallery.html"
      }
    },
    {
      "type": "Feature",
      "geometry": {
        "type": "Point",
        "coordinates": [
          23.107898,
          42.6693644
        ]
      },
      "properties": {
        "id": 481427669,
        "osm_type": "way",
        "name": "х. Люлин (ремонт)",
        "tourism": "alpine_hut"
      }
    },
    {
      "type": "Feature",
      "geometry": {
        "type": "Point",
        "coordinates": [
          23.0036152,
          42.4760887
        ]
      },
      "properties": {
        "id": 501328480,
        "osm_type": "way",
        "name": "Гостилница \"При Мите\"",
        "tourism": "guest_house"
      }
    },
    {
      "type": "Feature",
      "geometry": {
        "type": "Point",
        "coordinates": [
          23.0425861,
          42.4845325
        ]
      },
      "properties": {
        "id": 503061541,
        "osm_type": "way",
        "name": "Хотел Кралско Село",
        "tourism": "hotel",
        "phone": "+359 87 673 5737",
        "website": "https://www.kingsvillage.eu/"
      }
    },
    {
      "type": "Feature",
      "geometry": {
        "type": "Point",
        "coordinates": [
          22.9648566,
          42.5464283
        ]
      },
      "properties": {
        "id": 530890699,
        "osm_type": "way",
        "name": "Хотел Радомир",
        "tourism": "hotel"
      }
    },
    {
      "type": "Feature",
      "geometry": {
        "type": "Point",
        "coordinates": [
          23.1083843,
          42.5266726
        ]
      },
      "properties": {
        "id": 583516434,
        "osm_type": "way",
        "name": "Хижа Върбица",
        "tourism": "alpine_hut"
      }
    },
    {
      "type": "Feature",
      "geometry": {
        "type": "Point",
        "coordinates": [
          22.8515343,
          42.4506654
        ]
      },
      "properties": {
        "id": 616296246,
        "osm_type": "way",
        "name": "Комплекс \"Имението\"",
        "tourism": "hotel"
      }
    },
    {
      "type": "Feature",
      "geometry": {
        "type": "Point",
        "coordinates": [
          23.2225847,
          42.4099477
        ]
      },
      "properties": {
        "id": 630620698,
        "osm_type": "way",
        "name": "Ловна Хижа - Горна Диканя",
        "tourism": "alpine_hut"
      }
    },
    {
      "type": "Feature",
      "geometry": {
        "type": "Point",
        "coordinates": [
          23.1959623,
          42.5725219
        ]
      },
      "properties": {
        "id": 750769403,
        "osm_type": "way",
        "name": "Хотел Вила Магус",
        "tourism": "hotel",
        "contact:website": "https://magusexperience.com/",
        "check_date": "2023-10-29"
      }
    },
    {
      "type": "Feature",
      "geometry": {
        "type": "Point",
        "coordinates": [
          22.5817745,
          42.8699154
        ]
      },
      "properties": {
        "id": 833923896,
        "osm_type": "way",
        "name": "х. Руй",
        "tourism": "alpine_hut"
      }
    },
    {
      "type": "Feature",
      "geometry": {
        "type": "Point",
        "coordinates": [
          22.8915249,
          42.4083843
        ]
      },
      "properties": {
        "id": 969493047,
        "osm_type": "way",
        "name": "Хижа Момин Кладенец",
        "tourism": "alpine_hut"
      }
    },
    {
      "type": "Feature",
      "geometry": {
        "type": "Point",
        "coordinates": [
          23.1191559,
          42.5903857
        ]
      },
      "properties": {
        "id": 1125652471,
        "osm_type": "way",
        "tourism": "hotel"
      }
    },
    {
      "type": "Feature",
      "geometry": {
        "type": "Point",
        "coordinates": [
          23.1823653,
          42.4955933
        ]
      },
      "properties": {
        "id": 1192351277,
        "osm_type": "way",
        "name": "The Bird House Villa",
        "tourism": "guest_house"
      }
    },
    {
      "type": "Feature",
      "geometry": {
        "type": "Point",
        "coordinates": [
          22.917682,
          42.393866
        ]
      },
      "properties": {
        "id": 1216350584,
        "osm_type": "way",
        "name": "х.Ведрица",
        "tourism": "alpine_hut"
      }
    },
    {
      "type": "Feature",
      "geometry": {
        "type": "Point",
        "coordinates": [
          22.7055089,
          42.8619765
        ]
      },
      "properties": {
        "id": 1328249295,
        "osm_type": "way",
        "name": "Стаи за гости Шейтанови",
        "tourism": "guest_house"
      }
    },
    {
      "type": "Feature",
      "geometry": {
        "type": "Point",
        "coordinates": [
          22.9937253,
          42.5645422
        ]
      },
      "properties": {
        "id": 1382916392,
        "osm_type": "way",
        "name": "Орлите",
        "tourism": "alpine_hut"
      }
    }
  ]
}