{
  "type": "FeatureCollection",
  "features": [
    {
      "type": "Feature",
      "geometry": {
        "type": "Point",
        "coordinates": [
          23.3035972,
          42.2305315
        ]
      },
      "properties": {
        "id": 274090272,
        "osm_type": "node",
        "name": "х.Скакавица",
        "tourism": "alpine_hut"
      }
    },
    {
      "type": "Feature",
      "geometry": {
        "type": "Point",
        "coordinates": [
          23.2678635,
          42.2895034
        ]
      },
      "properties": {
        "id": 288850234,
        "osm_type": "node",
        "name": "ApartHotel Sveti Nikola",
        "tourism": "hotel"
      }
    },
    {
      "type": "Feature",
      "geometry": {
        "type": "Point",
        "coordinates": [
          23.25288,
          42.28795
        ]
      },
      "properties": {
        "id": 665791859,
        "osm_type": "node",
        "name": "Емали",
        "tourism": "hotel"
      }
    },
    {
      "type": "Feature",
      "geometry": {
        "type": "Point",
        "coordinates": [
          23.3422442,
          42.1347958
        ]
      },
      "properties": {
        "id": 1429042416,
        "osm_type": "node",
        "name": "Царев връх",
        "tourism": "hotel",
        "website": "http://www.tzarevvrah.com"
      }
    },
    {
      "type": "Feature",
      "geometry": {
        "type": "Point",
        "coordinates": [
          22.68436,
          42.27855
        ]
      },
      "properties": {
        "id": 1671274455,
        "osm_type": "node",
        "name": "Валентино",
        "tourism": "hotel"
      }
    },
    {
      "type": "Feature",
      "geometry": {
        "type": "Point",
        "coordinates": [
          22.68428,
          42.27827
        ]
      },
      "properties": {
        "id": 1671274475,
        "osm_type": "node",
        "name": "Рай",
        "tourism": "hotel"
      }
    },
    {
      "type": "Feature",
      "geometry": {
        "type": "Point",
        "coordinates": [
          23.3531815,
          42.1403333
        ]
      },
      "properties": {
        "id": 2435574618,
        "osm_type": "node",
        "name": "Къмпинг Бор",
        "tourism": "camp_site"
      }
    },
    {
      "type": "Feature",
      "geometry": {
        "type": "Point",
        "coordinates": [
          23.1363138,
          42.1302656
        ]
      },
      "properties": {
        "id": 2690019386,
        "osm_type": "node",
        "name": "Centaur Hotel-Restaurant",
        "tourism": "hotel",
        "phone": "+359 89 588 1410",
        "website": "http://hotel-centaur.com/"
      }
    },
    {
      "type": "Feature",
      "geometry": {
        "type": "Point",
        "coordinates": [
          23.2696201,
          42.291181
        ]
      },
      "properties": {
        "id": 4038771010,
        "osm_type": "node",
        "name": "Via Lacus",
        "tourism": "hotel",
        "phone": "+359 87 666 0441",
        "website": "https://sapareva-banya.com/"
      }
    },
    {
      "type": "Feature",
      "geometry": {
        "type": "Point",
        "coordinates": [
          22.6888874,
          42.2844104
        ]
      },
      "properties": {
        "id": 4204752236,
        "osm_type": "node",
        "name": "Салмина",
        "tourism": "hostel"
      }
    },
    {
      "type": "Feature",
      "geometry": {
        "type": "Point",
        "coordinates": [
          23.2956224,
          42.2654127
        ]
      },
      "properties": {
        "id": 4335596189,
        "osm_type": "node",
        "name": "Вила Ема",
        "tourism": "hotel",
        "phone": "+359 88 899 3690"
      }
    },
    {
      "type": "Feature",
      "geometry": {
        "type": "Point",
        "coordinates": [
          23.0613882,
          42.0892167
        ]
      },
      "properties": {
        "id": 4364131790,
        "osm_type": "node",
        "name": "Вила Бела",
        "tourism": "guest_house",
        "opening_hours": "24/7",
        "phone": "+359 89 959 4849",
        "website": "https://www.airbnb.com/rooms/3480667"
      }
    },
    {
      "type": "Feature",
      "geometry": {
        "type": "Point",
        "coordinates": [
          23.1873179,
          42.1231071
        ]
      },
      "properties": {
        "id": 4392778289,
        "osm_type": "node",
        "name": "Валдис",
        "tourism": "hotel",
        "opening_hours": "24/7",
        "phone": "+359 89 892 0353",
        "website": "http://valdiscomplex.com"
      }
    },
    {
      "type": "Feature",
      "geometry": {
        "type": "Point",
        "coordinates": [
          23.2678157,
          42.2897048
        ]
      },
      "properties": {
        "id": 4397655558,
        "osm_type": "node",
        "tourism": "hotel"
      }
    },
    {
      "type": "Feature",
      "geometry": {
        "type": "Point",
        "coordinates": [
          23.251104,
          42.2912952
        ]
      },
      "properties": {
        "id": 4911427522,
        "osm_type": "node",
        "name": "Верила",
        "tourism": "camp_site",
        "tents": "yes",
        "phone": "+359 88 884 3759",
        "website": "https://camping-verila.com/"
      }
    },
    {
      "type": "Feature",
      "geometry": {
        "type": "Point",
        "coordinates": [
          23.2701082,
          42.2904154
        ]
      },
      "properties": {
        "id": 5108696149,
        "osm_type": "node",
        "name": "Вилен комплекс Дарибел",
        "tourism": "hotel",
        "phone": "+359 89 566 1663",
        "website": "https://www.daribel.eu/"
      }
    },
    {
      "type": "Feature",
      "geometry": {
        "type": "Point",
        "coordinates": [
          23.001201,
          42.1540472
        ]
      },
      "properties": {
        "id": 5420063052,
        "osm_type": "node",
        "name": "Bon Bon Struma",
        "tourism": "hotel"
      }
    },
    {
      "type": "Feature",
      "geometry": {
        "type": "Point",
        "coordinates": [
          23.2620504,
          42.2886594
        ]
      },
      "properties": {
        "id": 5794082326,
        "osm_type": "node",
        "name": "Rado Appartments",
        "tourism": "hotel"
      }
    },
    {
      "type": "Feature",
      "geometry": {
        "type": "Point",
        "coordinates": [
          23.2611251,
          42.2880285
        ]
      },
      "properties": {
        "id": 5794082327,
        "osm_type": "node",
        "name": "Германея",
        "tourism": "hotel"
      }
    },
    {
      "type": "Feature",
      "geometry": {
        "type": "Point",
        "coordinates": [
          23.340682,
          42.1332432
        ]
      },
      "properties": {
        "id": 5851686247,
        "osm_type": "node",
        "name": "Rila Monastery Rooms",
        "tourism": "hostel",
        "opening_hours": "Mo-Su 14:00-16:00, 18:00-19:00",
        "phone": "+359 89 687 2010"
      }
    },
    {
      "type": "Feature",
      "geometry": {
        "type": "Point",
        "coordinates": [
          22.6902039,
          42.2792815
        ]
      },
      "properties": {
        "id": 5907519628,
        "osm_type": "node",
        "name": "Хостел Соната",
        "tourism": "hostel"
      }
    },
    {
      "type": "Feature",
      "geometry": {
        "type": "Point",
        "coordinates": [
          22.7051208,
          42.2659122
        ]
      },
      "properties": {
        "id": 6268105186,
        "osm_type": "node",
        "name": "Тихият Кът",
        "tourism": "guest_house"
      }
    },
    {
      "type": "Feature",
      "geometry": {
        "type": "Point",
        "coordinates": [
          23.1068845,
          42.0941009
        ]
      },
      "properties": {
        "id": 6340680812,
        "osm_type": "node",
        "name": "Къща за гости \"Агачо\"",
        "tourism": "guest_house",
        "phone": "+359 88 545 9407",
        "website": "https://www.argacho.com/"
      }
    },
    {
      "type": "Feature",
      "geometry": {
        "type": "Point",
        "coordinates": [
          22.6897552,
          42.2787248
        ]
      },
      "properties": {
        "id": 6491987086,
        "osm_type": "node",
        "tourism": "apartment"
      }
    },
    {
      "type": "Feature",
      "geometry": {
        "type": "Point",
        "coordinates": [
          23.2705442,
          42.2952143
        ]
      },
      "properties": {
        "id": 6512690710,
        "osm_type": "node",
        "name": "Guesthouse Juli",
        "tourism": "guest_house",
        "phone": "+359 98 835 8115",
        "website": "https://gueshomesjuli.com/en-gb"
      }
    },
    {
      "type": "Feature",
      "geometry": {
        "type": "Point",
        "coordinates": [
          23.3240364,
          42.2344002
        ]
      },
      "properties": {
        "id": 6631434243,
        "osm_type": "node",
        "tourism": "camp_site"
      }
    },
    {
      "type": "Feature",
      "geometry": {
        "type": "Point",
        "coordinates": [
          23.3046846,
          42.2289511
        ]
      },
      "properties": {
        "id": 6673646085,
        "osm_type": "node",
        "tourism": "camp_site"
      }
    },
    {
      "type": "Feature",
      "geometry": {
        "type": "Point",
        "coordinates": [
          23.1725424,
          42.1942725
        ]
      },
      "properties": {
        "id": 7645676462,
        "osm_type": "node",
        "tourism": "camp_site"
      }
    },
    {
      "type": "Feature",
      "geometry": {
        "type": "Point",
        "coordinates": [
          23.296808,
          42.2632081
        ]
      },
      "properties": {
        "id": 7969551227,
        "osm_type": "node",
        "name": "Рила шато",
        "tourism": "hotel"
      }
    },
    {
      "type": "Feature",
      "geometry": {
        "type": "Point",
        "coordinates": [
          23.3555145,
          42.1402566
        ]
      },
      "properties": {
        "id": 8893391096,
        "osm_type": "node",
        "name": "Бунгала Хлебна",
        "tourism": "guest_house"
      }
    },
    {
      "type": "Feature",
      "geometry": {
        "type": "Point",
        "coordinates": [
          23.3541163,
          42.140101
        ]
      },
      "properties": {
        "id": 8893391107,
        "osm_type": "node",
        "name": "Бунгала",
        "tourism": "guest_house"
      }
    },
    {
      "type": "Feature",
      "geometry": {
        "type": "Point",
        "coordinates": [
          23.2654329,
          42.2871661
        ]
      },
      "properties": {
        "id": 9117368235,
        "osm_type": "node",
        "name": "Sveti Nikola Family Hotel",
        "tourism": "hotel",
        "phone": "+359 89 916 3268",
        "website": "https://hotel-svetinikola.net/bg/"
      }
    },
    {
      "type": "Feature",
      "geometry": {
        "type": "Point",
        "coordinates": [
          23.1925284,
          42.1437054
        ]
      },
      "properties": {
        "id": 9140447622,
        "osm_type": "node",
        "name": "Дунковата къща",
        "tourism": "guest_house",
        "phone": "+359 88 943 8201"
      }
    },
    {
      "type": "Feature",
      "geometry": {
        "type": "Point",
        "coordinates": [
          23.1920031,
          42.207406
        ]
      },
      "properties": {
        "id": 9288764089,
        "osm_type": "node",
        "name": "екодом Самоковище",
        "tourism": "alpine_hut"
      }
    },
    {
      "type": "Feature",
      "geometry": {
        "type": "Point",
        "coordinates": [
          23.2686009,
          42.2892876
        ]
      },
      "properties": {
        "id": 9464222676,
        "osm_type": "node",
        "name": "Сапарева апарт и спа",
        "tourism": "hotel",
        "phone": "+359 89 793 9099",
        "website": "https://sapareva-apart.bg/"
      }
    },
    {
      "type": "Feature",
      "geometry": {
        "type": "Point",
        "coordinates": [
          23.2465982,
          42.2872001
        ]
      },
      "properties": {
        "id": 9466235906,
        "osm_type": "node",
        "name": "Комплекс „Бора Бора“",
        "tourism": "hotel"
      }
    },
    {
      "type": "Feature",
      "geometry": {
        "type": "Point",
        "coordinates": [
          23.2689047,
          42.2855581
        ]
      },
      "properties": {
        "id": 9870974318,
        "osm_type": "node",
        "name": "Art Studio",
        "tourism": "alpine_hut"
      }
    },
    {
      "type": "Feature",
      "geometry": {
        "type": "Point",
        "coordinates": [
          23.2698078,
          42.2854792
        ]
      },
      "properties": {
        "id": 9922794669,
        "osm_type": "node",
        "name": "Dariya",
        "tourism": "guest_house"
      }
    },
    {
      "type": "Feature",
      "geometry": {
        "type": "Point",
        "coordinates": [
          23.0918814,
          42.1434516
        ]
      },
      "properties": {
        "id": 10741817102,
        "osm_type": "node",
        "name": "Villa Aya",
        "tourism": "guest_house"
      }
    },
    {
      "type": "Feature",
      "geometry": {
        "type": "Point",
        "coordinates": [
          22.6283917,
          42.3859812
        ]
      },
      "properties": {
        "id": 10771218700,
        "osm_type": "node",
        "name": "Florina Houses",
        "tourism": "guest_house",
        "phone": "+359 88 860 0917",
        "website": "https://florina-houses.business.site/"
      }
    },
    {
      "type": "Feature",
      "geometry": {
        "type": "Point",
        "coordinates": [
          23.0595769,
          42.0863897
        ]
      },
      "properties": {
        "id": 10790100625,
        "osm_type": "node",
        "name": "Мишел",
        "tourism": "hotel"
      }
    },
    {
      "type": "Feature",
      "geometry": {
        "type": "Point",
        "coordinates": [
          23.0771107,
          42.1809401
        ]
      },
      "properties": {
        "id": 10820317973,
        "osm_type": "node",
        "name": "Комплекс \"Кабей\"",
        "tourism": "hotel",
        "phone": "+359 89 843 8353"
      }
    },
    {
      "type": "Feature",
      "geometry": {
        "type": "Point",
        "coordinates": [
          23.1855528,
          42.2710783
        ]
      },
      "properties": {
        "id": 10874273577,
        "osm_type": "node",
        "name": "Къщи за гости \"Планински рай\"",
        "tourism": "guest_house"
      }
    },
    {
      "type": "Feature",
      "geometry": {
        "type": "Point",
        "coordinates": [
          23.1900902,
          42.2704681
        ]
      },
      "properties": {
        "id": 10874273672,
        "osm_type": "node",
        "name": "Къща за домашни любимци",
        "tourism": "guest_house"
      }
    },
    {
      "type": "Feature",
      "geometry": {
        "type": "Point",
        "coordinates": [
          23.2628,
          42.2858524
        ]
      },
      "properties": {
        "id": 10925590131,
        "osm_type": "node",
        "name": "Иванели",
        "tourism": "guest_house"
      }
    },
    {
      "type": "Feature",
      "geometry": {
        "type": "Point",
        "coordinates": [
          23.2480754,
          42.2845057
        ]
      },
      "properties": {
        "id": 10967746657,
        "osm_type": "node",
        "name": "Къщи за гости Викея",
        "tourism": "guest_house",
        "phone": "+359877708006",
        "website": "https://hotelmania.net/hotel/sapareva-banya/vikeya-guest-house/"
      }
    },
    {
      "type": "Feature",
      "geometry": {
        "type": "Point",
        "coordinates": [
          23.4669855,
          42.1385363
        ]
      },
      "properties": {
        "id": 11264531460,
        "osm_type": "node",
        "tourism": "camp_site"
      }
    },
    {
      "type": "Feature",
      "geometry": {
        "type": "Point",
        "coordinates": [
          22.7040763,
          42.3911057
        ]
      },
      "properties": {
        "id": 11424003731,
        "osm_type": "node",
        "tourism": "camp_site"
      }
    },
    {
      "type": "Feature",
      "geometry": {
        "type": "Point",
        "coordinates": [
          23.2159037,
          42.1227446
        ]
      },
      "properties": {
        "id": 11575891869,
        "osm_type": "node",
        "name": "Ритрийт Център Светлина Мир Любов",
        "tourism": "hotel",
        "phone": "087 606 8877",
        "website": "http://retreatpastra.com"
      }
    },
    {
      "type": "Feature",
      "geometry": {
        "type": "Point",
        "coordinates": [
          23.251138,
          42.2869292
        ]
      },
      "properties": {
        "id": 12057705254,
        "osm_type": "node",
        "name": "Меги",
        "tourism": "guest_house"
      }
    },
    {
      "type": "Feature",
      "geometry": {
        "type": "Point",
        "coordinates": [
          22.6809445,
          42.2742981
        ]
      },
      "properties": {
        "id": 12179777737,
        "osm_type": "node",
        "name": "Парк-Хотел \"Кюстендил\"",
        "tourism": "hotel",
        "phone": "+359 883 939 977",
        "website": "https://parkhotelkyustendil.com/"
      }
    },
    {
      "type": "Feature",
      "geometry": {
        "type": "Point",
        "coordinates": [
          22.6967104,
          42.2838868
        ]
      },
      "properties": {
        "id": 12241867901,
        "osm_type": "node",
        "name": "Guest House Ahat",
        "tourism": "guest_house",
        "phone": "0899622399"
      }
    },
    {
      "type": "Feature",
      "geometry": {
        "type": "Point",
        "coordinates": [
          23.2110783,
          42.1824374
        ]
      },
      "properties": {
        "id": 13073936494,
        "osm_type": "node",
        "tourism": "camp_site"
      }
    },
    {
      "type": "Feature",
      "geometry": {
        "type": "Point",
        "coordinates": [
          22.5217498,
          42.2595633
        ]
      },
      "properties": {
        "id": 13208711801,
        "osm_type": "node",
        "name": "Atmanna",
        "tourism": "guest_house"
      }
    },
    {
      "type": "Feature",
      "geometry": {
        "type": "Point",
        "coordinates": [
          23.1336917,
          42.1273347
        ]
      },
      "properties": {
        "id": 13446334039,
        "osm_type": "node",
        "name": "Portala Urban Lodge",
        "tourism": "guest_house",
        "phone": "+359 898 54 66 93",
        "website": "www.portalarila.com"
      }
    },
    {
      "type": "Feature",
      "geometry": {
        "type": "Point",
        "coordinates": [
          23.255882,
          42.291954
        ]
      },
      "properties": {
        "id": 13580363601,
        "osm_type": "node",
        "name": "7 lakes camping",
        "tourism": "camp_site",
        "website": "https://7lakescamping.com/"
      }
    },
    {
      "type": "Feature",
      "geometry": {
        "type": "Point",
        "coordinates": [
          23.2559155,
          42.2923232
        ]
      },
      "properties": {
        "id": 13586205301,
        "osm_type": "node",
        "tourism": "camp_site",
        "phone": "+359 87 912 6330",
        "website": "https://www.7lakescamping.com/"
      }
    },
    {
      "type": "Feature",
      "geometry": {
        "type": "Point",
        "coordinates": [
          22.6838883,
          42.28694
        ]
      },
      "properties": {
        "id": 13618996907,
        "osm_type": "node",
        "name": "Велбъжд",
        "tourism": "hotel"
      }
    },
    {
      "type": "Feature",
      "geometry": {
        "type": "Point",
        "coordinates": [
          22.6215226,
          42.1809797
        ]
      },
      "properties": {
        "id": 180021331,
        "osm_type": "way",
        "name": "Трите Буки",
        "tourism": "hotel"
      }
    },
    {
      "type": "Feature",
      "geometry": {
        "type": "Point",
        "coordinates": [
          23.2960597,
          42.2599546
        ]
      },
      "properties": {
        "id": 229100175,
        "osm_type": "way",
        "name": "Почивна станция на БДЖ",
        "tourism": "hotel"
      }
    },
    {
      "type": "Feature",
      "geometry": {
        "type": "Point",
        "coordinates": [
          23.2990757,
          42.2653789
        ]
      },
      "properties": {
        "id": 230145937,
        "osm_type": "way",
        "name": "Edelvais",
        "tourism": "hotel"
      }
    },
    {
      "type": "Feature",
      "geometry": {
        "type": "Point",
        "coordinates": [
          23.2981529,
          42.2650961
        ]
      },
      "properties": {
        "id": 230145938,
        "osm_type": "way",
        "name": "Magnoliya",
        "tourism": "hotel"
      }
    },
    {
      "type": "Feature",
      "geometry": {
        "type": "Point",
        "coordinates": [
          23.2920736,
          42.2661846
        ]
      },
      "properties": {
        "id": 230145939,
        "osm_type": "way",
        "name": "Бор",
        "tourism": "hotel"
      }
    },
    {
      "type": "Feature",
      "geometry": {
        "type": "Point",
        "coordinates": [
          23.2924218,
          42.2651929
        ]
      },
      "properties": {
        "id": 230145940,
        "osm_type": "way",
        "name": "Енергоремонт",
        "tourism": "hotel"
      }
    },
    {
      "type": "Feature",
      "geometry": {
        "type": "Point",
        "coordinates": [
          23.2944007,
          42.2669833
        ]
      },
      "properties": {
        "id": 230145941,
        "osm_type": "way",
        "name": "Панорама",
        "tourism": "hotel"
      }
    },
    {
      "type": "Feature",
      "geometry": {
        "type": "Point",
        "coordinates": [
          23.2974892,
          42.266247
        ]
      },
      "properties": {
        "id": 230145947,
        "osm_type": "way",
        "name": "103 View Park Hotel & SPA",
        "tourism": "hotel",
        "website": "https://www.hotelview103.bg/bg/restaurant"
      }
    },
    {
      "type": "Feature",
      "geometry": {
        "type": "Point",
        "coordinates": [
          23.2988032,
          42.2632136
        ]
      },
      "properties": {
        "id": 230145950,
        "osm_type": "way",
        "name": "Бендида",
        "tourism": "alpine_hut"
      }
    },
    {
      "type": "Feature",
      "geometry": {
        "type": "Point",
        "coordinates": [
          23.1166539,
          42.2641155
        ]
      },
      "properties": {
        "id": 246866595,
        "osm_type": "way",
        "name": "Хотел \"Рила\"",
        "tourism": "hotel",
        "phone": "+359 897 91 99 06",
        "website": "https://hotelrila.net/"
      }
    },
    {
      "type": "Feature",
      "geometry": {
        "type": "Point",
        "coordinates": [
          22.6242696,
          42.1974095
        ]
      },
      "properties": {
        "id": 354061476,
        "osm_type": "way",
        "name": "хижа Осогово",
        "tourism": "alpine_hut"
      }
    },
    {
      "type": "Feature",
      "geometry": {
        "type": "Point",
        "coordinates": [
          23.2834541,
          42.1896954
        ]
      },
      "properties": {
        "id": 359187851,
        "osm_type": "way",
        "name": "хижа Иван Вазов",
        "tourism": "alpine_hut"
      }
    },
    {
      "type": "Feature",
      "geometry": {
        "type": "Point",
        "coordinates": [
          23.3093947,
          42.248479
        ]
      },
      "properties": {
        "id": 390986889,
        "osm_type": "way",
        "name": "Зелени преслап",
        "tourism": "alpine_hut"
      }
    },
    {
      "type": "Feature",
      "geometry": {
        "type": "Point",
        "coordinates": [
          22.683068,
          42.4125436
        ]
      },
      "properties": {
        "id": 420538062,
        "osm_type": "way",
        "name": "Къща за гости \"Скакавица\"",
        "tourism": "chalet"
      }
    },
    {
      "type": "Feature",
      "geometry": {
        "type": "Point",
        "coordinates": [
          22.6555476,
          42.2340847
        ]
      },
      "properties": {
        "id": 432056135,
        "osm_type": "way",
        "name": "хижа Иглика",
        "tourism": "alpine_hut",
        "phone": "+359 89 399 0815"
      }
    },
    {
      "type": "Feature",
      "geometry": {
        "type": "Point",
        "coordinates": [
          22.6274277,
          42.1736866
        ]
      },
      "properties": {
        "id": 437572466,
        "osm_type": "way",
        "name": "Хотел Руен",
        "tourism": "hotel",
        "phone": "+359 87 750 5545",
        "website": "http://hotelruen.bg/"
      }
    },
    {
      "type": "Feature",
      "geometry": {
        "type": "Point",
        "coordinates": [
          23.4063025,
          42.1547723
        ]
      },
      "properties": {
        "id": 471393146,
        "osm_type": "way",
        "name": "Яфора",
        "tourism": "guest_house"
      }
    },
    {
      "type": "Feature",
      "geometry": {
        "type": "Point",
        "coordinates": [
          23.3240822,
          42.2075787
        ]
      },
      "properties": {
        "id": 527259767,
        "osm_type": "way",
        "name": "хижа Седемте езера",
        "tourism": "alpine_hut",
        "phone": "+359 885960376"
      }
    },
    {
      "type": "Feature",
      "geometry": {
        "type": "Point",
        "coordinates": [
          23.3216857,
          42.2198406
        ]
      },
      "properties": {
        "id": 527259772,
        "osm_type": "way",
        "name": "хижа Рилски езера",
        "tourism": "alpine_hut",
        "phone": "+359 88 650 9409",
        "website": "https://rilskiezera.bg/"
      }
    },
    {
      "type": "Feature",
      "geometry": {
        "type": "Point",
        "coordinates": [
          22.9782995,
          42.1618003
        ]
      },
      "properties": {
        "id": 609571919,
        "osm_type": "way",
        "name": "хижа Пионер",
        "tourism": "alpine_hut"
      }
    },
    {
      "type": "Feature",
      "geometry": {
        "type": "Point",
        "coordinates": [
          23.2970682,
          42.1164347
        ]
      },
      "properties": {
        "id": 614201013,
        "osm_type": "way",
        "name": "хотел Горски кът",
        "tourism": "hotel",
        "phone": "+359 87 858 4573"
      }
    },
    {
      "type": "Feature",
      "geometry": {
        "type": "Point",
        "coordinates": [
          23.3457984,
          42.1367716
        ]
      },
      "properties": {
        "id": 622900298,
        "osm_type": "way",
        "name": "Rilets Resort & SPA",
        "tourism": "hotel",
        "phone": "+359 87 681 0008",
        "website": "https://www.riletsresort.com/"
      }
    },
    {
      "type": "Feature",
      "geometry": {
        "type": "Point",
        "coordinates": [
          23.2365897,
          42.1240428
        ]
      },
      "properties": {
        "id": 793331865,
        "osm_type": "way",
        "name": "Хан Дяволски води",
        "tourism": "hotel",
        "website": "https://handyavolskivodi.com/"
      }
    },
    {
      "type": "Feature",
      "geometry": {
        "type": "Point",
        "coordinates": [
          23.3980533,
          42.1544667
        ]
      },
      "properties": {
        "id": 942830661,
        "osm_type": "way",
        "name": "Стаи за гости \"Кирилова поляна\"",
        "tourism": "guest_house"
      }
    },
    {
      "type": "Feature",
      "geometry": {
        "type": "Point",
        "coordinates": [
          23.1342327,
          42.1271706
        ]
      },
      "properties": {
        "id": 972875662,
        "osm_type": "way",
        "tourism": "hotel"
      }
    },
    {
      "type": "Feature",
      "geometry": {
        "type": "Point",
        "coordinates": [
          22.6856517,
          42.2856786
        ]
      },
      "properties": {
        "id": 977565705,
        "osm_type": "way",
        "name": "Лазур",
        "tourism": "hotel",
        "website": "https://www.hotellazur.com/"
      }
    },
    {
      "type": "Feature",
      "geometry": {
        "type": "Point",
        "coordinates": [
          23.2054317,
          42.2716565
        ]
      },
      "properties": {
        "id": 981935782,
        "osm_type": "way",
        "tourism": "hotel"
      }
    },
    {
      "type": "Feature",
      "geometry": {
        "type": "Point",
        "coordinates": [
          23.2134317,
          42.1232315
        ]
      },
      "properties": {
        "id": 988932310,
        "osm_type": "way",
        "name": "Кириловата къща",
        "tourism": "guest_house",
        "phone": "+359 88 406 6170",
        "website": "https://facebook.com/kirilovakyshta"
      }
    },
    {
      "type": "Feature",
      "geometry": {
        "type": "Point",
        "coordinates": [
          23.133848,
          42.1268869
        ]
      },
      "properties": {
        "id": 988950597,
        "osm_type": "way",
        "name": "Стаи за гости Гешеви",
        "tourism": "guest_house"
      }
    },
    {
      "type": "Feature",
      "geometry": {
        "type": "Point",
        "coordinates": [
          23.1300297,
          42.1241783
        ]
      },
      "properties": {
        "id": 1014155615,
        "osm_type": "way",
        "name": "Къща за гости РИЛА",
        "tourism": "guest_house",
        "phone": "+359 87 774 2111"
      }
    },
    {
      "type": "Feature",
      "geometry": {
        "type": "Point",
        "coordinates": [
          23.2204518,
          42.1265722
        ]
      },
      "properties": {
        "id": 1067737235,
        "osm_type": "way",
        "tourism": "hotel"
      }
    },
    {
      "type": "Feature",
      "geometry": {
        "type": "Point",
        "coordinates": [
          23.2755621,
          42.1210467
        ]
      },
      "properties": {
        "id": 1074631954,
        "osm_type": "way",
        "name": "При мечо",
        "tourism": "hotel"
      }
    },
    {
      "type": "Feature",
      "geometry": {
        "type": "Point",
        "coordinates": [
          23.4938475,
          42.1123779
        ]
      },
      "properties": {
        "id": 1074788504,
        "osm_type": "way",
        "name": "хижа Рибни езера",
        "tourism": "alpine_hut"
      }
    },
    {
      "type": "Feature",
      "geometry": {
        "type": "Point",
        "coordinates": [
          23.1069744,
          42.0942164
        ]
      },
      "properties": {
        "id": 1074820850,
        "osm_type": "way",
        "tourism": "guest_house"
      }
    },
    {
      "type": "Feature",
      "geometry": {
        "type": "Point",
        "coordinates": [
          23.3390073,
          42.2288744
        ]
      },
      "properties": {
        "id": 1084469576,
        "osm_type": "way",
        "name": "х.Ловна",
        "tourism": "alpine_hut"
      }
    },
    {
      "type": "Feature",
      "geometry": {
        "type": "Point",
        "coordinates": [
          23.2558734,
          42.2874842
        ]
      },
      "properties": {
        "id": 1106870615,
        "osm_type": "way",
        "name": "103 градуса",
        "tourism": "hotel",
        "phone": "+359 88 610 3103",
        "website": "https://www.spahotel103.bg/",
        "check_date": "2025-08-30"
      }
    },
    {
      "type": "Feature",
      "geometry": {
        "type": "Point",
        "coordinates": [
          23.2986142,
          42.2621061
        ]
      },
      "properties": {
        "id": 1157022070,
        "osm_type": "way",
        "name": "Бендида",
        "tourism": "alpine_hut"
      }
    },
    {
      "type": "Feature",
      "geometry": {
        "type": "Point",
        "coordinates": [
          23.2914189,
          42.2649804
        ]
      },
      "properties": {
        "id": 1157022074,
        "osm_type": "way",
        "name": "Теменуга",
        "tourism": "hotel"
      }
    },
    {
      "type": "Feature",
      "geometry": {
        "type": "Point",
        "coordinates": [
          23.3232518,
          42.2437135
        ]
      },
      "properties": {
        "id": 1157022076,
        "osm_type": "way",
        "name": "х.Пионерска",
        "tourism": "alpine_hut"
      }
    },
    {
      "type": "Feature",
      "geometry": {
        "type": "Point",
        "coordinates": [
          23.2653755,
          42.2883199
        ]
      },
      "properties": {
        "id": 1157281105,
        "osm_type": "way",
        "name": "Къща за гости Ивел",
        "tourism": "guest_house",
        "phone": "+359898568519"
      }
    },
    {
      "type": "Feature",
      "geometry": {
        "type": "Point",
        "coordinates": [
          22.9772162,
          42.1613478
        ]
      },
      "properties": {
        "id": 1161710103,
        "osm_type": "way",
        "name": "хижа Яна",
        "tourism": "alpine_hut"
      }
    },
    {
      "type": "Feature",
      "geometry": {
        "type": "Point",
        "coordinates": [
          23.2239577,
          42.2346671
        ]
      },
      "properties": {
        "id": 1163965346,
        "osm_type": "way",
        "name": "хижа Отовица",
        "tourism": "alpine_hut"
      }
    },
    {
      "type": "Feature",
      "geometry": {
        "type": "Point",
        "coordinates": [
          23.1384573,
          42.2201937
        ]
      },
      "properties": {
        "id": 1177660858,
        "osm_type": "way",
        "name": "ПД Енерго - Вила Електра",
        "tourism": "hotel",
        "phone": "+35970125223",
        "website": "https://villaelectra.hotelonia.com/"
      }
    },
    {
      "type": "Feature",
      "geometry": {
        "type": "Point",
        "coordinates": [
          22.8497016,
          42.2540082
        ]
      },
      "properties": {
        "id": 1180740913,
        "osm_type": "way",
        "name": "Къща за гости „Миревата къща“",
        "tourism": "guest_house",
        "website": "https://www.facebook.com/www.mirevata.hit.bg/"
      }
    },
    {
      "type": "Feature",
      "geometry": {
        "type": "Point",
        "coordinates": [
          23.1631738,
          42.2402391
        ]
      },
      "properties": {
        "id": 1180964630,
        "osm_type": "way",
        "name": "Вила Бистрица",
        "tourism": "guest_house",
        "phone": "+359899170562",
        "website": "https://vila.bg/house-bistritsa-3020.html"
      }
    },
    {
      "type": "Feature",
      "geometry": {
        "type": "Point",
        "coordinates": [
          23.2487104,
          42.2844663
        ]
      },
      "properties": {
        "id": 1180964663,
        "osm_type": "way",
        "name": "Белият кът",
        "tourism": "guest_house",
        "phone": "+359 87 716 4590",
        "website": "https://guest-house-5057.business.site/"
      }
    },
    {
      "type": "Feature",
      "geometry": {
        "type": "Point",
        "coordinates": [
          23.2489309,
          42.2848192
        ]
      },
      "properties": {
        "id": 1180964664,
        "osm_type": "way",
        "name": "Семеен хотел При Вергил",
        "tourism": "guest_house",
        "phone": "+359 88 904 0448"
      }
    },
    {
      "type": "Feature",
      "geometry": {
        "type": "Point",
        "coordinates": [
          23.2487066,
          42.284724
        ]
      },
      "properties": {
        "id": 1180964665,
        "osm_type": "way",
        "name": "Андреевите къщи",
        "tourism": "guest_house",
        "phone": "+359 88 850 4253"
      }
    },
    {
      "type": "Feature",
      "geometry": {
        "type": "Point",
        "coordinates": [
          23.2488557,
          42.2847042
        ]
      },
      "properties": {
        "id": 1180964666,
        "osm_type": "way",
        "name": "Андреевите къщи",
        "tourism": "guest_house",
        "phone": "+359 88 850 4253"
      }
    },
    {
      "type": "Feature",
      "geometry": {
        "type": "Point",
        "coordinates": [
          23.2489924,
          42.2846864
        ]
      },
      "properties": {
        "id": 1180964667,
        "osm_type": "way",
        "name": "Андреевите къщи",
        "tourism": "guest_house",
        "phone": "+359 88 850 4253"
      }
    },
    {
      "type": "Feature",
      "geometry": {
        "type": "Point",
        "coordinates": [
          23.2481981,
          42.2845758
        ]
      },
      "properties": {
        "id": 1180964668,
        "osm_type": "way",
        "tourism": "guest_house"
      }
    },
    {
      "type": "Feature",
      "geometry": {
        "type": "Point",
        "coordinates": [
          23.2483968,
          42.2844532
        ]
      },
      "properties": {
        "id": 1180964669,
        "osm_type": "way",
        "tourism": "guest_house"
      }
    },
    {
      "type": "Feature",
      "geometry": {
        "type": "Point",
        "coordinates": [
          23.2481674,
          42.2844016
        ]
      },
      "properties": {
        "id": 1180964670,
        "osm_type": "way",
        "tourism": "guest_house"
      }
    },
    {
      "type": "Feature",
      "geometry": {
        "type": "Point",
        "coordinates": [
          23.2490226,
          42.28498
        ]
      },
      "properties": {
        "id": 1180964672,
        "osm_type": "way",
        "tourism": "guest_house"
      }
    },
    {
      "type": "Feature",
      "geometry": {
        "type": "Point",
        "coordinates": [
          23.2487907,
          42.2861195
        ]
      },
      "properties": {
        "id": 1180964676,
        "osm_type": "way",
        "name": "Apartments Gyuviyski",
        "tourism": "guest_house"
      }
    },
    {
      "type": "Feature",
      "geometry": {
        "type": "Point",
        "coordinates": [
          23.254948,
          42.2879956
        ]
      },
      "properties": {
        "id": 1180964679,
        "osm_type": "way",
        "name": "Петте Елемента",
        "tourism": "hotel",
        "phone": "+359 88 968 8558",
        "website": "https://thefiveelementshotel.com/"
      }
    },
    {
      "type": "Feature",
      "geometry": {
        "type": "Point",
        "coordinates": [
          23.2722051,
          42.2862317
        ]
      },
      "properties": {
        "id": 1186847047,
        "osm_type": "way",
        "tourism": "guest_house"
      }
    },
    {
      "type": "Feature",
      "geometry": {
        "type": "Point",
        "coordinates": [
          23.254371,
          42.2875302
        ]
      },
      "properties": {
        "id": 1196077695,
        "osm_type": "way",
        "name": "Диневи",
        "tourism": "guest_house"
      }
    },
    {
      "type": "Feature",
      "geometry": {
        "type": "Point",
        "coordinates": [
          23.1656683,
          42.2385742
        ]
      },
      "properties": {
        "id": 1196882051,
        "osm_type": "way",
        "name": "Комплекс Зодиак | Къща за гости Бистрица",
        "tourism": "guest_house",
        "phone": "+359897014455"
      }
    },
    {
      "type": "Feature",
      "geometry": {
        "type": "Point",
        "coordinates": [
          23.1659382,
          42.2384806
        ]
      },
      "properties": {
        "id": 1196882052,
        "osm_type": "way",
        "name": "Комплекс Зодиак | Къща за гости Бистрица",
        "tourism": "guest_house",
        "phone": "+359897014455"
      }
    },
    {
      "type": "Feature",
      "geometry": {
        "type": "Point",
        "coordinates": [
          23.1656323,
          42.2384668
        ]
      },
      "properties": {
        "id": 1196882053,
        "osm_type": "way",
        "name": "Комплекс Зодиак | Къща за гости Бистрица",
        "tourism": "guest_house",
        "phone": "+359897014455"
      }
    },
    {
      "type": "Feature",
      "geometry": {
        "type": "Point",
        "coordinates": [
          22.5804198,
          42.1883481
        ]
      },
      "properties": {
        "id": 1203076396,
        "osm_type": "way",
        "name": "Заслон Превала",
        "tourism": "alpine_hut"
      }
    },
    {
      "type": "Feature",
      "geometry": {
        "type": "Point",
        "coordinates": [
          23.3047858,
          42.3604683
        ]
      },
      "properties": {
        "id": 1205405333,
        "osm_type": "way",
        "name": "Ловна хижа ЛД Ресилово",
        "tourism": "alpine_hut"
      }
    },
    {
      "type": "Feature",
      "geometry": {
        "type": "Point",
        "coordinates": [
          23.2957463,
          42.2592903
        ]
      },
      "properties": {
        "id": 1210556367,
        "osm_type": "way",
        "name": "Algara",
        "tourism": "hotel"
      }
    },
    {
      "type": "Feature",
      "geometry": {
        "type": "Point",
        "coordinates": [
          23.2999707,
          42.264702
        ]
      },
      "properties": {
        "id": 1210556368,
        "osm_type": "way",
        "name": "Hunting Residance",
        "tourism": "hotel"
      }
    },
    {
      "type": "Feature",
      "geometry": {
        "type": "Point",
        "coordinates": [
          22.690199,
          42.2842884
        ]
      },
      "properties": {
        "id": 1239440949,
        "osm_type": "way",
        "name": "Стримон Гардън",
        "tourism": "hotel",
        "phone": "+359 879 35 36 49",
        "website": "https://strimon.bg/"
      }
    }
  ]
}