{
  "type": "FeatureCollection",
  "features": [
    {
      "type": "Feature",
      "geometry": {
        "type": "Point",
        "coordinates": [
          16.5362258,
          46.0150781
        ]
      },
      "properties": {
        "id": 552913290,
        "osm_type": "node",
        "name": "KTC",
        "tourism": "hostel"
      }
    },
    {
      "type": "Feature",
      "geometry": {
        "type": "Point",
        "coordinates": [
          16.5416762,
          46.0210758
        ]
      },
      "properties": {
        "id": 660870974,
        "osm_type": "node",
        "name": "Hostel Križevci",
        "tourism": "hostel"
      }
    },
    {
      "type": "Feature",
      "geometry": {
        "type": "Point",
        "coordinates": [
          16.7278079,
          46.1706263
        ]
      },
      "properties": {
        "id": 935163227,
        "osm_type": "node",
        "name": "Planinarska kuća Rudi Jurić",
        "tourism": "alpine_hut"
      }
    },
    {
      "type": "Feature",
      "geometry": {
        "type": "Point",
        "coordinates": [
          16.8271036,
          46.1621219
        ]
      },
      "properties": {
        "id": 2111246986,
        "osm_type": "node",
        "name": "Hotel Podravina",
        "tourism": "hotel"
      }
    },
    {
      "type": "Feature",
      "geometry": {
        "type": "Point",
        "coordinates": [
          16.7586189,
          46.2384703
        ]
      },
      "properties": {
        "id": 5989622802,
        "osm_type": "node",
        "name": "smještaj Zagec",
        "tourism": "apartment"
      }
    },
    {
      "type": "Feature",
      "geometry": {
        "type": "Point",
        "coordinates": [
          17.2483383,
          46.0279154
        ]
      },
      "properties": {
        "id": 6543354408,
        "osm_type": "node",
        "name": "Ethno Village Karlovčan",
        "tourism": "camp_site"
      }
    },
    {
      "type": "Feature",
      "geometry": {
        "type": "Point",
        "coordinates": [
          17.082945,
          46.1518445
        ]
      },
      "properties": {
        "id": 6823761117,
        "osm_type": "node",
        "name": "Bike and Bed",
        "tourism": "guest_house"
      }
    },
    {
      "type": "Feature",
      "geometry": {
        "type": "Point",
        "coordinates": [
          17.071466,
          46.119005
        ]
      },
      "properties": {
        "id": 6855283360,
        "osm_type": "node",
        "tourism": "guest_house",
        "phone": "+385919554544",
        "website": "https://www.facebook.com/Selja%C4%8Dko-doma%C4%87instvo-Ivan%C4%8Dan-126807057746425/"
      }
    },
    {
      "type": "Feature",
      "geometry": {
        "type": "Point",
        "coordinates": [
          16.5406684,
          46.036829
        ]
      },
      "properties": {
        "id": 6899538136,
        "osm_type": "node",
        "name": "Kapetanova kuća",
        "tourism": "guest_house",
        "contact:phone": "+385 48 712 387",
        "contact:website": "https://www.kapetanova-kuca.hr/",
        "check_date": "2025-02-23"
      }
    },
    {
      "type": "Feature",
      "geometry": {
        "type": "Point",
        "coordinates": [
          16.8326904,
          46.1535571
        ]
      },
      "properties": {
        "id": 9392874190,
        "osm_type": "node",
        "name": "Hotel ZRINSKI",
        "tourism": "hotel"
      }
    },
    {
      "type": "Feature",
      "geometry": {
        "type": "Point",
        "coordinates": [
          16.8231589,
          46.1617276
        ]
      },
      "properties": {
        "id": 9678435917,
        "osm_type": "node",
        "name": "Apartment Cecilia",
        "tourism": "apartment"
      }
    },
    {
      "type": "Feature",
      "geometry": {
        "type": "Point",
        "coordinates": [
          17.0716234,
          46.1191736
        ]
      },
      "properties": {
        "id": 9796725870,
        "osm_type": "node",
        "name": "Camping Ivančan",
        "tourism": "camp_site"
      }
    },
    {
      "type": "Feature",
      "geometry": {
        "type": "Point",
        "coordinates": [
          16.9597703,
          46.1583655
        ]
      },
      "properties": {
        "id": 10023284905,
        "osm_type": "node",
        "name": "Bed and Bike",
        "tourism": "camp_site"
      }
    },
    {
      "type": "Feature",
      "geometry": {
        "type": "Point",
        "coordinates": [
          16.5864117,
          46.0885509
        ]
      },
      "properties": {
        "id": 11366336016,
        "osm_type": "node",
        "name": "Rakić seoski turizam",
        "tourism": "guest_house"
      }
    },
    {
      "type": "Feature",
      "geometry": {
        "type": "Point",
        "coordinates": [
          17.2484668,
          46.0281821
        ]
      },
      "properties": {
        "id": 11784702167,
        "osm_type": "node",
        "tourism": "guest_house"
      }
    },
    {
      "type": "Feature",
      "geometry": {
        "type": "Point",
        "coordinates": [
          17.0576323,
          46.197949
        ]
      },
      "properties": {
        "id": 12316085579,
        "osm_type": "node",
        "name": "Kod Kraljevih",
        "tourism": "apartment"
      }
    },
    {
      "type": "Feature",
      "geometry": {
        "type": "Point",
        "coordinates": [
          16.8557159,
          46.2981426
        ]
      },
      "properties": {
        "id": 12999265778,
        "osm_type": "node",
        "name": "Legradanka",
        "tourism": "apartment"
      }
    },
    {
      "type": "Feature",
      "geometry": {
        "type": "Point",
        "coordinates": [
          16.4627465,
          46.1322828
        ]
      },
      "properties": {
        "id": 383847046,
        "osm_type": "way",
        "name": "Planinarski dom Kalnik",
        "tourism": "alpine_hut",
        "opening_hours": "Tu-Su 08:00-23:00; PH 08:00-23:00"
      }
    },
    {
      "type": "Feature",
      "geometry": {
        "type": "Point",
        "coordinates": [
          16.8424104,
          46.152974
        ]
      },
      "properties": {
        "id": 506268313,
        "osm_type": "way",
        "tourism": "caravan_site",
        "tents": "no"
      }
    },
    {
      "type": "Feature",
      "geometry": {
        "type": "Point",
        "coordinates": [
          16.5459327,
          46.0219745
        ]
      },
      "properties": {
        "id": 598072952,
        "osm_type": "way",
        "name": "Hotel Kalnik",
        "tourism": "hotel"
      }
    },
    {
      "type": "Feature",
      "geometry": {
        "type": "Point",
        "coordinates": [
          16.9237507,
          46.2448206
        ]
      },
      "properties": {
        "id": 1065734917,
        "osm_type": "way",
        "name": "Kamp odmorište Aquaterra",
        "tourism": "camp_site",
        "tents": "yes"
      }
    },
    {
      "type": "Feature",
      "geometry": {
        "type": "Point",
        "coordinates": [
          16.827957,
          46.1647416
        ]
      },
      "properties": {
        "id": 1166016225,
        "osm_type": "way",
        "tourism": "apartment"
      }
    },
    {
      "type": "Feature",
      "geometry": {
        "type": "Point",
        "coordinates": [
          17.0693875,
          46.0430769
        ]
      },
      "properties": {
        "id": 1305312416,
        "osm_type": "way",
        "name": "Hotel Picok",
        "tourism": "hotel",
        "website": "https://www.hotel-picok.hr/"
      }
    },
    {
      "type": "Feature",
      "geometry": {
        "type": "Point",
        "coordinates": [
          16.7900315,
          46.1792811
        ]
      },
      "properties": {
        "id": 1372422569,
        "osm_type": "way",
        "name": "Zlatan Hotel Restaurant",
        "tourism": "hotel",
        "check_date": "2025-03-17"
      }
    },
    {
      "type": "Feature",
      "geometry": {
        "type": "Point",
        "coordinates": [
          16.579747,
          46.1867012
        ]
      },
      "properties": {
        "id": 1408617550,
        "osm_type": "way",
        "tourism": "chalet"
      }
    },
    {
      "type": "Feature",
      "geometry": {
        "type": "Point",
        "coordinates": [
          17.07487,
          46.050313
        ]
      },
      "properties": {
        "id": 1426190314,
        "osm_type": "way",
        "name": "Hostel Borik",
        "tourism": "hostel",
        "phone": "091 620 5395",
        "website": "https://djurdjevac.hr/gradska-uprava/prosirenje-turisticke-ponude-otvara-se-novi-restoran-u-hostelu-borik/"
      }
    },
    {
      "type": "Feature",
      "geometry": {
        "type": "Point",
        "coordinates": [
          16.8030837,
          46.1022217
        ]
      },
      "properties": {
        "id": 1481744558,
        "osm_type": "way",
        "name": "Sunčano Selo",
        "tourism": "camp_site"
      }
    },
    {
      "type": "Feature",
      "geometry": {
        "type": "Point",
        "coordinates": [
          16.9928699,
          46.0630532
        ]
      },
      "properties": {
        "id": 1497468059,
        "osm_type": "way",
        "tourism": "hostel"
      }
    }
  ]
}