{
  "type": "FeatureCollection",
  "features": [
    {
      "type": "Feature",
      "geometry": {
        "type": "Point",
        "coordinates": [
          27.6907346,
          62.8915128
        ]
      },
      "properties": {
        "id": 292806113,
        "osm_type": "node",
        "name": "Jahtihovi",
        "tourism": "hotel",
        "phone": "+358 17 2644 400",
        "website": "https://www.jahtihovi.fi/"
      }
    },
    {
      "type": "Feature",
      "geometry": {
        "type": "Point",
        "coordinates": [
          27.7772987,
          62.488288
        ]
      },
      "properties": {
        "id": 295073552,
        "osm_type": "node",
        "name": "Sport & Spa Hotel Vesileppis",
        "tourism": "hotel",
        "website": "https://www.vesileppis.fi/"
      }
    },
    {
      "type": "Feature",
      "geometry": {
        "type": "Point",
        "coordinates": [
          26.8573472,
          63.5897569
        ]
      },
      "properties": {
        "id": 301977598,
        "osm_type": "node",
        "name": "Spa Hotel Runni",
        "tourism": "hotel",
        "phone": "+358 17 768 751",
        "website": "https://spahotelrunni.fi/"
      }
    },
    {
      "type": "Feature",
      "geometry": {
        "type": "Point",
        "coordinates": [
          27.6780468,
          62.8963753
        ]
      },
      "properties": {
        "id": 339659682,
        "osm_type": "node",
        "name": "Lapland Hotels Kuopio",
        "tourism": "hotel",
        "phone": "+358 300 870424",
        "website": "https://www.laplandhotels.com/FI/kaupunkihotellit/kuopio/lapland-hotels-kuopio.html",
        "check_date": "2024-05-13"
      }
    },
    {
      "type": "Feature",
      "geometry": {
        "type": "Point",
        "coordinates": [
          27.6769481,
          62.891831
        ]
      },
      "properties": {
        "id": 339660092,
        "osm_type": "node",
        "name": "Scandic Atlas",
        "tourism": "hotel",
        "phone": "+358 300 8704 23",
        "website": "https://www.scandichotels.fi/hotellit/suomi/kuopio/scandic-atlas",
        "check_date": "2024-05-09"
      }
    },
    {
      "type": "Feature",
      "geometry": {
        "type": "Point",
        "coordinates": [
          27.660715,
          63.0763158
        ]
      },
      "properties": {
        "id": 401868297,
        "osm_type": "node",
        "name": "Hotelli Sandels",
        "tourism": "hotel"
      }
    },
    {
      "type": "Feature",
      "geometry": {
        "type": "Point",
        "coordinates": [
          26.8526927,
          63.5887901
        ]
      },
      "properties": {
        "id": 457904579,
        "osm_type": "node",
        "name": "Kartanohotelli",
        "tourism": "hotel",
        "website": "https://spahotelrunni.fi/majoitus-kylpylahotelli-hotelli/kartanohotelli/"
      }
    },
    {
      "type": "Feature",
      "geometry": {
        "type": "Point",
        "coordinates": [
          27.6519013,
          62.9011521
        ]
      },
      "properties": {
        "id": 602621937,
        "osm_type": "node",
        "name": "Hotel Savonia",
        "tourism": "hotel",
        "phone": "+358 17 2555100",
        "website": "https://www.hotelsavonia.fi/",
        "check_date": "2025-07-25"
      }
    },
    {
      "type": "Feature",
      "geometry": {
        "type": "Point",
        "coordinates": [
          27.9986172,
          63.0696745
        ]
      },
      "properties": {
        "id": 649261680,
        "osm_type": "node",
        "tourism": "hotel"
      }
    },
    {
      "type": "Feature",
      "geometry": {
        "type": "Point",
        "coordinates": [
          27.6983675,
          62.9744488
        ]
      },
      "properties": {
        "id": 722390840,
        "osm_type": "node",
        "name": "Kylpylähotelli Kunnonpaikka",
        "tourism": "hotel"
      }
    },
    {
      "type": "Feature",
      "geometry": {
        "type": "Point",
        "coordinates": [
          26.989469,
          63.7385502
        ]
      },
      "properties": {
        "id": 738387110,
        "osm_type": "node",
        "name": "Lepokatin lomamökit",
        "tourism": "chalet",
        "phone": "+358 40 553 1318",
        "website": "http://kotisivu.lumonetti.fi/xtuulens/"
      }
    },
    {
      "type": "Feature",
      "geometry": {
        "type": "Point",
        "coordinates": [
          28.036579,
          63.2931075
        ]
      },
      "properties": {
        "id": 824068361,
        "osm_type": "node",
        "name": "Ukko Bar & Restaurant",
        "tourism": "hotel",
        "phone": "+358 50 410 1276",
        "website": "https://tahkonukko.fi/",
        "check_date": "2026-04-06"
      }
    },
    {
      "type": "Feature",
      "geometry": {
        "type": "Point",
        "coordinates": [
          28.0383839,
          63.291565
        ]
      },
      "properties": {
        "id": 1084339785,
        "osm_type": "node",
        "name": "Break Sokos Hotel Tahko",
        "tourism": "hotel",
        "website": "https://www.sokoshotels.fi/en/tahkovuori/sokos-hotel-tahko"
      }
    },
    {
      "type": "Feature",
      "geometry": {
        "type": "Point",
        "coordinates": [
          28.0147126,
          63.3130071
        ]
      },
      "properties": {
        "id": 1169742309,
        "osm_type": "node",
        "name": "Hiekko",
        "tourism": "camp_site",
        "tents": "yes"
      }
    },
    {
      "type": "Feature",
      "geometry": {
        "type": "Point",
        "coordinates": [
          28.2650413,
          63.6672799
        ]
      },
      "properties": {
        "id": 1345513297,
        "osm_type": "node",
        "name": "Koseva telttailualue",
        "tourism": "camp_site"
      }
    },
    {
      "type": "Feature",
      "geometry": {
        "type": "Point",
        "coordinates": [
          28.302417,
          63.648178
        ]
      },
      "properties": {
        "id": 1345513433,
        "osm_type": "node",
        "name": "Venäjänhiekka telttailualue",
        "tourism": "camp_site",
        "website": "https://www.luontoon.fi/tiilikkajarvi/palvelut"
      }
    },
    {
      "type": "Feature",
      "geometry": {
        "type": "Point",
        "coordinates": [
          28.4785114,
          62.9749381
        ]
      },
      "properties": {
        "id": 1491399433,
        "osm_type": "node",
        "name": "Hotelli-Ravintola Kaavinlinna",
        "tourism": "hotel",
        "website": "https://www.kaavinlinna.fi/"
      }
    },
    {
      "type": "Feature",
      "geometry": {
        "type": "Point",
        "coordinates": [
          26.6182327,
          63.6513988
        ]
      },
      "properties": {
        "id": 1494373221,
        "osm_type": "node",
        "name": "Hotelli Peltohovi",
        "tourism": "hotel",
        "phone": "+358 17 192 6000"
      }
    },
    {
      "type": "Feature",
      "geometry": {
        "type": "Point",
        "coordinates": [
          27.6803836,
          62.8969085
        ]
      },
      "properties": {
        "id": 1831133713,
        "osm_type": "node",
        "name": "Bar & Cafe Asema",
        "tourism": "hostel",
        "phone": "+358 17 580 0569",
        "website": "http://kuopionasemagrilli.com/"
      }
    },
    {
      "type": "Feature",
      "geometry": {
        "type": "Point",
        "coordinates": [
          27.1207536,
          62.625751
        ]
      },
      "properties": {
        "id": 2019870080,
        "osm_type": "node",
        "name": "Hotelli Suonenjoki",
        "tourism": "hotel",
        "check_date": "2024-07-20"
      }
    },
    {
      "type": "Feature",
      "geometry": {
        "type": "Point",
        "coordinates": [
          28.0299789,
          63.2491376
        ]
      },
      "properties": {
        "id": 2173222141,
        "osm_type": "node",
        "name": "Tahko Inssi",
        "tourism": "guest_house"
      }
    },
    {
      "type": "Feature",
      "geometry": {
        "type": "Point",
        "coordinates": [
          28.4510405,
          63.6362358
        ]
      },
      "properties": {
        "id": 2286672348,
        "osm_type": "node",
        "tourism": "camp_site"
      }
    },
    {
      "type": "Feature",
      "geometry": {
        "type": "Point",
        "coordinates": [
          27.0777212,
          62.6533599
        ]
      },
      "properties": {
        "id": 2689922867,
        "osm_type": "node",
        "name": "Myllykosken kievari",
        "tourism": "guest_house"
      }
    },
    {
      "type": "Feature",
      "geometry": {
        "type": "Point",
        "coordinates": [
          27.0511468,
          62.6660788
        ]
      },
      "properties": {
        "id": 2712714680,
        "osm_type": "node",
        "tourism": "caravan_site"
      }
    },
    {
      "type": "Feature",
      "geometry": {
        "type": "Point",
        "coordinates": [
          26.99734,
          62.6752786
        ]
      },
      "properties": {
        "id": 2712746051,
        "osm_type": "node",
        "tourism": "caravan_site"
      }
    },
    {
      "type": "Feature",
      "geometry": {
        "type": "Point",
        "coordinates": [
          28.0446174,
          63.2921168
        ]
      },
      "properties": {
        "id": 2775896904,
        "osm_type": "node",
        "name": "SpaSuites Black A",
        "tourism": "chalet"
      }
    },
    {
      "type": "Feature",
      "geometry": {
        "type": "Point",
        "coordinates": [
          28.044893,
          63.2918215
        ]
      },
      "properties": {
        "id": 2775896906,
        "osm_type": "node",
        "name": "SpaSuites Black B",
        "tourism": "chalet"
      }
    },
    {
      "type": "Feature",
      "geometry": {
        "type": "Point",
        "coordinates": [
          28.0418177,
          63.2923071
        ]
      },
      "properties": {
        "id": 2775896907,
        "osm_type": "node",
        "name": "SpaSuites Orange A",
        "tourism": "chalet"
      }
    },
    {
      "type": "Feature",
      "geometry": {
        "type": "Point",
        "coordinates": [
          28.0420898,
          63.2920168
        ]
      },
      "properties": {
        "id": 2775896910,
        "osm_type": "node",
        "name": "SpaSuites Orange B",
        "tourism": "chalet"
      }
    },
    {
      "type": "Feature",
      "geometry": {
        "type": "Point",
        "coordinates": [
          28.0427416,
          63.2922455
        ]
      },
      "properties": {
        "id": 2775896911,
        "osm_type": "node",
        "name": "SpaSuites White A",
        "tourism": "chalet"
      }
    },
    {
      "type": "Feature",
      "geometry": {
        "type": "Point",
        "coordinates": [
          28.0430966,
          63.2919549
        ]
      },
      "properties": {
        "id": 2775896912,
        "osm_type": "node",
        "name": "SpaSuites White B",
        "tourism": "chalet"
      }
    },
    {
      "type": "Feature",
      "geometry": {
        "type": "Point",
        "coordinates": [
          28.0443583,
          63.2897022
        ]
      },
      "properties": {
        "id": 2777820754,
        "osm_type": "node",
        "name": "Tahkovuori Chalets B",
        "tourism": "chalet"
      }
    },
    {
      "type": "Feature",
      "geometry": {
        "type": "Point",
        "coordinates": [
          27.8909035,
          62.3150108
        ]
      },
      "properties": {
        "id": 3933727216,
        "osm_type": "node",
        "name": "Hotel Oscar",
        "tourism": "hotel",
        "phone": "+358 17 579 011",
        "website": "https://www.hoteloscar.fi/"
      }
    },
    {
      "type": "Feature",
      "geometry": {
        "type": "Point",
        "coordinates": [
          28.2299448,
          63.15534
        ]
      },
      "properties": {
        "id": 4278258490,
        "osm_type": "node",
        "name": "mökki korpilahti",
        "tourism": "chalet"
      }
    },
    {
      "type": "Feature",
      "geometry": {
        "type": "Point",
        "coordinates": [
          27.6815479,
          62.8961237
        ]
      },
      "properties": {
        "id": 5519121522,
        "osm_type": "node",
        "name": "Hostelli Matkustajakoti",
        "tourism": "guest_house",
        "website": "https://www.hostellimatkustajakoti.fi/"
      }
    },
    {
      "type": "Feature",
      "geometry": {
        "type": "Point",
        "coordinates": [
          27.6959027,
          62.8903217
        ]
      },
      "properties": {
        "id": 5822131441,
        "osm_type": "node",
        "name": "Hotellilaiva Wuoksi",
        "tourism": "hotel",
        "phone": "+358 400 720 600",
        "website": "https://www.wuoksi.fi/",
        "check_date": "2024-08-01"
      }
    },
    {
      "type": "Feature",
      "geometry": {
        "type": "Point",
        "coordinates": [
          27.6953308,
          62.8878383
        ]
      },
      "properties": {
        "id": 5971712930,
        "osm_type": "node",
        "name": "Scandic Kuopio",
        "tourism": "hotel",
        "phone": "+358 17 195111",
        "website": "https://www.scandichotels.fi/hotellit/suomi/kuopio/scandic-kuopio",
        "check_date": "2024-06-17"
      }
    },
    {
      "type": "Feature",
      "geometry": {
        "type": "Point",
        "coordinates": [
          28.1793167,
          63.2055578
        ]
      },
      "properties": {
        "id": 6515373639,
        "osm_type": "node",
        "name": "Sunrise",
        "tourism": "chalet"
      }
    },
    {
      "type": "Feature",
      "geometry": {
        "type": "Point",
        "coordinates": [
          28.1747389,
          63.2052897
        ]
      },
      "properties": {
        "id": 6515373640,
        "osm_type": "node",
        "name": "Maisema",
        "tourism": "chalet"
      }
    },
    {
      "type": "Feature",
      "geometry": {
        "type": "Point",
        "coordinates": [
          27.7846934,
          62.178926
        ]
      },
      "properties": {
        "id": 6637881491,
        "osm_type": "node",
        "name": "SF-C Jokiranta",
        "tourism": "caravan_site",
        "phone": "+358 50 376 7171",
        "website": "https://www.sfcjokiranta.net/"
      }
    },
    {
      "type": "Feature",
      "geometry": {
        "type": "Point",
        "coordinates": [
          27.5819918,
          62.8304368
        ]
      },
      "properties": {
        "id": 6699474786,
        "osm_type": "node",
        "name": "Kuopio",
        "tourism": "guest_house",
        "website": "https://abnb.me/RzhNXxV62Y"
      }
    },
    {
      "type": "Feature",
      "geometry": {
        "type": "Point",
        "coordinates": [
          27.0937166,
          62.7913136
        ]
      },
      "properties": {
        "id": 6743415005,
        "osm_type": "node",
        "name": "Cottage \"ELSA\"",
        "tourism": "chalet",
        "phone": "044 4777703",
        "website": "https://www.nettimokki.com/pohjois-savo/karttula"
      }
    },
    {
      "type": "Feature",
      "geometry": {
        "type": "Point",
        "coordinates": [
          27.6757685,
          62.9299003
        ]
      },
      "properties": {
        "id": 7157060721,
        "osm_type": "node",
        "name": "Hotelli IsoValkeinen",
        "tourism": "hotel",
        "phone": "+358 17 5396 100",
        "website": "https://www.isovalkeinen.com/"
      }
    },
    {
      "type": "Feature",
      "geometry": {
        "type": "Point",
        "coordinates": [
          27.3927321,
          63.0468402
        ]
      },
      "properties": {
        "id": 7392153634,
        "osm_type": "node",
        "name": "Kauraniemi leirikeskus",
        "tourism": "camp_site"
      }
    },
    {
      "type": "Feature",
      "geometry": {
        "type": "Point",
        "coordinates": [
          27.6278551,
          62.8508005
        ]
      },
      "properties": {
        "id": 8768882597,
        "osm_type": "node",
        "name": "Boutique Hotel Sawohouse",
        "tourism": "hotel",
        "contact:phone": "+358 10 338 9490",
        "contact:website": "https://www.sawohouse.fi/"
      }
    },
    {
      "type": "Feature",
      "geometry": {
        "type": "Point",
        "coordinates": [
          26.8313443,
          62.6163335
        ]
      },
      "properties": {
        "id": 9124045688,
        "osm_type": "node",
        "tourism": "apartment"
      }
    },
    {
      "type": "Feature",
      "geometry": {
        "type": "Point",
        "coordinates": [
          26.8320485,
          62.6162864
        ]
      },
      "properties": {
        "id": 9130357860,
        "osm_type": "node",
        "tourism": "caravan_site",
        "website": "https://www.ramakka.com"
      }
    },
    {
      "type": "Feature",
      "geometry": {
        "type": "Point",
        "coordinates": [
          28.3372351,
          63.0695598
        ]
      },
      "properties": {
        "id": 9214917177,
        "osm_type": "node",
        "name": "Ruukin kievari",
        "tourism": "hotel"
      }
    },
    {
      "type": "Feature",
      "geometry": {
        "type": "Point",
        "coordinates": [
          27.1601734,
          63.5945333
        ]
      },
      "properties": {
        "id": 9510990166,
        "osm_type": "node",
        "name": "Koljonvirran Kartano",
        "tourism": "guest_house",
        "website": "https://www.koljonvirrankartano.fi/"
      }
    },
    {
      "type": "Feature",
      "geometry": {
        "type": "Point",
        "coordinates": [
          28.5597035,
          63.5829762
        ]
      },
      "properties": {
        "id": 9547386798,
        "osm_type": "node",
        "tourism": "apartment"
      }
    },
    {
      "type": "Feature",
      "geometry": {
        "type": "Point",
        "coordinates": [
          28.5602494,
          63.582822
        ]
      },
      "properties": {
        "id": 9547386799,
        "osm_type": "node",
        "tourism": "apartment"
      }
    },
    {
      "type": "Feature",
      "geometry": {
        "type": "Point",
        "coordinates": [
          28.5610421,
          63.5830659
        ]
      },
      "properties": {
        "id": 9547386800,
        "osm_type": "node",
        "tourism": "apartment"
      }
    },
    {
      "type": "Feature",
      "geometry": {
        "type": "Point",
        "coordinates": [
          28.5615173,
          63.5834245
        ]
      },
      "properties": {
        "id": 9547387086,
        "osm_type": "node",
        "tourism": "apartment"
      }
    },
    {
      "type": "Feature",
      "geometry": {
        "type": "Point",
        "coordinates": [
          26.6511605,
          62.5807522
        ]
      },
      "properties": {
        "id": 9964411848,
        "osm_type": "node",
        "name": "Enonranta",
        "tourism": "camp_site"
      }
    },
    {
      "type": "Feature",
      "geometry": {
        "type": "Point",
        "coordinates": [
          26.856997,
          63.5891973
        ]
      },
      "properties": {
        "id": 10077859742,
        "osm_type": "node",
        "name": "Runni Spa",
        "tourism": "caravan_site"
      }
    },
    {
      "type": "Feature",
      "geometry": {
        "type": "Point",
        "coordinates": [
          26.6886229,
          62.7591031
        ]
      },
      "properties": {
        "id": 10115170758,
        "osm_type": "node",
        "name": "Matkaparkki",
        "tourism": "caravan_site"
      }
    },
    {
      "type": "Feature",
      "geometry": {
        "type": "Point",
        "coordinates": [
          26.8834536,
          62.6191555
        ]
      },
      "properties": {
        "id": 10117335103,
        "osm_type": "node",
        "name": "Majatalo Rautalampi",
        "tourism": "hostel"
      }
    },
    {
      "type": "Feature",
      "geometry": {
        "type": "Point",
        "coordinates": [
          28.013466,
          63.2952355
        ]
      },
      "properties": {
        "id": 11642246885,
        "osm_type": "node",
        "name": "Panorama Landscape Hotel",
        "tourism": "hotel",
        "phone": "+358 50 544 4566",
        "website": "https://www.panoramahotel.fi/"
      }
    },
    {
      "type": "Feature",
      "geometry": {
        "type": "Point",
        "coordinates": [
          27.9714209,
          62.3074122
        ]
      },
      "properties": {
        "id": 12255718554,
        "osm_type": "node",
        "name": "Pusinharjun majatalo",
        "tourism": "guest_house",
        "phone": "+358 40 7158567",
        "website": "https://pusinharjunmajatalo.webnode.fi/"
      }
    },
    {
      "type": "Feature",
      "geometry": {
        "type": "Point",
        "coordinates": [
          27.6624019,
          62.8731761
        ]
      },
      "properties": {
        "id": 12760732905,
        "osm_type": "node",
        "name": "Bella Lake resort",
        "tourism": "motel"
      }
    },
    {
      "type": "Feature",
      "geometry": {
        "type": "Point",
        "coordinates": [
          27.6524603,
          62.9049632
        ]
      },
      "properties": {
        "id": 12877645601,
        "osm_type": "node",
        "tourism": "apartment"
      }
    },
    {
      "type": "Feature",
      "geometry": {
        "type": "Point",
        "coordinates": [
          28.2091274,
          63.0155973
        ]
      },
      "properties": {
        "id": 12923191791,
        "osm_type": "node",
        "name": "Huoneistohotelli Teekki",
        "tourism": "hotel"
      }
    },
    {
      "type": "Feature",
      "geometry": {
        "type": "Point",
        "coordinates": [
          28.0358326,
          63.2931679
        ]
      },
      "properties": {
        "id": 12988296371,
        "osm_type": "node",
        "name": "Villa Ozero",
        "tourism": "chalet",
        "website": "https://tahkoapartments.fi/villa-ozero/",
        "check_date": "2025-07-08"
      }
    },
    {
      "type": "Feature",
      "geometry": {
        "type": "Point",
        "coordinates": [
          27.4394924,
          63.8685437
        ]
      },
      "properties": {
        "id": 13006012341,
        "osm_type": "node",
        "tourism": "caravan_site",
        "website": "https://www.nestelinnanportti.fi/"
      }
    },
    {
      "type": "Feature",
      "geometry": {
        "type": "Point",
        "coordinates": [
          27.4385687,
          63.8687715
        ]
      },
      "properties": {
        "id": 13006012342,
        "osm_type": "node",
        "tourism": "caravan_site",
        "website": "https://www.nestelinnanportti.fi/"
      }
    },
    {
      "type": "Feature",
      "geometry": {
        "type": "Point",
        "coordinates": [
          28.1550377,
          62.7732089
        ]
      },
      "properties": {
        "id": 13018706971,
        "osm_type": "node",
        "name": "Nikka",
        "tourism": "chalet"
      }
    },
    {
      "type": "Feature",
      "geometry": {
        "type": "Point",
        "coordinates": [
          26.8134906,
          62.9714559
        ]
      },
      "properties": {
        "id": 13179584051,
        "osm_type": "node",
        "name": "Camping U.H. Ranta",
        "tourism": "camp_site"
      }
    },
    {
      "type": "Feature",
      "geometry": {
        "type": "Point",
        "coordinates": [
          28.0366365,
          63.2929562
        ]
      },
      "properties": {
        "id": 13763993871,
        "osm_type": "node",
        "name": "Ukko Hotel",
        "tourism": "hotel",
        "website": "https://www.goldenresort.fi/majoitus/ukko/"
      }
    },
    {
      "type": "Feature",
      "geometry": {
        "type": "Point",
        "coordinates": [
          28.0301765,
          63.2869451
        ]
      },
      "properties": {
        "id": 49866263,
        "osm_type": "way",
        "name": "Passoo Boutique Hotel & Sauna",
        "tourism": "hotel",
        "phone": "+358 50 5643921",
        "website": "https://passoo.fi/"
      }
    },
    {
      "type": "Feature",
      "geometry": {
        "type": "Point",
        "coordinates": [
          27.6475321,
          62.8672885
        ]
      },
      "properties": {
        "id": 51086546,
        "osm_type": "way",
        "name": "Kylpylähotelli Rauhalahti",
        "tourism": "hotel",
        "phone": "030 60830",
        "website": "https://www.rauhalahti.fi/"
      }
    },
    {
      "type": "Feature",
      "geometry": {
        "type": "Point",
        "coordinates": [
          27.6874772,
          62.8904962
        ]
      },
      "properties": {
        "id": 89695690,
        "osm_type": "way",
        "tourism": "hotel"
      }
    },
    {
      "type": "Feature",
      "geometry": {
        "type": "Point",
        "coordinates": [
          27.6887745,
          62.8907509
        ]
      },
      "properties": {
        "id": 89695696,
        "osm_type": "way",
        "name": "Original Sokos Hotel Puijonsarvi",
        "tourism": "hotel",
        "phone": "+358 17 1922 000",
        "website": "https://www.sokoshotels.fi/en/kuopio/sokos-hotel-puijonsarvi"
      }
    },
    {
      "type": "Feature",
      "geometry": {
        "type": "Point",
        "coordinates": [
          27.6434216,
          62.8674874
        ]
      },
      "properties": {
        "id": 112191871,
        "osm_type": "way",
        "name": "Kuopas Student Housing Apartment",
        "tourism": "hostel"
      }
    },
    {
      "type": "Feature",
      "geometry": {
        "type": "Point",
        "coordinates": [
          27.6442919,
          62.8675796
        ]
      },
      "properties": {
        "id": 112191909,
        "osm_type": "way",
        "name": "Kuopas Student Housing Apartment",
        "tourism": "hostel"
      }
    },
    {
      "type": "Feature",
      "geometry": {
        "type": "Point",
        "coordinates": [
          27.6443271,
          62.8678401
        ]
      },
      "properties": {
        "id": 112191917,
        "osm_type": "way",
        "name": "Kuopas Student Housing Apartment",
        "tourism": "hostel"
      }
    },
    {
      "type": "Feature",
      "geometry": {
        "type": "Point",
        "coordinates": [
          27.6984002,
          62.9742864
        ]
      },
      "properties": {
        "id": 118432775,
        "osm_type": "way",
        "name": "Kylpylähotelli Kunnonpaikka",
        "tourism": "hotel"
      }
    },
    {
      "type": "Feature",
      "geometry": {
        "type": "Point",
        "coordinates": [
          27.6708546,
          62.9355266
        ]
      },
      "properties": {
        "id": 121468072,
        "osm_type": "way",
        "name": "Kuopion Kesäranta",
        "tourism": "guest_house",
        "website": "https://kuopionkesaranta.fi/"
      }
    },
    {
      "type": "Feature",
      "geometry": {
        "type": "Point",
        "coordinates": [
          27.4389875,
          63.8686863
        ]
      },
      "properties": {
        "id": 135123956,
        "osm_type": "way",
        "tourism": "motel"
      }
    },
    {
      "type": "Feature",
      "geometry": {
        "type": "Point",
        "coordinates": [
          26.7537066,
          63.2326659
        ]
      },
      "properties": {
        "id": 175878186,
        "osm_type": "way",
        "name": "Restentti",
        "tourism": "hotel",
        "website": "http://www.restentti.fi"
      }
    },
    {
      "type": "Feature",
      "geometry": {
        "type": "Point",
        "coordinates": [
          27.7565697,
          63.3602176
        ]
      },
      "properties": {
        "id": 176259257,
        "osm_type": "way",
        "name": "Hotelli-Ravintola Safoxi",
        "tourism": "hotel"
      }
    },
    {
      "type": "Feature",
      "geometry": {
        "type": "Point",
        "coordinates": [
          27.1896575,
          63.5584952
        ]
      },
      "properties": {
        "id": 176514132,
        "osm_type": "way",
        "name": "Original Sokos Hotel Koljonvirta",
        "tourism": "hotel",
        "phone": "+358 17 192 6000",
        "website": "https://www.sokoshotels.fi/hotellit/iisalmi/"
      }
    },
    {
      "type": "Feature",
      "geometry": {
        "type": "Point",
        "coordinates": [
          27.6240832,
          62.9261441
        ]
      },
      "properties": {
        "id": 176526721,
        "osm_type": "way",
        "name": "Julkulan mökki",
        "tourism": "chalet",
        "phone": "+358405885620",
        "website": "https://savokainuunjournalistit.yhdistysavain.fi/yhdistyksemme/toiminta/"
      }
    },
    {
      "type": "Feature",
      "geometry": {
        "type": "Point",
        "coordinates": [
          28.5591292,
          63.583579
        ]
      },
      "properties": {
        "id": 219572021,
        "osm_type": "way",
        "name": "Nuorisokeskus Metsäkartano",
        "tourism": "hotel",
        "phone": "+358 40 839 6350",
        "website": "https://www.metsakartano.com/"
      }
    },
    {
      "type": "Feature",
      "geometry": {
        "type": "Point",
        "coordinates": [
          27.11376,
          62.6284912
        ]
      },
      "properties": {
        "id": 246458553,
        "osm_type": "way",
        "name": "Hotel Night Club Carneval",
        "tourism": "hotel",
        "check_date": "2024-08-17"
      }
    },
    {
      "type": "Feature",
      "geometry": {
        "type": "Point",
        "coordinates": [
          27.8373312,
          62.1784091
        ]
      },
      "properties": {
        "id": 321285074,
        "osm_type": "way",
        "name": "Hotelli Joronjälki",
        "tourism": "hotel",
        "phone": "+35817571111",
        "website": "http://www.joronjalki.fi/"
      }
    },
    {
      "type": "Feature",
      "geometry": {
        "type": "Point",
        "coordinates": [
          27.1305962,
          63.904011
        ]
      },
      "properties": {
        "id": 323933335,
        "osm_type": "way",
        "tourism": "chalet"
      }
    },
    {
      "type": "Feature",
      "geometry": {
        "type": "Point",
        "coordinates": [
          27.8944294,
          62.3142406
        ]
      },
      "properties": {
        "id": 390210908,
        "osm_type": "way",
        "name": "Hotelli Vanha Postitalo",
        "tourism": "hotel"
      }
    },
    {
      "type": "Feature",
      "geometry": {
        "type": "Point",
        "coordinates": [
          26.6838377,
          63.0079885
        ]
      },
      "properties": {
        "id": 459849293,
        "osm_type": "way",
        "name": "Koskisydän Oy",
        "tourism": "hotel"
      }
    },
    {
      "type": "Feature",
      "geometry": {
        "type": "Point",
        "coordinates": [
          26.6917357,
          63.0015989
        ]
      },
      "properties": {
        "id": 473325784,
        "osm_type": "way",
        "name": "Koski Caravan",
        "tourism": "camp_site",
        "tents": "yes",
        "phone": "+358 44 988 2488",
        "website": "https://www.koskicaravan.com/"
      }
    },
    {
      "type": "Feature",
      "geometry": {
        "type": "Point",
        "coordinates": [
          27.4854596,
          62.7784925
        ]
      },
      "properties": {
        "id": 507849494,
        "osm_type": "way",
        "name": "Koivuranta",
        "tourism": "hotel"
      }
    },
    {
      "type": "Feature",
      "geometry": {
        "type": "Point",
        "coordinates": [
          28.2120795,
          62.5030794
        ]
      },
      "properties": {
        "id": 538512781,
        "osm_type": "way",
        "tourism": "chalet"
      }
    },
    {
      "type": "Feature",
      "geometry": {
        "type": "Point",
        "coordinates": [
          27.7854527,
          62.1783662
        ]
      },
      "properties": {
        "id": 573124252,
        "osm_type": "way",
        "name": "SF-C Jokiranta",
        "tourism": "camp_site",
        "tents": "yes",
        "phone": "+358 50 376 7171",
        "website": "https://www.sfcjokiranta.fi/"
      }
    },
    {
      "type": "Feature",
      "geometry": {
        "type": "Point",
        "coordinates": [
          26.7202104,
          62.6015338
        ]
      },
      "properties": {
        "id": 590911588,
        "osm_type": "way",
        "name": "Suutarinmökki",
        "tourism": "chalet"
      }
    },
    {
      "type": "Feature",
      "geometry": {
        "type": "Point",
        "coordinates": [
          26.7208154,
          62.6018562
        ]
      },
      "properties": {
        "id": 590911589,
        "osm_type": "way",
        "name": "Marjatanpirtti",
        "tourism": "apartment",
        "website": "https://www.tormala.fi"
      }
    },
    {
      "type": "Feature",
      "geometry": {
        "type": "Point",
        "coordinates": [
          27.6426033,
          62.8676234
        ]
      },
      "properties": {
        "id": 612497682,
        "osm_type": "way",
        "name": "Kuopas Student Housing Apartment (Katiskaniementie 6)",
        "tourism": "hostel"
      }
    },
    {
      "type": "Feature",
      "geometry": {
        "type": "Point",
        "coordinates": [
          28.2925146,
          63.4948768
        ]
      },
      "properties": {
        "id": 625737502,
        "osm_type": "way",
        "name": "Hotelli-Ravintola Tillikka",
        "tourism": "hotel"
      }
    },
    {
      "type": "Feature",
      "geometry": {
        "type": "Point",
        "coordinates": [
          27.1607852,
          63.5932345
        ]
      },
      "properties": {
        "id": 704993537,
        "osm_type": "way",
        "name": "Koljonvirta Kartano & Camping",
        "tourism": "camp_site",
        "tents": "yes",
        "phone": "+358 50 321 3846",
        "website": "https://www.koljonvirrankartano.fi/"
      }
    },
    {
      "type": "Feature",
      "geometry": {
        "type": "Point",
        "coordinates": [
          27.7832713,
          62.178318
        ]
      },
      "properties": {
        "id": 706386131,
        "osm_type": "way",
        "name": "Joroinen Camping Jokiranta",
        "tourism": "camp_site",
        "website": "http://www.sfcjokiranta.net/"
      }
    },
    {
      "type": "Feature",
      "geometry": {
        "type": "Point",
        "coordinates": [
          28.4976283,
          62.8024652
        ]
      },
      "properties": {
        "id": 773805453,
        "osm_type": "way",
        "name": "Juojärven Helmi",
        "tourism": "caravan_site"
      }
    },
    {
      "type": "Feature",
      "geometry": {
        "type": "Point",
        "coordinates": [
          27.5231822,
          63.6705815
        ]
      },
      "properties": {
        "id": 777307503,
        "osm_type": "way",
        "name": "Gasthaus Neuvola",
        "tourism": "guest_house",
        "phone": "+358 44 288 6614",
        "website": "https://www.gasthausneuvola.fi/"
      }
    },
    {
      "type": "Feature",
      "geometry": {
        "type": "Point",
        "coordinates": [
          27.6548737,
          62.9896909
        ]
      },
      "properties": {
        "id": 782032659,
        "osm_type": "way",
        "name": "Villa Paasisalo",
        "tourism": "chalet"
      }
    },
    {
      "type": "Feature",
      "geometry": {
        "type": "Point",
        "coordinates": [
          27.1327577,
          63.9048872
        ]
      },
      "properties": {
        "id": 903041206,
        "osm_type": "way",
        "tourism": "chalet"
      }
    },
    {
      "type": "Feature",
      "geometry": {
        "type": "Point",
        "coordinates": [
          26.8303793,
          62.6161397
        ]
      },
      "properties": {
        "id": 987108425,
        "osm_type": "way",
        "name": "Kotkanpesä",
        "tourism": "chalet"
      }
    },
    {
      "type": "Feature",
      "geometry": {
        "type": "Point",
        "coordinates": [
          26.8307566,
          62.6159217
        ]
      },
      "properties": {
        "id": 987108426,
        "osm_type": "way",
        "name": "Haukanpesä",
        "tourism": "chalet"
      }
    },
    {
      "type": "Feature",
      "geometry": {
        "type": "Point",
        "coordinates": [
          26.8323859,
          62.6166259
        ]
      },
      "properties": {
        "id": 987108428,
        "osm_type": "way",
        "name": "Ketunpesä",
        "tourism": "chalet"
      }
    },
    {
      "type": "Feature",
      "geometry": {
        "type": "Point",
        "coordinates": [
          26.8117513,
          62.6374606
        ]
      },
      "properties": {
        "id": 988201354,
        "osm_type": "way",
        "name": "Korholan kartano",
        "tourism": "hostel"
      }
    },
    {
      "type": "Feature",
      "geometry": {
        "type": "Point",
        "coordinates": [
          26.8115531,
          62.6371329
        ]
      },
      "properties": {
        "id": 988201359,
        "osm_type": "way",
        "tourism": "apartment"
      }
    },
    {
      "type": "Feature",
      "geometry": {
        "type": "Point",
        "coordinates": [
          27.6169223,
          63.1392406
        ]
      },
      "properties": {
        "id": 991991088,
        "osm_type": "way",
        "name": "Viitostuvan mökit",
        "tourism": "camp_site",
        "tents": "no",
        "website": "https://polja.fi/"
      }
    },
    {
      "type": "Feature",
      "geometry": {
        "type": "Point",
        "coordinates": [
          27.4191657,
          63.7846969
        ]
      },
      "properties": {
        "id": 993708713,
        "osm_type": "way",
        "tourism": "chalet"
      }
    },
    {
      "type": "Feature",
      "geometry": {
        "type": "Point",
        "coordinates": [
          27.4194698,
          63.784681
        ]
      },
      "properties": {
        "id": 993708714,
        "osm_type": "way",
        "tourism": "chalet"
      }
    },
    {
      "type": "Feature",
      "geometry": {
        "type": "Point",
        "coordinates": [
          27.420171,
          63.7844183
        ]
      },
      "properties": {
        "id": 993708731,
        "osm_type": "way",
        "name": "Viitostie camping",
        "tourism": "camp_site",
        "tents": "yes",
        "phone": "+358 50 5462 926",
        "website": "https://www.5-tienleirinta.fi/"
      }
    },
    {
      "type": "Feature",
      "geometry": {
        "type": "Point",
        "coordinates": [
          27.4198377,
          63.7846681
        ]
      },
      "properties": {
        "id": 993708736,
        "osm_type": "way",
        "tourism": "chalet"
      }
    },
    {
      "type": "Feature",
      "geometry": {
        "type": "Point",
        "coordinates": [
          27.8483265,
          62.5249168
        ]
      },
      "properties": {
        "id": 996003760,
        "osm_type": "way",
        "tourism": "chalet"
      }
    },
    {
      "type": "Feature",
      "geometry": {
        "type": "Point",
        "coordinates": [
          28.555782,
          63.5857841
        ]
      },
      "properties": {
        "id": 1036290901,
        "osm_type": "way",
        "name": "Metsäpirtti",
        "tourism": "chalet"
      }
    },
    {
      "type": "Feature",
      "geometry": {
        "type": "Point",
        "coordinates": [
          28.5611234,
          63.5868396
        ]
      },
      "properties": {
        "id": 1036290905,
        "osm_type": "way",
        "name": "Metsäkartano leirintäalue",
        "tourism": "camp_site",
        "tents": "yes",
        "website": "https://www.metsakartano.com/"
      }
    },
    {
      "type": "Feature",
      "geometry": {
        "type": "Point",
        "coordinates": [
          28.5812589,
          63.581479
        ]
      },
      "properties": {
        "id": 1036549808,
        "osm_type": "way",
        "name": "Metsäkämppä",
        "tourism": "chalet",
        "website": "https://www.metsakartano.com/"
      }
    },
    {
      "type": "Feature",
      "geometry": {
        "type": "Point",
        "coordinates": [
          26.9117526,
          63.8346755
        ]
      },
      "properties": {
        "id": 1052027842,
        "osm_type": "way",
        "name": "Hiilimutka",
        "tourism": "caravan_site",
        "tents": "yes",
        "phone": "+358 400 496950",
        "website": "https://www.hiilimutka.fi"
      }
    },
    {
      "type": "Feature",
      "geometry": {
        "type": "Point",
        "coordinates": [
          27.6416231,
          62.8627323
        ]
      },
      "properties": {
        "id": 1055788675,
        "osm_type": "way",
        "name": "Matkailukeskus Rauhalahti",
        "tourism": "camp_site",
        "tents": "yes",
        "website": "https://visitrauhalahti.fi/"
      }
    },
    {
      "type": "Feature",
      "geometry": {
        "type": "Point",
        "coordinates": [
          28.5037069,
          62.7997655
        ]
      },
      "properties": {
        "id": 1055962037,
        "osm_type": "way",
        "name": "Viihdekeskus Hojo Hojo",
        "tourism": "caravan_site",
        "website": "https://hojohojo.fi/majoitus/"
      }
    },
    {
      "type": "Feature",
      "geometry": {
        "type": "Point",
        "coordinates": [
          27.4204557,
          63.8040386
        ]
      },
      "properties": {
        "id": 1157262503,
        "osm_type": "way",
        "name": "Lohirannan lomakylä",
        "tourism": "camp_site"
      }
    },
    {
      "type": "Feature",
      "geometry": {
        "type": "Point",
        "coordinates": [
          28.7040453,
          62.8110099
        ]
      },
      "properties": {
        "id": 1187427955,
        "osm_type": "way",
        "name": "Selkäranta",
        "tourism": "chalet"
      }
    },
    {
      "type": "Feature",
      "geometry": {
        "type": "Point",
        "coordinates": [
          27.7438446,
          62.542969
        ]
      },
      "properties": {
        "id": 1230782875,
        "osm_type": "way",
        "tourism": "chalet"
      }
    },
    {
      "type": "Feature",
      "geometry": {
        "type": "Point",
        "coordinates": [
          27.7419028,
          62.5427531
        ]
      },
      "properties": {
        "id": 1230782877,
        "osm_type": "way",
        "tourism": "chalet"
      }
    },
    {
      "type": "Feature",
      "geometry": {
        "type": "Point",
        "coordinates": [
          27.1942868,
          63.5599311
        ]
      },
      "properties": {
        "id": 1241117437,
        "osm_type": "way",
        "name": "Hotel Golden Dome",
        "tourism": "hotel",
        "website": "https://goldendome.fi"
      }
    },
    {
      "type": "Feature",
      "geometry": {
        "type": "Point",
        "coordinates": [
          27.7130937,
          62.0637435
        ]
      },
      "properties": {
        "id": 1252105330,
        "osm_type": "way",
        "name": "Garden Villa \"Kielo\"",
        "tourism": "chalet"
      }
    },
    {
      "type": "Feature",
      "geometry": {
        "type": "Point",
        "coordinates": [
          27.714029,
          62.0635374
        ]
      },
      "properties": {
        "id": 1252105331,
        "osm_type": "way",
        "name": "Garden Villa \"Leinikki\"",
        "tourism": "chalet"
      }
    },
    {
      "type": "Feature",
      "geometry": {
        "type": "Point",
        "coordinates": [
          27.7161898,
          62.0631827
        ]
      },
      "properties": {
        "id": 1252105337,
        "osm_type": "way",
        "name": "Garden Villa \"Apila\"",
        "tourism": "chalet"
      }
    },
    {
      "type": "Feature",
      "geometry": {
        "type": "Point",
        "coordinates": [
          27.7170344,
          62.0635373
        ]
      },
      "properties": {
        "id": 1252105338,
        "osm_type": "way",
        "name": "Garden Villa \"Ohdake\"",
        "tourism": "chalet"
      }
    },
    {
      "type": "Feature",
      "geometry": {
        "type": "Point",
        "coordinates": [
          27.716124,
          62.0635188
        ]
      },
      "properties": {
        "id": 1252105342,
        "osm_type": "way",
        "name": "Garden Villa \"Horsma\"",
        "tourism": "chalet"
      }
    },
    {
      "type": "Feature",
      "geometry": {
        "type": "Point",
        "coordinates": [
          27.7170188,
          62.0647241
        ]
      },
      "properties": {
        "id": 1252105373,
        "osm_type": "way",
        "name": "Forest Suite \"Vaahtera\"",
        "tourism": "chalet"
      }
    },
    {
      "type": "Feature",
      "geometry": {
        "type": "Point",
        "coordinates": [
          27.7170021,
          62.0648565
        ]
      },
      "properties": {
        "id": 1252105374,
        "osm_type": "way",
        "name": "Forest Suite \"Tammi\"",
        "tourism": "chalet"
      }
    },
    {
      "type": "Feature",
      "geometry": {
        "type": "Point",
        "coordinates": [
          27.7170017,
          62.0649729
        ]
      },
      "properties": {
        "id": 1252105375,
        "osm_type": "way",
        "name": "Forest Suite \"Haapa\"",
        "tourism": "chalet"
      }
    },
    {
      "type": "Feature",
      "geometry": {
        "type": "Point",
        "coordinates": [
          27.7170176,
          62.0650956
        ]
      },
      "properties": {
        "id": 1252105376,
        "osm_type": "way",
        "name": "Forest Suite \"Mänty\"",
        "tourism": "chalet"
      }
    },
    {
      "type": "Feature",
      "geometry": {
        "type": "Point",
        "coordinates": [
          27.7169532,
          62.0652125
        ]
      },
      "properties": {
        "id": 1252105377,
        "osm_type": "way",
        "name": "Forest Suite \"Koivu\"",
        "tourism": "chalet"
      }
    },
    {
      "type": "Feature",
      "geometry": {
        "type": "Point",
        "coordinates": [
          27.7712835,
          62.4858489
        ]
      },
      "properties": {
        "id": 1305582080,
        "osm_type": "way",
        "name": "Mansikkaharju lomakeskus",
        "tourism": "camp_site",
        "tents": "yes",
        "phone": "+358 50 598 1481",
        "website": "https://mansikkaharju.net/"
      }
    },
    {
      "type": "Feature",
      "geometry": {
        "type": "Point",
        "coordinates": [
          28.0142842,
          63.2952243
        ]
      },
      "properties": {
        "id": 1318466449,
        "osm_type": "way",
        "tourism": "chalet"
      }
    },
    {
      "type": "Feature",
      "geometry": {
        "type": "Point",
        "coordinates": [
          28.0143262,
          63.2951161
        ]
      },
      "properties": {
        "id": 1318466451,
        "osm_type": "way",
        "tourism": "chalet"
      }
    },
    {
      "type": "Feature",
      "geometry": {
        "type": "Point",
        "coordinates": [
          28.0147411,
          63.2951613
        ]
      },
      "properties": {
        "id": 1318466452,
        "osm_type": "way",
        "tourism": "chalet"
      }
    },
    {
      "type": "Feature",
      "geometry": {
        "type": "Point",
        "coordinates": [
          28.0147383,
          63.2950527
        ]
      },
      "properties": {
        "id": 1318466453,
        "osm_type": "way",
        "tourism": "chalet"
      }
    },
    {
      "type": "Feature",
      "geometry": {
        "type": "Point",
        "coordinates": [
          28.0142854,
          63.2950144
        ]
      },
      "properties": {
        "id": 1318466454,
        "osm_type": "way",
        "tourism": "chalet"
      }
    },
    {
      "type": "Feature",
      "geometry": {
        "type": "Point",
        "coordinates": [
          28.0151019,
          63.2951183
        ]
      },
      "properties": {
        "id": 1318466455,
        "osm_type": "way",
        "tourism": "chalet"
      }
    },
    {
      "type": "Feature",
      "geometry": {
        "type": "Point",
        "coordinates": [
          28.0150853,
          63.2949982
        ]
      },
      "properties": {
        "id": 1318466456,
        "osm_type": "way",
        "tourism": "chalet"
      }
    },
    {
      "type": "Feature",
      "geometry": {
        "type": "Point",
        "coordinates": [
          28.0147039,
          63.2949619
        ]
      },
      "properties": {
        "id": 1318466457,
        "osm_type": "way",
        "tourism": "chalet"
      }
    },
    {
      "type": "Feature",
      "geometry": {
        "type": "Point",
        "coordinates": [
          28.014545,
          63.2948726
        ]
      },
      "properties": {
        "id": 1318466458,
        "osm_type": "way",
        "tourism": "chalet"
      }
    },
    {
      "type": "Feature",
      "geometry": {
        "type": "Point",
        "coordinates": [
          28.0141775,
          63.2949003
        ]
      },
      "properties": {
        "id": 1318466459,
        "osm_type": "way",
        "tourism": "chalet"
      }
    },
    {
      "type": "Feature",
      "geometry": {
        "type": "Point",
        "coordinates": [
          27.9060747,
          62.2712903
        ]
      },
      "properties": {
        "id": 1328541378,
        "osm_type": "way",
        "name": "Kirvesranta",
        "tourism": "chalet",
        "phone": "+358 40 019 1444",
        "website": "https://www.kirvesranta.fi/"
      }
    },
    {
      "type": "Feature",
      "geometry": {
        "type": "Point",
        "coordinates": [
          26.6921314,
          62.7587381
        ]
      },
      "properties": {
        "id": 1383768669,
        "osm_type": "way",
        "tourism": "apartment"
      }
    },
    {
      "type": "Feature",
      "geometry": {
        "type": "Point",
        "coordinates": [
          26.6924795,
          62.7587662
        ]
      },
      "properties": {
        "id": 1383768670,
        "osm_type": "way",
        "tourism": "apartment"
      }
    },
    {
      "type": "Feature",
      "geometry": {
        "type": "Point",
        "coordinates": [
          26.6927352,
          62.7588114
        ]
      },
      "properties": {
        "id": 1383768672,
        "osm_type": "way",
        "tourism": "apartment"
      }
    },
    {
      "type": "Feature",
      "geometry": {
        "type": "Point",
        "coordinates": [
          27.6524468,
          62.5849994
        ]
      },
      "properties": {
        "id": 1467994350,
        "osm_type": "way",
        "name": "Villa Niemi",
        "tourism": "chalet"
      }
    },
    {
      "type": "Feature",
      "geometry": {
        "type": "Point",
        "coordinates": [
          26.4829554,
          62.7842906
        ]
      },
      "properties": {
        "id": 1467999648,
        "osm_type": "way",
        "name": "Villa Rahikka",
        "tourism": "chalet"
      }
    },
    {
      "type": "Feature",
      "geometry": {
        "type": "Point",
        "coordinates": [
          26.9809997,
          63.562584
        ]
      },
      "properties": {
        "id": 1468012178,
        "osm_type": "way",
        "name": "Villa Hiekkaranta",
        "tourism": "chalet"
      }
    },
    {
      "type": "Feature",
      "geometry": {
        "type": "Point",
        "coordinates": [
          28.018185,
          62.9375174
        ]
      },
      "properties": {
        "id": 1497838061,
        "osm_type": "way",
        "name": "Camping Atrain",
        "tourism": "camp_site"
      }
    },
    {
      "type": "Feature",
      "geometry": {
        "type": "Point",
        "coordinates": [
          28.0357592,
          63.2887587
        ]
      },
      "properties": {
        "id": 1504077794,
        "osm_type": "way",
        "name": "Tahko Lakeside Villas",
        "tourism": "chalet",
        "phone": "+358 300 870 787",
        "website": "https://www.tahkolakeside.com/"
      }
    },
    {
      "type": "Feature",
      "geometry": {
        "type": "Point",
        "coordinates": [
          28.0358499,
          63.2889062
        ]
      },
      "properties": {
        "id": 1504077795,
        "osm_type": "way",
        "name": "Tahko Lakeside Villas",
        "tourism": "chalet",
        "phone": "+358 300 870 787",
        "website": "https://www.tahkolakeside.com/"
      }
    },
    {
      "type": "Feature",
      "geometry": {
        "type": "Point",
        "coordinates": [
          28.035972,
          63.2890401
        ]
      },
      "properties": {
        "id": 1504077796,
        "osm_type": "way",
        "name": "Tahko Lakeside Villas",
        "tourism": "chalet",
        "phone": "+358 300 870 787",
        "website": "https://www.tahkolakeside.com/"
      }
    },
    {
      "type": "Feature",
      "geometry": {
        "type": "Point",
        "coordinates": [
          28.0360997,
          63.2891647
        ]
      },
      "properties": {
        "id": 1504077797,
        "osm_type": "way",
        "name": "Tahko Lakeside Villas",
        "tourism": "chalet",
        "phone": "+358 300 870 787",
        "website": "https://www.tahkolakeside.com/"
      }
    },
    {
      "type": "Feature",
      "geometry": {
        "type": "Point",
        "coordinates": [
          28.0368325,
          63.2897377
        ]
      },
      "properties": {
        "id": 1504077798,
        "osm_type": "way",
        "name": "Tahko Lakeside Villas",
        "tourism": "chalet",
        "phone": "+358 300 870 787",
        "website": "https://www.tahkolakeside.com/"
      }
    },
    {
      "type": "Feature",
      "geometry": {
        "type": "Point",
        "coordinates": [
          28.0366358,
          63.2895974
        ]
      },
      "properties": {
        "id": 1504077799,
        "osm_type": "way",
        "name": "Tahko Lakeside Villas",
        "tourism": "chalet",
        "phone": "+358 300 870 787",
        "website": "https://www.tahkolakeside.com/"
      }
    },
    {
      "type": "Feature",
      "geometry": {
        "type": "Point",
        "coordinates": [
          28.0364372,
          63.2894516
        ]
      },
      "properties": {
        "id": 1504077800,
        "osm_type": "way",
        "name": "Tahko Lakeside Villas",
        "tourism": "chalet",
        "phone": "+358 300 870 787",
        "website": "https://www.tahkolakeside.com/"
      }
    },
    {
      "type": "Feature",
      "geometry": {
        "type": "Point",
        "coordinates": [
          28.0362453,
          63.2893143
        ]
      },
      "properties": {
        "id": 1504077801,
        "osm_type": "way",
        "name": "Tahko Lakeside Villas",
        "tourism": "chalet",
        "phone": "+358 300 870 787",
        "website": "https://www.tahkolakeside.com/"
      }
    }
  ]
}