{
  "type": "FeatureCollection",
  "features": [
    {
      "type": "Feature",
      "geometry": {
        "type": "Point",
        "coordinates": [
          41.0981402,
          40.9529476
        ]
      },
      "properties": {
        "id": 1786180271,
        "osm_type": "node",
        "name": "Haşimoğlu",
        "tourism": "hotel"
      }
    },
    {
      "type": "Feature",
      "geometry": {
        "type": "Point",
        "coordinates": [
          41.0976035,
          40.954072
        ]
      },
      "properties": {
        "id": 1786180422,
        "osm_type": "node",
        "name": "Ayder Elif Otel",
        "tourism": "hotel"
      }
    },
    {
      "type": "Feature",
      "geometry": {
        "type": "Point",
        "coordinates": [
          41.0979578,
          40.9539017
        ]
      },
      "properties": {
        "id": 1786180747,
        "osm_type": "node",
        "name": "Ayder Yeşilvadi Otel",
        "tourism": "hotel"
      }
    },
    {
      "type": "Feature",
      "geometry": {
        "type": "Point",
        "coordinates": [
          41.1094576,
          40.9512612
        ]
      },
      "properties": {
        "id": 1786180806,
        "osm_type": "node",
        "name": "Aydere Apart",
        "tourism": "hotel",
        "phone": "+90 534 591 31 53"
      }
    },
    {
      "type": "Feature",
      "geometry": {
        "type": "Point",
        "coordinates": [
          40.998177,
          41.1942882
        ]
      },
      "properties": {
        "id": 3316139283,
        "osm_type": "node",
        "tourism": "hotel",
        "phone": "+90 464 715 42 43",
        "website": "https://patulya.com/"
      }
    },
    {
      "type": "Feature",
      "geometry": {
        "type": "Point",
        "coordinates": [
          40.5234909,
          41.0250194
        ]
      },
      "properties": {
        "id": 3644099177,
        "osm_type": "node",
        "name": "Keleş Otel",
        "tourism": "hotel"
      }
    },
    {
      "type": "Feature",
      "geometry": {
        "type": "Point",
        "coordinates": [
          41.1278963,
          40.8378081
        ]
      },
      "properties": {
        "id": 3886579767,
        "osm_type": "node",
        "name": "Derebaşı",
        "tourism": "camp_site"
      }
    },
    {
      "type": "Feature",
      "geometry": {
        "type": "Point",
        "coordinates": [
          41.2007461,
          40.897096
        ]
      },
      "properties": {
        "id": 3941118492,
        "osm_type": "node",
        "tourism": "camp_site"
      }
    },
    {
      "type": "Feature",
      "geometry": {
        "type": "Point",
        "coordinates": [
          41.067781,
          40.8293488
        ]
      },
      "properties": {
        "id": 3941185818,
        "osm_type": "node",
        "tourism": "camp_site"
      }
    },
    {
      "type": "Feature",
      "geometry": {
        "type": "Point",
        "coordinates": [
          41.1992527,
          40.9375042
        ]
      },
      "properties": {
        "id": 3941204714,
        "osm_type": "node",
        "tourism": "camp_site"
      }
    },
    {
      "type": "Feature",
      "geometry": {
        "type": "Point",
        "coordinates": [
          41.0068637,
          40.8027407
        ]
      },
      "properties": {
        "id": 3943746826,
        "osm_type": "node",
        "tourism": "camp_site"
      }
    },
    {
      "type": "Feature",
      "geometry": {
        "type": "Point",
        "coordinates": [
          41.1396771,
          40.8535557
        ]
      },
      "properties": {
        "id": 3944865395,
        "osm_type": "node",
        "name": "Mecovit",
        "tourism": "camp_site"
      }
    },
    {
      "type": "Feature",
      "geometry": {
        "type": "Point",
        "coordinates": [
          41.1599677,
          40.8690581
        ]
      },
      "properties": {
        "id": 3944865396,
        "osm_type": "node",
        "tourism": "camp_site"
      }
    },
    {
      "type": "Feature",
      "geometry": {
        "type": "Point",
        "coordinates": [
          40.9452593,
          40.741129
        ]
      },
      "properties": {
        "id": 3960351353,
        "osm_type": "node",
        "tourism": "camp_site"
      }
    },
    {
      "type": "Feature",
      "geometry": {
        "type": "Point",
        "coordinates": [
          41.2428014,
          40.9729281
        ]
      },
      "properties": {
        "id": 3969385399,
        "osm_type": "node",
        "tourism": "camp_site"
      }
    },
    {
      "type": "Feature",
      "geometry": {
        "type": "Point",
        "coordinates": [
          41.2879305,
          40.9993413
        ]
      },
      "properties": {
        "id": 3969388110,
        "osm_type": "node",
        "tourism": "camp_site"
      }
    },
    {
      "type": "Feature",
      "geometry": {
        "type": "Point",
        "coordinates": [
          41.2195751,
          40.9436607
        ]
      },
      "properties": {
        "id": 3969476580,
        "osm_type": "node",
        "tourism": "camp_site"
      }
    },
    {
      "type": "Feature",
      "geometry": {
        "type": "Point",
        "coordinates": [
          40.8673539,
          40.7124816
        ]
      },
      "properties": {
        "id": 3983739859,
        "osm_type": "node",
        "tourism": "camp_site"
      }
    },
    {
      "type": "Feature",
      "geometry": {
        "type": "Point",
        "coordinates": [
          41.070146,
          40.9346642
        ]
      },
      "properties": {
        "id": 3988826610,
        "osm_type": "node",
        "tourism": "camp_site"
      }
    },
    {
      "type": "Feature",
      "geometry": {
        "type": "Point",
        "coordinates": [
          41.1290492,
          40.8542531
        ]
      },
      "properties": {
        "id": 4294199753,
        "osm_type": "node",
        "name": "Seğnabun Düzi",
        "tourism": "camp_site"
      }
    },
    {
      "type": "Feature",
      "geometry": {
        "type": "Point",
        "coordinates": [
          41.1426719,
          40.8557446
        ]
      },
      "properties": {
        "id": 4294199754,
        "osm_type": "node",
        "name": "1. Öküz Yatağı",
        "tourism": "camp_site"
      }
    },
    {
      "type": "Feature",
      "geometry": {
        "type": "Point",
        "coordinates": [
          41.1320024,
          40.8589688
        ]
      },
      "properties": {
        "id": 4294211997,
        "osm_type": "node",
        "name": "Gelgelanun Düzi",
        "tourism": "camp_site"
      }
    },
    {
      "type": "Feature",
      "geometry": {
        "type": "Point",
        "coordinates": [
          41.1307311,
          40.8724236
        ]
      },
      "properties": {
        "id": 4294212303,
        "osm_type": "node",
        "name": "Yukarki Avelorun Duzi",
        "tourism": "camp_site"
      }
    },
    {
      "type": "Feature",
      "geometry": {
        "type": "Point",
        "coordinates": [
          41.1319537,
          40.8790091
        ]
      },
      "properties": {
        "id": 4294212305,
        "osm_type": "node",
        "name": "Ĥaviçtaş",
        "tourism": "camp_site"
      }
    },
    {
      "type": "Feature",
      "geometry": {
        "type": "Point",
        "coordinates": [
          41.130297,
          40.8880027
        ]
      },
      "properties": {
        "id": 4294214765,
        "osm_type": "node",
        "name": "Adiçeğma",
        "tourism": "camp_site"
      }
    },
    {
      "type": "Feature",
      "geometry": {
        "type": "Point",
        "coordinates": [
          41.2251231,
          40.9630929
        ]
      },
      "properties": {
        "id": 4344231691,
        "osm_type": "node",
        "name": "dadala",
        "tourism": "hostel"
      }
    },
    {
      "type": "Feature",
      "geometry": {
        "type": "Point",
        "coordinates": [
          41.1983007,
          40.9513146
        ]
      },
      "properties": {
        "id": 4346426291,
        "osm_type": "node",
        "name": "simge",
        "tourism": "hostel"
      }
    },
    {
      "type": "Feature",
      "geometry": {
        "type": "Point",
        "coordinates": [
          41.1008503,
          40.952857
        ]
      },
      "properties": {
        "id": 4970195327,
        "osm_type": "node",
        "name": "Natura Lodge",
        "tourism": "hotel",
        "opening_hours": "24/7",
        "phone": "+904646572035",
        "website": "http://www.naturaotel.com"
      }
    },
    {
      "type": "Feature",
      "geometry": {
        "type": "Point",
        "coordinates": [
          41.1308069,
          40.8835946
        ]
      },
      "properties": {
        "id": 5074083922,
        "osm_type": "node",
        "tourism": "camp_site"
      }
    },
    {
      "type": "Feature",
      "geometry": {
        "type": "Point",
        "coordinates": [
          40.9425579,
          40.8621121
        ]
      },
      "properties": {
        "id": 5247510225,
        "osm_type": "node",
        "name": "Cancık Pansiyon",
        "tourism": "hostel"
      }
    },
    {
      "type": "Feature",
      "geometry": {
        "type": "Point",
        "coordinates": [
          40.9141645,
          40.903359
        ]
      },
      "properties": {
        "id": 5323922724,
        "osm_type": "node",
        "tourism": "camp_site"
      }
    },
    {
      "type": "Feature",
      "geometry": {
        "type": "Point",
        "coordinates": [
          40.5826744,
          41.0461929
        ]
      },
      "properties": {
        "id": 5748605267,
        "osm_type": "node",
        "name": "Ramada Plaza Rize",
        "tourism": "hotel",
        "phone": "+90 464 229 01 53",
        "website": "https://www.ramadaplazarize.com/",
        "check_date": "2023-04-21"
      }
    },
    {
      "type": "Feature",
      "geometry": {
        "type": "Point",
        "coordinates": [
          40.4018271,
          41.0242726
        ]
      },
      "properties": {
        "id": 5853384785,
        "osm_type": "node",
        "tourism": "guest_house"
      }
    },
    {
      "type": "Feature",
      "geometry": {
        "type": "Point",
        "coordinates": [
          40.9467421,
          41.1806992
        ]
      },
      "properties": {
        "id": 5912700648,
        "osm_type": "node",
        "name": "Green Suada Hotel",
        "tourism": "hotel",
        "phone": "+90 464 623 5333",
        "website": "https://www.greensuadahotel.com.tr/"
      }
    },
    {
      "type": "Feature",
      "geometry": {
        "type": "Point",
        "coordinates": [
          40.5198443,
          41.0241903
        ]
      },
      "properties": {
        "id": 5928088085,
        "osm_type": "node",
        "name": "Efes Hotel",
        "tourism": "hotel"
      }
    },
    {
      "type": "Feature",
      "geometry": {
        "type": "Point",
        "coordinates": [
          41.0292532,
          41.0802868
        ]
      },
      "properties": {
        "id": 6256568471,
        "osm_type": "node",
        "name": "Efulim Apart",
        "tourism": "apartment",
        "phone": "+905548458503"
      }
    },
    {
      "type": "Feature",
      "geometry": {
        "type": "Point",
        "coordinates": [
          41.0421198,
          41.120699
        ]
      },
      "properties": {
        "id": 6320496442,
        "osm_type": "node",
        "name": "Elikti Butik Otel",
        "tourism": "hotel"
      }
    },
    {
      "type": "Feature",
      "geometry": {
        "type": "Point",
        "coordinates": [
          41.0127032,
          40.8552478
        ]
      },
      "properties": {
        "id": 6417328885,
        "osm_type": "node",
        "name": "Elevit yaylası",
        "tourism": "camp_site"
      }
    },
    {
      "type": "Feature",
      "geometry": {
        "type": "Point",
        "coordinates": [
          41.1056164,
          40.9527008
        ]
      },
      "properties": {
        "id": 6641081786,
        "osm_type": "node",
        "name": "Vesila Hotel",
        "tourism": "hotel"
      }
    },
    {
      "type": "Feature",
      "geometry": {
        "type": "Point",
        "coordinates": [
          40.5203584,
          41.0248553
        ]
      },
      "properties": {
        "id": 6641659885,
        "osm_type": "node",
        "name": "Erdem Hotel",
        "tourism": "hotel"
      }
    },
    {
      "type": "Feature",
      "geometry": {
        "type": "Point",
        "coordinates": [
          41.1308755,
          40.8836651
        ]
      },
      "properties": {
        "id": 6776896585,
        "osm_type": "node",
        "name": "Kavrun Kamp Alanı",
        "tourism": "camp_site"
      }
    },
    {
      "type": "Feature",
      "geometry": {
        "type": "Point",
        "coordinates": [
          41.1083731,
          40.9514807
        ]
      },
      "properties": {
        "id": 6807883885,
        "osm_type": "node",
        "name": "Doğa Harikası - Aile Pansiyonu",
        "tourism": "hotel"
      }
    },
    {
      "type": "Feature",
      "geometry": {
        "type": "Point",
        "coordinates": [
          41.0963295,
          40.9547676
        ]
      },
      "properties": {
        "id": 7516655387,
        "osm_type": "node",
        "tourism": "hotel"
      }
    },
    {
      "type": "Feature",
      "geometry": {
        "type": "Point",
        "coordinates": [
          41.0138386,
          40.8557916
        ]
      },
      "properties": {
        "id": 7754340785,
        "osm_type": "node",
        "name": "Kartal Pansiyon",
        "tourism": "hostel",
        "phone": "+90 537 286 07 56"
      }
    },
    {
      "type": "Feature",
      "geometry": {
        "type": "Point",
        "coordinates": [
          40.9700769,
          40.9918723
        ]
      },
      "properties": {
        "id": 7829519086,
        "osm_type": "node",
        "tourism": "camp_site"
      }
    },
    {
      "type": "Feature",
      "geometry": {
        "type": "Point",
        "coordinates": [
          41.0974738,
          40.9542531
        ]
      },
      "properties": {
        "id": 7994385385,
        "osm_type": "node",
        "name": "Pirikoğlu Otel",
        "tourism": "hotel",
        "opening_hours": "24/7"
      }
    },
    {
      "type": "Feature",
      "geometry": {
        "type": "Point",
        "coordinates": [
          40.9178355,
          40.9307755
        ]
      },
      "properties": {
        "id": 8058770986,
        "osm_type": "node",
        "name": "Badara Yaylası",
        "tourism": "alpine_hut"
      }
    },
    {
      "type": "Feature",
      "geometry": {
        "type": "Point",
        "coordinates": [
          40.4561366,
          41.0315573
        ]
      },
      "properties": {
        "id": 8344398647,
        "osm_type": "node",
        "name": "Ricosta Hotel",
        "tourism": "hotel"
      }
    },
    {
      "type": "Feature",
      "geometry": {
        "type": "Point",
        "coordinates": [
          41.0039071,
          41.0496721
        ]
      },
      "properties": {
        "id": 8464139717,
        "osm_type": "node",
        "name": "Ögretmen Evi",
        "tourism": "hostel"
      }
    },
    {
      "type": "Feature",
      "geometry": {
        "type": "Point",
        "coordinates": [
          41.1071855,
          40.9527214
        ]
      },
      "properties": {
        "id": 8957254456,
        "osm_type": "node",
        "name": "Yunuslar Apart Pansiyon",
        "tourism": "hotel"
      }
    },
    {
      "type": "Feature",
      "geometry": {
        "type": "Point",
        "coordinates": [
          41.1070371,
          40.9522516
        ]
      },
      "properties": {
        "id": 8957254457,
        "osm_type": "node",
        "name": "Ayder Umit Otel",
        "tourism": "hotel"
      }
    },
    {
      "type": "Feature",
      "geometry": {
        "type": "Point",
        "coordinates": [
          41.1065554,
          40.9521748
        ]
      },
      "properties": {
        "id": 8957254458,
        "osm_type": "node",
        "name": "Serender Otel",
        "tourism": "hotel"
      }
    },
    {
      "type": "Feature",
      "geometry": {
        "type": "Point",
        "coordinates": [
          41.1067859,
          40.9526343
        ]
      },
      "properties": {
        "id": 8957254459,
        "osm_type": "node",
        "name": "Inka Apart",
        "tourism": "hotel"
      }
    },
    {
      "type": "Feature",
      "geometry": {
        "type": "Point",
        "coordinates": [
          41.1069802,
          40.9528703
        ]
      },
      "properties": {
        "id": 8957254460,
        "osm_type": "node",
        "name": "Apart Evler",
        "tourism": "hotel"
      }
    },
    {
      "type": "Feature",
      "geometry": {
        "type": "Point",
        "coordinates": [
          41.1755021,
          40.8969745
        ]
      },
      "properties": {
        "id": 8957331404,
        "osm_type": "node",
        "name": "Zafran Otel",
        "tourism": "hotel"
      }
    },
    {
      "type": "Feature",
      "geometry": {
        "type": "Point",
        "coordinates": [
          40.9450901,
          40.8159301
        ]
      },
      "properties": {
        "id": 8957363715,
        "osm_type": "node",
        "name": "Kale Pansiyon",
        "tourism": "hotel"
      }
    },
    {
      "type": "Feature",
      "geometry": {
        "type": "Point",
        "coordinates": [
          41.0112621,
          40.7687024
        ]
      },
      "properties": {
        "id": 8957464401,
        "osm_type": "node",
        "tourism": "camp_site"
      }
    },
    {
      "type": "Feature",
      "geometry": {
        "type": "Point",
        "coordinates": [
          41.0937799,
          40.7914613
        ]
      },
      "properties": {
        "id": 8957483887,
        "osm_type": "node",
        "tourism": "camp_site"
      }
    },
    {
      "type": "Feature",
      "geometry": {
        "type": "Point",
        "coordinates": [
          40.6085542,
          40.7838974
        ]
      },
      "properties": {
        "id": 8963728473,
        "osm_type": "node",
        "name": "Ridos Termal Otel & Spa",
        "tourism": "hotel"
      }
    },
    {
      "type": "Feature",
      "geometry": {
        "type": "Point",
        "coordinates": [
          40.9131892,
          40.9042695
        ]
      },
      "properties": {
        "id": 9778625617,
        "osm_type": "node",
        "tourism": "guest_house"
      }
    },
    {
      "type": "Feature",
      "geometry": {
        "type": "Point",
        "coordinates": [
          41.1182566,
          40.9546738
        ]
      },
      "properties": {
        "id": 9866316429,
        "osm_type": "node",
        "name": "Ayder Chalet (Ayder Dağ Evi)",
        "tourism": "hotel",
        "website": "https://www.ayderchalet.com/"
      }
    },
    {
      "type": "Feature",
      "geometry": {
        "type": "Point",
        "coordinates": [
          41.0156955,
          41.138448
        ]
      },
      "properties": {
        "id": 9885417081,
        "osm_type": "node",
        "name": "Derebeyi",
        "tourism": "camp_site"
      }
    },
    {
      "type": "Feature",
      "geometry": {
        "type": "Point",
        "coordinates": [
          40.8809344,
          41.1801383
        ]
      },
      "properties": {
        "id": 9992055059,
        "osm_type": "node",
        "name": "Deniz Konak Otel",
        "tourism": "hotel",
        "contact:phone": "+90 464 612 53 10",
        "website": "https://www.denizkonakotel.com/"
      }
    },
    {
      "type": "Feature",
      "geometry": {
        "type": "Point",
        "coordinates": [
          40.5217104,
          41.0254185
        ]
      },
      "properties": {
        "id": 10013117975,
        "osm_type": "node",
        "name": "Hotel Blue",
        "tourism": "hotel"
      }
    },
    {
      "type": "Feature",
      "geometry": {
        "type": "Point",
        "coordinates": [
          40.5274534,
          41.0229956
        ]
      },
      "properties": {
        "id": 10027052717,
        "osm_type": "node",
        "name": "Rhısos Gold فندق ريزا",
        "tourism": "hotel"
      }
    },
    {
      "type": "Feature",
      "geometry": {
        "type": "Point",
        "coordinates": [
          40.3438833,
          40.9798521
        ]
      },
      "properties": {
        "id": 10027569322,
        "osm_type": "node",
        "tourism": "motel"
      }
    },
    {
      "type": "Feature",
      "geometry": {
        "type": "Point",
        "coordinates": [
          40.3586756,
          41.0122662
        ]
      },
      "properties": {
        "id": 10027569663,
        "osm_type": "node",
        "name": "Babillon Hotel",
        "tourism": "hotel",
        "website": "https://www.babillonhotel.com/"
      }
    },
    {
      "type": "Feature",
      "geometry": {
        "type": "Point",
        "coordinates": [
          41.1460037,
          41.2701587
        ]
      },
      "properties": {
        "id": 10081709968,
        "osm_type": "node",
        "name": "Mars Otel",
        "tourism": "hotel"
      }
    },
    {
      "type": "Feature",
      "geometry": {
        "type": "Point",
        "coordinates": [
          41.1411327,
          41.271366
        ]
      },
      "properties": {
        "id": 10081737917,
        "osm_type": "node",
        "name": "Milano Hotel",
        "tourism": "hotel"
      }
    },
    {
      "type": "Feature",
      "geometry": {
        "type": "Point",
        "coordinates": [
          40.5292358,
          41.0251282
        ]
      },
      "properties": {
        "id": 10083199719,
        "osm_type": "node",
        "name": "Şimal",
        "tourism": "hotel",
        "phone": "+904642131472",
        "website": "https://simalotel.com/"
      }
    },
    {
      "type": "Feature",
      "geometry": {
        "type": "Point",
        "coordinates": [
          40.9710448,
          41.174619
        ]
      },
      "properties": {
        "id": 10542646531,
        "osm_type": "node",
        "name": "Danzi Camping",
        "tourism": "camp_site",
        "tents": "yes"
      }
    },
    {
      "type": "Feature",
      "geometry": {
        "type": "Point",
        "coordinates": [
          40.9705055,
          41.175231
        ]
      },
      "properties": {
        "id": 10696848278,
        "osm_type": "node",
        "name": "Danzi Camping",
        "tourism": "camp_site",
        "tents": "yes"
      }
    },
    {
      "type": "Feature",
      "geometry": {
        "type": "Point",
        "coordinates": [
          41.145536,
          40.9138727
        ]
      },
      "properties": {
        "id": 10923428306,
        "osm_type": "node",
        "tourism": "camp_site"
      }
    },
    {
      "type": "Feature",
      "geometry": {
        "type": "Point",
        "coordinates": [
          40.9983235,
          41.1740522
        ]
      },
      "properties": {
        "id": 10982411504,
        "osm_type": "node",
        "name": "Ankra Deluxe Konak",
        "tourism": "hostel",
        "phone": "+90 539 882 95 53",
        "website": "https://ankradeluxe.com/"
      }
    },
    {
      "type": "Feature",
      "geometry": {
        "type": "Point",
        "coordinates": [
          41.0102214,
          41.1536287
        ]
      },
      "properties": {
        "id": 11023002459,
        "osm_type": "node",
        "name": "Kral Apart Bungalov",
        "tourism": "apartment"
      }
    },
    {
      "type": "Feature",
      "geometry": {
        "type": "Point",
        "coordinates": [
          40.9922192,
          41.0606253
        ]
      },
      "properties": {
        "id": 11045935892,
        "osm_type": "node",
        "name": "Level spot for camping",
        "tourism": "camp_site"
      }
    },
    {
      "type": "Feature",
      "geometry": {
        "type": "Point",
        "coordinates": [
          40.971569,
          41.0624323
        ]
      },
      "properties": {
        "id": 11046032263,
        "osm_type": "node",
        "name": "Nice camp site",
        "tourism": "camp_site"
      }
    },
    {
      "type": "Feature",
      "geometry": {
        "type": "Point",
        "coordinates": [
          41.005545,
          41.0457012
        ]
      },
      "properties": {
        "id": 11556613413,
        "osm_type": "node",
        "name": "Hoşdere Suit",
        "tourism": "hotel"
      }
    },
    {
      "type": "Feature",
      "geometry": {
        "type": "Point",
        "coordinates": [
          40.8123372,
          40.9631302
        ]
      },
      "properties": {
        "id": 11838397257,
        "osm_type": "node",
        "name": "HUTOĞLU KONAK",
        "tourism": "alpine_hut",
        "phone": "+90 535 841 99 61"
      }
    },
    {
      "type": "Feature",
      "geometry": {
        "type": "Point",
        "coordinates": [
          40.8688079,
          40.8077806
        ]
      },
      "properties": {
        "id": 11838807711,
        "osm_type": "node",
        "name": "TahpurKonak",
        "tourism": "alpine_hut",
        "phone": "+905358419961"
      }
    },
    {
      "type": "Feature",
      "geometry": {
        "type": "Point",
        "coordinates": [
          40.9631707,
          41.1819891
        ]
      },
      "properties": {
        "id": 11865733371,
        "osm_type": "node",
        "name": "Sem Villa Konak",
        "tourism": "guest_house"
      }
    },
    {
      "type": "Feature",
      "geometry": {
        "type": "Point",
        "coordinates": [
          40.5273457,
          41.0236517
        ]
      },
      "properties": {
        "id": 12181009201,
        "osm_type": "node",
        "name": "Rhisos Gold",
        "tourism": "hotel",
        "phone": "+904642360000",
        "website": "https://rhisosgoldotel.com.tr/"
      }
    },
    {
      "type": "Feature",
      "geometry": {
        "type": "Point",
        "coordinates": [
          40.5221384,
          41.0249827
        ]
      },
      "properties": {
        "id": 12548677479,
        "osm_type": "node",
        "name": "Otel Yalta",
        "tourism": "hotel",
        "phone": "+90 4642171477",
        "website": "https://yaltaotel.com"
      }
    },
    {
      "type": "Feature",
      "geometry": {
        "type": "Point",
        "coordinates": [
          41.0408151,
          41.1233456
        ]
      },
      "properties": {
        "id": 12748992043,
        "osm_type": "node",
        "name": "VADİDEKAL SUİT OTEL",
        "tourism": "hotel",
        "phone": "+905362519210",
        "website": "https://vadidekal.com.tr"
      }
    },
    {
      "type": "Feature",
      "geometry": {
        "type": "Point",
        "coordinates": [
          41.0408947,
          41.1232784
        ]
      },
      "properties": {
        "id": 12752991401,
        "osm_type": "node",
        "tourism": "hotel",
        "opening_hours": "24/7",
        "phone": "+905362519210",
        "website": "https://vadidekal.com.tr"
      }
    },
    {
      "type": "Feature",
      "geometry": {
        "type": "Point",
        "coordinates": [
          41.0284546,
          41.0871904
        ]
      },
      "properties": {
        "id": 12832318698,
        "osm_type": "node",
        "name": "ELVA BUNGALOV",
        "tourism": "hotel"
      }
    },
    {
      "type": "Feature",
      "geometry": {
        "type": "Point",
        "coordinates": [
          40.9194604,
          41.1694
        ]
      },
      "properties": {
        "id": 12866047050,
        "osm_type": "node",
        "name": "Mavi Patika Bungalove",
        "tourism": "alpine_hut",
        "opening_hours": "24/7",
        "phone": "+90 532 251 11 53"
      }
    },
    {
      "type": "Feature",
      "geometry": {
        "type": "Point",
        "coordinates": [
          40.9523687,
          41.165749
        ]
      },
      "properties": {
        "id": 12883535901,
        "osm_type": "node",
        "name": "Mcora Tatil Köyü",
        "tourism": "hotel",
        "opening_hours": "Mo-Su 10:00-19:00",
        "phone": "+90 532 730 60 22",
        "website": "https://mcoratatilkoyu.com.tr/"
      }
    },
    {
      "type": "Feature",
      "geometry": {
        "type": "Point",
        "coordinates": [
          40.677006,
          40.7758225
        ]
      },
      "properties": {
        "id": 13045404301,
        "osm_type": "node",
        "tourism": "camp_site"
      }
    },
    {
      "type": "Feature",
      "geometry": {
        "type": "Point",
        "coordinates": [
          40.9685519,
          41.1761464
        ]
      },
      "properties": {
        "id": 13158266367,
        "osm_type": "node",
        "name": "Rossi Luxury Hotel",
        "tourism": "hotel",
        "opening_hours": "24/7",
        "phone": "+90 464 715 07 15",
        "website": "https://www.rossiluxuryhotel.com"
      }
    },
    {
      "type": "Feature",
      "geometry": {
        "type": "Point",
        "coordinates": [
          40.6895184,
          41.0765092
        ]
      },
      "properties": {
        "id": 13372077401,
        "osm_type": "node",
        "name": "Cayeli/Rize",
        "tourism": "camp_site",
        "phone": "090-532 229 23 53",
        "website": "http://limankoycafecamp.com.tr"
      }
    },
    {
      "type": "Feature",
      "geometry": {
        "type": "Point",
        "coordinates": [
          40.5185923,
          41.0228184
        ]
      },
      "properties": {
        "id": 13555726101,
        "osm_type": "node",
        "name": "Grand 464",
        "tourism": "hotel"
      }
    },
    {
      "type": "Feature",
      "geometry": {
        "type": "Point",
        "coordinates": [
          41.1163087,
          40.9521486
        ]
      },
      "properties": {
        "id": 184074647,
        "osm_type": "way",
        "name": "Kalegon",
        "tourism": "camp_site"
      }
    },
    {
      "type": "Feature",
      "geometry": {
        "type": "Point",
        "coordinates": [
          41.093519,
          40.9546442
        ]
      },
      "properties": {
        "id": 314424842,
        "osm_type": "way",
        "name": "Kaçkar Resort Otel",
        "tourism": "hotel"
      }
    },
    {
      "type": "Feature",
      "geometry": {
        "type": "Point",
        "coordinates": [
          41.0074623,
          41.0346394
        ]
      },
      "properties": {
        "id": 372060836,
        "osm_type": "way",
        "name": "Tasmektep",
        "tourism": "hotel"
      }
    },
    {
      "type": "Feature",
      "geometry": {
        "type": "Point",
        "coordinates": [
          41.0955237,
          40.9540599
        ]
      },
      "properties": {
        "id": 519678755,
        "osm_type": "way",
        "name": "İstanbul Pansiyon",
        "tourism": "hostel",
        "phone": "+90 464 657 21 08",
        "website": "ayderistanbul.com"
      }
    },
    {
      "type": "Feature",
      "geometry": {
        "type": "Point",
        "coordinates": [
          40.5277903,
          41.0237852
        ]
      },
      "properties": {
        "id": 546367895,
        "osm_type": "way",
        "tourism": "hotel"
      }
    },
    {
      "type": "Feature",
      "geometry": {
        "type": "Point",
        "coordinates": [
          40.998446,
          41.1943635
        ]
      },
      "properties": {
        "id": 755409446,
        "osm_type": "way",
        "name": "Patulya",
        "tourism": "hotel"
      }
    },
    {
      "type": "Feature",
      "geometry": {
        "type": "Point",
        "coordinates": [
          40.9578315,
          40.9844653
        ]
      },
      "properties": {
        "id": 1079731195,
        "osm_type": "way",
        "name": "Nordic Hotel",
        "tourism": "hotel"
      }
    },
    {
      "type": "Feature",
      "geometry": {
        "type": "Point",
        "coordinates": [
          41.1420978,
          41.2728541
        ]
      },
      "properties": {
        "id": 1098834559,
        "osm_type": "way",
        "name": "Ramada by Wyndham",
        "tourism": "hotel"
      }
    },
    {
      "type": "Feature",
      "geometry": {
        "type": "Point",
        "coordinates": [
          41.1421385,
          41.2723108
        ]
      },
      "properties": {
        "id": 1101697912,
        "osm_type": "way",
        "name": "Sabancı Öğretmen Evi",
        "tourism": "hotel"
      }
    }
  ]
}