{
  "type": "FeatureCollection",
  "features": [
    {
      "type": "Feature",
      "geometry": {
        "type": "Point",
        "coordinates": [
          26.6528001,
          44.7137809
        ]
      },
      "properties": {
        "id": 1627829390,
        "osm_type": "node",
        "name": "Hotel Royal Urziceeni",
        "tourism": "hotel"
      }
    },
    {
      "type": "Feature",
      "geometry": {
        "type": "Point",
        "coordinates": [
          26.6308902,
          44.7118889
        ]
      },
      "properties": {
        "id": 1887104633,
        "osm_type": "node",
        "name": "Pensiunea Apollo",
        "tourism": "hotel"
      }
    },
    {
      "type": "Feature",
      "geometry": {
        "type": "Point",
        "coordinates": [
          27.3435047,
          44.6141315
        ]
      },
      "properties": {
        "id": 2575443700,
        "osm_type": "node",
        "name": "Hotel Dana",
        "tourism": "hotel",
        "opening_hours": "24/7",
        "phone": "+40 343 401 334",
        "website": "http://www.hoteldana-amara.ro"
      }
    },
    {
      "type": "Feature",
      "geometry": {
        "type": "Point",
        "coordinates": [
          27.3295916,
          44.5578459
        ]
      },
      "properties": {
        "id": 2667008436,
        "osm_type": "node",
        "name": "Parcul de vacanță Hermes",
        "tourism": "hotel"
      }
    },
    {
      "type": "Feature",
      "geometry": {
        "type": "Point",
        "coordinates": [
          27.3725716,
          44.5633083
        ]
      },
      "properties": {
        "id": 6119872250,
        "osm_type": "node",
        "name": "Cazare Macedonia",
        "tourism": "hotel"
      }
    },
    {
      "type": "Feature",
      "geometry": {
        "type": "Point",
        "coordinates": [
          27.8228742,
          44.4158574
        ]
      },
      "properties": {
        "id": 6575686901,
        "osm_type": "node",
        "name": "Hotel Miorita",
        "tourism": "hotel"
      }
    },
    {
      "type": "Feature",
      "geometry": {
        "type": "Point",
        "coordinates": [
          27.3577453,
          44.5627803
        ]
      },
      "properties": {
        "id": 6817320185,
        "osm_type": "node",
        "name": "Acasa",
        "tourism": "apartment"
      }
    },
    {
      "type": "Feature",
      "geometry": {
        "type": "Point",
        "coordinates": [
          27.8837869,
          44.4124817
        ]
      },
      "properties": {
        "id": 7694432184,
        "osm_type": "node",
        "name": "Casa VM&M",
        "tourism": "guest_house"
      }
    },
    {
      "type": "Feature",
      "geometry": {
        "type": "Point",
        "coordinates": [
          27.8594916,
          44.3949901
        ]
      },
      "properties": {
        "id": 7694657211,
        "osm_type": "node",
        "name": "Motel La Popescu",
        "tourism": "motel"
      }
    },
    {
      "type": "Feature",
      "geometry": {
        "type": "Point",
        "coordinates": [
          27.8240663,
          44.4159315
        ]
      },
      "properties": {
        "id": 10282658809,
        "osm_type": "node",
        "tourism": "apartment"
      }
    },
    {
      "type": "Feature",
      "geometry": {
        "type": "Point",
        "coordinates": [
          27.8262031,
          44.4106542
        ]
      },
      "properties": {
        "id": 10282665010,
        "osm_type": "node",
        "tourism": "apartment"
      }
    },
    {
      "type": "Feature",
      "geometry": {
        "type": "Point",
        "coordinates": [
          27.8261346,
          44.4107442
        ]
      },
      "properties": {
        "id": 10282666709,
        "osm_type": "node",
        "tourism": "apartment"
      }
    },
    {
      "type": "Feature",
      "geometry": {
        "type": "Point",
        "coordinates": [
          27.3607001,
          44.565173
        ]
      },
      "properties": {
        "id": 253231384,
        "osm_type": "way",
        "name": "Hotel Select",
        "tourism": "hotel"
      }
    },
    {
      "type": "Feature",
      "geometry": {
        "type": "Point",
        "coordinates": [
          27.3541736,
          44.5545685
        ]
      },
      "properties": {
        "id": 254151600,
        "osm_type": "way",
        "name": "Privighetoarea",
        "tourism": "hotel"
      }
    },
    {
      "type": "Feature",
      "geometry": {
        "type": "Point",
        "coordinates": [
          27.3779052,
          44.5622959
        ]
      },
      "properties": {
        "id": 255698955,
        "osm_type": "way",
        "name": "Hotel Console",
        "tourism": "hotel"
      }
    },
    {
      "type": "Feature",
      "geometry": {
        "type": "Point",
        "coordinates": [
          27.3324114,
          44.6094235
        ]
      },
      "properties": {
        "id": 261084671,
        "osm_type": "way",
        "name": "Hotel Ialomița",
        "tourism": "hotel",
        "phone": "+40 243 266 260"
      }
    },
    {
      "type": "Feature",
      "geometry": {
        "type": "Point",
        "coordinates": [
          27.3190382,
          44.6049477
        ]
      },
      "properties": {
        "id": 301096143,
        "osm_type": "way",
        "name": "Diamant",
        "tourism": "hotel"
      }
    },
    {
      "type": "Feature",
      "geometry": {
        "type": "Point",
        "coordinates": [
          27.3288979,
          44.6075001
        ]
      },
      "properties": {
        "id": 645302376,
        "osm_type": "way",
        "name": "Hotel Lebăda",
        "tourism": "hotel",
        "phone": "+40 243 266 027",
        "website": "https://www.alfahotels.ro/ro/hotel-lebada/"
      }
    },
    {
      "type": "Feature",
      "geometry": {
        "type": "Point",
        "coordinates": [
          27.3446568,
          44.6138788
        ]
      },
      "properties": {
        "id": 765830668,
        "osm_type": "way",
        "name": "Hotel Parc",
        "tourism": "hotel"
      }
    },
    {
      "type": "Feature",
      "geometry": {
        "type": "Point",
        "coordinates": [
          26.6225764,
          44.7102148
        ]
      },
      "properties": {
        "id": 936694839,
        "osm_type": "way",
        "name": "Motel Riden",
        "tourism": "motel"
      }
    },
    {
      "type": "Feature",
      "geometry": {
        "type": "Point",
        "coordinates": [
          27.3435106,
          44.6143192
        ]
      },
      "properties": {
        "id": 1187806875,
        "osm_type": "way",
        "tourism": "hotel"
      }
    }
  ]
}