{
  "type": "FeatureCollection",
  "features": [
    {
      "type": "Feature",
      "geometry": {
        "type": "Point",
        "coordinates": [
          21.4753485,
          44.7617065
        ]
      },
      "properties": {
        "id": 1311037780,
        "osm_type": "node",
        "name": "Kovan Cabin",
        "tourism": "guest_house"
      }
    },
    {
      "type": "Feature",
      "geometry": {
        "type": "Point",
        "coordinates": [
          21.909877,
          44.6398559
        ]
      },
      "properties": {
        "id": 1361065751,
        "osm_type": "node",
        "name": "Prenociste",
        "tourism": "guest_house"
      }
    },
    {
      "type": "Feature",
      "geometry": {
        "type": "Point",
        "coordinates": [
          21.9148389,
          44.6406831
        ]
      },
      "properties": {
        "id": 1361065770,
        "osm_type": "node",
        "tourism": "hotel"
      }
    },
    {
      "type": "Feature",
      "geometry": {
        "type": "Point",
        "coordinates": [
          21.6060529,
          44.7060634
        ]
      },
      "properties": {
        "id": 1852470598,
        "osm_type": "node",
        "tourism": "guest_house"
      }
    },
    {
      "type": "Feature",
      "geometry": {
        "type": "Point",
        "coordinates": [
          21.68903,
          44.65981
        ]
      },
      "properties": {
        "id": 1852474332,
        "osm_type": "node",
        "tourism": "guest_house"
      }
    },
    {
      "type": "Feature",
      "geometry": {
        "type": "Point",
        "coordinates": [
          21.9153015,
          44.6407078
        ]
      },
      "properties": {
        "id": 1852941966,
        "osm_type": "node",
        "name": "Цветковић",
        "tourism": "guest_house"
      }
    },
    {
      "type": "Feature",
      "geometry": {
        "type": "Point",
        "coordinates": [
          21.611025,
          44.6668433
        ]
      },
      "properties": {
        "id": 1855930407,
        "osm_type": "node",
        "tourism": "guest_house"
      }
    },
    {
      "type": "Feature",
      "geometry": {
        "type": "Point",
        "coordinates": [
          21.1852821,
          44.6221164
        ]
      },
      "properties": {
        "id": 2351212564,
        "osm_type": "node",
        "name": "Дунав",
        "tourism": "hotel"
      }
    },
    {
      "type": "Feature",
      "geometry": {
        "type": "Point",
        "coordinates": [
          21.1791175,
          44.6185521
        ]
      },
      "properties": {
        "id": 2992044884,
        "osm_type": "node",
        "name": "Feniks",
        "tourism": "hotel",
        "phone": "+381 12 556677",
        "website": "http://www.hotelfeniks.rs"
      }
    },
    {
      "type": "Feature",
      "geometry": {
        "type": "Point",
        "coordinates": [
          21.6031944,
          44.7082289
        ]
      },
      "properties": {
        "id": 3049392644,
        "osm_type": "node",
        "name": "Guest House Bajka",
        "tourism": "hotel"
      }
    },
    {
      "type": "Feature",
      "geometry": {
        "type": "Point",
        "coordinates": [
          21.2309287,
          44.7340142
        ]
      },
      "properties": {
        "id": 3049412924,
        "osm_type": "node",
        "tourism": "hostel"
      }
    },
    {
      "type": "Feature",
      "geometry": {
        "type": "Point",
        "coordinates": [
          21.5542896,
          44.7265343
        ]
      },
      "properties": {
        "id": 4764295921,
        "osm_type": "node",
        "name": "Пескови (стрелиште)",
        "tourism": "camp_site"
      }
    },
    {
      "type": "Feature",
      "geometry": {
        "type": "Point",
        "coordinates": [
          21.4135131,
          44.3811366
        ]
      },
      "properties": {
        "id": 5089908986,
        "osm_type": "node",
        "name": "Gazda Dragan",
        "tourism": "guest_house"
      }
    },
    {
      "type": "Feature",
      "geometry": {
        "type": "Point",
        "coordinates": [
          21.1641787,
          44.7050691
        ]
      },
      "properties": {
        "id": 5526531821,
        "osm_type": "node",
        "name": "Keti",
        "tourism": "camp_site"
      }
    },
    {
      "type": "Feature",
      "geometry": {
        "type": "Point",
        "coordinates": [
          21.8393054,
          44.6410681
        ]
      },
      "properties": {
        "id": 5609213946,
        "osm_type": "node",
        "name": "Camping Asin",
        "tourism": "camp_site",
        "phone": "+381 62 8089 246",
        "website": "https://camping-asin.com/"
      }
    },
    {
      "type": "Feature",
      "geometry": {
        "type": "Point",
        "coordinates": [
          21.3952041,
          44.7659414
        ]
      },
      "properties": {
        "id": 5715098330,
        "osm_type": "node",
        "name": "Кампинг одмориште Калиновац",
        "tourism": "camp_site"
      }
    },
    {
      "type": "Feature",
      "geometry": {
        "type": "Point",
        "coordinates": [
          21.6534866,
          44.655246
        ]
      },
      "properties": {
        "id": 5732038654,
        "osm_type": "node",
        "name": "Дедине",
        "tourism": "guest_house"
      }
    },
    {
      "type": "Feature",
      "geometry": {
        "type": "Point",
        "coordinates": [
          21.6891571,
          44.6599591
        ]
      },
      "properties": {
        "id": 6350113428,
        "osm_type": "node",
        "name": "Jenic Rooms",
        "tourism": "guest_house"
      }
    },
    {
      "type": "Feature",
      "geometry": {
        "type": "Point",
        "coordinates": [
          21.1876362,
          44.6235266
        ]
      },
      "properties": {
        "id": 6801687667,
        "osm_type": "node",
        "name": "Hostel Požarevac",
        "tourism": "hostel"
      }
    },
    {
      "type": "Feature",
      "geometry": {
        "type": "Point",
        "coordinates": [
          21.7832412,
          44.1917234
        ]
      },
      "properties": {
        "id": 9239060718,
        "osm_type": "node",
        "name": "Vrelo",
        "tourism": "motel",
        "opening_hours": "24/7",
        "phone": "+381 12 710 00 11",
        "website": "https://www.vrelomlava.com"
      }
    },
    {
      "type": "Feature",
      "geometry": {
        "type": "Point",
        "coordinates": [
          21.6883565,
          44.6597893
        ]
      },
      "properties": {
        "id": 9862841359,
        "osm_type": "node",
        "name": "Мотел Јоргован",
        "tourism": "motel",
        "website": "https://www.facebook.com/restoranjorgovan"
      }
    },
    {
      "type": "Feature",
      "geometry": {
        "type": "Point",
        "coordinates": [
          21.6337806,
          44.6519785
        ]
      },
      "properties": {
        "id": 10029250514,
        "osm_type": "node",
        "name": "Apartman i Prenoćište Aleksandar",
        "tourism": "apartment"
      }
    },
    {
      "type": "Feature",
      "geometry": {
        "type": "Point",
        "coordinates": [
          21.6266011,
          44.6535932
        ]
      },
      "properties": {
        "id": 10114359996,
        "osm_type": "node",
        "name": "Mom's House",
        "tourism": "apartment"
      }
    },
    {
      "type": "Feature",
      "geometry": {
        "type": "Point",
        "coordinates": [
          21.4704121,
          44.7638023
        ]
      },
      "properties": {
        "id": 10823839936,
        "osm_type": "node",
        "name": "Миловановић",
        "tourism": "chalet",
        "phone": "0606300371",
        "website": "https://www.facebook.com/jasmina.milovanovic.165"
      }
    },
    {
      "type": "Feature",
      "geometry": {
        "type": "Point",
        "coordinates": [
          21.4753441,
          44.7608221
        ]
      },
      "properties": {
        "id": 11407030382,
        "osm_type": "node",
        "name": "Камп Сребрно језеро",
        "tourism": "caravan_site"
      }
    },
    {
      "type": "Feature",
      "geometry": {
        "type": "Point",
        "coordinates": [
          21.4884919,
          44.7638886
        ]
      },
      "properties": {
        "id": 11624005847,
        "osm_type": "node",
        "name": "Брвнара",
        "tourism": "apartment"
      }
    },
    {
      "type": "Feature",
      "geometry": {
        "type": "Point",
        "coordinates": [
          21.4814894,
          44.7630538
        ]
      },
      "properties": {
        "id": 12768031938,
        "osm_type": "node",
        "name": "Атос",
        "tourism": "guest_house"
      }
    },
    {
      "type": "Feature",
      "geometry": {
        "type": "Point",
        "coordinates": [
          21.6369479,
          44.652202
        ]
      },
      "properties": {
        "id": 13293952101,
        "osm_type": "node",
        "name": "Ilić Apartmani",
        "tourism": "apartment",
        "phone": "+381642523218",
        "website": "https://share.google/O33ZE9y3ODrXEiFvx"
      }
    },
    {
      "type": "Feature",
      "geometry": {
        "type": "Point",
        "coordinates": [
          21.1974809,
          44.6129472
        ]
      },
      "properties": {
        "id": 13360449924,
        "osm_type": "node",
        "name": "Еколошки дом",
        "tourism": "alpine_hut"
      }
    },
    {
      "type": "Feature",
      "geometry": {
        "type": "Point",
        "coordinates": [
          21.4750568,
          44.7610096
        ]
      },
      "properties": {
        "id": 127877378,
        "osm_type": "way",
        "name": "Сребрно језеро",
        "tourism": "camp_site"
      }
    },
    {
      "type": "Feature",
      "geometry": {
        "type": "Point",
        "coordinates": [
          21.9639174,
          44.1387219
        ]
      },
      "properties": {
        "id": 206223967,
        "osm_type": "way",
        "name": "Црни врх",
        "tourism": "alpine_hut"
      }
    },
    {
      "type": "Feature",
      "geometry": {
        "type": "Point",
        "coordinates": [
          21.6250725,
          44.6544525
        ]
      },
      "properties": {
        "id": 278890110,
        "osm_type": "way",
        "name": "Златна рибица",
        "tourism": "hotel",
        "website": "https://www.kafanazlatnaribica.com/"
      }
    },
    {
      "type": "Feature",
      "geometry": {
        "type": "Point",
        "coordinates": [
          21.6284935,
          44.6541294
        ]
      },
      "properties": {
        "id": 278894527,
        "osm_type": "way",
        "name": "Голубачки град",
        "tourism": "hotel"
      }
    },
    {
      "type": "Feature",
      "geometry": {
        "type": "Point",
        "coordinates": [
          21.5980854,
          44.7010444
        ]
      },
      "properties": {
        "id": 715599518,
        "osm_type": "way",
        "name": "Дунавски рај",
        "tourism": "hotel"
      }
    },
    {
      "type": "Feature",
      "geometry": {
        "type": "Point",
        "coordinates": [
          21.503537,
          44.305848
        ]
      },
      "properties": {
        "id": 763002087,
        "osm_type": "way",
        "name": "Дом Ждрело",
        "tourism": "alpine_hut"
      }
    },
    {
      "type": "Feature",
      "geometry": {
        "type": "Point",
        "coordinates": [
          21.4824585,
          44.7621197
        ]
      },
      "properties": {
        "id": 804728115,
        "osm_type": "way",
        "name": "Danubius",
        "tourism": "hotel"
      }
    },
    {
      "type": "Feature",
      "geometry": {
        "type": "Point",
        "coordinates": [
          21.4788525,
          44.7634013
        ]
      },
      "properties": {
        "id": 804730458,
        "osm_type": "way",
        "name": "Srebrno jezero",
        "tourism": "hotel"
      }
    },
    {
      "type": "Feature",
      "geometry": {
        "type": "Point",
        "coordinates": [
          21.4812745,
          44.7648188
        ]
      },
      "properties": {
        "id": 805389699,
        "osm_type": "way",
        "name": "Vila Lago",
        "tourism": "motel"
      }
    },
    {
      "type": "Feature",
      "geometry": {
        "type": "Point",
        "coordinates": [
          21.4860561,
          44.304653
        ]
      },
      "properties": {
        "id": 848481689,
        "osm_type": "way",
        "tourism": "hotel"
      }
    },
    {
      "type": "Feature",
      "geometry": {
        "type": "Point",
        "coordinates": [
          21.4878978,
          44.2997087
        ]
      },
      "properties": {
        "id": 848481713,
        "osm_type": "way",
        "tourism": "hotel"
      }
    },
    {
      "type": "Feature",
      "geometry": {
        "type": "Point",
        "coordinates": [
          21.4873563,
          44.2994729
        ]
      },
      "properties": {
        "id": 848481719,
        "osm_type": "way",
        "tourism": "hotel"
      }
    },
    {
      "type": "Feature",
      "geometry": {
        "type": "Point",
        "coordinates": [
          21.173925,
          44.709434
        ]
      },
      "properties": {
        "id": 1042026716,
        "osm_type": "way",
        "tourism": "hotel"
      }
    },
    {
      "type": "Feature",
      "geometry": {
        "type": "Point",
        "coordinates": [
          21.3806345,
          44.7869937
        ]
      },
      "properties": {
        "id": 1426655658,
        "osm_type": "way",
        "name": "Horizon",
        "tourism": "camp_site",
        "tents": "yes",
        "website": "https://www.camphorizon.rs"
      }
    },
    {
      "type": "Feature",
      "geometry": {
        "type": "Point",
        "coordinates": [
          21.8362798,
          44.6479729
        ]
      },
      "properties": {
        "id": 1497111709,
        "osm_type": "way",
        "tourism": "camp_site"
      }
    }
  ]
}