{
  "type": "FeatureCollection",
  "features": [
    {
      "type": "Feature",
      "geometry": {
        "type": "Point",
        "coordinates": [
          29.0154395,
          66.0752191
        ]
      },
      "properties": {
        "id": 460938429,
        "osm_type": "node",
        "name": "Nuorisokeskus Oivanki",
        "tourism": "hotel",
        "website": "https://www.oivanki.fi/"
      }
    },
    {
      "type": "Feature",
      "geometry": {
        "type": "Point",
        "coordinates": [
          25.5369279,
          64.9391589
        ]
      },
      "properties": {
        "id": 555989479,
        "osm_type": "node",
        "tourism": "caravan_site"
      }
    },
    {
      "type": "Feature",
      "geometry": {
        "type": "Point",
        "coordinates": [
          29.1536061,
          66.1549263
        ]
      },
      "properties": {
        "id": 564555318,
        "osm_type": "node",
        "name": "Royal Ruka",
        "tourism": "hotel"
      }
    },
    {
      "type": "Feature",
      "geometry": {
        "type": "Point",
        "coordinates": [
          24.5614078,
          65.0402707
        ]
      },
      "properties": {
        "id": 734456354,
        "osm_type": "node",
        "name": "Luotsihotelli",
        "tourism": "hotel",
        "check_date": "2024-07-23"
      }
    },
    {
      "type": "Feature",
      "geometry": {
        "type": "Point",
        "coordinates": [
          25.3640764,
          65.1106646
        ]
      },
      "properties": {
        "id": 765184783,
        "osm_type": "node",
        "name": "Kellon kartano",
        "tourism": "guest_house"
      }
    },
    {
      "type": "Feature",
      "geometry": {
        "type": "Point",
        "coordinates": [
          29.3856304,
          66.2654554
        ]
      },
      "properties": {
        "id": 773736922,
        "osm_type": "node",
        "name": "Jyrävän Leirintä",
        "tourism": "camp_site",
        "tents": "yes"
      }
    },
    {
      "type": "Feature",
      "geometry": {
        "type": "Point",
        "coordinates": [
          24.5260291,
          64.0680622
        ]
      },
      "properties": {
        "id": 874418073,
        "osm_type": "node",
        "name": "Käenpesä",
        "tourism": "hotel"
      }
    },
    {
      "type": "Feature",
      "geometry": {
        "type": "Point",
        "coordinates": [
          25.3551784,
          65.1754057
        ]
      },
      "properties": {
        "id": 1382041443,
        "osm_type": "node",
        "name": "Hotel & Restaurant Samantta",
        "tourism": "hotel",
        "phone": "+358 (0)8 343 424",
        "website": "https://www.samantta.fi/#"
      }
    },
    {
      "type": "Feature",
      "geometry": {
        "type": "Point",
        "coordinates": [
          24.4793672,
          64.6850766
        ]
      },
      "properties": {
        "id": 1426866182,
        "osm_type": "node",
        "name": "Raahen Hovi",
        "tourism": "hotel",
        "check_date": "2025-07-05"
      }
    },
    {
      "type": "Feature",
      "geometry": {
        "type": "Point",
        "coordinates": [
          29.1352895,
          66.1724856
        ]
      },
      "properties": {
        "id": 1618992828,
        "osm_type": "node",
        "name": "Rukatonttu",
        "tourism": "hotel",
        "phone": "+358401910702",
        "website": "https://www.rukatonttu.fi/"
      }
    },
    {
      "type": "Feature",
      "geometry": {
        "type": "Point",
        "coordinates": [
          23.937078,
          64.2580334
        ]
      },
      "properties": {
        "id": 1658957722,
        "osm_type": "node",
        "name": "Hostel Retkeilijä",
        "tourism": "hostel"
      }
    },
    {
      "type": "Feature",
      "geometry": {
        "type": "Point",
        "coordinates": [
          29.1656522,
          66.1707014
        ]
      },
      "properties": {
        "id": 1707628713,
        "osm_type": "node",
        "name": "Vuosselin Helmi",
        "tourism": "hotel"
      }
    },
    {
      "type": "Feature",
      "geometry": {
        "type": "Point",
        "coordinates": [
          29.1195884,
          66.1483818
        ]
      },
      "properties": {
        "id": 1743301339,
        "osm_type": "node",
        "name": "235 Rukan Salonki",
        "tourism": "chalet"
      }
    },
    {
      "type": "Feature",
      "geometry": {
        "type": "Point",
        "coordinates": [
          25.4749245,
          65.0115968
        ]
      },
      "properties": {
        "id": 1772583052,
        "osm_type": "node",
        "name": "GreenStar Hotel Oulu",
        "tourism": "hotel"
      }
    },
    {
      "type": "Feature",
      "geometry": {
        "type": "Point",
        "coordinates": [
          25.3175602,
          63.7485495
        ]
      },
      "properties": {
        "id": 1784754607,
        "osm_type": "node",
        "name": "Hotelli Haapajärvi",
        "tourism": "hotel",
        "website": "https://www.hotellihaapajarvi.fi/"
      }
    },
    {
      "type": "Feature",
      "geometry": {
        "type": "Point",
        "coordinates": [
          25.2972051,
          63.7812654
        ]
      },
      "properties": {
        "id": 1795067882,
        "osm_type": "node",
        "name": "Siiponkoski",
        "tourism": "caravan_site"
      }
    },
    {
      "type": "Feature",
      "geometry": {
        "type": "Point",
        "coordinates": [
          25.7594049,
          63.9742276
        ]
      },
      "properties": {
        "id": 1859981239,
        "osm_type": "node",
        "tourism": "hotel"
      }
    },
    {
      "type": "Feature",
      "geometry": {
        "type": "Point",
        "coordinates": [
          29.1666527,
          66.1705211
        ]
      },
      "properties": {
        "id": 1931155744,
        "osm_type": "node",
        "name": "SKI HOSTEL RUKA",
        "tourism": "hostel"
      }
    },
    {
      "type": "Feature",
      "geometry": {
        "type": "Point",
        "coordinates": [
          29.1177499,
          66.1586372
        ]
      },
      "properties": {
        "id": 1931263584,
        "osm_type": "node",
        "name": "Rukavalo Cottage",
        "tourism": "chalet"
      }
    },
    {
      "type": "Feature",
      "geometry": {
        "type": "Point",
        "coordinates": [
          29.2554181,
          66.0005048
        ]
      },
      "properties": {
        "id": 2103678543,
        "osm_type": "node",
        "name": "Saapungin Lomat",
        "tourism": "guest_house"
      }
    },
    {
      "type": "Feature",
      "geometry": {
        "type": "Point",
        "coordinates": [
          29.1166982,
          66.0844109
        ]
      },
      "properties": {
        "id": 2148238213,
        "osm_type": "node",
        "name": "Holiday Club Ruka",
        "tourism": "chalet"
      }
    },
    {
      "type": "Feature",
      "geometry": {
        "type": "Point",
        "coordinates": [
          29.1486015,
          66.1565013
        ]
      },
      "properties": {
        "id": 2262383651,
        "osm_type": "node",
        "name": "Ruka Safaris",
        "tourism": "chalet"
      }
    },
    {
      "type": "Feature",
      "geometry": {
        "type": "Point",
        "coordinates": [
          29.2316888,
          66.1307881
        ]
      },
      "properties": {
        "id": 2262384569,
        "osm_type": "node",
        "name": "Iisakki Village camping",
        "tourism": "caravan_site",
        "tents": "yes",
        "phone": "+358 40 501 6041",
        "website": "https://rukasafaris.fi/fi/majoitus/leirintaealue"
      }
    },
    {
      "type": "Feature",
      "geometry": {
        "type": "Point",
        "coordinates": [
          29.2026746,
          66.3000237
        ]
      },
      "properties": {
        "id": 2388691765,
        "osm_type": "node",
        "name": "Kitkajoen Harjustuvat 32A",
        "tourism": "chalet",
        "website": "https://stellashop.fi/accommodation/Kitkajoen_Harjustupa_32A/38974/FI"
      }
    },
    {
      "type": "Feature",
      "geometry": {
        "type": "Point",
        "coordinates": [
          29.209466,
          66.3007999
        ]
      },
      "properties": {
        "id": 2388691796,
        "osm_type": "node",
        "name": "Kitkajoen Harjustuvat 32G",
        "tourism": "chalet"
      }
    },
    {
      "type": "Feature",
      "geometry": {
        "type": "Point",
        "coordinates": [
          29.2055183,
          66.3003675
        ]
      },
      "properties": {
        "id": 2389000263,
        "osm_type": "node",
        "name": "Kitkajoen Harjustuvat 32C",
        "tourism": "chalet",
        "website": "https://stellashop.fi/accommodation/Kitkajoen_Harjustupa_32C/35875/30.4.2023/30.4.2023/FI"
      }
    },
    {
      "type": "Feature",
      "geometry": {
        "type": "Point",
        "coordinates": [
          29.2084364,
          66.2989756
        ]
      },
      "properties": {
        "id": 2393655024,
        "osm_type": "node",
        "name": "Kitkajoen Harjustuvat 30B",
        "tourism": "chalet",
        "website": "https://stellashop.fi/accommodation/Kitkajoen_Harjustupa_30B/35876/30.4.2023/30.4.2023/FI"
      }
    },
    {
      "type": "Feature",
      "geometry": {
        "type": "Point",
        "coordinates": [
          29.8385757,
          66.101117
        ]
      },
      "properties": {
        "id": 2617104870,
        "osm_type": "node",
        "name": "Isokenkäisten Klubi",
        "tourism": "hotel",
        "opening_hours": "\"by appointment\"",
        "phone": "+358 400 972 260",
        "website": "https://www.ikk.fi/"
      }
    },
    {
      "type": "Feature",
      "geometry": {
        "type": "Point",
        "coordinates": [
          24.7530966,
          64.8357193
        ]
      },
      "properties": {
        "id": 3705605435,
        "osm_type": "node",
        "name": "Törmälän Tila",
        "tourism": "guest_house",
        "phone": "+358 (0)50 599 2058",
        "website": "https://www.tormalantila.fi/"
      }
    },
    {
      "type": "Feature",
      "geometry": {
        "type": "Point",
        "coordinates": [
          29.7025375,
          65.8886597
        ]
      },
      "properties": {
        "id": 4159830721,
        "osm_type": "node",
        "tourism": "camp_site",
        "tents": "yes"
      }
    },
    {
      "type": "Feature",
      "geometry": {
        "type": "Point",
        "coordinates": [
          27.7010798,
          65.7764482
        ]
      },
      "properties": {
        "id": 4377874089,
        "osm_type": "node",
        "name": "Rytitupa",
        "tourism": "camp_site"
      }
    },
    {
      "type": "Feature",
      "geometry": {
        "type": "Point",
        "coordinates": [
          29.1880662,
          66.4097229
        ]
      },
      "properties": {
        "id": 4394670455,
        "osm_type": "node",
        "name": "Taivalköngäs telttailualue",
        "tourism": "camp_site"
      }
    },
    {
      "type": "Feature",
      "geometry": {
        "type": "Point",
        "coordinates": [
          27.6095661,
          65.6239032
        ]
      },
      "properties": {
        "id": 4880444993,
        "osm_type": "node",
        "name": "Eagle View Suite",
        "tourism": "hotel"
      }
    },
    {
      "type": "Feature",
      "geometry": {
        "type": "Point",
        "coordinates": [
          29.1298546,
          66.2043144
        ]
      },
      "properties": {
        "id": 5065174742,
        "osm_type": "node",
        "name": "Viipuksen Leirintäalue",
        "tourism": "camp_site",
        "tents": "yes",
        "phone": "+358 40 586 6251",
        "website": "http://www.viipus.fi/"
      }
    },
    {
      "type": "Feature",
      "geometry": {
        "type": "Point",
        "coordinates": [
          25.3580813,
          64.1330395
        ]
      },
      "properties": {
        "id": 5901310359,
        "osm_type": "node",
        "name": "Kylpyläsaari Camping",
        "tourism": "camp_site",
        "phone": "+358 45 8028602"
      }
    },
    {
      "type": "Feature",
      "geometry": {
        "type": "Point",
        "coordinates": [
          29.2502048,
          66.3908783
        ]
      },
      "properties": {
        "id": 5971880078,
        "osm_type": "node",
        "name": "Runsulammen telttailualue",
        "tourism": "camp_site"
      }
    },
    {
      "type": "Feature",
      "geometry": {
        "type": "Point",
        "coordinates": [
          29.3374717,
          66.3691553
        ]
      },
      "properties": {
        "id": 5972198551,
        "osm_type": "node",
        "name": "Kiutaköngäs telttailualue",
        "tourism": "camp_site"
      }
    },
    {
      "type": "Feature",
      "geometry": {
        "type": "Point",
        "coordinates": [
          29.1399555,
          66.1664978
        ]
      },
      "properties": {
        "id": 6002574490,
        "osm_type": "node",
        "name": "Ruka Ski Chalets",
        "tourism": "hotel"
      }
    },
    {
      "type": "Feature",
      "geometry": {
        "type": "Point",
        "coordinates": [
          29.222197,
          66.1580208
        ]
      },
      "properties": {
        "id": 6178050085,
        "osm_type": "node",
        "tourism": "apartment"
      }
    },
    {
      "type": "Feature",
      "geometry": {
        "type": "Point",
        "coordinates": [
          29.1694957,
          66.1578855
        ]
      },
      "properties": {
        "id": 6669975742,
        "osm_type": "node",
        "name": "Kelokoto Chalets",
        "tourism": "chalet",
        "website": "https://www.kelokoto.fi/"
      }
    },
    {
      "type": "Feature",
      "geometry": {
        "type": "Point",
        "coordinates": [
          29.1533062,
          66.1517843
        ]
      },
      "properties": {
        "id": 6674152468,
        "osm_type": "node",
        "name": "Lumovaara",
        "tourism": "chalet",
        "website": "https://www.lumovaara.fi/"
      }
    },
    {
      "type": "Feature",
      "geometry": {
        "type": "Point",
        "coordinates": [
          29.1212426,
          66.1650896
        ]
      },
      "properties": {
        "id": 6684233066,
        "osm_type": "node",
        "name": "Rukako Oy",
        "tourism": "apartment",
        "website": "https://www.rukako.fi/en/"
      }
    },
    {
      "type": "Feature",
      "geometry": {
        "type": "Point",
        "coordinates": [
          29.1581764,
          66.1586144
        ]
      },
      "properties": {
        "id": 6684286641,
        "osm_type": "node",
        "name": "Rukavuorenhuippu",
        "tourism": "chalet"
      }
    },
    {
      "type": "Feature",
      "geometry": {
        "type": "Point",
        "coordinates": [
          29.3841302,
          66.1014587
        ]
      },
      "properties": {
        "id": 6706713074,
        "osm_type": "node",
        "name": "Loma-Lopotti",
        "tourism": "guest_house",
        "website": "https://www.lomalopotti.fi/"
      }
    },
    {
      "type": "Feature",
      "geometry": {
        "type": "Point",
        "coordinates": [
          29.4857701,
          65.5142339
        ]
      },
      "properties": {
        "id": 7095417122,
        "osm_type": "node",
        "name": "Teerirannan leirintä",
        "tourism": "camp_site"
      }
    },
    {
      "type": "Feature",
      "geometry": {
        "type": "Point",
        "coordinates": [
          25.5416338,
          64.9024594
        ]
      },
      "properties": {
        "id": 7560667079,
        "osm_type": "node",
        "name": "Forenom Aparthotel Kempele",
        "tourism": "hotel",
        "phone": "+358 20 198 3420",
        "website": "https://www.forenom.com/fi/"
      }
    },
    {
      "type": "Feature",
      "geometry": {
        "type": "Point",
        "coordinates": [
          28.1569156,
          65.550437
        ]
      },
      "properties": {
        "id": 7807385067,
        "osm_type": "node",
        "name": "Susiraja Camp",
        "tourism": "camp_site",
        "tents": "yes",
        "phone": "+358 44 975 9714"
      }
    },
    {
      "type": "Feature",
      "geometry": {
        "type": "Point",
        "coordinates": [
          29.4374822,
          66.2547687
        ]
      },
      "properties": {
        "id": 7852353185,
        "osm_type": "node",
        "name": "Siilastupa",
        "tourism": "camp_site"
      }
    },
    {
      "type": "Feature",
      "geometry": {
        "type": "Point",
        "coordinates": [
          29.4536071,
          66.2642229
        ]
      },
      "properties": {
        "id": 7853062385,
        "osm_type": "node",
        "name": "Harrisuvanto",
        "tourism": "camp_site",
        "opening_hours": "24/7"
      }
    },
    {
      "type": "Feature",
      "geometry": {
        "type": "Point",
        "coordinates": [
          29.2330014,
          66.1309051
        ]
      },
      "properties": {
        "id": 7859225510,
        "osm_type": "node",
        "name": "Ruka Safaris",
        "tourism": "hotel"
      }
    },
    {
      "type": "Feature",
      "geometry": {
        "type": "Point",
        "coordinates": [
          29.5199915,
          66.3028977
        ]
      },
      "properties": {
        "id": 7869467558,
        "osm_type": "node",
        "name": "Jussinkämppä",
        "tourism": "camp_site"
      }
    },
    {
      "type": "Feature",
      "geometry": {
        "type": "Point",
        "coordinates": [
          24.4801268,
          64.6841152
        ]
      },
      "properties": {
        "id": 8279041136,
        "osm_type": "node",
        "name": "Aparthotel Forenom",
        "tourism": "hotel"
      }
    },
    {
      "type": "Feature",
      "geometry": {
        "type": "Point",
        "coordinates": [
          26.4638007,
          64.5825438
        ]
      },
      "properties": {
        "id": 8592852745,
        "osm_type": "node",
        "tourism": "camp_site"
      }
    },
    {
      "type": "Feature",
      "geometry": {
        "type": "Point",
        "coordinates": [
          24.5765762,
          64.6927883
        ]
      },
      "properties": {
        "id": 8647734432,
        "osm_type": "node",
        "name": "Easy Housing Raahe",
        "tourism": "hostel"
      }
    },
    {
      "type": "Feature",
      "geometry": {
        "type": "Point",
        "coordinates": [
          24.4730779,
          64.6867061
        ]
      },
      "properties": {
        "id": 8736317768,
        "osm_type": "node",
        "name": "Katariinan kamari",
        "tourism": "guest_house"
      }
    },
    {
      "type": "Feature",
      "geometry": {
        "type": "Point",
        "coordinates": [
          25.310775,
          64.8241295
        ]
      },
      "properties": {
        "id": 8739928615,
        "osm_type": "node",
        "name": "Hotelli-Ravintola Liminganlahti",
        "tourism": "hotel",
        "phone": "+358 40 056 5040",
        "website": "https://www.liminganlahti.fi/"
      }
    },
    {
      "type": "Feature",
      "geometry": {
        "type": "Point",
        "coordinates": [
          24.9758624,
          63.9247626
        ]
      },
      "properties": {
        "id": 8790580944,
        "osm_type": "node",
        "name": "Nivalan matkaparkki",
        "tourism": "camp_site"
      }
    },
    {
      "type": "Feature",
      "geometry": {
        "type": "Point",
        "coordinates": [
          24.4560926,
          64.6861718
        ]
      },
      "properties": {
        "id": 8831841609,
        "osm_type": "node",
        "name": "Perhefantti 1",
        "tourism": "apartment",
        "check_date": "2025-07-04"
      }
    },
    {
      "type": "Feature",
      "geometry": {
        "type": "Point",
        "coordinates": [
          24.4561956,
          64.6861244
        ]
      },
      "properties": {
        "id": 8831863338,
        "osm_type": "node",
        "name": "Perhefantti 2",
        "tourism": "apartment",
        "check_date": "2025-07-04"
      }
    },
    {
      "type": "Feature",
      "geometry": {
        "type": "Point",
        "coordinates": [
          24.4566217,
          64.6859343
        ]
      },
      "properties": {
        "id": 8831863341,
        "osm_type": "node",
        "name": "Perhefantti 4",
        "tourism": "apartment",
        "check_date": "2025-07-04"
      }
    },
    {
      "type": "Feature",
      "geometry": {
        "type": "Point",
        "coordinates": [
          24.4565295,
          64.6859984
        ]
      },
      "properties": {
        "id": 8831863349,
        "osm_type": "node",
        "name": "Perhefantti 3",
        "tourism": "apartment",
        "check_date": "2025-07-04"
      }
    },
    {
      "type": "Feature",
      "geometry": {
        "type": "Point",
        "coordinates": [
          24.4752822,
          64.6862054
        ]
      },
      "properties": {
        "id": 8867542421,
        "osm_type": "node",
        "name": "Wanhakulma majatalo",
        "tourism": "guest_house",
        "phone": "+358 50 3032555"
      }
    },
    {
      "type": "Feature",
      "geometry": {
        "type": "Point",
        "coordinates": [
          29.2403179,
          65.9989041
        ]
      },
      "properties": {
        "id": 9358514944,
        "osm_type": "node",
        "tourism": "chalet"
      }
    },
    {
      "type": "Feature",
      "geometry": {
        "type": "Point",
        "coordinates": [
          29.2409048,
          65.9980102
        ]
      },
      "properties": {
        "id": 9358514945,
        "osm_type": "node",
        "name": "Vihreä Helmi",
        "tourism": "chalet"
      }
    },
    {
      "type": "Feature",
      "geometry": {
        "type": "Point",
        "coordinates": [
          29.2407091,
          65.9984824
        ]
      },
      "properties": {
        "id": 9358514947,
        "osm_type": "node",
        "tourism": "chalet"
      }
    },
    {
      "type": "Feature",
      "geometry": {
        "type": "Point",
        "coordinates": [
          25.4726616,
          65.0061852
        ]
      },
      "properties": {
        "id": 9790917313,
        "osm_type": "node",
        "name": "Kotimaailma Apartments",
        "tourism": "apartment",
        "phone": "+358503776938",
        "website": "https://www.kotimaailma.com/"
      }
    },
    {
      "type": "Feature",
      "geometry": {
        "type": "Point",
        "coordinates": [
          25.4189586,
          65.0299893
        ]
      },
      "properties": {
        "id": 9899287924,
        "osm_type": "node",
        "name": "Nallikari",
        "tourism": "camp_site"
      }
    },
    {
      "type": "Feature",
      "geometry": {
        "type": "Point",
        "coordinates": [
          29.1341548,
          66.1889075
        ]
      },
      "properties": {
        "id": 10672616967,
        "osm_type": "node",
        "name": "Kuukkelisalmi",
        "tourism": "chalet",
        "phone": "0400906369",
        "website": "https://rhh.fi/"
      }
    },
    {
      "type": "Feature",
      "geometry": {
        "type": "Point",
        "coordinates": [
          29.1882949,
          66.0443683
        ]
      },
      "properties": {
        "id": 10672693999,
        "osm_type": "node",
        "name": "Villa Marja",
        "tourism": "chalet",
        "phone": "0400906369",
        "website": "https://rhh.fi"
      }
    },
    {
      "type": "Feature",
      "geometry": {
        "type": "Point",
        "coordinates": [
          29.1330053,
          66.1851362
        ]
      },
      "properties": {
        "id": 10672746771,
        "osm_type": "node",
        "name": "Villa Jalosalmi",
        "tourism": "chalet",
        "phone": "0400906369",
        "website": "https://rhh.fi/"
      }
    },
    {
      "type": "Feature",
      "geometry": {
        "type": "Point",
        "coordinates": [
          29.1315579,
          66.1845469
        ]
      },
      "properties": {
        "id": 10672869992,
        "osm_type": "node",
        "name": "Villa Loimukettu",
        "tourism": "chalet",
        "phone": "0400906369",
        "website": "https://rhh.fi/"
      }
    },
    {
      "type": "Feature",
      "geometry": {
        "type": "Point",
        "coordinates": [
          29.1257198,
          66.1547695
        ]
      },
      "properties": {
        "id": 10672869993,
        "osm_type": "node",
        "name": "Villa Vesikko",
        "tourism": "chalet",
        "phone": "0400906369",
        "website": "https://rhh.fi/"
      }
    },
    {
      "type": "Feature",
      "geometry": {
        "type": "Point",
        "coordinates": [
          29.1454639,
          66.1505691
        ]
      },
      "properties": {
        "id": 10672869994,
        "osm_type": "node",
        "name": "Hyvätuuli",
        "tourism": "chalet",
        "phone": "0400906369",
        "website": "https://rhh.fi/"
      }
    },
    {
      "type": "Feature",
      "geometry": {
        "type": "Point",
        "coordinates": [
          29.1670727,
          66.2293818
        ]
      },
      "properties": {
        "id": 10672869995,
        "osm_type": "node",
        "name": "Teerenkieppi",
        "tourism": "chalet",
        "phone": "0400906369",
        "website": "https://rhh.fi/"
      }
    },
    {
      "type": "Feature",
      "geometry": {
        "type": "Point",
        "coordinates": [
          29.1630977,
          66.2266646
        ]
      },
      "properties": {
        "id": 10672869996,
        "osm_type": "node",
        "name": "Riekonkieppi",
        "tourism": "chalet",
        "phone": "0400906369",
        "website": "https://rhh.fi/"
      }
    },
    {
      "type": "Feature",
      "geometry": {
        "type": "Point",
        "coordinates": [
          25.7575137,
          63.973805
        ]
      },
      "properties": {
        "id": 10701760695,
        "osm_type": "node",
        "name": "Hotelli Keskipiste",
        "tourism": "hotel",
        "phone": "0400832044",
        "website": "https://www.hotellikeskipiste.fi"
      }
    },
    {
      "type": "Feature",
      "geometry": {
        "type": "Point",
        "coordinates": [
          28.2980473,
          65.7687726
        ]
      },
      "properties": {
        "id": 11107580705,
        "osm_type": "node",
        "tourism": "camp_site"
      }
    },
    {
      "type": "Feature",
      "geometry": {
        "type": "Point",
        "coordinates": [
          24.3887901,
          64.6189846
        ]
      },
      "properties": {
        "id": 11295976058,
        "osm_type": "node",
        "name": "Kotaranta",
        "tourism": "chalet",
        "website": "http://www.kotaranta.com/"
      }
    },
    {
      "type": "Feature",
      "geometry": {
        "type": "Point",
        "coordinates": [
          25.3710829,
          64.1398651
        ]
      },
      "properties": {
        "id": 11366159912,
        "osm_type": "node",
        "tourism": "apartment",
        "phone": "+358 40 192 7755",
        "website": "https://pekanpirtit.fi/"
      }
    },
    {
      "type": "Feature",
      "geometry": {
        "type": "Point",
        "coordinates": [
          25.6970562,
          64.7217868
        ]
      },
      "properties": {
        "id": 11404210119,
        "osm_type": "node",
        "name": "Hannuksen piilopirtti",
        "tourism": "hotel",
        "website": "https://www.hannuksenpiilopirtti.fi/"
      }
    },
    {
      "type": "Feature",
      "geometry": {
        "type": "Point",
        "coordinates": [
          25.8437199,
          64.3858648
        ]
      },
      "properties": {
        "id": 11642406162,
        "osm_type": "node",
        "name": "B&B Rosenberg Aamiaismajoitus",
        "tourism": "guest_house",
        "phone": "050 3848 751 (klo 9-21)",
        "website": "https://www.rosenbergbandb.com/"
      }
    },
    {
      "type": "Feature",
      "geometry": {
        "type": "Point",
        "coordinates": [
          24.5373003,
          64.0708312
        ]
      },
      "properties": {
        "id": 12025505288,
        "osm_type": "node",
        "name": "Hotelli Visiitti",
        "tourism": "hotel",
        "website": "https://www.hotellivisiitti.fi/"
      }
    },
    {
      "type": "Feature",
      "geometry": {
        "type": "Point",
        "coordinates": [
          26.3359505,
          64.0967722
        ]
      },
      "properties": {
        "id": 12039431319,
        "osm_type": "node",
        "name": "Akselin & Elinan Asema",
        "tourism": "hotel"
      }
    },
    {
      "type": "Feature",
      "geometry": {
        "type": "Point",
        "coordinates": [
          25.325638,
          65.1214929
        ]
      },
      "properties": {
        "id": 12125200289,
        "osm_type": "node",
        "tourism": "apartment"
      }
    },
    {
      "type": "Feature",
      "geometry": {
        "type": "Point",
        "coordinates": [
          29.253931,
          66.2611126
        ]
      },
      "properties": {
        "id": 12199976341,
        "osm_type": "node",
        "name": "Ajakan Taika",
        "tourism": "hotel",
        "website": "https://www.ajakantaika.fi/en/restaurant/"
      }
    },
    {
      "type": "Feature",
      "geometry": {
        "type": "Point",
        "coordinates": [
          29.1395764,
          66.1680637
        ]
      },
      "properties": {
        "id": 12391391606,
        "osm_type": "node",
        "name": "Hotel Arctic Zone",
        "tourism": "hotel",
        "phone": "+358 8 860 8600",
        "website": "https://rukapalvelu.fi/hotel-arctic-zone/"
      }
    },
    {
      "type": "Feature",
      "geometry": {
        "type": "Point",
        "coordinates": [
          25.4117849,
          64.8092802
        ]
      },
      "properties": {
        "id": 12423409614,
        "osm_type": "node",
        "name": "Park Hotel Liminka",
        "tourism": "hotel",
        "phone": "+358 41 315 9305",
        "website": "https://www.parkhotelliminka.fi/en/#/booking/search"
      }
    },
    {
      "type": "Feature",
      "geometry": {
        "type": "Point",
        "coordinates": [
          24.9982818,
          64.2399149
        ]
      },
      "properties": {
        "id": 12691209722,
        "osm_type": "node",
        "tourism": "caravan_site"
      }
    },
    {
      "type": "Feature",
      "geometry": {
        "type": "Point",
        "coordinates": [
          24.6080716,
          64.2583481
        ]
      },
      "properties": {
        "id": 12692611042,
        "osm_type": "node",
        "name": "Petäjäskosken matkaparkki",
        "tourism": "caravan_site"
      }
    },
    {
      "type": "Feature",
      "geometry": {
        "type": "Point",
        "coordinates": [
          28.5388536,
          65.5001055
        ]
      },
      "properties": {
        "id": 12958826807,
        "osm_type": "node",
        "name": "Jokijärven lomat",
        "tourism": "camp_site",
        "tents": "yes",
        "phone": "+358 400 225331",
        "website": "https://jokijarvenlomat.fi/"
      }
    },
    {
      "type": "Feature",
      "geometry": {
        "type": "Point",
        "coordinates": [
          28.5609121,
          65.5021314
        ]
      },
      "properties": {
        "id": 13016999391,
        "osm_type": "node",
        "name": "Saija",
        "tourism": "hotel",
        "website": "https://www.saija.fi/"
      }
    },
    {
      "type": "Feature",
      "geometry": {
        "type": "Point",
        "coordinates": [
          25.4830948,
          65.0116747
        ]
      },
      "properties": {
        "id": 13192098401,
        "osm_type": "node",
        "name": "Oulu Hotelli Oy",
        "tourism": "hotel"
      }
    },
    {
      "type": "Feature",
      "geometry": {
        "type": "Point",
        "coordinates": [
          26.9959966,
          65.3882521
        ]
      },
      "properties": {
        "id": 13260977286,
        "osm_type": "node",
        "name": "Staycation Törrö",
        "tourism": "apartment",
        "phone": "+358 41 3140 250",
        "website": "https://www.staycationtorro.fi/"
      }
    },
    {
      "type": "Feature",
      "geometry": {
        "type": "Point",
        "coordinates": [
          25.1349289,
          64.4083502
        ]
      },
      "properties": {
        "id": 28119614,
        "osm_type": "way",
        "name": "Lampinsaari Camping",
        "tourism": "caravan_site",
        "tents": "yes",
        "website": "https://www.lampinsaari.fi/tuotteet/"
      }
    },
    {
      "type": "Feature",
      "geometry": {
        "type": "Point",
        "coordinates": [
          25.465188,
          65.0115558
        ]
      },
      "properties": {
        "id": 28849144,
        "osm_type": "way",
        "name": "Scandic Oulu City",
        "tourism": "hotel",
        "phone": "+358 30 030 8464",
        "website": "https://www.scandichotels.com/hotels/finland/oulu/scandic-oulu-city"
      }
    },
    {
      "type": "Feature",
      "geometry": {
        "type": "Point",
        "coordinates": [
          29.166635,
          66.0018906
        ]
      },
      "properties": {
        "id": 32496400,
        "osm_type": "way",
        "name": "Holiday Club Kuusamon Tropiikki",
        "tourism": "hotel",
        "website": "https://www.holidayclubresorts.com/fi/kohteet/kuusamon-tropiikki/"
      }
    },
    {
      "type": "Feature",
      "geometry": {
        "type": "Point",
        "coordinates": [
          27.697434,
          65.6299254
        ]
      },
      "properties": {
        "id": 34235688,
        "osm_type": "way",
        "name": "Hotelli Pikku-Syöte",
        "tourism": "hotel",
        "website": "https://pikkusyote.fi/"
      }
    },
    {
      "type": "Feature",
      "geometry": {
        "type": "Point",
        "coordinates": [
          27.700933,
          65.6335757
        ]
      },
      "properties": {
        "id": 34236622,
        "osm_type": "way",
        "name": "Retkeilymaja Syöte",
        "tourism": "hostel"
      }
    },
    {
      "type": "Feature",
      "geometry": {
        "type": "Point",
        "coordinates": [
          24.9629855,
          63.9309233
        ]
      },
      "properties": {
        "id": 46962833,
        "osm_type": "way",
        "name": "Hotelli-Ravintola Puustelli",
        "tourism": "hotel",
        "website": "https://www.puustelliravintolat.fi/nivala/"
      }
    },
    {
      "type": "Feature",
      "geometry": {
        "type": "Point",
        "coordinates": [
          25.4767885,
          65.0152397
        ]
      },
      "properties": {
        "id": 87355048,
        "osm_type": "way",
        "name": "Lapland Hotels Oulu",
        "tourism": "hotel",
        "opening_hours": "24/7",
        "phone": "+358 8 881 1110",
        "website": "https://www.laplandhotels.com/EN/urban-hotels/oulu/lapland-hotels-oulu.html",
        "check_date": "2025-07-29"
      }
    },
    {
      "type": "Feature",
      "geometry": {
        "type": "Point",
        "coordinates": [
          25.4800624,
          65.0125921
        ]
      },
      "properties": {
        "id": 87951041,
        "osm_type": "way",
        "name": "Best Western Hotel Apollo",
        "tourism": "hotel",
        "phone": "+358 8 522 11",
        "website": "https://www.hotelapollo.fi/"
      }
    },
    {
      "type": "Feature",
      "geometry": {
        "type": "Point",
        "coordinates": [
          25.4571803,
          65.0175991
        ]
      },
      "properties": {
        "id": 88718167,
        "osm_type": "way",
        "name": "TurusenSaha",
        "tourism": "guest_house",
        "website": "http://www.turusensaha.fi/"
      }
    },
    {
      "type": "Feature",
      "geometry": {
        "type": "Point",
        "coordinates": [
          25.4587221,
          65.0176684
        ]
      },
      "properties": {
        "id": 88718203,
        "osm_type": "way",
        "name": "Pikisaari Guesthouse",
        "tourism": "guest_house",
        "website": "https://www.pikisaariguesthouse.fi/"
      }
    },
    {
      "type": "Feature",
      "geometry": {
        "type": "Point",
        "coordinates": [
          25.4591304,
          65.0046547
        ]
      },
      "properties": {
        "id": 92396485,
        "osm_type": "way",
        "name": "De Gamlas Hem",
        "tourism": "hotel",
        "website": "https://degamlashotel.fi/"
      }
    },
    {
      "type": "Feature",
      "geometry": {
        "type": "Point",
        "coordinates": [
          23.9535923,
          64.2530706
        ]
      },
      "properties": {
        "id": 125697271,
        "osm_type": "way",
        "name": "Wanha Pankki",
        "tourism": "guest_house",
        "website": "https://majoituswanhapankki.fi"
      }
    },
    {
      "type": "Feature",
      "geometry": {
        "type": "Point",
        "coordinates": [
          24.9764871,
          63.6014105
        ]
      },
      "properties": {
        "id": 129169875,
        "osm_type": "way",
        "name": "Hotelli-Ravintola Susisaari",
        "tourism": "hotel",
        "opening_hours": "Mo-Th 11:00-21:00; Fr 11:00-03:00; Sa 12:00-21:00; Su 12:00-18:00"
      }
    },
    {
      "type": "Feature",
      "geometry": {
        "type": "Point",
        "coordinates": [
          25.2389567,
          65.1298395
        ]
      },
      "properties": {
        "id": 150694112,
        "osm_type": "way",
        "name": "SF Caravan Rantasarka",
        "tourism": "caravan_site",
        "tents": "yes",
        "phone": "+358 50 494 3101",
        "website": "https://www.sfc-oulu.com/"
      }
    },
    {
      "type": "Feature",
      "geometry": {
        "type": "Point",
        "coordinates": [
          23.8196033,
          64.2390803
        ]
      },
      "properties": {
        "id": 152962477,
        "osm_type": "way",
        "name": "Hotel Restaurant Lokkilinna",
        "tourism": "hotel"
      }
    },
    {
      "type": "Feature",
      "geometry": {
        "type": "Point",
        "coordinates": [
          23.8035218,
          64.2347698
        ]
      },
      "properties": {
        "id": 152998113,
        "osm_type": "way",
        "name": "Top Camping Kalajoki",
        "tourism": "camp_site",
        "phone": "+358 8 4695 200",
        "website": "http://www.camping-hiekkasarkat.fi/"
      }
    },
    {
      "type": "Feature",
      "geometry": {
        "type": "Point",
        "coordinates": [
          23.8237418,
          64.2430682
        ]
      },
      "properties": {
        "id": 152998121,
        "osm_type": "way",
        "name": "Hotel Rantakalla",
        "tourism": "hotel",
        "website": "https://www.rantakalla.fi/"
      }
    },
    {
      "type": "Feature",
      "geometry": {
        "type": "Point",
        "coordinates": [
          24.9767861,
          64.7190514
        ]
      },
      "properties": {
        "id": 154516878,
        "osm_type": "way",
        "tourism": "motel"
      }
    },
    {
      "type": "Feature",
      "geometry": {
        "type": "Point",
        "coordinates": [
          24.818764,
          64.2684538
        ]
      },
      "properties": {
        "id": 176169797,
        "osm_type": "way",
        "name": "Mesku.Fi",
        "tourism": "hotel",
        "website": "https://mesku.fi/oulainen/"
      }
    },
    {
      "type": "Feature",
      "geometry": {
        "type": "Point",
        "coordinates": [
          25.3629802,
          64.1370257
        ]
      },
      "properties": {
        "id": 194777560,
        "osm_type": "way",
        "name": "Hotelli Haapakannel",
        "tourism": "hotel",
        "phone": "+358 8 452 370​",
        "website": "https://www.haapakannel.com/"
      }
    },
    {
      "type": "Feature",
      "geometry": {
        "type": "Point",
        "coordinates": [
          26.489173,
          64.6039024
        ]
      },
      "properties": {
        "id": 199389225,
        "osm_type": "way",
        "name": "Rokua Health & Spa Hotel",
        "tourism": "hotel",
        "phone": "+358 20 7819 200",
        "website": "https://www.rokua.com/rokua_health_spa"
      }
    },
    {
      "type": "Feature",
      "geometry": {
        "type": "Point",
        "coordinates": [
          26.5020173,
          64.5829158
        ]
      },
      "properties": {
        "id": 199390184,
        "osm_type": "way",
        "name": "Rokuanhovi",
        "tourism": "hotel",
        "website": "https://www.rokuanhovi.fi/"
      }
    },
    {
      "type": "Feature",
      "geometry": {
        "type": "Point",
        "coordinates": [
          29.1720298,
          66.1607324
        ]
      },
      "properties": {
        "id": 199807476,
        "osm_type": "way",
        "name": "Ruka Caravan",
        "tourism": "caravan_site",
        "website": "https://www.ruka.fi/fi/ruka-vaunualue"
      }
    },
    {
      "type": "Feature",
      "geometry": {
        "type": "Point",
        "coordinates": [
          23.6329492,
          64.0693301
        ]
      },
      "properties": {
        "id": 200000884,
        "osm_type": "way",
        "name": "Sautinkarin matkailukeskus",
        "tourism": "camp_site",
        "tents": "yes",
        "website": "http://www.sautinkari.net/"
      }
    },
    {
      "type": "Feature",
      "geometry": {
        "type": "Point",
        "coordinates": [
          23.810723,
          64.2325679
        ]
      },
      "properties": {
        "id": 200075591,
        "osm_type": "way",
        "name": "Spa Hotel Sani",
        "tourism": "hotel",
        "check_date": "2024-04-25"
      }
    },
    {
      "type": "Feature",
      "geometry": {
        "type": "Point",
        "coordinates": [
          29.1732128,
          66.1572521
        ]
      },
      "properties": {
        "id": 209825530,
        "osm_type": "way",
        "name": "Ski-inn MastonAitio",
        "tourism": "hotel"
      }
    },
    {
      "type": "Feature",
      "geometry": {
        "type": "Point",
        "coordinates": [
          24.5614105,
          65.0402602
        ]
      },
      "properties": {
        "id": 215795619,
        "osm_type": "way",
        "name": "Luotsihotelli",
        "tourism": "hotel",
        "website": "https://www.luotsihotelli.fi/"
      }
    },
    {
      "type": "Feature",
      "geometry": {
        "type": "Point",
        "coordinates": [
          29.1403907,
          66.1678218
        ]
      },
      "properties": {
        "id": 219825022,
        "osm_type": "way",
        "name": "Scandic Rukahovi",
        "tourism": "hotel",
        "phone": "+358300308465;+358 8 85910",
        "website": "https://www.scandichotels.fi/hotellit/suomi/ruka-kuusamo/scandic-rukahovi;https://www.rantasipi.fi/"
      }
    },
    {
      "type": "Feature",
      "geometry": {
        "type": "Point",
        "coordinates": [
          25.5138566,
          64.9283867
        ]
      },
      "properties": {
        "id": 221246284,
        "osm_type": "way",
        "name": "Moottorimaja",
        "tourism": "motel"
      }
    },
    {
      "type": "Feature",
      "geometry": {
        "type": "Point",
        "coordinates": [
          25.5097129,
          64.9296107
        ]
      },
      "properties": {
        "id": 221246286,
        "osm_type": "way",
        "name": "Motelli-Ravintola Pohjan Kievari",
        "tourism": "motel",
        "phone": "+358 8 515433",
        "website": "http://personal.inet.fi/yritys/pohjankievari/"
      }
    },
    {
      "type": "Feature",
      "geometry": {
        "type": "Point",
        "coordinates": [
          27.6955956,
          65.632039
        ]
      },
      "properties": {
        "id": 229502684,
        "osm_type": "way",
        "name": "Alarinteentie 1",
        "tourism": "chalet"
      }
    },
    {
      "type": "Feature",
      "geometry": {
        "type": "Point",
        "coordinates": [
          25.8954429,
          65.4238158
        ]
      },
      "properties": {
        "id": 255370894,
        "osm_type": "way",
        "name": "Luonto-Olohuone",
        "tourism": "guest_house"
      }
    },
    {
      "type": "Feature",
      "geometry": {
        "type": "Point",
        "coordinates": [
          29.2910083,
          66.3724256
        ]
      },
      "properties": {
        "id": 257535417,
        "osm_type": "way",
        "tourism": "chalet"
      }
    },
    {
      "type": "Feature",
      "geometry": {
        "type": "Point",
        "coordinates": [
          29.2915208,
          66.3721101
        ]
      },
      "properties": {
        "id": 257535418,
        "osm_type": "way",
        "tourism": "chalet"
      }
    },
    {
      "type": "Feature",
      "geometry": {
        "type": "Point",
        "coordinates": [
          29.2919905,
          66.3714102
        ]
      },
      "properties": {
        "id": 257535419,
        "osm_type": "way",
        "tourism": "chalet"
      }
    },
    {
      "type": "Feature",
      "geometry": {
        "type": "Point",
        "coordinates": [
          29.2918816,
          66.3716251
        ]
      },
      "properties": {
        "id": 257535422,
        "osm_type": "way",
        "tourism": "chalet"
      }
    },
    {
      "type": "Feature",
      "geometry": {
        "type": "Point",
        "coordinates": [
          29.2912531,
          66.3722722
        ]
      },
      "properties": {
        "id": 257535434,
        "osm_type": "way",
        "tourism": "chalet"
      }
    },
    {
      "type": "Feature",
      "geometry": {
        "type": "Point",
        "coordinates": [
          25.4668358,
          65.0154002
        ]
      },
      "properties": {
        "id": 261515059,
        "osm_type": "way",
        "name": "Radisson Blu",
        "tourism": "hotel",
        "opening_hours": "24/7",
        "phone": "+358 (0)20 1234 730",
        "website": "https://www.radissonhotels.com/en-us/hotels/radisson-blu-oulu"
      }
    },
    {
      "type": "Feature",
      "geometry": {
        "type": "Point",
        "coordinates": [
          29.2586719,
          65.8324547
        ]
      },
      "properties": {
        "id": 265221381,
        "osm_type": "way",
        "name": "Hotelli Kuusamon portti",
        "tourism": "hotel"
      }
    },
    {
      "type": "Feature",
      "geometry": {
        "type": "Point",
        "coordinates": [
          24.9602052,
          63.9363119
        ]
      },
      "properties": {
        "id": 268434832,
        "osm_type": "way",
        "name": "Hotelli Huiskankorpi/Aseman majatalo",
        "tourism": "hotel",
        "phone": "044 - 7703435",
        "website": "https://www.asemanmajatalo.fi/"
      }
    },
    {
      "type": "Feature",
      "geometry": {
        "type": "Point",
        "coordinates": [
          26.7999685,
          64.4531753
        ]
      },
      "properties": {
        "id": 282039395,
        "osm_type": "way",
        "tourism": "hotel"
      }
    },
    {
      "type": "Feature",
      "geometry": {
        "type": "Point",
        "coordinates": [
          30.030167,
          65.8328006
        ]
      },
      "properties": {
        "id": 317189514,
        "osm_type": "way",
        "name": "The Border Inn",
        "tourism": "hotel",
        "website": "http://www.theborderinn.com/"
      }
    },
    {
      "type": "Feature",
      "geometry": {
        "type": "Point",
        "coordinates": [
          25.4441151,
          65.032945
        ]
      },
      "properties": {
        "id": 335762243,
        "osm_type": "way",
        "name": "Hostel Cafe Huvila",
        "tourism": "hostel",
        "phone": "+358503553667"
      }
    },
    {
      "type": "Feature",
      "geometry": {
        "type": "Point",
        "coordinates": [
          24.2395489,
          64.4598651
        ]
      },
      "properties": {
        "id": 366803404,
        "osm_type": "way",
        "name": "Kielosaaren Lomat Camping",
        "tourism": "camp_site",
        "tents": "yes"
      }
    },
    {
      "type": "Feature",
      "geometry": {
        "type": "Point",
        "coordinates": [
          29.4096253,
          66.2635723
        ]
      },
      "properties": {
        "id": 396622161,
        "osm_type": "way",
        "name": "Basecamp Oulanka",
        "tourism": "hotel",
        "website": "http://www.basecampoulanka.fi"
      }
    },
    {
      "type": "Feature",
      "geometry": {
        "type": "Point",
        "coordinates": [
          25.3760887,
          65.3271539
        ]
      },
      "properties": {
        "id": 450202009,
        "osm_type": "way",
        "name": "Iin sillat Camping & Inn",
        "tourism": "camp_site",
        "tents": "yes",
        "phone": "+358 8 8173 300",
        "website": "https://iinsillat.com/"
      }
    },
    {
      "type": "Feature",
      "geometry": {
        "type": "Point",
        "coordinates": [
          25.3655916,
          65.3222381
        ]
      },
      "properties": {
        "id": 457291257,
        "osm_type": "way",
        "name": "Gasthaus Ii",
        "tourism": "guest_house"
      }
    },
    {
      "type": "Feature",
      "geometry": {
        "type": "Point",
        "coordinates": [
          27.6110765,
          65.5860726
        ]
      },
      "properties": {
        "id": 496269871,
        "osm_type": "way",
        "name": "Villa PytkynUkko",
        "tourism": "chalet"
      }
    },
    {
      "type": "Feature",
      "geometry": {
        "type": "Point",
        "coordinates": [
          23.8287162,
          64.2477764
        ]
      },
      "properties": {
        "id": 527828410,
        "osm_type": "way",
        "name": "Aurinkorinne 10",
        "tourism": "chalet"
      }
    },
    {
      "type": "Feature",
      "geometry": {
        "type": "Point",
        "coordinates": [
          23.828973,
          64.2479601
        ]
      },
      "properties": {
        "id": 527828412,
        "osm_type": "way",
        "name": "Aurinkorinne 8",
        "tourism": "chalet"
      }
    },
    {
      "type": "Feature",
      "geometry": {
        "type": "Point",
        "coordinates": [
          25.258484,
          65.5239316
        ]
      },
      "properties": {
        "id": 533458506,
        "osm_type": "way",
        "name": "Merihelmi Camping",
        "tourism": "camp_site",
        "tents": "yes",
        "phone": "+358 40 0695876",
        "website": "https://www.camping-merihelmi.fi/"
      }
    },
    {
      "type": "Feature",
      "geometry": {
        "type": "Point",
        "coordinates": [
          25.7563956,
          63.9857546
        ]
      },
      "properties": {
        "id": 536971427,
        "osm_type": "way",
        "name": "Suomela Camping",
        "tourism": "camp_site",
        "tents": "yes",
        "phone": "+358 40 7063837",
        "website": "https://www.nuttulinna.com/suomela-camping/"
      }
    },
    {
      "type": "Feature",
      "geometry": {
        "type": "Point",
        "coordinates": [
          28.7523343,
          65.6006893
        ]
      },
      "properties": {
        "id": 542077775,
        "osm_type": "way",
        "name": "Hukantupa",
        "tourism": "chalet",
        "website": "https://www.hossa-kylmaluoma.fi/majoitus/hukantupa/"
      }
    },
    {
      "type": "Feature",
      "geometry": {
        "type": "Point",
        "coordinates": [
          29.4042267,
          66.2692268
        ]
      },
      "properties": {
        "id": 563088039,
        "osm_type": "way",
        "name": "Peikkola",
        "tourism": "chalet"
      }
    },
    {
      "type": "Feature",
      "geometry": {
        "type": "Point",
        "coordinates": [
          29.4045853,
          66.2693118
        ]
      },
      "properties": {
        "id": 563088043,
        "osm_type": "way",
        "name": "Kuusela",
        "tourism": "chalet"
      }
    },
    {
      "type": "Feature",
      "geometry": {
        "type": "Point",
        "coordinates": [
          29.4040224,
          66.269124
        ]
      },
      "properties": {
        "id": 563088048,
        "osm_type": "way",
        "name": "Tuulentupa",
        "tourism": "chalet"
      }
    },
    {
      "type": "Feature",
      "geometry": {
        "type": "Point",
        "coordinates": [
          29.4038238,
          66.2695016
        ]
      },
      "properties": {
        "id": 563088054,
        "osm_type": "way",
        "tourism": "chalet"
      }
    },
    {
      "type": "Feature",
      "geometry": {
        "type": "Point",
        "coordinates": [
          29.4028779,
          66.2697774
        ]
      },
      "properties": {
        "id": 563088057,
        "osm_type": "way",
        "tourism": "chalet"
      }
    },
    {
      "type": "Feature",
      "geometry": {
        "type": "Point",
        "coordinates": [
          29.4023055,
          66.2698268
        ]
      },
      "properties": {
        "id": 563088059,
        "osm_type": "way",
        "tourism": "chalet"
      }
    },
    {
      "type": "Feature",
      "geometry": {
        "type": "Point",
        "coordinates": [
          29.4042142,
          66.2687465
        ]
      },
      "properties": {
        "id": 566464621,
        "osm_type": "way",
        "name": "Lomakylä Retkietappi",
        "tourism": "camp_site",
        "tents": "yes",
        "phone": "+358 40 565 3474",
        "website": "https://www.retkietappi.fi/"
      }
    },
    {
      "type": "Feature",
      "geometry": {
        "type": "Point",
        "coordinates": [
          24.5201293,
          64.7122622
        ]
      },
      "properties": {
        "id": 567772995,
        "osm_type": "way",
        "name": "SF-Caravan Lohenpyrstö",
        "tourism": "caravan_site",
        "website": "https://lohenpyrsto.fi"
      }
    },
    {
      "type": "Feature",
      "geometry": {
        "type": "Point",
        "coordinates": [
          29.3777499,
          66.2730596
        ]
      },
      "properties": {
        "id": 570704021,
        "osm_type": "way",
        "name": "Juuma Camping",
        "tourism": "camp_site",
        "phone": "+358 44 272 78 72",
        "website": "https://www.juumanleirintaalue.fi/"
      }
    },
    {
      "type": "Feature",
      "geometry": {
        "type": "Point",
        "coordinates": [
          26.8507764,
          64.5619127
        ]
      },
      "properties": {
        "id": 571077557,
        "osm_type": "way",
        "name": "Wanhan Vaalan Majatalo",
        "tourism": "guest_house",
        "website": "https://www.majoitusvaala.fi"
      }
    },
    {
      "type": "Feature",
      "geometry": {
        "type": "Point",
        "coordinates": [
          26.7887911,
          64.4535118
        ]
      },
      "properties": {
        "id": 571692394,
        "osm_type": "way",
        "name": "Oulujärvi Active camping",
        "tourism": "caravan_site",
        "tents": "yes",
        "phone": "+358 400 670 744",
        "website": "https://www.geo-x-on.fi/"
      }
    },
    {
      "type": "Feature",
      "geometry": {
        "type": "Point",
        "coordinates": [
          27.0706717,
          64.3885372
        ]
      },
      "properties": {
        "id": 572351552,
        "osm_type": "way",
        "name": "Karpalo",
        "tourism": "chalet"
      }
    },
    {
      "type": "Feature",
      "geometry": {
        "type": "Point",
        "coordinates": [
          27.1282769,
          64.3978551
        ]
      },
      "properties": {
        "id": 572409517,
        "osm_type": "way",
        "name": "Manamansalon Portti",
        "tourism": "caravan_site",
        "tents": "yes",
        "phone": "+358 400 941 269",
        "website": "https://www.manamansalonportti.fi/"
      }
    },
    {
      "type": "Feature",
      "geometry": {
        "type": "Point",
        "coordinates": [
          26.7668712,
          64.4851897
        ]
      },
      "properties": {
        "id": 572708703,
        "osm_type": "way",
        "name": "Oulujärven Lomakylä",
        "tourism": "camp_site",
        "tents": "yes",
        "phone": "+358 40 501 1439",
        "website": "https://www.oulujarvenlomakyla.fi/"
      }
    },
    {
      "type": "Feature",
      "geometry": {
        "type": "Point",
        "coordinates": [
          27.0540077,
          64.3788427
        ]
      },
      "properties": {
        "id": 573184657,
        "osm_type": "way",
        "name": "Peuran maja",
        "tourism": "chalet"
      }
    },
    {
      "type": "Feature",
      "geometry": {
        "type": "Point",
        "coordinates": [
          27.0910285,
          64.3414907
        ]
      },
      "properties": {
        "id": 574726629,
        "osm_type": "way",
        "name": "Lomakylä Kultahiekat",
        "tourism": "caravan_site",
        "tents": "yes",
        "website": "https://lomakylakultahiekat.fi"
      }
    },
    {
      "type": "Feature",
      "geometry": {
        "type": "Point",
        "coordinates": [
          29.2937327,
          66.3716664
        ]
      },
      "properties": {
        "id": 630221969,
        "osm_type": "way",
        "name": "Oulangan kansallispuiston leirintäalue",
        "tourism": "camp_site",
        "opening_hours": "Jun-Aug",
        "tents": "yes",
        "phone": "+358 44 740 0001",
        "website": "https://oulankacamping.fi/"
      }
    },
    {
      "type": "Feature",
      "geometry": {
        "type": "Point",
        "coordinates": [
          29.4024438,
          66.2685782
        ]
      },
      "properties": {
        "id": 631778198,
        "osm_type": "way",
        "tourism": "chalet"
      }
    },
    {
      "type": "Feature",
      "geometry": {
        "type": "Point",
        "coordinates": [
          29.6598396,
          66.2094353
        ]
      },
      "properties": {
        "id": 633243671,
        "osm_type": "way",
        "name": "Kuusinki",
        "tourism": "camp_site",
        "tents": "yes",
        "phone": "+358 400 903 367",
        "website": "https://www.kuusinki.com/fi/"
      }
    },
    {
      "type": "Feature",
      "geometry": {
        "type": "Point",
        "coordinates": [
          27.6092005,
          65.6243094
        ]
      },
      "properties": {
        "id": 656733938,
        "osm_type": "way",
        "name": "Hotelli Iso-Syöte",
        "tourism": "hotel"
      }
    },
    {
      "type": "Feature",
      "geometry": {
        "type": "Point",
        "coordinates": [
          29.1672716,
          66.0040772
        ]
      },
      "properties": {
        "id": 687959058,
        "osm_type": "way",
        "name": "Camping Petäjälammen Lomakylä",
        "tourism": "camp_site",
        "tents": "yes",
        "phone": "+358 400 587 406",
        "website": "https://www.petajalampi.fi/"
      }
    },
    {
      "type": "Feature",
      "geometry": {
        "type": "Point",
        "coordinates": [
          25.1505111,
          63.8248472
        ]
      },
      "properties": {
        "id": 692184025,
        "osm_type": "way",
        "name": "Jokihovi",
        "tourism": "guest_house",
        "phone": "+358-44 4262 455",
        "website": "https://www.jokihovi.fi/"
      }
    },
    {
      "type": "Feature",
      "geometry": {
        "type": "Point",
        "coordinates": [
          25.4814049,
          64.1829335
        ]
      },
      "properties": {
        "id": 718777196,
        "osm_type": "way",
        "name": "Villa Korkatti",
        "tourism": "apartment",
        "website": "https://www.villakorkatti.fi"
      }
    },
    {
      "type": "Feature",
      "geometry": {
        "type": "Point",
        "coordinates": [
          28.9000672,
          65.5850024
        ]
      },
      "properties": {
        "id": 762003501,
        "osm_type": "way",
        "tourism": "apartment"
      }
    },
    {
      "type": "Feature",
      "geometry": {
        "type": "Point",
        "coordinates": [
          28.9014691,
          65.5834971
        ]
      },
      "properties": {
        "id": 762003505,
        "osm_type": "way",
        "name": "Käenpesä",
        "tourism": "chalet"
      }
    },
    {
      "type": "Feature",
      "geometry": {
        "type": "Point",
        "coordinates": [
          28.9044225,
          65.5859069
        ]
      },
      "properties": {
        "id": 762048558,
        "osm_type": "way",
        "name": "Kylmäluoman leirintäalue",
        "tourism": "caravan_site",
        "tents": "yes",
        "website": "https://www.hossa-kylmaluoma.fi/leirintaalue/"
      }
    },
    {
      "type": "Feature",
      "geometry": {
        "type": "Point",
        "coordinates": [
          27.0259022,
          64.3889677
        ]
      },
      "properties": {
        "id": 766659353,
        "osm_type": "way",
        "name": "Manamansalon leirintäalue",
        "tourism": "caravan_site",
        "tents": "yes",
        "phone": "+35 8 887 4138",
        "website": "https://manamansalo.fi/"
      }
    },
    {
      "type": "Feature",
      "geometry": {
        "type": "Point",
        "coordinates": [
          25.8972125,
          63.6641706
        ]
      },
      "properties": {
        "id": 815055476,
        "osm_type": "way",
        "name": "Emolahti Camping Pyhäjärvi",
        "tourism": "caravan_site",
        "tents": "yes",
        "phone": "+35808783443",
        "website": "https://www.camping.fi/kohdesivu.asp?sua=5&lang=1&s=1353"
      }
    },
    {
      "type": "Feature",
      "geometry": {
        "type": "Point",
        "coordinates": [
          29.1707381,
          66.1705641
        ]
      },
      "properties": {
        "id": 827891614,
        "osm_type": "way",
        "name": "RukaValley",
        "tourism": "hotel",
        "website": "https://www.ruka.fi/fi/hiihtokeskus/majoitus/rukavalley"
      }
    },
    {
      "type": "Feature",
      "geometry": {
        "type": "Point",
        "coordinates": [
          27.6306831,
          65.6266121
        ]
      },
      "properties": {
        "id": 837586088,
        "osm_type": "way",
        "name": "KIDE Hotel by Iso-Syöte",
        "tourism": "hotel",
        "website": "https://hotellikide.fi"
      }
    },
    {
      "type": "Feature",
      "geometry": {
        "type": "Point",
        "coordinates": [
          27.706997,
          65.6355796
        ]
      },
      "properties": {
        "id": 837920178,
        "osm_type": "way",
        "name": "Hotelli Pikku-Syöte Caravan",
        "tourism": "caravan_site",
        "phone": "+358 8 815 4000"
      }
    },
    {
      "type": "Feature",
      "geometry": {
        "type": "Point",
        "coordinates": [
          29.1497234,
          66.0031173
        ]
      },
      "properties": {
        "id": 842382726,
        "osm_type": "way",
        "name": "Camping Matkajoki",
        "tourism": "camp_site",
        "tents": "yes",
        "phone": "+358 503720776"
      }
    },
    {
      "type": "Feature",
      "geometry": {
        "type": "Point",
        "coordinates": [
          23.8268629,
          64.2470761
        ]
      },
      "properties": {
        "id": 842769604,
        "osm_type": "way",
        "name": "Villa Atrium",
        "tourism": "chalet"
      }
    },
    {
      "type": "Feature",
      "geometry": {
        "type": "Point",
        "coordinates": [
          23.8275366,
          64.2473205
        ]
      },
      "properties": {
        "id": 842769605,
        "osm_type": "way",
        "name": "Villa Merellä",
        "tourism": "chalet"
      }
    },
    {
      "type": "Feature",
      "geometry": {
        "type": "Point",
        "coordinates": [
          23.8062532,
          64.232366
        ]
      },
      "properties": {
        "id": 842769637,
        "osm_type": "way",
        "name": "Restaurant Dyyni",
        "tourism": "hotel",
        "check_date": "2024-04-25"
      }
    },
    {
      "type": "Feature",
      "geometry": {
        "type": "Point",
        "coordinates": [
          29.6611269,
          66.2094018
        ]
      },
      "properties": {
        "id": 843586249,
        "osm_type": "way",
        "name": "Kuusingin leirintäalue",
        "tourism": "camp_site"
      }
    },
    {
      "type": "Feature",
      "geometry": {
        "type": "Point",
        "coordinates": [
          26.8127862,
          65.465687
        ]
      },
      "properties": {
        "id": 849033416,
        "osm_type": "way",
        "name": "Camping Livojoki",
        "tourism": "camp_site",
        "tents": "yes",
        "phone": "+358 44 2722 230"
      }
    },
    {
      "type": "Feature",
      "geometry": {
        "type": "Point",
        "coordinates": [
          25.4811357,
          65.0132061
        ]
      },
      "properties": {
        "id": 877996837,
        "osm_type": "way",
        "name": "Scandic Oulu Station",
        "tourism": "hotel",
        "opening_hours": "24/7",
        "phone": "+358 8 2374 8949",
        "website": "https://www.scandichotels.fi/hotellit/suomi/oulu/scandic-oulu-station"
      }
    },
    {
      "type": "Feature",
      "geometry": {
        "type": "Point",
        "coordinates": [
          25.4723289,
          65.0121701
        ]
      },
      "properties": {
        "id": 973869257,
        "osm_type": "way",
        "name": "Original Sokos Hotel Arina",
        "tourism": "hotel",
        "phone": "+358 8 3123 111",
        "website": "https://www.sokoshotels.fi/hotellit/oulu/",
        "check_date": "2025-07-29"
      }
    },
    {
      "type": "Feature",
      "geometry": {
        "type": "Point",
        "coordinates": [
          25.8517126,
          63.8473053
        ]
      },
      "properties": {
        "id": 1051878545,
        "osm_type": "way",
        "name": "Nuttulinna",
        "tourism": "motel",
        "phone": "+358 40 7063837",
        "website": "https://www.motellinuttulinna.com/"
      }
    },
    {
      "type": "Feature",
      "geometry": {
        "type": "Point",
        "coordinates": [
          24.7803004,
          63.7215436
        ]
      },
      "properties": {
        "id": 1064908774,
        "osm_type": "way",
        "name": "Urjanlinna",
        "tourism": "camp_site",
        "tents": "yes",
        "phone": "+358 8 480 823",
        "website": "https://www.urjanlinna.net/"
      }
    },
    {
      "type": "Feature",
      "geometry": {
        "type": "Point",
        "coordinates": [
          26.0096222,
          64.8431896
        ]
      },
      "properties": {
        "id": 1068757365,
        "osm_type": "way",
        "name": "Montta Active Camping",
        "tourism": "camp_site",
        "tents": "yes",
        "phone": "+358 103225100",
        "website": "https://montta-activecamping.fi/"
      }
    },
    {
      "type": "Feature",
      "geometry": {
        "type": "Point",
        "coordinates": [
          24.752811,
          64.659666
        ]
      },
      "properties": {
        "id": 1072124180,
        "osm_type": "way",
        "name": "Multaranta SF Caravan",
        "tourism": "camp_site"
      }
    },
    {
      "type": "Feature",
      "geometry": {
        "type": "Point",
        "coordinates": [
          26.8321113,
          64.4447548
        ]
      },
      "properties": {
        "id": 1080878959,
        "osm_type": "way",
        "name": "Suviranta",
        "tourism": "hostel",
        "website": "https://www.oulujarvenmajoitus.fi/"
      }
    },
    {
      "type": "Feature",
      "geometry": {
        "type": "Point",
        "coordinates": [
          26.9944149,
          65.3609647
        ]
      },
      "properties": {
        "id": 1110341388,
        "osm_type": "way",
        "name": "Hotelli-ravintola Kurenkoski",
        "tourism": "hotel",
        "website": "https://www.kurenkoski.fi/"
      }
    },
    {
      "type": "Feature",
      "geometry": {
        "type": "Point",
        "coordinates": [
          25.487888,
          64.9966407
        ]
      },
      "properties": {
        "id": 1131706026,
        "osm_type": "way",
        "name": "OuluHostel AlliMaria",
        "tourism": "hostel",
        "website": "https://ouluhostel.fi",
        "check_date": "2026-01-05"
      }
    },
    {
      "type": "Feature",
      "geometry": {
        "type": "Point",
        "coordinates": [
          26.9909245,
          65.3981617
        ]
      },
      "properties": {
        "id": 1149461725,
        "osm_type": "way",
        "tourism": "chalet"
      }
    },
    {
      "type": "Feature",
      "geometry": {
        "type": "Point",
        "coordinates": [
          26.9907355,
          65.3980813
        ]
      },
      "properties": {
        "id": 1149461726,
        "osm_type": "way",
        "tourism": "chalet"
      }
    },
    {
      "type": "Feature",
      "geometry": {
        "type": "Point",
        "coordinates": [
          26.9905127,
          65.3979963
        ]
      },
      "properties": {
        "id": 1149461727,
        "osm_type": "way",
        "tourism": "chalet"
      }
    },
    {
      "type": "Feature",
      "geometry": {
        "type": "Point",
        "coordinates": [
          26.9902395,
          65.3978996
        ]
      },
      "properties": {
        "id": 1149461728,
        "osm_type": "way",
        "tourism": "chalet"
      }
    },
    {
      "type": "Feature",
      "geometry": {
        "type": "Point",
        "coordinates": [
          26.9911052,
          65.3982171
        ]
      },
      "properties": {
        "id": 1149461729,
        "osm_type": "way",
        "tourism": "chalet"
      }
    },
    {
      "type": "Feature",
      "geometry": {
        "type": "Point",
        "coordinates": [
          26.9913004,
          65.3982984
        ]
      },
      "properties": {
        "id": 1149461730,
        "osm_type": "way",
        "tourism": "chalet"
      }
    },
    {
      "type": "Feature",
      "geometry": {
        "type": "Point",
        "coordinates": [
          26.9914818,
          65.3983835
        ]
      },
      "properties": {
        "id": 1149461731,
        "osm_type": "way",
        "tourism": "chalet"
      }
    },
    {
      "type": "Feature",
      "geometry": {
        "type": "Point",
        "coordinates": [
          26.9915714,
          65.3984608
        ]
      },
      "properties": {
        "id": 1149461732,
        "osm_type": "way",
        "tourism": "chalet"
      }
    },
    {
      "type": "Feature",
      "geometry": {
        "type": "Point",
        "coordinates": [
          26.9916793,
          65.3985507
        ]
      },
      "properties": {
        "id": 1149461733,
        "osm_type": "way",
        "tourism": "chalet"
      }
    },
    {
      "type": "Feature",
      "geometry": {
        "type": "Point",
        "coordinates": [
          26.9918654,
          65.3986455
        ]
      },
      "properties": {
        "id": 1149461734,
        "osm_type": "way",
        "tourism": "chalet"
      }
    },
    {
      "type": "Feature",
      "geometry": {
        "type": "Point",
        "coordinates": [
          26.9918309,
          65.3984169
        ]
      },
      "properties": {
        "id": 1149461735,
        "osm_type": "way",
        "tourism": "chalet"
      }
    },
    {
      "type": "Feature",
      "geometry": {
        "type": "Point",
        "coordinates": [
          26.9918195,
          65.3982754
        ]
      },
      "properties": {
        "id": 1149461736,
        "osm_type": "way",
        "tourism": "chalet"
      }
    },
    {
      "type": "Feature",
      "geometry": {
        "type": "Point",
        "coordinates": [
          26.9916748,
          65.3981683
        ]
      },
      "properties": {
        "id": 1149461737,
        "osm_type": "way",
        "tourism": "chalet"
      }
    },
    {
      "type": "Feature",
      "geometry": {
        "type": "Point",
        "coordinates": [
          26.9913808,
          65.3981119
        ]
      },
      "properties": {
        "id": 1149461738,
        "osm_type": "way",
        "tourism": "chalet"
      }
    },
    {
      "type": "Feature",
      "geometry": {
        "type": "Point",
        "coordinates": [
          26.9912591,
          65.3980316
        ]
      },
      "properties": {
        "id": 1149461739,
        "osm_type": "way",
        "tourism": "chalet"
      }
    },
    {
      "type": "Feature",
      "geometry": {
        "type": "Point",
        "coordinates": [
          26.9910478,
          65.3979494
        ]
      },
      "properties": {
        "id": 1149461740,
        "osm_type": "way",
        "tourism": "chalet"
      }
    },
    {
      "type": "Feature",
      "geometry": {
        "type": "Point",
        "coordinates": [
          26.990809,
          65.3978614
        ]
      },
      "properties": {
        "id": 1149461741,
        "osm_type": "way",
        "tourism": "chalet"
      }
    },
    {
      "type": "Feature",
      "geometry": {
        "type": "Point",
        "coordinates": [
          26.9892234,
          65.3986434
        ]
      },
      "properties": {
        "id": 1149461743,
        "osm_type": "way",
        "name": "Jyrkkäkoski Camping",
        "tourism": "camp_site",
        "tents": "yes",
        "phone": "+358 400 109006",
        "website": "http://www.jyrkkakoski.fi/"
      }
    },
    {
      "type": "Feature",
      "geometry": {
        "type": "Point",
        "coordinates": [
          29.2078579,
          66.300432
        ]
      },
      "properties": {
        "id": 1167486905,
        "osm_type": "way",
        "name": "Kitkajoen Harjustupa 32 E",
        "tourism": "chalet",
        "website": "https://stellashop.fi/accommodation/Kitkajoen_Harjustupa_32E_1/73519/29.4.2023/30.4.2023/FI"
      }
    },
    {
      "type": "Feature",
      "geometry": {
        "type": "Point",
        "coordinates": [
          26.4696421,
          64.5820057
        ]
      },
      "properties": {
        "id": 1183033380,
        "osm_type": "way",
        "tourism": "camp_site"
      }
    },
    {
      "type": "Feature",
      "geometry": {
        "type": "Point",
        "coordinates": [
          25.4144407,
          65.030006
        ]
      },
      "properties": {
        "id": 1201174929,
        "osm_type": "way",
        "name": "Nallikarin Aalto",
        "tourism": "hotel",
        "website": "https://nallikari.fi/majoitus/aalto/"
      }
    },
    {
      "type": "Feature",
      "geometry": {
        "type": "Point",
        "coordinates": [
          25.4850892,
          65.0209198
        ]
      },
      "properties": {
        "id": 1202602931,
        "osm_type": "way",
        "name": "Hotelli Lasaretti",
        "tourism": "hotel"
      }
    },
    {
      "type": "Feature",
      "geometry": {
        "type": "Point",
        "coordinates": [
          28.9614231,
          66.0563945
        ]
      },
      "properties": {
        "id": 1205086423,
        "osm_type": "way",
        "tourism": "chalet"
      }
    },
    {
      "type": "Feature",
      "geometry": {
        "type": "Point",
        "coordinates": [
          28.9585774,
          66.0553845
        ]
      },
      "properties": {
        "id": 1205086425,
        "osm_type": "way",
        "tourism": "chalet"
      }
    },
    {
      "type": "Feature",
      "geometry": {
        "type": "Point",
        "coordinates": [
          28.960578,
          66.0539171
        ]
      },
      "properties": {
        "id": 1205086426,
        "osm_type": "way",
        "tourism": "chalet"
      }
    },
    {
      "type": "Feature",
      "geometry": {
        "type": "Point",
        "coordinates": [
          28.9761473,
          66.0504193
        ]
      },
      "properties": {
        "id": 1205086428,
        "osm_type": "way",
        "tourism": "chalet"
      }
    },
    {
      "type": "Feature",
      "geometry": {
        "type": "Point",
        "coordinates": [
          28.976054,
          66.051033
        ]
      },
      "properties": {
        "id": 1205086430,
        "osm_type": "way",
        "tourism": "chalet"
      }
    },
    {
      "type": "Feature",
      "geometry": {
        "type": "Point",
        "coordinates": [
          28.9331415,
          66.0594084
        ]
      },
      "properties": {
        "id": 1205086433,
        "osm_type": "way",
        "tourism": "chalet"
      }
    },
    {
      "type": "Feature",
      "geometry": {
        "type": "Point",
        "coordinates": [
          25.4496923,
          64.9443461
        ]
      },
      "properties": {
        "id": 1213981245,
        "osm_type": "way",
        "name": "Finlandia Hotel Airport Oulu",
        "tourism": "hotel",
        "opening_hours": "Mo-Fr 07:00-22:00; Sa 08:00-22:00; Su 08:00-21:00",
        "website": "https://airporthotel.fi/"
      }
    },
    {
      "type": "Feature",
      "geometry": {
        "type": "Point",
        "coordinates": [
          24.2781845,
          64.2275224
        ]
      },
      "properties": {
        "id": 1269228534,
        "osm_type": "way",
        "name": "Talusmaja",
        "tourism": "chalet"
      }
    },
    {
      "type": "Feature",
      "geometry": {
        "type": "Point",
        "coordinates": [
          24.278804,
          64.2271882
        ]
      },
      "properties": {
        "id": 1269228535,
        "osm_type": "way",
        "name": "Taluspirtti",
        "tourism": "chalet"
      }
    },
    {
      "type": "Feature",
      "geometry": {
        "type": "Point",
        "coordinates": [
          24.5801818,
          64.0749438
        ]
      },
      "properties": {
        "id": 1293642128,
        "osm_type": "way",
        "name": "BestPark Ylivieska",
        "tourism": "caravan_site",
        "opening_hours": "24/7",
        "website": "https://www.bestpark.com"
      }
    },
    {
      "type": "Feature",
      "geometry": {
        "type": "Point",
        "coordinates": [
          24.2771601,
          64.2263341
        ]
      },
      "properties": {
        "id": 1305654548,
        "osm_type": "way",
        "name": "Talustorppa",
        "tourism": "chalet"
      }
    },
    {
      "type": "Feature",
      "geometry": {
        "type": "Point",
        "coordinates": [
          29.0254988,
          66.018277
        ]
      },
      "properties": {
        "id": 1309962944,
        "osm_type": "way",
        "name": "Reindeer Nook",
        "tourism": "chalet"
      }
    },
    {
      "type": "Feature",
      "geometry": {
        "type": "Point",
        "coordinates": [
          26.4969156,
          64.5546726
        ]
      },
      "properties": {
        "id": 1335009184,
        "osm_type": "way",
        "name": "Pitkäjärven leirintäalue",
        "tourism": "camp_site",
        "tents": "yes"
      }
    },
    {
      "type": "Feature",
      "geometry": {
        "type": "Point",
        "coordinates": [
          25.3544906,
          64.7856773
        ]
      },
      "properties": {
        "id": 1337720487,
        "osm_type": "way",
        "name": "Värminkosken leirintä",
        "tourism": "camp_site",
        "website": "https://www.varminkoskenleirinta.fi/"
      }
    },
    {
      "type": "Feature",
      "geometry": {
        "type": "Point",
        "coordinates": [
          26.5000431,
          64.5824085
        ]
      },
      "properties": {
        "id": 1339024161,
        "osm_type": "way",
        "name": "Rokuanhovi Caravan",
        "tourism": "caravan_site",
        "website": "https://www.rokuanhovi.fi/majoitus/"
      }
    },
    {
      "type": "Feature",
      "geometry": {
        "type": "Point",
        "coordinates": [
          29.175433,
          66.1613184
        ]
      },
      "properties": {
        "id": 1342599727,
        "osm_type": "way",
        "name": "Ruka Caravan laajennusosa",
        "tourism": "caravan_site"
      }
    },
    {
      "type": "Feature",
      "geometry": {
        "type": "Point",
        "coordinates": [
          29.2483723,
          66.1491423
        ]
      },
      "properties": {
        "id": 1346394341,
        "osm_type": "way",
        "name": "Magical POND",
        "tourism": "hotel",
        "phone": "+358 29 170 3050",
        "website": "https://www.magicalpond.com/"
      }
    },
    {
      "type": "Feature",
      "geometry": {
        "type": "Point",
        "coordinates": [
          29.2465527,
          66.1491408
        ]
      },
      "properties": {
        "id": 1346394342,
        "osm_type": "way",
        "tourism": "chalet"
      }
    },
    {
      "type": "Feature",
      "geometry": {
        "type": "Point",
        "coordinates": [
          29.2462535,
          66.1491707
        ]
      },
      "properties": {
        "id": 1346394343,
        "osm_type": "way",
        "tourism": "chalet"
      }
    },
    {
      "type": "Feature",
      "geometry": {
        "type": "Point",
        "coordinates": [
          29.2459116,
          66.1492281
        ]
      },
      "properties": {
        "id": 1346394344,
        "osm_type": "way",
        "tourism": "chalet"
      }
    },
    {
      "type": "Feature",
      "geometry": {
        "type": "Point",
        "coordinates": [
          29.245609,
          66.1492812
        ]
      },
      "properties": {
        "id": 1346394345,
        "osm_type": "way",
        "tourism": "chalet"
      }
    },
    {
      "type": "Feature",
      "geometry": {
        "type": "Point",
        "coordinates": [
          29.2460607,
          66.1494703
        ]
      },
      "properties": {
        "id": 1346394346,
        "osm_type": "way",
        "tourism": "chalet"
      }
    },
    {
      "type": "Feature",
      "geometry": {
        "type": "Point",
        "coordinates": [
          29.2458078,
          66.1495271
        ]
      },
      "properties": {
        "id": 1346394347,
        "osm_type": "way",
        "tourism": "chalet"
      }
    },
    {
      "type": "Feature",
      "geometry": {
        "type": "Point",
        "coordinates": [
          29.2466073,
          66.1499189
        ]
      },
      "properties": {
        "id": 1346394348,
        "osm_type": "way",
        "tourism": "chalet"
      }
    },
    {
      "type": "Feature",
      "geometry": {
        "type": "Point",
        "coordinates": [
          29.2464348,
          66.1499544
        ]
      },
      "properties": {
        "id": 1346394349,
        "osm_type": "way",
        "tourism": "chalet"
      }
    },
    {
      "type": "Feature",
      "geometry": {
        "type": "Point",
        "coordinates": [
          29.2461381,
          66.1499431
        ]
      },
      "properties": {
        "id": 1346394350,
        "osm_type": "way",
        "tourism": "chalet"
      }
    },
    {
      "type": "Feature",
      "geometry": {
        "type": "Point",
        "coordinates": [
          29.2458487,
          66.1499596
        ]
      },
      "properties": {
        "id": 1346394351,
        "osm_type": "way",
        "tourism": "chalet"
      }
    },
    {
      "type": "Feature",
      "geometry": {
        "type": "Point",
        "coordinates": [
          29.2455462,
          66.150007
        ]
      },
      "properties": {
        "id": 1346394352,
        "osm_type": "way",
        "tourism": "chalet"
      }
    },
    {
      "type": "Feature",
      "geometry": {
        "type": "Point",
        "coordinates": [
          29.2454074,
          66.1501895
        ]
      },
      "properties": {
        "id": 1346394353,
        "osm_type": "way",
        "tourism": "chalet"
      }
    },
    {
      "type": "Feature",
      "geometry": {
        "type": "Point",
        "coordinates": [
          29.245194,
          66.1502475
        ]
      },
      "properties": {
        "id": 1346394354,
        "osm_type": "way",
        "tourism": "chalet"
      }
    },
    {
      "type": "Feature",
      "geometry": {
        "type": "Point",
        "coordinates": [
          29.2449192,
          66.1502344
        ]
      },
      "properties": {
        "id": 1346394355,
        "osm_type": "way",
        "tourism": "chalet"
      }
    },
    {
      "type": "Feature",
      "geometry": {
        "type": "Point",
        "coordinates": [
          29.2455273,
          66.149598
        ]
      },
      "properties": {
        "id": 1346394356,
        "osm_type": "way",
        "tourism": "chalet"
      }
    },
    {
      "type": "Feature",
      "geometry": {
        "type": "Point",
        "coordinates": [
          29.2452305,
          66.1496542
        ]
      },
      "properties": {
        "id": 1346394357,
        "osm_type": "way",
        "tourism": "chalet"
      }
    },
    {
      "type": "Feature",
      "geometry": {
        "type": "Point",
        "coordinates": [
          29.2450888,
          66.149754
        ]
      },
      "properties": {
        "id": 1346394358,
        "osm_type": "way",
        "tourism": "chalet"
      }
    },
    {
      "type": "Feature",
      "geometry": {
        "type": "Point",
        "coordinates": [
          29.2453831,
          66.1493696
        ]
      },
      "properties": {
        "id": 1346394359,
        "osm_type": "way",
        "tourism": "chalet"
      }
    },
    {
      "type": "Feature",
      "geometry": {
        "type": "Point",
        "coordinates": [
          29.2451086,
          66.1494492
        ]
      },
      "properties": {
        "id": 1346394360,
        "osm_type": "way",
        "tourism": "chalet"
      }
    },
    {
      "type": "Feature",
      "geometry": {
        "type": "Point",
        "coordinates": [
          29.2447989,
          66.1494635
        ]
      },
      "properties": {
        "id": 1346394361,
        "osm_type": "way",
        "tourism": "chalet"
      }
    },
    {
      "type": "Feature",
      "geometry": {
        "type": "Point",
        "coordinates": [
          25.3882201,
          64.1380774
        ]
      },
      "properties": {
        "id": 1347965904,
        "osm_type": "way",
        "tourism": "chalet"
      }
    },
    {
      "type": "Feature",
      "geometry": {
        "type": "Point",
        "coordinates": [
          25.3899437,
          64.1380208
        ]
      },
      "properties": {
        "id": 1347965906,
        "osm_type": "way",
        "tourism": "chalet"
      }
    },
    {
      "type": "Feature",
      "geometry": {
        "type": "Point",
        "coordinates": [
          29.1402323,
          66.1526595
        ]
      },
      "properties": {
        "id": 1349533731,
        "osm_type": "way",
        "name": "Rukan Lepola",
        "tourism": "chalet"
      }
    },
    {
      "type": "Feature",
      "geometry": {
        "type": "Point",
        "coordinates": [
          29.115896,
          66.1664121
        ]
      },
      "properties": {
        "id": 1355317796,
        "osm_type": "way",
        "name": "Villa Riverside Ruka",
        "tourism": "chalet"
      }
    },
    {
      "type": "Feature",
      "geometry": {
        "type": "Point",
        "coordinates": [
          29.1323763,
          66.1881412
        ]
      },
      "properties": {
        "id": 1356366110,
        "osm_type": "way",
        "name": "Villa Lamminkaita",
        "tourism": "chalet"
      }
    },
    {
      "type": "Feature",
      "geometry": {
        "type": "Point",
        "coordinates": [
          29.1805501,
          66.1706803
        ]
      },
      "properties": {
        "id": 1357132890,
        "osm_type": "way",
        "name": "Kitka-Nokkela",
        "tourism": "chalet"
      }
    },
    {
      "type": "Feature",
      "geometry": {
        "type": "Point",
        "coordinates": [
          29.1865345,
          66.1699246
        ]
      },
      "properties": {
        "id": 1357133447,
        "osm_type": "way",
        "name": "Rinnekelo",
        "tourism": "chalet"
      }
    },
    {
      "type": "Feature",
      "geometry": {
        "type": "Point",
        "coordinates": [
          29.1962459,
          66.1696098
        ]
      },
      "properties": {
        "id": 1357138675,
        "osm_type": "way",
        "name": "Tunturituuli",
        "tourism": "chalet"
      }
    },
    {
      "type": "Feature",
      "geometry": {
        "type": "Point",
        "coordinates": [
          29.19,
          66.1731333
        ]
      },
      "properties": {
        "id": 1357694746,
        "osm_type": "way",
        "name": "Saaruan Aurinko",
        "tourism": "chalet"
      }
    },
    {
      "type": "Feature",
      "geometry": {
        "type": "Point",
        "coordinates": [
          23.8390061,
          64.2406836
        ]
      },
      "properties": {
        "id": 1413983894,
        "osm_type": "way",
        "name": "Tapion tuvan caravanpuisto",
        "tourism": "caravan_site",
        "website": "https://tapiontupa.fi/majoitu/caravanalue/"
      }
    },
    {
      "type": "Feature",
      "geometry": {
        "type": "Point",
        "coordinates": [
          29.5497429,
          65.5286486
        ]
      },
      "properties": {
        "id": 1416299377,
        "osm_type": "way",
        "tourism": "chalet"
      }
    },
    {
      "type": "Feature",
      "geometry": {
        "type": "Point",
        "coordinates": [
          29.2080878,
          66.149828
        ]
      },
      "properties": {
        "id": 1434664123,
        "osm_type": "way",
        "name": "Rukan Nikolo",
        "tourism": "chalet"
      }
    },
    {
      "type": "Feature",
      "geometry": {
        "type": "Point",
        "coordinates": [
          27.657697,
          65.6254033
        ]
      },
      "properties": {
        "id": 1446456086,
        "osm_type": "way",
        "name": "Kuurankukka",
        "tourism": "chalet"
      }
    },
    {
      "type": "Feature",
      "geometry": {
        "type": "Point",
        "coordinates": [
          27.6196569,
          65.6209203
        ]
      },
      "properties": {
        "id": 1451744871,
        "osm_type": "way",
        "name": "Peukaloinen",
        "tourism": "chalet"
      }
    },
    {
      "type": "Feature",
      "geometry": {
        "type": "Point",
        "coordinates": [
          29.1786205,
          66.2452931
        ]
      },
      "properties": {
        "id": 1453331609,
        "osm_type": "way",
        "name": "Honkaranta",
        "tourism": "chalet"
      }
    },
    {
      "type": "Feature",
      "geometry": {
        "type": "Point",
        "coordinates": [
          28.9174394,
          66.0206616
        ]
      },
      "properties": {
        "id": 1453343457,
        "osm_type": "way",
        "name": "Pohjolan Lumo",
        "tourism": "chalet"
      }
    },
    {
      "type": "Feature",
      "geometry": {
        "type": "Point",
        "coordinates": [
          29.3574551,
          65.9979166
        ]
      },
      "properties": {
        "id": 1453364561,
        "osm_type": "way",
        "name": "Lumikukka",
        "tourism": "chalet"
      }
    },
    {
      "type": "Feature",
      "geometry": {
        "type": "Point",
        "coordinates": [
          29.3049311,
          65.9541662
        ]
      },
      "properties": {
        "id": 1453373107,
        "osm_type": "way",
        "name": "Putilanranta",
        "tourism": "chalet"
      }
    },
    {
      "type": "Feature",
      "geometry": {
        "type": "Point",
        "coordinates": [
          29.1607602,
          66.224373
        ]
      },
      "properties": {
        "id": 1453375034,
        "osm_type": "way",
        "name": "Kantohilla",
        "tourism": "chalet"
      }
    },
    {
      "type": "Feature",
      "geometry": {
        "type": "Point",
        "coordinates": [
          27.1024397,
          64.3455536
        ]
      },
      "properties": {
        "id": 1457203499,
        "osm_type": "way",
        "name": "Villa Dyyni",
        "tourism": "chalet"
      }
    },
    {
      "type": "Feature",
      "geometry": {
        "type": "Point",
        "coordinates": [
          28.7563879,
          66.2697937
        ]
      },
      "properties": {
        "id": 1465664219,
        "osm_type": "way",
        "name": "Eräjunni",
        "tourism": "chalet"
      }
    },
    {
      "type": "Feature",
      "geometry": {
        "type": "Point",
        "coordinates": [
          29.1250819,
          66.0820571
        ]
      },
      "properties": {
        "id": 1501091433,
        "osm_type": "way",
        "name": "Katajamäki",
        "tourism": "chalet"
      }
    },
    {
      "type": "Feature",
      "geometry": {
        "type": "Point",
        "coordinates": [
          28.2158804,
          65.5634934
        ]
      },
      "properties": {
        "id": 2914027,
        "osm_type": "relation",
        "tourism": "hotel"
      }
    },
    {
      "type": "Feature",
      "geometry": {
        "type": "Point",
        "coordinates": [
          25.8523118,
          65.370907
        ]
      },
      "properties": {
        "id": 3114950,
        "osm_type": "relation",
        "tourism": "camp_site"
      }
    },
    {
      "type": "Feature",
      "geometry": {
        "type": "Point",
        "coordinates": [
          27.6167916,
          65.6305755
        ]
      },
      "properties": {
        "id": 11510627,
        "osm_type": "relation",
        "name": "Syöte Camping",
        "tourism": "caravan_site",
        "tents": "no",
        "phone": "+358 50 476 3606",
        "website": "https://www.syotecamping.fi/"
      }
    },
    {
      "type": "Feature",
      "geometry": {
        "type": "Point",
        "coordinates": [
          25.4192439,
          65.0311593
        ]
      },
      "properties": {
        "id": 14689219,
        "osm_type": "relation",
        "name": "Nallikari Camping",
        "tourism": "camp_site",
        "tents": "yes",
        "phone": "+358 44 7031353",
        "website": "https://nallikari.fi/"
      }
    }
  ]
}