{
  "type": "FeatureCollection",
  "features": [
    {
      "type": "Feature",
      "geometry": {
        "type": "Point",
        "coordinates": [
          40.2294704,
          37.865537
        ]
      },
      "properties": {
        "id": 3260727083,
        "osm_type": "node",
        "tourism": "camp_site"
      }
    },
    {
      "type": "Feature",
      "geometry": {
        "type": "Point",
        "coordinates": [
          40.2328222,
          37.9107032
        ]
      },
      "properties": {
        "id": 3747550261,
        "osm_type": "node",
        "name": "Otel",
        "tourism": "hotel"
      }
    },
    {
      "type": "Feature",
      "geometry": {
        "type": "Point",
        "coordinates": [
          40.58952,
          37.777712
        ]
      },
      "properties": {
        "id": 4915722221,
        "osm_type": "node",
        "tourism": "camp_site"
      }
    },
    {
      "type": "Feature",
      "geometry": {
        "type": "Point",
        "coordinates": [
          40.2352812,
          37.9157808
        ]
      },
      "properties": {
        "id": 5701811037,
        "osm_type": "node",
        "name": "Aslan palas",
        "tourism": "hotel"
      }
    },
    {
      "type": "Feature",
      "geometry": {
        "type": "Point",
        "coordinates": [
          41.2052617,
          38.1544641
        ]
      },
      "properties": {
        "id": 5754446336,
        "osm_type": "node",
        "tourism": "camp_site"
      }
    },
    {
      "type": "Feature",
      "geometry": {
        "type": "Point",
        "coordinates": [
          40.2382867,
          37.8697606
        ]
      },
      "properties": {
        "id": 6662092226,
        "osm_type": "node",
        "name": "ÖzgürBatu",
        "tourism": "chalet",
        "opening_hours": "24/7",
        "phone": "+90 412 606 04 28",
        "website": "http://ozgurbatu.co"
      }
    },
    {
      "type": "Feature",
      "geometry": {
        "type": "Point",
        "coordinates": [
          40.2362315,
          37.9150218
        ]
      },
      "properties": {
        "id": 6759501687,
        "osm_type": "node",
        "tourism": "hotel"
      }
    },
    {
      "type": "Feature",
      "geometry": {
        "type": "Point",
        "coordinates": [
          40.2377429,
          37.9148526
        ]
      },
      "properties": {
        "id": 9554305517,
        "osm_type": "node",
        "name": "Hotel Demir",
        "tourism": "hotel"
      }
    },
    {
      "type": "Feature",
      "geometry": {
        "type": "Point",
        "coordinates": [
          40.2358178,
          37.9070264
        ]
      },
      "properties": {
        "id": 10704280656,
        "osm_type": "node",
        "name": "Hotel Büyük Kervansaray",
        "tourism": "hotel"
      }
    },
    {
      "type": "Feature",
      "geometry": {
        "type": "Point",
        "coordinates": [
          40.2486012,
          37.9053316
        ]
      },
      "properties": {
        "id": 10864241605,
        "osm_type": "node",
        "tourism": "camp_site"
      }
    },
    {
      "type": "Feature",
      "geometry": {
        "type": "Point",
        "coordinates": [
          40.2514205,
          37.900915
        ]
      },
      "properties": {
        "id": 10864241705,
        "osm_type": "node",
        "tourism": "camp_site"
      }
    },
    {
      "type": "Feature",
      "geometry": {
        "type": "Point",
        "coordinates": [
          40.5763473,
          38.0568926
        ]
      },
      "properties": {
        "id": 12368202862,
        "osm_type": "node",
        "tourism": "camp_site"
      }
    },
    {
      "type": "Feature",
      "geometry": {
        "type": "Point",
        "coordinates": [
          41.1186075,
          38.1170307
        ]
      },
      "properties": {
        "id": 12368217586,
        "osm_type": "node",
        "name": "Tree group",
        "tourism": "camp_site"
      }
    },
    {
      "type": "Feature",
      "geometry": {
        "type": "Point",
        "coordinates": [
          40.2872312,
          37.9197558
        ]
      },
      "properties": {
        "id": 12860327562,
        "osm_type": "node",
        "tourism": "camp_site"
      }
    },
    {
      "type": "Feature",
      "geometry": {
        "type": "Point",
        "coordinates": [
          40.2314823,
          37.898267
        ]
      },
      "properties": {
        "id": 13638520420,
        "osm_type": "node",
        "name": "Avio Hotel",
        "tourism": "hotel",
        "phone": "+90 545 808 03 01",
        "website": "https://avioaparthotel.com/"
      }
    },
    {
      "type": "Feature",
      "geometry": {
        "type": "Point",
        "coordinates": [
          40.219167,
          37.9199592
        ]
      },
      "properties": {
        "id": 274787490,
        "osm_type": "way",
        "name": "Prestige otel ofis",
        "tourism": "hotel"
      }
    },
    {
      "type": "Feature",
      "geometry": {
        "type": "Point",
        "coordinates": [
          40.2180383,
          37.920908
        ]
      },
      "properties": {
        "id": 274794918,
        "osm_type": "way",
        "name": "Konuk Evi",
        "tourism": "guest_house"
      }
    },
    {
      "type": "Feature",
      "geometry": {
        "type": "Point",
        "coordinates": [
          40.2732079,
          37.9193641
        ]
      },
      "properties": {
        "id": 288873522,
        "osm_type": "way",
        "name": "Dicle Universitesi Konukevi 2",
        "tourism": "hotel"
      }
    },
    {
      "type": "Feature",
      "geometry": {
        "type": "Point",
        "coordinates": [
          40.2337336,
          37.9198495
        ]
      },
      "properties": {
        "id": 327363381,
        "osm_type": "way",
        "name": "Dedeman Otel",
        "tourism": "hotel"
      }
    },
    {
      "type": "Feature",
      "geometry": {
        "type": "Point",
        "coordinates": [
          40.2368635,
          37.9100387
        ]
      },
      "properties": {
        "id": 328570554,
        "osm_type": "way",
        "name": "The Green Park Hotel Diyarbakır",
        "tourism": "hotel",
        "phone": "+90 412 229 5000"
      }
    },
    {
      "type": "Feature",
      "geometry": {
        "type": "Point",
        "coordinates": [
          40.2357437,
          37.9080149
        ]
      },
      "properties": {
        "id": 328570556,
        "osm_type": "way",
        "name": "Diyarbakır Hotel",
        "tourism": "hotel"
      }
    },
    {
      "type": "Feature",
      "geometry": {
        "type": "Point",
        "coordinates": [
          40.1987848,
          37.9337773
        ]
      },
      "properties": {
        "id": 329093411,
        "osm_type": "way",
        "name": "Malabadi Otel",
        "tourism": "hotel",
        "phone": "+90 412 237 40 40",
        "website": "https://www.malabadiotel.com/"
      }
    },
    {
      "type": "Feature",
      "geometry": {
        "type": "Point",
        "coordinates": [
          40.2031009,
          37.9327021
        ]
      },
      "properties": {
        "id": 329104739,
        "osm_type": "way",
        "name": "Diyarbakır Polisevi",
        "tourism": "guest_house",
        "phone": "0412 237 41 60-61",
        "website": "https://www.polisevi.com/diyarbakir-polisevi/"
      }
    },
    {
      "type": "Feature",
      "geometry": {
        "type": "Point",
        "coordinates": [
          40.234706,
          37.9151218
        ]
      },
      "properties": {
        "id": 331370775,
        "osm_type": "way",
        "name": "Birkent Otel",
        "tourism": "hotel",
        "phone": "+90 412 228 71 32",
        "website": "www.hotelbirkent.com"
      }
    },
    {
      "type": "Feature",
      "geometry": {
        "type": "Point",
        "coordinates": [
          40.2341387,
          37.9151526
        ]
      },
      "properties": {
        "id": 356471759,
        "osm_type": "way",
        "name": "Balkar Otel",
        "tourism": "hotel",
        "phone": "+90 412 228 03 24"
      }
    },
    {
      "type": "Feature",
      "geometry": {
        "type": "Point",
        "coordinates": [
          40.235131,
          37.9148268
        ]
      },
      "properties": {
        "id": 356471767,
        "osm_type": "way",
        "name": "Kaya Otel Ağır Hasarlı",
        "tourism": "hotel"
      }
    },
    {
      "type": "Feature",
      "geometry": {
        "type": "Point",
        "coordinates": [
          40.2355286,
          37.9148571
        ]
      },
      "properties": {
        "id": 356473008,
        "osm_type": "way",
        "name": "Derya Otel",
        "tourism": "hotel"
      }
    },
    {
      "type": "Feature",
      "geometry": {
        "type": "Point",
        "coordinates": [
          40.2323822,
          37.9145591
        ]
      },
      "properties": {
        "id": 356583341,
        "osm_type": "way",
        "name": "Azizoğlu Otel",
        "tourism": "hotel"
      }
    },
    {
      "type": "Feature",
      "geometry": {
        "type": "Point",
        "coordinates": [
          40.2343125,
          37.9152408
        ]
      },
      "properties": {
        "id": 356584668,
        "osm_type": "way",
        "name": "Ekin Otel",
        "tourism": "hotel"
      }
    },
    {
      "type": "Feature",
      "geometry": {
        "type": "Point",
        "coordinates": [
          40.2350417,
          37.9155121
        ]
      },
      "properties": {
        "id": 356585870,
        "osm_type": "way",
        "name": "Kaplan Otel",
        "tourism": "hotel"
      }
    },
    {
      "type": "Feature",
      "geometry": {
        "type": "Point",
        "coordinates": [
          40.2351789,
          37.9157017
        ]
      },
      "properties": {
        "id": 356585871,
        "osm_type": "way",
        "name": "Aslan Otel",
        "tourism": "hotel"
      }
    },
    {
      "type": "Feature",
      "geometry": {
        "type": "Point",
        "coordinates": [
          40.2356483,
          37.915802
        ]
      },
      "properties": {
        "id": 356585873,
        "osm_type": "way",
        "name": "Grand Güler Otel",
        "tourism": "hotel"
      }
    },
    {
      "type": "Feature",
      "geometry": {
        "type": "Point",
        "coordinates": [
          40.2334594,
          37.917772
        ]
      },
      "properties": {
        "id": 358052436,
        "osm_type": "way",
        "name": "Miroğlu Otel",
        "tourism": "hotel",
        "phone": "+90 412 229 60 00",
        "website": "http://www.mirogluhotel.com/"
      }
    },
    {
      "type": "Feature",
      "geometry": {
        "type": "Point",
        "coordinates": [
          40.2385175,
          37.9149364
        ]
      },
      "properties": {
        "id": 370816551,
        "osm_type": "way",
        "name": "Hotel Surkent",
        "tourism": "hotel"
      }
    },
    {
      "type": "Feature",
      "geometry": {
        "type": "Point",
        "coordinates": [
          40.2388439,
          37.9149904
        ]
      },
      "properties": {
        "id": 370816552,
        "osm_type": "way",
        "name": "Hotel Akdağ",
        "tourism": "hotel"
      }
    },
    {
      "type": "Feature",
      "geometry": {
        "type": "Point",
        "coordinates": [
          40.2386246,
          37.9146629
        ]
      },
      "properties": {
        "id": 370816554,
        "osm_type": "way",
        "name": "Sürmeli Otel",
        "tourism": "hotel"
      }
    },
    {
      "type": "Feature",
      "geometry": {
        "type": "Point",
        "coordinates": [
          40.2384845,
          37.9146657
        ]
      },
      "properties": {
        "id": 370816555,
        "osm_type": "way",
        "name": "Kenan Otel",
        "tourism": "hotel"
      }
    },
    {
      "type": "Feature",
      "geometry": {
        "type": "Point",
        "coordinates": [
          40.2380857,
          37.9149755
        ]
      },
      "properties": {
        "id": 370816558,
        "osm_type": "way",
        "name": "Ertem Hotel",
        "tourism": "hotel"
      }
    },
    {
      "type": "Feature",
      "geometry": {
        "type": "Point",
        "coordinates": [
          40.2375583,
          37.9146556
        ]
      },
      "properties": {
        "id": 370816561,
        "osm_type": "way",
        "name": "Demir Hotel",
        "tourism": "hotel",
        "phone": "+90 412 228 88 00",
        "website": "https://www.demirhotel.com.tr/"
      }
    },
    {
      "type": "Feature",
      "geometry": {
        "type": "Point",
        "coordinates": [
          39.4408682,
          38.1307862
        ]
      },
      "properties": {
        "id": 417543809,
        "osm_type": "way",
        "name": "Helinamin Çermik Termal Tatil Köyü",
        "tourism": "hotel",
        "website": "http://helinamin.com/"
      }
    },
    {
      "type": "Feature",
      "geometry": {
        "type": "Point",
        "coordinates": [
          40.2002344,
          37.9351804
        ]
      },
      "properties": {
        "id": 435600871,
        "osm_type": "way",
        "name": "Liv Suit Hotel",
        "tourism": "hotel",
        "phone": "+90 412 502 12 00",
        "website": "http://www.livsuit.com/"
      }
    },
    {
      "type": "Feature",
      "geometry": {
        "type": "Point",
        "coordinates": [
          40.2358299,
          37.9150725
        ]
      },
      "properties": {
        "id": 440151001,
        "osm_type": "way",
        "name": "Hotel Gül",
        "tourism": "hotel"
      }
    },
    {
      "type": "Feature",
      "geometry": {
        "type": "Point",
        "coordinates": [
          40.1638469,
          37.9262043
        ]
      },
      "properties": {
        "id": 462324930,
        "osm_type": "way",
        "name": "Mövenpick Diyarbakır",
        "tourism": "hotel"
      }
    },
    {
      "type": "Feature",
      "geometry": {
        "type": "Point",
        "coordinates": [
          40.1959266,
          37.9497861
        ]
      },
      "properties": {
        "id": 476016985,
        "osm_type": "way",
        "name": "Diyarbakır Öğretmenevi",
        "tourism": "hotel",
        "phone": "+90 412 262 2989",
        "website": "https://www.diyarbakirogretmenevi.com.tr/"
      }
    },
    {
      "type": "Feature",
      "geometry": {
        "type": "Point",
        "coordinates": [
          40.1472853,
          37.9218198
        ]
      },
      "properties": {
        "id": 502070614,
        "osm_type": "way",
        "name": "Radisson BLU Otel",
        "tourism": "hotel",
        "phone": "+90 412 502 33 33",
        "website": "https://www.radissonblu.com/en/hotel-diyarbakir"
      }
    },
    {
      "type": "Feature",
      "geometry": {
        "type": "Point",
        "coordinates": [
          40.1854969,
          37.9568233
        ]
      },
      "properties": {
        "id": 572707598,
        "osm_type": "way",
        "name": "Hotel Novotel Diyarbakir",
        "tourism": "hotel"
      }
    },
    {
      "type": "Feature",
      "geometry": {
        "type": "Point",
        "coordinates": [
          40.2350409,
          37.9189909
        ]
      },
      "properties": {
        "id": 669971011,
        "osm_type": "way",
        "name": "Mitannia Regency Hotel",
        "tourism": "hotel",
        "phone": "+90 412 229 0021"
      }
    },
    {
      "type": "Feature",
      "geometry": {
        "type": "Point",
        "coordinates": [
          40.2360757,
          37.9150731
        ]
      },
      "properties": {
        "id": 680961847,
        "osm_type": "way",
        "name": "SV Business Hotel Tower",
        "tourism": "hotel"
      }
    },
    {
      "type": "Feature",
      "geometry": {
        "type": "Point",
        "coordinates": [
          39.4788318,
          38.1387249
        ]
      },
      "properties": {
        "id": 1253943707,
        "osm_type": "way",
        "name": "Gıran Park Termal Otel",
        "tourism": "hotel",
        "phone": "+90 412 461 2100",
        "website": "http://www.giranparktermalotel.com.tr/"
      }
    },
    {
      "type": "Feature",
      "geometry": {
        "type": "Point",
        "coordinates": [
          39.4794222,
          38.1405525
        ]
      },
      "properties": {
        "id": 1253946152,
        "osm_type": "way",
        "name": "Çermik Belediyesi Kaplıcaları",
        "tourism": "hotel"
      }
    },
    {
      "type": "Feature",
      "geometry": {
        "type": "Point",
        "coordinates": [
          39.48044,
          38.1406352
        ]
      },
      "properties": {
        "id": 1253946153,
        "osm_type": "way",
        "name": "Küçük Kardeş Pansiyon",
        "tourism": "hostel"
      }
    },
    {
      "type": "Feature",
      "geometry": {
        "type": "Point",
        "coordinates": [
          39.4804728,
          38.1410525
        ]
      },
      "properties": {
        "id": 1253946154,
        "osm_type": "way",
        "name": "Akdağ Pansiyon",
        "tourism": "hostel"
      }
    },
    {
      "type": "Feature",
      "geometry": {
        "type": "Point",
        "coordinates": [
          39.4766367,
          38.1393717
        ]
      },
      "properties": {
        "id": 1254780300,
        "osm_type": "way",
        "name": "Yeşilçam Oteli",
        "tourism": "hotel"
      }
    },
    {
      "type": "Feature",
      "geometry": {
        "type": "Point",
        "coordinates": [
          40.2386559,
          37.9226315
        ]
      },
      "properties": {
        "id": 9313728,
        "osm_type": "relation",
        "name": "Hilton Garden Inn Diyarbakir",
        "tourism": "hotel",
        "phone": "+90 412 241 15 50",
        "website": "https://hiltongardeninn3.hilton.com/en/hotels/turkey/hilton-garden-inn-diyarbakir-DIYDAGI/index.html?WT.mc_id=zELWAKN0EMEA1GI2DMH3LocalSearch4DGGenericx6DIYDAGI"
      }
    }
  ]
}