{
  "type": "FeatureCollection",
  "features": [
    {
      "type": "Feature",
      "geometry": {
        "type": "Point",
        "coordinates": [
          15.016997,
          41.8754493
        ]
      },
      "properties": {
        "id": 256420361,
        "osm_type": "node",
        "tourism": "hotel"
      }
    },
    {
      "type": "Feature",
      "geometry": {
        "type": "Point",
        "coordinates": [
          14.4583512,
          41.6591781
        ]
      },
      "properties": {
        "id": 361241438,
        "osm_type": "node",
        "name": "Il giardino dei Gelsi",
        "tourism": "hotel"
      }
    },
    {
      "type": "Feature",
      "geometry": {
        "type": "Point",
        "coordinates": [
          14.6655426,
          41.562941
        ]
      },
      "properties": {
        "id": 440973488,
        "osm_type": "node",
        "name": "San Giorgio",
        "tourism": "hotel",
        "phone": "+39 0874 493619"
      }
    },
    {
      "type": "Feature",
      "geometry": {
        "type": "Point",
        "coordinates": [
          14.9974725,
          42.004552
        ]
      },
      "properties": {
        "id": 701172550,
        "osm_type": "node",
        "name": "Locanda Alfieri",
        "tourism": "hotel"
      }
    },
    {
      "type": "Feature",
      "geometry": {
        "type": "Point",
        "coordinates": [
          14.9956777,
          42.0039484
        ]
      },
      "properties": {
        "id": 701173230,
        "osm_type": "node",
        "name": "Hotel Santa Lucia",
        "tourism": "hotel",
        "check_date": "2025-07-25"
      }
    },
    {
      "type": "Feature",
      "geometry": {
        "type": "Point",
        "coordinates": [
          14.264575,
          41.8321056
        ]
      },
      "properties": {
        "id": 806691335,
        "osm_type": "node",
        "tourism": "caravan_site"
      }
    },
    {
      "type": "Feature",
      "geometry": {
        "type": "Point",
        "coordinates": [
          14.2644453,
          41.8312112
        ]
      },
      "properties": {
        "id": 806694882,
        "osm_type": "node",
        "name": "Hotel Capracotta",
        "tourism": "hotel",
        "contact:phone": "+39 0865 945368"
      }
    },
    {
      "type": "Feature",
      "geometry": {
        "type": "Point",
        "coordinates": [
          14.9271376,
          41.6145999
        ]
      },
      "properties": {
        "id": 1139832434,
        "osm_type": "node",
        "name": "Agriturismo Il Cigno",
        "tourism": "guest_house"
      }
    },
    {
      "type": "Feature",
      "geometry": {
        "type": "Point",
        "coordinates": [
          14.9976268,
          42.0054313
        ]
      },
      "properties": {
        "id": 1154211715,
        "osm_type": "node",
        "name": "Residenza Sveva Albergo Diffuso",
        "tourism": "guest_house",
        "phone": "+39 0875 706803",
        "website": "https://www.residenzasveva.com/"
      }
    },
    {
      "type": "Feature",
      "geometry": {
        "type": "Point",
        "coordinates": [
          14.9969289,
          42.003276
        ]
      },
      "properties": {
        "id": 1240704067,
        "osm_type": "node",
        "name": "Pensione San Giorgio",
        "tourism": "hotel",
        "phone": "+39 0875 704384",
        "website": "http://www.locanda-sangiorgio.it/",
        "check_date": "2022-07-07"
      }
    },
    {
      "type": "Feature",
      "geometry": {
        "type": "Point",
        "coordinates": [
          14.9969434,
          42.0034403
        ]
      },
      "properties": {
        "id": 1240704073,
        "osm_type": "node",
        "name": "Pensione Al Pescatore",
        "tourism": "hotel",
        "phone": "+39 0875 706692",
        "website": "https://alpescatore.org/",
        "check_date": "2022-07-07"
      }
    },
    {
      "type": "Feature",
      "geometry": {
        "type": "Point",
        "coordinates": [
          14.6685827,
          41.5288063
        ]
      },
      "properties": {
        "id": 1327274123,
        "osm_type": "node",
        "name": "La Pineta",
        "tourism": "hotel"
      }
    },
    {
      "type": "Feature",
      "geometry": {
        "type": "Point",
        "coordinates": [
          14.4832557,
          41.4026288
        ]
      },
      "properties": {
        "id": 1428350482,
        "osm_type": "node",
        "name": "La Casella",
        "tourism": "alpine_hut"
      }
    },
    {
      "type": "Feature",
      "geometry": {
        "type": "Point",
        "coordinates": [
          14.5566465,
          41.3884248
        ]
      },
      "properties": {
        "id": 1717898334,
        "osm_type": "node",
        "name": "Rifugio forestale",
        "tourism": "alpine_hut"
      }
    },
    {
      "type": "Feature",
      "geometry": {
        "type": "Point",
        "coordinates": [
          14.4632393,
          41.4494145
        ]
      },
      "properties": {
        "id": 2311172732,
        "osm_type": "node",
        "name": "Rifugio S.Maria",
        "tourism": "alpine_hut"
      }
    },
    {
      "type": "Feature",
      "geometry": {
        "type": "Point",
        "coordinates": [
          14.4647599,
          41.7030766
        ]
      },
      "properties": {
        "id": 2415933592,
        "osm_type": "node",
        "name": "Domus Hotel",
        "tourism": "hotel",
        "phone": "+39 0874 870510",
        "website": "https://www.domushotelbagnoli.it/"
      }
    },
    {
      "type": "Feature",
      "geometry": {
        "type": "Point",
        "coordinates": [
          14.2961363,
          41.7136232
        ]
      },
      "properties": {
        "id": 2613682514,
        "osm_type": "node",
        "name": "La Dimora del Sergente",
        "tourism": "guest_house"
      }
    },
    {
      "type": "Feature",
      "geometry": {
        "type": "Point",
        "coordinates": [
          14.659661,
          41.5613112
        ]
      },
      "properties": {
        "id": 2672544430,
        "osm_type": "node",
        "name": "B&B Butterfly",
        "tourism": "hotel",
        "phone": "+39 331 9776528"
      }
    },
    {
      "type": "Feature",
      "geometry": {
        "type": "Point",
        "coordinates": [
          14.658412,
          41.5578333
        ]
      },
      "properties": {
        "id": 2672544431,
        "osm_type": "node",
        "name": "B&B Dimora Monforte",
        "tourism": "hotel",
        "phone": "+39 346 3616676",
        "check_date": "2024-03-07"
      }
    },
    {
      "type": "Feature",
      "geometry": {
        "type": "Point",
        "coordinates": [
          14.6585466,
          41.5608623
        ]
      },
      "properties": {
        "id": 2672544432,
        "osm_type": "node",
        "name": "B&B Il Palazzo Vecchio",
        "tourism": "hotel",
        "phone": "+39 0874 198089"
      }
    },
    {
      "type": "Feature",
      "geometry": {
        "type": "Point",
        "coordinates": [
          14.6592917,
          41.5620406
        ]
      },
      "properties": {
        "id": 2672544433,
        "osm_type": "node",
        "name": "B&B La Luna nel Pozzo",
        "tourism": "hotel",
        "phone": "+39 327 9440587"
      }
    },
    {
      "type": "Feature",
      "geometry": {
        "type": "Point",
        "coordinates": [
          14.6592152,
          41.5624032
        ]
      },
      "properties": {
        "id": 2672544434,
        "osm_type": "node",
        "name": "B&B Residenza Sant'Andrea",
        "tourism": "hotel",
        "phone": "+39 329 6664390"
      }
    },
    {
      "type": "Feature",
      "geometry": {
        "type": "Point",
        "coordinates": [
          14.3382874,
          41.8482386
        ]
      },
      "properties": {
        "id": 2891640104,
        "osm_type": "node",
        "name": "Azienda Agrituristica Guado Cannavina",
        "tourism": "guest_house",
        "contact:phone": "+39 0865 949135",
        "website": "https://www.agriturismoguadocannavina.net/"
      }
    },
    {
      "type": "Feature",
      "geometry": {
        "type": "Point",
        "coordinates": [
          14.2956117,
          41.780066
        ]
      },
      "properties": {
        "id": 2891640105,
        "osm_type": "node",
        "name": "B&B La Dimora del Duca",
        "tourism": "guest_house",
        "phone": "+39 0865 836264"
      }
    },
    {
      "type": "Feature",
      "geometry": {
        "type": "Point",
        "coordinates": [
          14.3701578,
          41.8083597
        ]
      },
      "properties": {
        "id": 2929617328,
        "osm_type": "node",
        "name": "Bed & Breakfast Armonie",
        "tourism": "guest_house"
      }
    },
    {
      "type": "Feature",
      "geometry": {
        "type": "Point",
        "coordinates": [
          14.3677027,
          41.806702
        ]
      },
      "properties": {
        "id": 2929624510,
        "osm_type": "node",
        "name": "Locanda La Campana",
        "tourism": "hotel"
      }
    },
    {
      "type": "Feature",
      "geometry": {
        "type": "Point",
        "coordinates": [
          14.367979,
          41.8073478
        ]
      },
      "properties": {
        "id": 2929627871,
        "osm_type": "node",
        "name": "B&B Commare Maria",
        "tourism": "hotel"
      }
    },
    {
      "type": "Feature",
      "geometry": {
        "type": "Point",
        "coordinates": [
          14.3845448,
          41.8284539
        ]
      },
      "properties": {
        "id": 2929640960,
        "osm_type": "node",
        "name": "B&B Colle Marino",
        "tourism": "hotel"
      }
    },
    {
      "type": "Feature",
      "geometry": {
        "type": "Point",
        "coordinates": [
          14.2484565,
          41.8094882
        ]
      },
      "properties": {
        "id": 3749558602,
        "osm_type": "node",
        "name": "Rifugio Elda e Aldo Casciero",
        "tourism": "alpine_hut"
      }
    },
    {
      "type": "Feature",
      "geometry": {
        "type": "Point",
        "coordinates": [
          14.575497,
          41.6175116
        ]
      },
      "properties": {
        "id": 4465966291,
        "osm_type": "node",
        "name": "Hotel Tre Archi",
        "tourism": "hotel",
        "contact:phone": "+39 0874 503163"
      }
    },
    {
      "type": "Feature",
      "geometry": {
        "type": "Point",
        "coordinates": [
          14.3017898,
          41.8712152
        ]
      },
      "properties": {
        "id": 4471207802,
        "osm_type": "node",
        "name": "B&B Nibbio Reale",
        "tourism": "guest_house"
      }
    },
    {
      "type": "Feature",
      "geometry": {
        "type": "Point",
        "coordinates": [
          14.6649791,
          41.557339
        ]
      },
      "properties": {
        "id": 4671689182,
        "osm_type": "node",
        "name": "Centrum Palace",
        "tourism": "hotel",
        "phone": "+39 0874 413341"
      }
    },
    {
      "type": "Feature",
      "geometry": {
        "type": "Point",
        "coordinates": [
          14.6652698,
          41.5577442
        ]
      },
      "properties": {
        "id": 4671689184,
        "osm_type": "node",
        "name": "Flower",
        "tourism": "guest_house"
      }
    },
    {
      "type": "Feature",
      "geometry": {
        "type": "Point",
        "coordinates": [
          14.9964761,
          42.003252
        ]
      },
      "properties": {
        "id": 5344253623,
        "osm_type": "node",
        "name": "Le Stanze di Ludovica",
        "tourism": "guest_house"
      }
    },
    {
      "type": "Feature",
      "geometry": {
        "type": "Point",
        "coordinates": [
          14.9974155,
          42.000343
        ]
      },
      "properties": {
        "id": 6178022007,
        "osm_type": "node",
        "name": "Venere Rooms",
        "tourism": "guest_house"
      }
    },
    {
      "type": "Feature",
      "geometry": {
        "type": "Point",
        "coordinates": [
          14.9935211,
          42.0028948
        ]
      },
      "properties": {
        "id": 6187460169,
        "osm_type": "node",
        "name": "Pensione Villa Ida",
        "tourism": "hotel",
        "phone": "+39 0875706666",
        "website": "https://www.pensionevillaida.it/"
      }
    },
    {
      "type": "Feature",
      "geometry": {
        "type": "Point",
        "coordinates": [
          14.0507191,
          41.4812539
        ]
      },
      "properties": {
        "id": 6369626330,
        "osm_type": "node",
        "name": "Albergo Elisa",
        "tourism": "hotel"
      }
    },
    {
      "type": "Feature",
      "geometry": {
        "type": "Point",
        "coordinates": [
          14.4706977,
          41.482416
        ]
      },
      "properties": {
        "id": 6697071395,
        "osm_type": "node",
        "name": "Palazzo Corso Umberto",
        "tourism": "guest_house",
        "phone": "+39 08741957618",
        "website": "https://www.palazzocorsoumberto.it/"
      }
    },
    {
      "type": "Feature",
      "geometry": {
        "type": "Point",
        "coordinates": [
          14.395623,
          41.4629283
        ]
      },
      "properties": {
        "id": 6699380985,
        "osm_type": "node",
        "name": "Hotel Kristiania",
        "tourism": "hotel"
      }
    },
    {
      "type": "Feature",
      "geometry": {
        "type": "Point",
        "coordinates": [
          14.3901881,
          41.4630189
        ]
      },
      "properties": {
        "id": 7704513953,
        "osm_type": "node",
        "name": "Lo Sciatore",
        "tourism": "hotel",
        "check_date": "2024-08-23"
      }
    },
    {
      "type": "Feature",
      "geometry": {
        "type": "Point",
        "coordinates": [
          14.9120066,
          41.9122424
        ]
      },
      "properties": {
        "id": 7778422658,
        "osm_type": "node",
        "name": "Il Giramondo Affittacamere",
        "tourism": "apartment"
      }
    },
    {
      "type": "Feature",
      "geometry": {
        "type": "Point",
        "coordinates": [
          14.2748988,
          41.6065962
        ]
      },
      "properties": {
        "id": 7952495191,
        "osm_type": "node",
        "name": "Santa Maria del Bagno",
        "tourism": "hotel",
        "phone": "+39 0865 460136"
      }
    },
    {
      "type": "Feature",
      "geometry": {
        "type": "Point",
        "coordinates": [
          14.3358695,
          41.6790534
        ]
      },
      "properties": {
        "id": 8382351935,
        "osm_type": "node",
        "name": "La terrazza del dottore",
        "tourism": "guest_house",
        "phone": "+393494207597"
      }
    },
    {
      "type": "Feature",
      "geometry": {
        "type": "Point",
        "coordinates": [
          14.2859078,
          41.8414949
        ]
      },
      "properties": {
        "id": 8804474218,
        "osm_type": "node",
        "tourism": "alpine_hut"
      }
    },
    {
      "type": "Feature",
      "geometry": {
        "type": "Point",
        "coordinates": [
          14.9337418,
          41.8764818
        ]
      },
      "properties": {
        "id": 8820422434,
        "osm_type": "node",
        "name": "Essentia Dimora Rurale",
        "tourism": "guest_house",
        "phone": "+39 329 86 26 004",
        "website": "https://agriturismoessentia.com/"
      }
    },
    {
      "type": "Feature",
      "geometry": {
        "type": "Point",
        "coordinates": [
          14.3865175,
          41.6780795
        ]
      },
      "properties": {
        "id": 8821377168,
        "osm_type": "node",
        "name": "Casavacanze Holiday Home Chiauci",
        "tourism": "hotel",
        "phone": "+393473339241"
      }
    },
    {
      "type": "Feature",
      "geometry": {
        "type": "Point",
        "coordinates": [
          14.9318332,
          41.9190461
        ]
      },
      "properties": {
        "id": 9487462788,
        "osm_type": "node",
        "name": "Villa Angiolina",
        "tourism": "guest_house",
        "phone": "+39 371 386 5471"
      }
    },
    {
      "type": "Feature",
      "geometry": {
        "type": "Point",
        "coordinates": [
          14.998296,
          42.0052275
        ]
      },
      "properties": {
        "id": 9720365551,
        "osm_type": "node",
        "name": "La Dimora Sul Porto",
        "tourism": "apartment",
        "check_date": "2025-07-25"
      }
    },
    {
      "type": "Feature",
      "geometry": {
        "type": "Point",
        "coordinates": [
          14.6386144,
          41.5591198
        ]
      },
      "properties": {
        "id": 9775571514,
        "osm_type": "node",
        "name": "B&B Lamabianca",
        "tourism": "guest_house"
      }
    },
    {
      "type": "Feature",
      "geometry": {
        "type": "Point",
        "coordinates": [
          14.9962706,
          42.002218
        ]
      },
      "properties": {
        "id": 10992693056,
        "osm_type": "node",
        "name": "B&B Marilù",
        "tourism": "guest_house",
        "opening_hours": "24/7",
        "phone": "+39 348 160 3399",
        "website": "https://bebmarilu.jimdo.com",
        "check_date": "2023-06-20"
      }
    },
    {
      "type": "Feature",
      "geometry": {
        "type": "Point",
        "coordinates": [
          14.9973555,
          42.0044146
        ]
      },
      "properties": {
        "id": 10992727100,
        "osm_type": "node",
        "name": "La luna del bosco",
        "tourism": "guest_house",
        "check_date": "2023-06-20"
      }
    },
    {
      "type": "Feature",
      "geometry": {
        "type": "Point",
        "coordinates": [
          14.9983668,
          42.0051284
        ]
      },
      "properties": {
        "id": 10992750081,
        "osm_type": "node",
        "name": "Dimora Marinelli",
        "tourism": "apartment",
        "check_date": "2025-07-25"
      }
    },
    {
      "type": "Feature",
      "geometry": {
        "type": "Point",
        "coordinates": [
          14.9982761,
          42.0051015
        ]
      },
      "properties": {
        "id": 10992750082,
        "osm_type": "node",
        "name": "Stella Maris",
        "tourism": "guest_house",
        "check_date": "2023-06-20"
      }
    },
    {
      "type": "Feature",
      "geometry": {
        "type": "Point",
        "coordinates": [
          14.9979481,
          42.0053294
        ]
      },
      "properties": {
        "id": 10994187279,
        "osm_type": "node",
        "name": "B&B Vescovo Pitrillo",
        "tourism": "guest_house",
        "check_date": "2023-06-21"
      }
    },
    {
      "type": "Feature",
      "geometry": {
        "type": "Point",
        "coordinates": [
          14.1032978,
          41.522492
        ]
      },
      "properties": {
        "id": 11099140076,
        "osm_type": "node",
        "name": "Casa Cecilia",
        "tourism": "guest_house",
        "website": "https://www.airbnb.it/rooms/691863292754829367"
      }
    },
    {
      "type": "Feature",
      "geometry": {
        "type": "Point",
        "coordinates": [
          14.6599621,
          41.4141993
        ]
      },
      "properties": {
        "id": 11119595964,
        "osm_type": "node",
        "name": "Antica Taverna del Principe",
        "tourism": "guest_house",
        "phone": "+39 351 552 8369",
        "website": "https://www.anticatavernadelprincipe.com",
        "check_date": "2026-04-26"
      }
    },
    {
      "type": "Feature",
      "geometry": {
        "type": "Point",
        "coordinates": [
          14.619579,
          41.676013
        ]
      },
      "properties": {
        "id": 11155440682,
        "osm_type": "node",
        "name": "Coste Del Lago",
        "tourism": "hotel",
        "phone": "+390874701160"
      }
    },
    {
      "type": "Feature",
      "geometry": {
        "type": "Point",
        "coordinates": [
          14.2424414,
          41.6454469
        ]
      },
      "properties": {
        "id": 11270261994,
        "osm_type": "node",
        "tourism": "caravan_site"
      }
    },
    {
      "type": "Feature",
      "geometry": {
        "type": "Point",
        "coordinates": [
          14.8039205,
          42.0174414
        ]
      },
      "properties": {
        "id": 11737802936,
        "osm_type": "node",
        "name": "L'ulivo bianco",
        "tourism": "guest_house",
        "contact:phone": "+39 0875 808013",
        "website": "https://www.lulivobianco.com/"
      }
    },
    {
      "type": "Feature",
      "geometry": {
        "type": "Point",
        "coordinates": [
          14.0459792,
          41.4799004
        ]
      },
      "properties": {
        "id": 11918048770,
        "osm_type": "node",
        "name": "B&B Casa Dua",
        "tourism": "guest_house"
      }
    },
    {
      "type": "Feature",
      "geometry": {
        "type": "Point",
        "coordinates": [
          14.8352402,
          41.9029443
        ]
      },
      "properties": {
        "id": 12164185905,
        "osm_type": "node",
        "name": "Residenza Skanderbeg",
        "tourism": "hotel",
        "phone": "+39 338 542 0284"
      }
    },
    {
      "type": "Feature",
      "geometry": {
        "type": "Point",
        "coordinates": [
          14.1396695,
          41.6074408
        ]
      },
      "properties": {
        "id": 12748192026,
        "osm_type": "node",
        "name": "La casa di Duilia",
        "tourism": "guest_house",
        "phone": "+39 340 107 2020",
        "website": "https://www.lacasadiduilia.it",
        "check_date": "2025-04-11"
      }
    },
    {
      "type": "Feature",
      "geometry": {
        "type": "Point",
        "coordinates": [
          14.1402914,
          41.6066452
        ]
      },
      "properties": {
        "id": 12748594397,
        "osm_type": "node",
        "name": "Domus Vela",
        "tourism": "guest_house",
        "phone": "+39 348 792 6478",
        "website": "https://www.domusvela.it",
        "check_date": "2025-04-17"
      }
    },
    {
      "type": "Feature",
      "geometry": {
        "type": "Point",
        "coordinates": [
          14.1394781,
          41.6066663
        ]
      },
      "properties": {
        "id": 12765961043,
        "osm_type": "node",
        "name": "Da Riccardo",
        "tourism": "guest_house",
        "phone": "+39 338 326 3813",
        "check_date": "2025-04-18"
      }
    },
    {
      "type": "Feature",
      "geometry": {
        "type": "Point",
        "coordinates": [
          14.1396389,
          41.6069678
        ]
      },
      "properties": {
        "id": 12777204635,
        "osm_type": "node",
        "name": "Centro Storico",
        "tourism": "guest_house",
        "phone": "+39 333 140 4503",
        "website": "https://www.com-molise.com/it/property/casa-vacanza-centro-storicovilla.html",
        "check_date": "2025-04-22"
      }
    },
    {
      "type": "Feature",
      "geometry": {
        "type": "Point",
        "coordinates": [
          14.1395285,
          41.6068839
        ]
      },
      "properties": {
        "id": 12777205241,
        "osm_type": "node",
        "name": "Carlo Di Borbone",
        "tourism": "guest_house",
        "phone": "+39 333 140 4503",
        "website": "https://www.com-molise.com/nl/property/carlo-di-borbone-casa-vacanze-hotel.html",
        "check_date": "2025-04-22"
      }
    },
    {
      "type": "Feature",
      "geometry": {
        "type": "Point",
        "coordinates": [
          14.9978431,
          42.004706
        ]
      },
      "properties": {
        "id": 12982535708,
        "osm_type": "node",
        "name": "Lodging",
        "tourism": "apartment"
      }
    },
    {
      "type": "Feature",
      "geometry": {
        "type": "Point",
        "coordinates": [
          14.2282468,
          41.5914798
        ]
      },
      "properties": {
        "id": 13232862403,
        "osm_type": "node",
        "name": "Casa Vacanze Fontana Fraterna",
        "tourism": "apartment",
        "phone": "+393289638237;+393939898387"
      }
    },
    {
      "type": "Feature",
      "geometry": {
        "type": "Point",
        "coordinates": [
          14.7915719,
          42.0655903
        ]
      },
      "properties": {
        "id": 13238674828,
        "osm_type": "node",
        "name": "Area Sosta Camper Costa Verde",
        "tourism": "caravan_site"
      }
    },
    {
      "type": "Feature",
      "geometry": {
        "type": "Point",
        "coordinates": [
          14.7202554,
          41.5377831
        ]
      },
      "properties": {
        "id": 13481490784,
        "osm_type": "node",
        "name": "Tenuta Colle San Pietro",
        "tourism": "guest_house",
        "contact:phone": "+39 0874 456271"
      }
    },
    {
      "type": "Feature",
      "geometry": {
        "type": "Point",
        "coordinates": [
          14.6559508,
          41.5834584
        ]
      },
      "properties": {
        "id": 13506600677,
        "osm_type": "node",
        "name": "Alla Cascina di Jo",
        "tourism": "guest_house",
        "contact:phone": "+39 0874 98391"
      }
    },
    {
      "type": "Feature",
      "geometry": {
        "type": "Point",
        "coordinates": [
          14.6177183,
          41.4077225
        ]
      },
      "properties": {
        "id": 13531503151,
        "osm_type": "node",
        "name": "B&B",
        "tourism": "guest_house"
      }
    },
    {
      "type": "Feature",
      "geometry": {
        "type": "Point",
        "coordinates": [
          14.3478049,
          41.4928091
        ]
      },
      "properties": {
        "id": 13531759832,
        "osm_type": "node",
        "name": "casa dei briganti",
        "tourism": "guest_house",
        "phone": "+3207467057"
      }
    },
    {
      "type": "Feature",
      "geometry": {
        "type": "Point",
        "coordinates": [
          14.3244071,
          41.5362255
        ]
      },
      "properties": {
        "id": 13652597907,
        "osm_type": "node",
        "tourism": "alpine_hut"
      }
    },
    {
      "type": "Feature",
      "geometry": {
        "type": "Point",
        "coordinates": [
          14.4351401,
          41.4739954
        ]
      },
      "properties": {
        "id": 13658520330,
        "osm_type": "node",
        "name": "Casella Ru Prat",
        "tourism": "alpine_hut",
        "opening_hours": "off"
      }
    },
    {
      "type": "Feature",
      "geometry": {
        "type": "Point",
        "coordinates": [
          14.3507826,
          41.4946892
        ]
      },
      "properties": {
        "id": 13749547703,
        "osm_type": "node",
        "name": "B&B Il Buon Cammino",
        "tourism": "guest_house",
        "phone": "+39 329 800 5569"
      }
    },
    {
      "type": "Feature",
      "geometry": {
        "type": "Point",
        "coordinates": [
          15.0177603,
          41.9849577
        ]
      },
      "properties": {
        "id": 56248419,
        "osm_type": "way",
        "name": "Rio Vivi Camper Park",
        "tourism": "caravan_site",
        "phone": "+39 349 470 4097",
        "website": "https://www.facebook.com/riovivocamperpark"
      }
    },
    {
      "type": "Feature",
      "geometry": {
        "type": "Point",
        "coordinates": [
          15.0865699,
          41.9374656
        ]
      },
      "properties": {
        "id": 61592719,
        "osm_type": "way",
        "name": "Marinelle",
        "tourism": "camp_site",
        "tents": "yes",
        "phone": "+39 0875 530066"
      }
    },
    {
      "type": "Feature",
      "geometry": {
        "type": "Point",
        "coordinates": [
          14.9906588,
          42.0040585
        ]
      },
      "properties": {
        "id": 67731527,
        "osm_type": "way",
        "name": "Hotel Meridiano",
        "tourism": "hotel",
        "phone": "+39 0875 705946",
        "website": "https://www.hotelmeridiano.com/it/ristorante-luna-restaurant.html/",
        "check_date": "2022-07-07"
      }
    },
    {
      "type": "Feature",
      "geometry": {
        "type": "Point",
        "coordinates": [
          14.9915125,
          42.0041524
        ]
      },
      "properties": {
        "id": 67731795,
        "osm_type": "way",
        "name": "Hotel Mistral",
        "tourism": "hotel",
        "opening_hours": "24/7",
        "phone": "+39 0875 705246",
        "website": "https://www.hotelmistral.net/it/",
        "check_date": "2024-08-03"
      }
    },
    {
      "type": "Feature",
      "geometry": {
        "type": "Point",
        "coordinates": [
          14.807277,
          42.0359616
        ]
      },
      "properties": {
        "id": 71739593,
        "osm_type": "way",
        "name": "Agriturismo \"Il Quadrifoglio\"",
        "tourism": "hotel"
      }
    },
    {
      "type": "Feature",
      "geometry": {
        "type": "Point",
        "coordinates": [
          14.8075851,
          42.0359217
        ]
      },
      "properties": {
        "id": 71739595,
        "osm_type": "way",
        "name": "Agriturismo \"Il Quadrifoglio\"",
        "tourism": "hotel"
      }
    },
    {
      "type": "Feature",
      "geometry": {
        "type": "Point",
        "coordinates": [
          14.9937634,
          41.9603247
        ]
      },
      "properties": {
        "id": 73813133,
        "osm_type": "way",
        "name": "Hotel Europa",
        "tourism": "hotel"
      }
    },
    {
      "type": "Feature",
      "geometry": {
        "type": "Point",
        "coordinates": [
          14.0515654,
          41.6361549
        ]
      },
      "properties": {
        "id": 85826940,
        "osm_type": "way",
        "name": "Locanda Belvedere",
        "tourism": "guest_house",
        "opening_hours": "Tu-Su 10:00-23:00,15:00-19:00",
        "phone": "+39 338 17 30 892",
        "website": "https://www.locandabelvedere.eu/"
      }
    },
    {
      "type": "Feature",
      "geometry": {
        "type": "Point",
        "coordinates": [
          14.9929013,
          42.0013228
        ]
      },
      "properties": {
        "id": 99835030,
        "osm_type": "way",
        "name": "Hotel Corona",
        "tourism": "hotel",
        "phone": "+39 0875 84041",
        "website": "www.hotelcoronatermoli.it",
        "check_date": "2025-08-09"
      }
    },
    {
      "type": "Feature",
      "geometry": {
        "type": "Point",
        "coordinates": [
          15.0020801,
          41.9793595
        ]
      },
      "properties": {
        "id": 99835625,
        "osm_type": "way",
        "name": "Stellaris",
        "tourism": "guest_house"
      }
    },
    {
      "type": "Feature",
      "geometry": {
        "type": "Point",
        "coordinates": [
          14.2807451,
          41.8533117
        ]
      },
      "properties": {
        "id": 130429697,
        "osm_type": "way",
        "name": "Rifugio di Prato Gentile",
        "tourism": "alpine_hut",
        "contact:phone": "+39 0865 94216"
      }
    },
    {
      "type": "Feature",
      "geometry": {
        "type": "Point",
        "coordinates": [
          14.4792598,
          41.4882064
        ]
      },
      "properties": {
        "id": 179940187,
        "osm_type": "way",
        "name": "Hotel Pleiadi's",
        "tourism": "hotel",
        "phone": "+39 0874 773088",
        "website": "http://www.pleiadishotel.it/"
      }
    },
    {
      "type": "Feature",
      "geometry": {
        "type": "Point",
        "coordinates": [
          14.4755668,
          41.4851939
        ]
      },
      "properties": {
        "id": 180245484,
        "osm_type": "way",
        "name": "Hotel Risi",
        "tourism": "hotel"
      }
    },
    {
      "type": "Feature",
      "geometry": {
        "type": "Point",
        "coordinates": [
          14.4334651,
          41.5111159
        ]
      },
      "properties": {
        "id": 184261440,
        "osm_type": "way",
        "tourism": "hotel"
      }
    },
    {
      "type": "Feature",
      "geometry": {
        "type": "Point",
        "coordinates": [
          14.3920038,
          41.5218838
        ]
      },
      "properties": {
        "id": 194895969,
        "osm_type": "way",
        "name": "B&B Donna Livia",
        "tourism": "apartment"
      }
    },
    {
      "type": "Feature",
      "geometry": {
        "type": "Point",
        "coordinates": [
          14.4414668,
          41.441749
        ]
      },
      "properties": {
        "id": 223446567,
        "osm_type": "way",
        "name": "Baita La Gallinola",
        "tourism": "chalet",
        "phone": "+39 339 1054315",
        "website": "http://www.campitelloextremeteam.com/web/index/"
      }
    },
    {
      "type": "Feature",
      "geometry": {
        "type": "Point",
        "coordinates": [
          14.2694854,
          41.7392495
        ]
      },
      "properties": {
        "id": 232960658,
        "osm_type": "way",
        "name": "Masseria Monte Pizzi",
        "tourism": "guest_house"
      }
    },
    {
      "type": "Feature",
      "geometry": {
        "type": "Point",
        "coordinates": [
          14.3756806,
          41.8111851
        ]
      },
      "properties": {
        "id": 241521012,
        "osm_type": "way",
        "name": "Il Duca del Sannio",
        "tourism": "hotel"
      }
    },
    {
      "type": "Feature",
      "geometry": {
        "type": "Point",
        "coordinates": [
          14.3699341,
          41.806602
        ]
      },
      "properties": {
        "id": 241580161,
        "osm_type": "way",
        "name": "Hotel Sammartino",
        "tourism": "hotel"
      }
    },
    {
      "type": "Feature",
      "geometry": {
        "type": "Point",
        "coordinates": [
          14.4037722,
          41.6052218
        ]
      },
      "properties": {
        "id": 243432978,
        "osm_type": "way",
        "name": "Rifugio Ar di Cosa",
        "tourism": "alpine_hut"
      }
    },
    {
      "type": "Feature",
      "geometry": {
        "type": "Point",
        "coordinates": [
          14.41055,
          41.497237
        ]
      },
      "properties": {
        "id": 246895579,
        "osm_type": "way",
        "name": "Vila Giada",
        "tourism": "guest_house"
      }
    },
    {
      "type": "Feature",
      "geometry": {
        "type": "Point",
        "coordinates": [
          14.8496862,
          41.7386025
        ]
      },
      "properties": {
        "id": 251819342,
        "osm_type": "way",
        "name": "Area Casacalenda",
        "tourism": "caravan_site"
      }
    },
    {
      "type": "Feature",
      "geometry": {
        "type": "Point",
        "coordinates": [
          14.6209419,
          41.4934188
        ]
      },
      "properties": {
        "id": 268474714,
        "osm_type": "way",
        "name": "Hotel Ruffirio",
        "tourism": "hotel",
        "phone": "+39 0874 348081",
        "website": "http://www.hotelruffirio.it/"
      }
    },
    {
      "type": "Feature",
      "geometry": {
        "type": "Point",
        "coordinates": [
          14.5600563,
          41.4716629
        ]
      },
      "properties": {
        "id": 272966606,
        "osm_type": "way",
        "name": "Le Cupolette",
        "tourism": "hotel",
        "phone": "+39 0874 340043",
        "website": "http://www.lecupolette.com/"
      }
    },
    {
      "type": "Feature",
      "geometry": {
        "type": "Point",
        "coordinates": [
          14.2505188,
          41.712411
        ]
      },
      "properties": {
        "id": 274692085,
        "osm_type": "way",
        "name": "Il Tratturo",
        "tourism": "guest_house",
        "phone": "+39 0865 837151"
      }
    },
    {
      "type": "Feature",
      "geometry": {
        "type": "Point",
        "coordinates": [
          14.0881308,
          41.4975075
        ]
      },
      "properties": {
        "id": 275358138,
        "osm_type": "way",
        "name": "Hotel Dora",
        "tourism": "hotel",
        "phone": "+39 0865 908006"
      }
    },
    {
      "type": "Feature",
      "geometry": {
        "type": "Point",
        "coordinates": [
          14.7085323,
          41.4735387
        ]
      },
      "properties": {
        "id": 279008253,
        "osm_type": "way",
        "name": "La ginestra",
        "tourism": "guest_house",
        "phone": "+39 0874 799219",
        "website": "https://www.laginestra.info/"
      }
    },
    {
      "type": "Feature",
      "geometry": {
        "type": "Point",
        "coordinates": [
          14.5156965,
          41.5925995
        ]
      },
      "properties": {
        "id": 279660523,
        "osm_type": "way",
        "name": "Casale dei Cerri",
        "tourism": "guest_house",
        "phone": "+39 0874 504003",
        "website": "http://www.casaledeicerri.it"
      }
    },
    {
      "type": "Feature",
      "geometry": {
        "type": "Point",
        "coordinates": [
          14.5624886,
          41.4447423
        ]
      },
      "properties": {
        "id": 280145802,
        "osm_type": "way",
        "name": "Casa Scout Stella Vitae",
        "tourism": "hostel",
        "phone": "+39 0874 311463"
      }
    },
    {
      "type": "Feature",
      "geometry": {
        "type": "Point",
        "coordinates": [
          14.5525785,
          41.4383019
        ]
      },
      "properties": {
        "id": 280145804,
        "osm_type": "way",
        "name": "Le Coccole Agriturismo",
        "tourism": "guest_house",
        "phone": "+39 0874 1866622",
        "website": "https://www.agriturismolecoccole.it/"
      }
    },
    {
      "type": "Feature",
      "geometry": {
        "type": "Point",
        "coordinates": [
          14.5744782,
          41.4052528
        ]
      },
      "properties": {
        "id": 280145806,
        "osm_type": "way",
        "name": "Rifugio Forestale",
        "tourism": "alpine_hut"
      }
    },
    {
      "type": "Feature",
      "geometry": {
        "type": "Point",
        "coordinates": [
          14.200634,
          41.7702467
        ]
      },
      "properties": {
        "id": 282543800,
        "osm_type": "way",
        "name": "Terra di Mezzo",
        "tourism": "hostel",
        "phone": "+39 340 6079692",
        "website": "https://www.sanpietroturismo.it/ostello.htm"
      }
    },
    {
      "type": "Feature",
      "geometry": {
        "type": "Point",
        "coordinates": [
          14.6734496,
          41.5737138
        ]
      },
      "properties": {
        "id": 283511167,
        "osm_type": "way",
        "name": "Rinascimento",
        "tourism": "hotel",
        "phone": "+39 0874 484931"
      }
    },
    {
      "type": "Feature",
      "geometry": {
        "type": "Point",
        "coordinates": [
          14.265225,
          41.8291066
        ]
      },
      "properties": {
        "id": 285490836,
        "osm_type": "way",
        "name": "B&B Biancaneve",
        "tourism": "guest_house",
        "contact:phone": "+39 0865 943120",
        "website": "https://www.biancaneve.info/"
      }
    },
    {
      "type": "Feature",
      "geometry": {
        "type": "Point",
        "coordinates": [
          14.3663283,
          41.805869
        ]
      },
      "properties": {
        "id": 289414818,
        "osm_type": "way",
        "name": "Hotel Palazzo della Città",
        "tourism": "hotel"
      }
    },
    {
      "type": "Feature",
      "geometry": {
        "type": "Point",
        "coordinates": [
          14.6509543,
          41.5550725
        ]
      },
      "properties": {
        "id": 300070522,
        "osm_type": "way",
        "name": "Don Guglielmo",
        "tourism": "hotel",
        "phone": "+39 0874 418178"
      }
    },
    {
      "type": "Feature",
      "geometry": {
        "type": "Point",
        "coordinates": [
          14.6000901,
          41.8559444
        ]
      },
      "properties": {
        "id": 301148663,
        "osm_type": "way",
        "tourism": "chalet"
      }
    },
    {
      "type": "Feature",
      "geometry": {
        "type": "Point",
        "coordinates": [
          14.6000119,
          41.8558798
        ]
      },
      "properties": {
        "id": 301148664,
        "osm_type": "way",
        "tourism": "chalet"
      }
    },
    {
      "type": "Feature",
      "geometry": {
        "type": "Point",
        "coordinates": [
          14.8426178,
          41.4610641
        ]
      },
      "properties": {
        "id": 303966903,
        "osm_type": "way",
        "name": "Hotel Ristorante Iapalucci",
        "tourism": "hotel"
      }
    },
    {
      "type": "Feature",
      "geometry": {
        "type": "Point",
        "coordinates": [
          14.8613896,
          41.4416744
        ]
      },
      "properties": {
        "id": 303968413,
        "osm_type": "way",
        "name": "Agriturismo Artemide",
        "tourism": "guest_house",
        "phone": "+39 0874 712127",
        "website": "http://www.agriturismoartemide.com"
      }
    },
    {
      "type": "Feature",
      "geometry": {
        "type": "Point",
        "coordinates": [
          14.2745911,
          41.8442264
        ]
      },
      "properties": {
        "id": 312924540,
        "osm_type": "way",
        "tourism": "alpine_hut"
      }
    },
    {
      "type": "Feature",
      "geometry": {
        "type": "Point",
        "coordinates": [
          14.0990567,
          41.6072365
        ]
      },
      "properties": {
        "id": 315285537,
        "osm_type": "way",
        "name": "Volturno",
        "tourism": "hotel",
        "phone": "+39 0865 955215"
      }
    },
    {
      "type": "Feature",
      "geometry": {
        "type": "Point",
        "coordinates": [
          14.3161705,
          41.5501206
        ]
      },
      "properties": {
        "id": 315357197,
        "osm_type": "way",
        "name": "La Fonte dell’Astore",
        "tourism": "hotel",
        "phone": "+39 0865 936085",
        "website": "https://www.lafontedellastore.it/"
      }
    },
    {
      "type": "Feature",
      "geometry": {
        "type": "Point",
        "coordinates": [
          14.5067023,
          41.4183284
        ]
      },
      "properties": {
        "id": 329475492,
        "osm_type": "way",
        "name": "Rif. Chianetta",
        "tourism": "alpine_hut"
      }
    },
    {
      "type": "Feature",
      "geometry": {
        "type": "Point",
        "coordinates": [
          14.5166359,
          41.4322788
        ]
      },
      "properties": {
        "id": 329475494,
        "osm_type": "way",
        "name": "Rifugio Forestale",
        "tourism": "alpine_hut"
      }
    },
    {
      "type": "Feature",
      "geometry": {
        "type": "Point",
        "coordinates": [
          14.4439297,
          41.4662899
        ]
      },
      "properties": {
        "id": 329524802,
        "osm_type": "way",
        "name": "Rifugio Sant'Egidio",
        "tourism": "alpine_hut"
      }
    },
    {
      "type": "Feature",
      "geometry": {
        "type": "Point",
        "coordinates": [
          14.4662811,
          41.4483905
        ]
      },
      "properties": {
        "id": 329630988,
        "osm_type": "way",
        "name": "Rifugio",
        "tourism": "alpine_hut"
      }
    },
    {
      "type": "Feature",
      "geometry": {
        "type": "Point",
        "coordinates": [
          14.9447934,
          41.8056553
        ]
      },
      "properties": {
        "id": 330967482,
        "osm_type": "way",
        "name": "Agriturismo I Dolci Grappoli",
        "tourism": "guest_house",
        "phone": "+39 0874 822320",
        "website": "https://www.idolcigrappoli.it/index.php"
      }
    },
    {
      "type": "Feature",
      "geometry": {
        "type": "Point",
        "coordinates": [
          14.8316784,
          42.0406481
        ]
      },
      "properties": {
        "id": 337225502,
        "osm_type": "way",
        "name": "Le Dune",
        "tourism": "hotel",
        "phone": "+39 0875 678701",
        "website": "http://www.hotelledune.net/"
      }
    },
    {
      "type": "Feature",
      "geometry": {
        "type": "Point",
        "coordinates": [
          14.8331353,
          42.0362565
        ]
      },
      "properties": {
        "id": 337225504,
        "osm_type": "way",
        "name": "Residence Al Colle",
        "tourism": "hotel",
        "contact:phone": "+39 0875 678597",
        "website": "http://www.alcolle.com/"
      }
    },
    {
      "type": "Feature",
      "geometry": {
        "type": "Point",
        "coordinates": [
          14.9028245,
          42.0198157
        ]
      },
      "properties": {
        "id": 337225505,
        "osm_type": "way",
        "name": "Residence Le Dune del Cardo",
        "tourism": "hotel"
      }
    },
    {
      "type": "Feature",
      "geometry": {
        "type": "Point",
        "coordinates": [
          14.8196437,
          42.0076263
        ]
      },
      "properties": {
        "id": 337230915,
        "osm_type": "way",
        "name": "Bioagriturismo Fattoria Di Vaira",
        "tourism": "guest_house",
        "website": "https://www.fattoriadivaira.it/bioagriturismo/"
      }
    },
    {
      "type": "Feature",
      "geometry": {
        "type": "Point",
        "coordinates": [
          14.4308316,
          41.5590373
        ]
      },
      "properties": {
        "id": 347996350,
        "osm_type": "way",
        "name": "La Sorgente",
        "tourism": "guest_house",
        "phone": "+39 0865 810199",
        "website": "https://www.agriturismolasorgente.it/"
      }
    },
    {
      "type": "Feature",
      "geometry": {
        "type": "Point",
        "coordinates": [
          14.4074236,
          41.5458523
        ]
      },
      "properties": {
        "id": 347996357,
        "osm_type": "way",
        "name": "Villa Marcella",
        "tourism": "guest_house",
        "phone": "+39 0865 810030",
        "website": "http://www.agriturismovillamarcella.it/"
      }
    },
    {
      "type": "Feature",
      "geometry": {
        "type": "Point",
        "coordinates": [
          14.420402,
          41.5449831
        ]
      },
      "properties": {
        "id": 347996358,
        "osm_type": "way",
        "name": "Zampacorta",
        "tourism": "guest_house",
        "phone": "+39 0865 814163",
        "website": "http://www.agriturismozampacorta.it/"
      }
    },
    {
      "type": "Feature",
      "geometry": {
        "type": "Point",
        "coordinates": [
          14.3529085,
          41.4963116
        ]
      },
      "properties": {
        "id": 357765076,
        "osm_type": "way",
        "name": "Casale Maginulfo",
        "tourism": "hotel"
      }
    },
    {
      "type": "Feature",
      "geometry": {
        "type": "Point",
        "coordinates": [
          14.9420294,
          41.9467513
        ]
      },
      "properties": {
        "id": 359130952,
        "osm_type": "way",
        "name": "RiBo - Hotel",
        "tourism": "hotel",
        "phone": "+39 0875 680655",
        "website": "http://www.ribomolise.it/"
      }
    },
    {
      "type": "Feature",
      "geometry": {
        "type": "Point",
        "coordinates": [
          14.0593345,
          41.5140748
        ]
      },
      "properties": {
        "id": 375977632,
        "osm_type": "way",
        "name": "Hotel Riggioni",
        "tourism": "hotel"
      }
    },
    {
      "type": "Feature",
      "geometry": {
        "type": "Point",
        "coordinates": [
          14.2306512,
          41.8560294
        ]
      },
      "properties": {
        "id": 376271060,
        "osm_type": "way",
        "name": "Borgotufi",
        "tourism": "guest_house",
        "phone": "+39 0865 946 820",
        "website": "https://www.borgotufi.it/"
      }
    },
    {
      "type": "Feature",
      "geometry": {
        "type": "Point",
        "coordinates": [
          14.2122857,
          41.8540599
        ]
      },
      "properties": {
        "id": 376271086,
        "osm_type": "way",
        "name": "Vecchio Mulino",
        "tourism": "hotel",
        "phone": "+39 0865 946248",
        "website": "https://guias.viajes.com/italy/castel-del-giudice/vecchio-mulino/"
      }
    },
    {
      "type": "Feature",
      "geometry": {
        "type": "Point",
        "coordinates": [
          14.3132991,
          41.757042
        ]
      },
      "properties": {
        "id": 377498248,
        "osm_type": "way",
        "name": "Staffoli Horses",
        "tourism": "guest_house",
        "phone": "+39 0865 77177",
        "website": "https://www.staffoli.it/"
      }
    },
    {
      "type": "Feature",
      "geometry": {
        "type": "Point",
        "coordinates": [
          14.7300504,
          41.5455807
        ]
      },
      "properties": {
        "id": 384710771,
        "osm_type": "way",
        "name": "Agriturismo Terra e Sapori",
        "tourism": "guest_house",
        "phone": "+39 339 4137197",
        "website": "https://www.agriterraesapori.it/"
      }
    },
    {
      "type": "Feature",
      "geometry": {
        "type": "Point",
        "coordinates": [
          14.6712472,
          41.595612
        ]
      },
      "properties": {
        "id": 385584824,
        "osm_type": "way",
        "name": "La Tavernetta",
        "tourism": "hotel",
        "phone": "+39 0874 39958",
        "website": "https://www.latavernettacb.it/"
      }
    },
    {
      "type": "Feature",
      "geometry": {
        "type": "Point",
        "coordinates": [
          14.6298902,
          41.5465961
        ]
      },
      "properties": {
        "id": 385606618,
        "osm_type": "way",
        "name": "Cascina Garden",
        "tourism": "hotel",
        "phone": "+39 0874 98024"
      }
    },
    {
      "type": "Feature",
      "geometry": {
        "type": "Point",
        "coordinates": [
          14.6253728,
          41.5480392
        ]
      },
      "properties": {
        "id": 385606625,
        "osm_type": "way",
        "name": "b&b",
        "tourism": "guest_house",
        "phone": "+39 0874 1865881",
        "website": "http://www.bebcampobasso.it/"
      }
    },
    {
      "type": "Feature",
      "geometry": {
        "type": "Point",
        "coordinates": [
          14.0707188,
          41.6285019
        ]
      },
      "properties": {
        "id": 438542540,
        "osm_type": "way",
        "name": "Residence Vallefiorita",
        "tourism": "apartment",
        "phone": "+39 335 655 1296"
      }
    },
    {
      "type": "Feature",
      "geometry": {
        "type": "Point",
        "coordinates": [
          14.0711687,
          41.6288495
        ]
      },
      "properties": {
        "id": 438542541,
        "osm_type": "way",
        "name": "Residence Vallefiorita",
        "tourism": "apartment",
        "phone": "+39 335 655 1296"
      }
    },
    {
      "type": "Feature",
      "geometry": {
        "type": "Point",
        "coordinates": [
          14.7808698,
          42.0668371
        ]
      },
      "properties": {
        "id": 444881069,
        "osm_type": "way",
        "name": "Centro Vacanze Molise",
        "tourism": "camp_site",
        "tents": "yes",
        "phone": "+39 0873 803570",
        "website": "https://www.campingmolise.it/"
      }
    },
    {
      "type": "Feature",
      "geometry": {
        "type": "Point",
        "coordinates": [
          14.7817667,
          42.0665807
        ]
      },
      "properties": {
        "id": 444881070,
        "osm_type": "way",
        "name": "Sabbia d'Oro",
        "tourism": "camp_site",
        "tents": "yes",
        "contact:phone": "+39 0873 803351",
        "website": "https://www.sabbiadorocb.it/"
      }
    },
    {
      "type": "Feature",
      "geometry": {
        "type": "Point",
        "coordinates": [
          14.7930476,
          42.064258
        ]
      },
      "properties": {
        "id": 444881071,
        "osm_type": "way",
        "name": "Camping Maronda",
        "tourism": "camp_site",
        "tents": "yes",
        "phone": "+39 0873 803045",
        "contact:website": "https://www.maronda.it/"
      }
    },
    {
      "type": "Feature",
      "geometry": {
        "type": "Point",
        "coordinates": [
          14.9242024,
          42.0156479
        ]
      },
      "properties": {
        "id": 451040903,
        "osm_type": "way",
        "name": "Coppola Villaggio Azzurra",
        "tourism": "camp_site",
        "tents": "yes",
        "contact:phone": "+39 389 8318003",
        "contact:website": "http://www.villaggioazzurra.it/"
      }
    },
    {
      "type": "Feature",
      "geometry": {
        "type": "Point",
        "coordinates": [
          14.7922213,
          42.0654023
        ]
      },
      "properties": {
        "id": 463926215,
        "osm_type": "way",
        "name": "Villaggio Camping Costa Verde",
        "tourism": "camp_site",
        "tents": "yes",
        "phone": "+39 3479867717",
        "website": "https://www.costaverde.it/"
      }
    },
    {
      "type": "Feature",
      "geometry": {
        "type": "Point",
        "coordinates": [
          15.0824057,
          41.9391167
        ]
      },
      "properties": {
        "id": 472065126,
        "osm_type": "way",
        "name": "La Pineta",
        "tourism": "camp_site",
        "tents": "yes",
        "phone": "+39 0875 539402",
        "website": "http://www.lapinetacamping.it/home.html"
      }
    },
    {
      "type": "Feature",
      "geometry": {
        "type": "Point",
        "coordinates": [
          15.0848143,
          41.9381034
        ]
      },
      "properties": {
        "id": 472065127,
        "osm_type": "way",
        "name": "Camping Viillage Corrado",
        "tourism": "camp_site",
        "tents": "yes",
        "phone": "+39 0875530213",
        "website": "https://www.campingvillagecorrado.com/"
      }
    },
    {
      "type": "Feature",
      "geometry": {
        "type": "Point",
        "coordinates": [
          14.382658,
          41.6150182
        ]
      },
      "properties": {
        "id": 490688237,
        "osm_type": "way",
        "name": "Rifugio Colle dell'Orso",
        "tourism": "alpine_hut"
      }
    },
    {
      "type": "Feature",
      "geometry": {
        "type": "Point",
        "coordinates": [
          14.2775587,
          41.6213709
        ]
      },
      "properties": {
        "id": 493263536,
        "osm_type": "way",
        "name": "Rifugio Fonte Maiuri",
        "tourism": "alpine_hut"
      }
    },
    {
      "type": "Feature",
      "geometry": {
        "type": "Point",
        "coordinates": [
          14.8251901,
          41.8249435
        ]
      },
      "properties": {
        "id": 495145522,
        "osm_type": "way",
        "name": "Solelago",
        "tourism": "guest_house",
        "phone": "+39 320 3676332",
        "website": "http://www.solelago.com/hotel.php"
      }
    },
    {
      "type": "Feature",
      "geometry": {
        "type": "Point",
        "coordinates": [
          14.9050342,
          42.0193484
        ]
      },
      "properties": {
        "id": 495405197,
        "osm_type": "way",
        "name": "MARTUR Resort",
        "tourism": "hotel",
        "phone": "+39 0875 52550",
        "website": "https://marturresort.com/"
      }
    },
    {
      "type": "Feature",
      "geometry": {
        "type": "Point",
        "coordinates": [
          14.0868202,
          41.6265124
        ]
      },
      "properties": {
        "id": 496350208,
        "osm_type": "way",
        "name": "La Sorgente",
        "tourism": "guest_house",
        "phone": "+39 339 644 6445",
        "website": "https://la-sorgente.amolitalia.top/"
      }
    },
    {
      "type": "Feature",
      "geometry": {
        "type": "Point",
        "coordinates": [
          14.2942844,
          41.7446593
        ]
      },
      "properties": {
        "id": 502794965,
        "osm_type": "way",
        "name": "Bivacco San Mauro",
        "tourism": "alpine_hut"
      }
    },
    {
      "type": "Feature",
      "geometry": {
        "type": "Point",
        "coordinates": [
          14.8582893,
          42.0325479
        ]
      },
      "properties": {
        "id": 516196387,
        "osm_type": "way",
        "tourism": "caravan_site"
      }
    },
    {
      "type": "Feature",
      "geometry": {
        "type": "Point",
        "coordinates": [
          15.0628015,
          41.9483408
        ]
      },
      "properties": {
        "id": 520528524,
        "osm_type": "way",
        "name": "Residence Campitur",
        "tourism": "hotel",
        "phone": "+39 340 844 4553",
        "website": "https://www.campomarinolido.com"
      }
    },
    {
      "type": "Feature",
      "geometry": {
        "type": "Point",
        "coordinates": [
          15.0596797,
          41.9521605
        ]
      },
      "properties": {
        "id": 520528573,
        "osm_type": "way",
        "name": "Hotel Acquario",
        "tourism": "hotel"
      }
    },
    {
      "type": "Feature",
      "geometry": {
        "type": "Point",
        "coordinates": [
          15.0615189,
          41.953026
        ]
      },
      "properties": {
        "id": 561057676,
        "osm_type": "way",
        "name": "Smeraldo Camping Village",
        "tourism": "camp_site",
        "tents": "yes",
        "contact:phone": "+393298283054",
        "contact:website": "https://www.smeraldocampingvillage.com/"
      }
    },
    {
      "type": "Feature",
      "geometry": {
        "type": "Point",
        "coordinates": [
          14.6062292,
          41.7917063
        ]
      },
      "properties": {
        "id": 662494714,
        "osm_type": "way",
        "name": "Agriturismo Salzari",
        "tourism": "guest_house"
      }
    },
    {
      "type": "Feature",
      "geometry": {
        "type": "Point",
        "coordinates": [
          15.0643719,
          41.8818853
        ]
      },
      "properties": {
        "id": 662650828,
        "osm_type": "way",
        "name": "Masseria Le Piane",
        "tourism": "hotel",
        "website": "https://www.borgodicolloredo.com/wp/masseria-le-piane-en/"
      }
    },
    {
      "type": "Feature",
      "geometry": {
        "type": "Point",
        "coordinates": [
          15.0657765,
          41.9368573
        ]
      },
      "properties": {
        "id": 662738506,
        "osm_type": "way",
        "name": "Cantine Di Tullio",
        "tourism": "guest_house",
        "website": "http://www.beb-villaditullio.com/"
      }
    },
    {
      "type": "Feature",
      "geometry": {
        "type": "Point",
        "coordinates": [
          14.8483639,
          41.8849695
        ]
      },
      "properties": {
        "id": 666493300,
        "osm_type": "way",
        "name": "Masseria Grande",
        "tourism": "hotel",
        "website": "http://www.masseria-grande.it/"
      }
    },
    {
      "type": "Feature",
      "geometry": {
        "type": "Point",
        "coordinates": [
          14.8484229,
          41.8846492
        ]
      },
      "properties": {
        "id": 666493303,
        "osm_type": "way",
        "tourism": "hotel"
      }
    },
    {
      "type": "Feature",
      "geometry": {
        "type": "Point",
        "coordinates": [
          14.9378188,
          41.5738707
        ]
      },
      "properties": {
        "id": 689512204,
        "osm_type": "way",
        "name": "Miralago",
        "tourism": "hotel",
        "contact:phone": "+39 0874 810287",
        "website": "http://www.ristorante-miralago.it/"
      }
    },
    {
      "type": "Feature",
      "geometry": {
        "type": "Point",
        "coordinates": [
          14.0483375,
          41.6465843
        ]
      },
      "properties": {
        "id": 691090792,
        "osm_type": "way",
        "name": "Oasi delle Mainarde",
        "tourism": "camp_site",
        "opening_hours": "Mo-Su 09:00-19:00",
        "tents": "yes",
        "contact:phone": "+39 329 949 4994",
        "contact:website": "https://www.oasidellemainarde.com/"
      }
    },
    {
      "type": "Feature",
      "geometry": {
        "type": "Point",
        "coordinates": [
          14.6538865,
          41.5555969
        ]
      },
      "properties": {
        "id": 899099861,
        "osm_type": "way",
        "name": "Villa Center",
        "tourism": "guest_house",
        "website": "https://www.facebook.com/VillaCenter.Campobasso/"
      }
    },
    {
      "type": "Feature",
      "geometry": {
        "type": "Point",
        "coordinates": [
          14.3736452,
          41.611932
        ]
      },
      "properties": {
        "id": 945055787,
        "osm_type": "way",
        "name": "Rifugio",
        "tourism": "alpine_hut",
        "opening_hours": "closed"
      }
    },
    {
      "type": "Feature",
      "geometry": {
        "type": "Point",
        "coordinates": [
          14.2464645,
          41.6005091
        ]
      },
      "properties": {
        "id": 954952777,
        "osm_type": "way",
        "name": "Il Piccolo Principe",
        "tourism": "hotel"
      }
    },
    {
      "type": "Feature",
      "geometry": {
        "type": "Point",
        "coordinates": [
          14.2493498,
          41.5977016
        ]
      },
      "properties": {
        "id": 961329317,
        "osm_type": "way",
        "name": "Grand Hotel Europa",
        "tourism": "hotel",
        "phone": "+39 0865 2126",
        "website": "https://www.grandhotel-europa.it/"
      }
    },
    {
      "type": "Feature",
      "geometry": {
        "type": "Point",
        "coordinates": [
          14.7981283,
          41.8000751
        ]
      },
      "properties": {
        "id": 965395043,
        "osm_type": "way",
        "name": "Il Riparo",
        "tourism": "guest_house"
      }
    },
    {
      "type": "Feature",
      "geometry": {
        "type": "Point",
        "coordinates": [
          14.9538102,
          42.0102084
        ]
      },
      "properties": {
        "id": 1056651661,
        "osm_type": "way",
        "name": "Rivazzurra Homes",
        "tourism": "apartment",
        "contact:phone": "+39 393 907 6584 ; +39 339 212 6925",
        "contact:website": "https://www.rivazzurrahomes.it"
      }
    },
    {
      "type": "Feature",
      "geometry": {
        "type": "Point",
        "coordinates": [
          14.6324366,
          41.5651125
        ]
      },
      "properties": {
        "id": 1064408395,
        "osm_type": "way",
        "name": "Residenza Guglielmi",
        "tourism": "guest_house",
        "website": "https://residenzaguglielmi.it/"
      }
    },
    {
      "type": "Feature",
      "geometry": {
        "type": "Point",
        "coordinates": [
          14.6919771,
          41.7806606
        ]
      },
      "properties": {
        "id": 1073568787,
        "osm_type": "way",
        "name": "B&B Casa Cuoco",
        "tourism": "guest_house"
      }
    },
    {
      "type": "Feature",
      "geometry": {
        "type": "Point",
        "coordinates": [
          14.0392859,
          41.4836934
        ]
      },
      "properties": {
        "id": 1119347152,
        "osm_type": "way",
        "name": "Base Scout AGESCI Venafro 4",
        "tourism": "camp_site"
      }
    },
    {
      "type": "Feature",
      "geometry": {
        "type": "Point",
        "coordinates": [
          14.3066006,
          41.4688024
        ]
      },
      "properties": {
        "id": 1223256234,
        "osm_type": "way",
        "tourism": "alpine_hut"
      }
    },
    {
      "type": "Feature",
      "geometry": {
        "type": "Point",
        "coordinates": [
          14.652051,
          41.5633174
        ]
      },
      "properties": {
        "id": 1338299012,
        "osm_type": "way",
        "name": "Parcheggio Camper Via Sant'Antonio Abate",
        "tourism": "caravan_site"
      }
    },
    {
      "type": "Feature",
      "geometry": {
        "type": "Point",
        "coordinates": [
          14.9997536,
          42.0008481
        ]
      },
      "properties": {
        "id": 1349222471,
        "osm_type": "way",
        "tourism": "caravan_site"
      }
    },
    {
      "type": "Feature",
      "geometry": {
        "type": "Point",
        "coordinates": [
          14.3764765,
          41.6285045
        ]
      },
      "properties": {
        "id": 1390814624,
        "osm_type": "way",
        "name": "Rifugio San Lorenzo",
        "tourism": "alpine_hut",
        "opening_hours": "closed"
      }
    },
    {
      "type": "Feature",
      "geometry": {
        "type": "Point",
        "coordinates": [
          14.911644,
          41.5102306
        ]
      },
      "properties": {
        "id": 1449444320,
        "osm_type": "way",
        "name": "Area Camper",
        "tourism": "caravan_site"
      }
    },
    {
      "type": "Feature",
      "geometry": {
        "type": "Point",
        "coordinates": [
          14.3117345,
          41.595692
        ]
      },
      "properties": {
        "id": 1449692906,
        "osm_type": "way",
        "tourism": "chalet"
      }
    },
    {
      "type": "Feature",
      "geometry": {
        "type": "Point",
        "coordinates": [
          14.6551131,
          41.7957409
        ]
      },
      "properties": {
        "id": 1466046524,
        "osm_type": "way",
        "tourism": "caravan_site",
        "contact:phone": "+39 0874 748103",
        "website": "https://www.comune.civitacampomarano.cb.it/"
      }
    },
    {
      "type": "Feature",
      "geometry": {
        "type": "Point",
        "coordinates": [
          14.0530979,
          41.4718011
        ]
      },
      "properties": {
        "id": 1472948422,
        "osm_type": "way",
        "name": "Venafro Palace Hotel",
        "tourism": "hotel"
      }
    },
    {
      "type": "Feature",
      "geometry": {
        "type": "Point",
        "coordinates": [
          14.4539389,
          41.6002232
        ]
      },
      "properties": {
        "id": 1477807417,
        "osm_type": "way",
        "tourism": "caravan_site"
      }
    },
    {
      "type": "Feature",
      "geometry": {
        "type": "Point",
        "coordinates": [
          14.3631749,
          41.5519201
        ]
      },
      "properties": {
        "id": 1479239743,
        "osm_type": "way",
        "name": "Bed & Breakfast Il Girasole",
        "tourism": "guest_house"
      }
    },
    {
      "type": "Feature",
      "geometry": {
        "type": "Point",
        "coordinates": [
          14.3888685,
          41.5321644
        ]
      },
      "properties": {
        "id": 1499583244,
        "osm_type": "way",
        "name": "Esilom",
        "tourism": "apartment"
      }
    },
    {
      "type": "Feature",
      "geometry": {
        "type": "Point",
        "coordinates": [
          14.3521977,
          41.7953136
        ]
      },
      "properties": {
        "id": 1501699351,
        "osm_type": "way",
        "name": "Masseria Acquasalsa",
        "tourism": "guest_house",
        "phone": "+393339657207",
        "website": "https://www.acquasalsa.it/"
      }
    },
    {
      "type": "Feature",
      "geometry": {
        "type": "Point",
        "coordinates": [
          14.3731944,
          41.5493327
        ]
      },
      "properties": {
        "id": 1501949986,
        "osm_type": "way",
        "name": "B&B i Mulini",
        "tourism": "guest_house"
      }
    },
    {
      "type": "Feature",
      "geometry": {
        "type": "Point",
        "coordinates": [
          14.3771225,
          41.5497275
        ]
      },
      "properties": {
        "id": 1501950569,
        "osm_type": "way",
        "name": "Tenuta Fortilù",
        "tourism": "apartment"
      }
    }
  ]
}