{
  "type": "FeatureCollection",
  "features": [
    {
      "type": "Feature",
      "geometry": {
        "type": "Point",
        "coordinates": [
          34.6998617,
          40.9710524
        ]
      },
      "properties": {
        "id": 2340642034,
        "osm_type": "node",
        "name": "Atahan",
        "tourism": "motel"
      }
    },
    {
      "type": "Feature",
      "geometry": {
        "type": "Point",
        "coordinates": [
          34.6150617,
          40.0277707
        ]
      },
      "properties": {
        "id": 3129627060,
        "osm_type": "node",
        "tourism": "hotel"
      }
    },
    {
      "type": "Feature",
      "geometry": {
        "type": "Point",
        "coordinates": [
          34.6147613,
          40.0275078
        ]
      },
      "properties": {
        "id": 3129627062,
        "osm_type": "node",
        "tourism": "camp_site"
      }
    },
    {
      "type": "Feature",
      "geometry": {
        "type": "Point",
        "coordinates": [
          34.6206627,
          39.9900253
        ]
      },
      "properties": {
        "id": 4735743124,
        "osm_type": "node",
        "name": "Boğazkale Göleti",
        "tourism": "camp_site"
      }
    },
    {
      "type": "Feature",
      "geometry": {
        "type": "Point",
        "coordinates": [
          34.4687215,
          40.7300715
        ]
      },
      "properties": {
        "id": 4989286824,
        "osm_type": "node",
        "name": "öğretmen evi",
        "tourism": "hotel"
      }
    },
    {
      "type": "Feature",
      "geometry": {
        "type": "Point",
        "coordinates": [
          34.9509958,
          40.5572407
        ]
      },
      "properties": {
        "id": 5846667785,
        "osm_type": "node",
        "name": "خالو اسعد",
        "tourism": "apartment"
      }
    },
    {
      "type": "Feature",
      "geometry": {
        "type": "Point",
        "coordinates": [
          34.6188357,
          40.0286347
        ]
      },
      "properties": {
        "id": 6092745217,
        "osm_type": "node",
        "name": "Baskent",
        "tourism": "camp_site",
        "website": "www.baskentdemiralanotel.com"
      }
    },
    {
      "type": "Feature",
      "geometry": {
        "type": "Point",
        "coordinates": [
          34.6184876,
          40.0285229
        ]
      },
      "properties": {
        "id": 6594129266,
        "osm_type": "node",
        "name": "Baskent",
        "tourism": "hotel"
      }
    },
    {
      "type": "Feature",
      "geometry": {
        "type": "Point",
        "coordinates": [
          34.9710041,
          40.5586187
        ]
      },
      "properties": {
        "id": 7794301985,
        "osm_type": "node",
        "name": "Çorum Polis Evi",
        "tourism": "guest_house",
        "website": "https://www.polisevi.com/corum-polisevi/"
      }
    },
    {
      "type": "Feature",
      "geometry": {
        "type": "Point",
        "coordinates": [
          34.9815996,
          40.5595241
        ]
      },
      "properties": {
        "id": 8646725317,
        "osm_type": "node",
        "name": "Bahabey Çamlığı",
        "tourism": "camp_site"
      }
    },
    {
      "type": "Feature",
      "geometry": {
        "type": "Point",
        "coordinates": [
          34.9502351,
          40.5424917
        ]
      },
      "properties": {
        "id": 439874562,
        "osm_type": "way",
        "name": "Mavi Otel",
        "tourism": "hotel"
      }
    },
    {
      "type": "Feature",
      "geometry": {
        "type": "Point",
        "coordinates": [
          34.0214244,
          40.2247869
        ]
      },
      "properties": {
        "id": 598885860,
        "osm_type": "way",
        "name": "İnegazili Köy Konagı",
        "tourism": "guest_house"
      }
    },
    {
      "type": "Feature",
      "geometry": {
        "type": "Point",
        "coordinates": [
          34.021333,
          40.2265266
        ]
      },
      "properties": {
        "id": 599764633,
        "osm_type": "way",
        "name": "Nazik Bekmezci İlkögretim Ögretmen Lojmanı",
        "tourism": "apartment"
      }
    },
    {
      "type": "Feature",
      "geometry": {
        "type": "Point",
        "coordinates": [
          34.9553386,
          40.5724667
        ]
      },
      "properties": {
        "id": 770910455,
        "osm_type": "way",
        "name": "Çorum Hitit Uygulama Oteli",
        "tourism": "hotel",
        "phone": "+90 364 226 10 10"
      }
    },
    {
      "type": "Feature",
      "geometry": {
        "type": "Point",
        "coordinates": [
          34.9483498,
          40.5429065
        ]
      },
      "properties": {
        "id": 886816725,
        "osm_type": "way",
        "name": "Anitta Hotel",
        "tourism": "hotel",
        "website": "https://www.anittahotel.com/en/"
      }
    },
    {
      "type": "Feature",
      "geometry": {
        "type": "Point",
        "coordinates": [
          34.9261755,
          40.534624
        ]
      },
      "properties": {
        "id": 887649349,
        "osm_type": "way",
        "name": "Sosyal Bilimler Pansiyonu",
        "tourism": "hostel"
      }
    },
    {
      "type": "Feature",
      "geometry": {
        "type": "Point",
        "coordinates": [
          34.8041486,
          40.9745793
        ]
      },
      "properties": {
        "id": 1311977813,
        "osm_type": "way",
        "name": "Osmancık Öğretmenevi",
        "tourism": "guest_house"
      }
    }
  ]
}