{
  "type": "FeatureCollection",
  "features": [
    {
      "type": "Feature",
      "geometry": {
        "type": "Point",
        "coordinates": [
          21.8872231,
          43.3068144
        ]
      },
      "properties": {
        "id": 1719271660,
        "osm_type": "node",
        "name": "TAMI Residence",
        "tourism": "hotel"
      }
    },
    {
      "type": "Feature",
      "geometry": {
        "type": "Point",
        "coordinates": [
          21.8885519,
          43.3088823
        ]
      },
      "properties": {
        "id": 1719272074,
        "osm_type": "node",
        "name": "Александар",
        "tourism": "hotel"
      }
    },
    {
      "type": "Feature",
      "geometry": {
        "type": "Point",
        "coordinates": [
          21.9011132,
          43.3231894
        ]
      },
      "properties": {
        "id": 1848006626,
        "osm_type": "node",
        "name": "Imper I.M.D. prenoćište",
        "tourism": "motel",
        "website": "https://prenociste-nis.rs/"
      }
    },
    {
      "type": "Feature",
      "geometry": {
        "type": "Point",
        "coordinates": [
          21.9016677,
          43.32519
        ]
      },
      "properties": {
        "id": 1923617181,
        "osm_type": "node",
        "name": "My Place",
        "tourism": "hotel",
        "phone": "+381 18 293600",
        "website": "https://www.hotelmyplace.com/"
      }
    },
    {
      "type": "Feature",
      "geometry": {
        "type": "Point",
        "coordinates": [
          21.8978726,
          43.3206101
        ]
      },
      "properties": {
        "id": 1923617188,
        "osm_type": "node",
        "name": "New City",
        "tourism": "hotel"
      }
    },
    {
      "type": "Feature",
      "geometry": {
        "type": "Point",
        "coordinates": [
          21.8987789,
          43.3240417
        ]
      },
      "properties": {
        "id": 1923617189,
        "osm_type": "node",
        "name": "Нишки цвет",
        "tourism": "hotel",
        "phone": "+381 18 297 700",
        "website": "http://www.niskicvet.com/"
      }
    },
    {
      "type": "Feature",
      "geometry": {
        "type": "Point",
        "coordinates": [
          21.8923843,
          43.3230905
        ]
      },
      "properties": {
        "id": 1923617191,
        "osm_type": "node",
        "name": "Ниш",
        "tourism": "hostel",
        "phone": "+381 18 513703",
        "website": "http://www.hostelnis.rs/"
      }
    },
    {
      "type": "Feature",
      "geometry": {
        "type": "Point",
        "coordinates": [
          21.8952064,
          43.3203943
        ]
      },
      "properties": {
        "id": 2072198456,
        "osm_type": "node",
        "name": "Penthouse Accommodation - Nis",
        "tourism": "apartment"
      }
    },
    {
      "type": "Feature",
      "geometry": {
        "type": "Point",
        "coordinates": [
          21.8625138,
          43.3097004
        ]
      },
      "properties": {
        "id": 2150604053,
        "osm_type": "node",
        "name": "Космополит",
        "tourism": "hostel",
        "phone": "+381 63 472705",
        "website": "https://www.hostelkosmopolit.com/"
      }
    },
    {
      "type": "Feature",
      "geometry": {
        "type": "Point",
        "coordinates": [
          21.896894,
          43.3196021
        ]
      },
      "properties": {
        "id": 2703824727,
        "osm_type": "node",
        "name": "Преноћиште Етно конак Ташана",
        "tourism": "hotel",
        "phone": "+381642023200",
        "website": "http://prenocistetasana.freshcreator.com/"
      }
    },
    {
      "type": "Feature",
      "geometry": {
        "type": "Point",
        "coordinates": [
          21.9012422,
          43.3227505
        ]
      },
      "properties": {
        "id": 4193324924,
        "osm_type": "node",
        "name": "OnlyOne appartment",
        "tourism": "hostel"
      }
    },
    {
      "type": "Feature",
      "geometry": {
        "type": "Point",
        "coordinates": [
          21.9015896,
          43.3228168
        ]
      },
      "properties": {
        "id": 4193336382,
        "osm_type": "node",
        "name": "Sole",
        "tourism": "hotel",
        "check_date": "2024-09-22"
      }
    },
    {
      "type": "Feature",
      "geometry": {
        "type": "Point",
        "coordinates": [
          21.9312105,
          43.3108151
        ]
      },
      "properties": {
        "id": 4193349507,
        "osm_type": "node",
        "name": "Бранков конак собе",
        "tourism": "motel"
      }
    },
    {
      "type": "Feature",
      "geometry": {
        "type": "Point",
        "coordinates": [
          21.9030767,
          43.3196058
        ]
      },
      "properties": {
        "id": 4196741214,
        "osm_type": "node",
        "name": "Consul rooms",
        "tourism": "motel",
        "check_date": "2025-08-20"
      }
    },
    {
      "type": "Feature",
      "geometry": {
        "type": "Point",
        "coordinates": [
          21.902979,
          43.3178452
        ]
      },
      "properties": {
        "id": 4196741239,
        "osm_type": "node",
        "name": "Дукат",
        "tourism": "hostel"
      }
    },
    {
      "type": "Feature",
      "geometry": {
        "type": "Point",
        "coordinates": [
          21.7160193,
          43.2810959
        ]
      },
      "properties": {
        "id": 4365347442,
        "osm_type": "node",
        "name": "Markov Konak",
        "tourism": "guest_house"
      }
    },
    {
      "type": "Feature",
      "geometry": {
        "type": "Point",
        "coordinates": [
          22.261347,
          43.1415202
        ]
      },
      "properties": {
        "id": 4366965206,
        "osm_type": "node",
        "name": "Стара Заплањска млекара",
        "tourism": "alpine_hut"
      }
    },
    {
      "type": "Feature",
      "geometry": {
        "type": "Point",
        "coordinates": [
          21.8928645,
          43.3214292
        ]
      },
      "properties": {
        "id": 4799777321,
        "osm_type": "node",
        "tourism": "hostel"
      }
    },
    {
      "type": "Feature",
      "geometry": {
        "type": "Point",
        "coordinates": [
          22.2025034,
          43.3490159
        ]
      },
      "properties": {
        "id": 4908145323,
        "osm_type": "node",
        "tourism": "camp_site"
      }
    },
    {
      "type": "Feature",
      "geometry": {
        "type": "Point",
        "coordinates": [
          22.0831727,
          43.3637154
        ]
      },
      "properties": {
        "id": 4908155422,
        "osm_type": "node",
        "tourism": "camp_site"
      }
    },
    {
      "type": "Feature",
      "geometry": {
        "type": "Point",
        "coordinates": [
          21.7090218,
          43.5281357
        ]
      },
      "properties": {
        "id": 5424223634,
        "osm_type": "node",
        "name": "Хотел Босфорус",
        "tourism": "hotel"
      }
    },
    {
      "type": "Feature",
      "geometry": {
        "type": "Point",
        "coordinates": [
          21.8903267,
          43.3234126
        ]
      },
      "properties": {
        "id": 5817428355,
        "osm_type": "node",
        "tourism": "guest_house",
        "phone": "0642223384"
      }
    },
    {
      "type": "Feature",
      "geometry": {
        "type": "Point",
        "coordinates": [
          21.8078731,
          43.3971067
        ]
      },
      "properties": {
        "id": 5940080555,
        "osm_type": "node",
        "name": "Hollywood",
        "tourism": "hotel",
        "phone": "+381 60 7000092"
      }
    },
    {
      "type": "Feature",
      "geometry": {
        "type": "Point",
        "coordinates": [
          21.8921802,
          43.3180911
        ]
      },
      "properties": {
        "id": 6053546261,
        "osm_type": "node",
        "tourism": "hostel"
      }
    },
    {
      "type": "Feature",
      "geometry": {
        "type": "Point",
        "coordinates": [
          22.012622,
          43.2927087
        ]
      },
      "properties": {
        "id": 6053546264,
        "osm_type": "node",
        "tourism": "hostel"
      }
    },
    {
      "type": "Feature",
      "geometry": {
        "type": "Point",
        "coordinates": [
          21.8412855,
          43.3650585
        ]
      },
      "properties": {
        "id": 6098848994,
        "osm_type": "node",
        "tourism": "guest_house"
      }
    },
    {
      "type": "Feature",
      "geometry": {
        "type": "Point",
        "coordinates": [
          21.9038283,
          43.3212557
        ]
      },
      "properties": {
        "id": 6551372786,
        "osm_type": "node",
        "tourism": "apartment"
      }
    },
    {
      "type": "Feature",
      "geometry": {
        "type": "Point",
        "coordinates": [
          22.0090955,
          43.2925431
        ]
      },
      "properties": {
        "id": 6808078291,
        "osm_type": "node",
        "name": "Ozren",
        "tourism": "hotel"
      }
    },
    {
      "type": "Feature",
      "geometry": {
        "type": "Point",
        "coordinates": [
          22.0108939,
          43.2927303
        ]
      },
      "properties": {
        "id": 6808078292,
        "osm_type": "node",
        "tourism": "hostel"
      }
    },
    {
      "type": "Feature",
      "geometry": {
        "type": "Point",
        "coordinates": [
          22.01011,
          43.29293
        ]
      },
      "properties": {
        "id": 6808078293,
        "osm_type": "node",
        "tourism": "hostel"
      }
    },
    {
      "type": "Feature",
      "geometry": {
        "type": "Point",
        "coordinates": [
          21.8963361,
          43.3177995
        ]
      },
      "properties": {
        "id": 9477178801,
        "osm_type": "node",
        "name": "Етер",
        "tourism": "hotel",
        "phone": "+381 60 5557777",
        "website": "https://eterhotel.rs/"
      }
    },
    {
      "type": "Feature",
      "geometry": {
        "type": "Point",
        "coordinates": [
          21.895166,
          43.3202942
        ]
      },
      "properties": {
        "id": 9535723228,
        "osm_type": "node",
        "name": "Top rooms",
        "tourism": "apartment",
        "phone": "+381 0601695223",
        "website": "http://toproomserbia.com/"
      }
    },
    {
      "type": "Feature",
      "geometry": {
        "type": "Point",
        "coordinates": [
          22.103796,
          43.4096509
        ]
      },
      "properties": {
        "id": 10156772096,
        "osm_type": "node",
        "tourism": "apartment"
      }
    },
    {
      "type": "Feature",
      "geometry": {
        "type": "Point",
        "coordinates": [
          22.0640838,
          43.3289217
        ]
      },
      "properties": {
        "id": 10673915575,
        "osm_type": "node",
        "name": "Brvnara Anna&Marija",
        "tourism": "motel"
      }
    },
    {
      "type": "Feature",
      "geometry": {
        "type": "Point",
        "coordinates": [
          21.8919879,
          43.3156861
        ]
      },
      "properties": {
        "id": 10863194449,
        "osm_type": "node",
        "name": "City Centar House",
        "tourism": "hotel"
      }
    },
    {
      "type": "Feature",
      "geometry": {
        "type": "Point",
        "coordinates": [
          21.8969614,
          43.3162566
        ]
      },
      "properties": {
        "id": 11289051936,
        "osm_type": "node",
        "name": "Apartmani Sofija",
        "tourism": "apartment",
        "check_date": "2023-10-25"
      }
    },
    {
      "type": "Feature",
      "geometry": {
        "type": "Point",
        "coordinates": [
          21.8960155,
          43.316227
        ]
      },
      "properties": {
        "id": 11289051938,
        "osm_type": "node",
        "name": "Calipso Rent Room",
        "tourism": "apartment",
        "check_date": "2023-10-25"
      }
    },
    {
      "type": "Feature",
      "geometry": {
        "type": "Point",
        "coordinates": [
          21.8918407,
          43.3149509
        ]
      },
      "properties": {
        "id": 11825194869,
        "osm_type": "node",
        "tourism": "apartment"
      }
    },
    {
      "type": "Feature",
      "geometry": {
        "type": "Point",
        "coordinates": [
          21.9282651,
          43.3532814
        ]
      },
      "properties": {
        "id": 12079035327,
        "osm_type": "node",
        "name": "Имунсан / Imunsan",
        "tourism": "apartment",
        "phone": "+381 63 827 37 85",
        "website": "https://imunsan.net/"
      }
    },
    {
      "type": "Feature",
      "geometry": {
        "type": "Point",
        "coordinates": [
          21.9067202,
          43.3088256
        ]
      },
      "properties": {
        "id": 12504544965,
        "osm_type": "node",
        "name": "Freya SPA & Apartments",
        "tourism": "apartment",
        "phone": "+381 18 527 161",
        "website": "https://www.freyaspacentar.rs/"
      }
    },
    {
      "type": "Feature",
      "geometry": {
        "type": "Point",
        "coordinates": [
          21.9024031,
          43.3181144
        ]
      },
      "properties": {
        "id": 12625917801,
        "osm_type": "node",
        "name": "Bloom Inn",
        "tourism": "hostel",
        "phone": "+381 66 333218",
        "website": "http://bloom-inn.com"
      }
    },
    {
      "type": "Feature",
      "geometry": {
        "type": "Point",
        "coordinates": [
          21.8396507,
          43.4164847
        ]
      },
      "properties": {
        "id": 12850571601,
        "osm_type": "node",
        "name": "Popoland Camp",
        "tourism": "camp_site",
        "opening_hours": "24/7",
        "phone": "+381658004373",
        "website": "http://popoland.rs"
      }
    },
    {
      "type": "Feature",
      "geometry": {
        "type": "Point",
        "coordinates": [
          21.6338113,
          43.3452312
        ]
      },
      "properties": {
        "id": 13516352501,
        "osm_type": "node",
        "name": "Падина",
        "tourism": "chalet"
      }
    },
    {
      "type": "Feature",
      "geometry": {
        "type": "Point",
        "coordinates": [
          21.7040684,
          43.5339712
        ]
      },
      "properties": {
        "id": 13574467436,
        "osm_type": "node",
        "name": "Gallus Inn",
        "tourism": "hostel"
      }
    },
    {
      "type": "Feature",
      "geometry": {
        "type": "Point",
        "coordinates": [
          21.8784378,
          43.3213377
        ]
      },
      "properties": {
        "id": 13697702704,
        "osm_type": "node",
        "name": "Princ",
        "tourism": "apartment",
        "phone": "+381 63 446 561",
        "website": "https://princ.rs/kontakt/"
      }
    },
    {
      "type": "Feature",
      "geometry": {
        "type": "Point",
        "coordinates": [
          22.0064141,
          43.2921453
        ]
      },
      "properties": {
        "id": 169489715,
        "osm_type": "way",
        "name": "Зеленгора",
        "tourism": "hotel"
      }
    },
    {
      "type": "Feature",
      "geometry": {
        "type": "Point",
        "coordinates": [
          22.00717,
          43.2938728
        ]
      },
      "properties": {
        "id": 169489716,
        "osm_type": "way",
        "name": "Радон",
        "tourism": "hotel",
        "phone": "+38118502046",
        "website": "https://radonnb.co.rs/"
      }
    },
    {
      "type": "Feature",
      "geometry": {
        "type": "Point",
        "coordinates": [
          21.905059,
          43.3240031
        ]
      },
      "properties": {
        "id": 288275202,
        "osm_type": "way",
        "name": "Majesty",
        "tourism": "hostel",
        "website": "https://www.majestyapartments.com/"
      }
    },
    {
      "type": "Feature",
      "geometry": {
        "type": "Point",
        "coordinates": [
          21.8090122,
          43.3839774
        ]
      },
      "properties": {
        "id": 322625832,
        "osm_type": "way",
        "name": "Наис",
        "tourism": "motel",
        "check_date": "2024-07-31"
      }
    },
    {
      "type": "Feature",
      "geometry": {
        "type": "Point",
        "coordinates": [
          22.0671739,
          43.3323963
        ]
      },
      "properties": {
        "id": 421075685,
        "osm_type": "way",
        "name": "Хотел Сићево",
        "tourism": "hotel"
      }
    },
    {
      "type": "Feature",
      "geometry": {
        "type": "Point",
        "coordinates": [
          21.8966122,
          43.3211168
        ]
      },
      "properties": {
        "id": 421999864,
        "osm_type": "way",
        "name": "Амбасадор",
        "tourism": "hotel",
        "phone": "+381 18 505018",
        "website": "https://ambasadorhotel.com/"
      }
    },
    {
      "type": "Feature",
      "geometry": {
        "type": "Point",
        "coordinates": [
          21.8485397,
          43.3167654
        ]
      },
      "properties": {
        "id": 438517020,
        "osm_type": "way",
        "name": "Crystal light",
        "tourism": "hotel",
        "phone": "+381 18 4150666",
        "website": "https://crystallight.co.rs"
      }
    },
    {
      "type": "Feature",
      "geometry": {
        "type": "Point",
        "coordinates": [
          21.9072775,
          43.3163067
        ]
      },
      "properties": {
        "id": 453855655,
        "osm_type": "way",
        "name": "Čair",
        "tourism": "hotel",
        "website": "http://prenocistecair.com/"
      }
    },
    {
      "type": "Feature",
      "geometry": {
        "type": "Point",
        "coordinates": [
          21.9130126,
          43.3097584
        ]
      },
      "properties": {
        "id": 473550237,
        "osm_type": "way",
        "name": "Apel Apartments",
        "tourism": "apartment",
        "website": "http://www.apelapartments.com/"
      }
    },
    {
      "type": "Feature",
      "geometry": {
        "type": "Point",
        "coordinates": [
          21.8883515,
          43.3187678
        ]
      },
      "properties": {
        "id": 473726138,
        "osm_type": "way",
        "name": "Aurora",
        "tourism": "hostel",
        "contact:phone": "+381 18 214642",
        "contact:website": "www.aurorahostel.rs"
      }
    },
    {
      "type": "Feature",
      "geometry": {
        "type": "Point",
        "coordinates": [
          21.892034,
          43.3165638
        ]
      },
      "properties": {
        "id": 473759091,
        "osm_type": "way",
        "name": "King Bo",
        "tourism": "hotel",
        "website": "https://en.kingbo.rs/"
      }
    },
    {
      "type": "Feature",
      "geometry": {
        "type": "Point",
        "coordinates": [
          22.111574,
          43.2217269
        ]
      },
      "properties": {
        "id": 575697061,
        "osm_type": "way",
        "name": "Студенац",
        "tourism": "alpine_hut"
      }
    },
    {
      "type": "Feature",
      "geometry": {
        "type": "Point",
        "coordinates": [
          21.7111076,
          43.5371661
        ]
      },
      "properties": {
        "id": 627355329,
        "osm_type": "way",
        "name": "Шуматовац",
        "tourism": "hotel"
      }
    },
    {
      "type": "Feature",
      "geometry": {
        "type": "Point",
        "coordinates": [
          21.709004,
          43.5279472
        ]
      },
      "properties": {
        "id": 627355338,
        "osm_type": "way",
        "name": "Bosphorus",
        "tourism": "hotel"
      }
    },
    {
      "type": "Feature",
      "geometry": {
        "type": "Point",
        "coordinates": [
          21.7964378,
          43.3126764
        ]
      },
      "properties": {
        "id": 646973344,
        "osm_type": "way",
        "tourism": "hotel"
      }
    },
    {
      "type": "Feature",
      "geometry": {
        "type": "Point",
        "coordinates": [
          21.9372644,
          43.335272
        ]
      },
      "properties": {
        "id": 762657669,
        "osm_type": "way",
        "name": "Алоха",
        "tourism": "hotel"
      }
    },
    {
      "type": "Feature",
      "geometry": {
        "type": "Point",
        "coordinates": [
          21.9375426,
          43.3373045
        ]
      },
      "properties": {
        "id": 762657675,
        "osm_type": "way",
        "name": "ММ травел",
        "tourism": "hotel"
      }
    },
    {
      "type": "Feature",
      "geometry": {
        "type": "Point",
        "coordinates": [
          21.8739572,
          43.3470722
        ]
      },
      "properties": {
        "id": 772101676,
        "osm_type": "way",
        "name": "Ideo Lux",
        "tourism": "hotel"
      }
    },
    {
      "type": "Feature",
      "geometry": {
        "type": "Point",
        "coordinates": [
          21.7080658,
          43.5251037
        ]
      },
      "properties": {
        "id": 789709806,
        "osm_type": "way",
        "name": "Апартмани Морава",
        "tourism": "apartment"
      }
    },
    {
      "type": "Feature",
      "geometry": {
        "type": "Point",
        "coordinates": [
          21.7042174,
          43.5386923
        ]
      },
      "properties": {
        "id": 914764058,
        "osm_type": "way",
        "name": "Day off",
        "tourism": "hostel"
      }
    },
    {
      "type": "Feature",
      "geometry": {
        "type": "Point",
        "coordinates": [
          21.9047291,
          43.3239174
        ]
      },
      "properties": {
        "id": 941933059,
        "osm_type": "way",
        "name": "Laguna Green",
        "tourism": "guest_house",
        "phone": "+381 69 3067737"
      }
    },
    {
      "type": "Feature",
      "geometry": {
        "type": "Point",
        "coordinates": [
          22.0090351,
          43.2923734
        ]
      },
      "properties": {
        "id": 948094071,
        "osm_type": "way",
        "name": "Ozren",
        "tourism": "hotel"
      }
    },
    {
      "type": "Feature",
      "geometry": {
        "type": "Point",
        "coordinates": [
          22.0100416,
          43.2924903
        ]
      },
      "properties": {
        "id": 948094072,
        "osm_type": "way",
        "name": "Partizan",
        "tourism": "hotel"
      }
    },
    {
      "type": "Feature",
      "geometry": {
        "type": "Point",
        "coordinates": [
          22.0035628,
          43.2933429
        ]
      },
      "properties": {
        "id": 948100182,
        "osm_type": "way",
        "name": "Terme",
        "tourism": "hotel"
      }
    },
    {
      "type": "Feature",
      "geometry": {
        "type": "Point",
        "coordinates": [
          21.9081045,
          43.3118418
        ]
      },
      "properties": {
        "id": 1026368160,
        "osm_type": "way",
        "tourism": "hotel",
        "website": "http://www.hotelcrystalice.com/"
      }
    },
    {
      "type": "Feature",
      "geometry": {
        "type": "Point",
        "coordinates": [
          22.0855363,
          43.3392891
        ]
      },
      "properties": {
        "id": 1070025608,
        "osm_type": "way",
        "name": "Konak Ramonda Serbica",
        "tourism": "apartment"
      }
    },
    {
      "type": "Feature",
      "geometry": {
        "type": "Point",
        "coordinates": [
          21.8980663,
          43.3123566
        ]
      },
      "properties": {
        "id": 1180456688,
        "osm_type": "way",
        "name": "Day 'n' Night",
        "tourism": "hostel",
        "phone": "+381 64 481 5869",
        "website": "https://daynnighthostel.com/"
      }
    },
    {
      "type": "Feature",
      "geometry": {
        "type": "Point",
        "coordinates": [
          21.8905024,
          43.303489
        ]
      },
      "properties": {
        "id": 1180538922,
        "osm_type": "way",
        "name": "Панорама лукс",
        "tourism": "hotel",
        "phone": "+381 18561214",
        "website": "www.panoramalux.co.rs"
      }
    },
    {
      "type": "Feature",
      "geometry": {
        "type": "Point",
        "coordinates": [
          21.9077965,
          43.3215888
        ]
      },
      "properties": {
        "id": 1189250090,
        "osm_type": "way",
        "name": "Rile Men",
        "tourism": "hotel",
        "website": "http://www.rilemen.com/"
      }
    },
    {
      "type": "Feature",
      "geometry": {
        "type": "Point",
        "coordinates": [
          21.9079779,
          43.3217424
        ]
      },
      "properties": {
        "id": 1189250093,
        "osm_type": "way",
        "name": "Лотос",
        "tourism": "hotel"
      }
    },
    {
      "type": "Feature",
      "geometry": {
        "type": "Point",
        "coordinates": [
          21.9376302,
          43.3374444
        ]
      },
      "properties": {
        "id": 1195045827,
        "osm_type": "way",
        "name": "MM Travel Hotel",
        "tourism": "hotel"
      }
    },
    {
      "type": "Feature",
      "geometry": {
        "type": "Point",
        "coordinates": [
          21.9280758,
          43.3533418
        ]
      },
      "properties": {
        "id": 1304328653,
        "osm_type": "way",
        "tourism": "apartment"
      }
    },
    {
      "type": "Feature",
      "geometry": {
        "type": "Point",
        "coordinates": [
          21.9282561,
          43.3534674
        ]
      },
      "properties": {
        "id": 1304328654,
        "osm_type": "way",
        "tourism": "apartment"
      }
    },
    {
      "type": "Feature",
      "geometry": {
        "type": "Point",
        "coordinates": [
          21.9284373,
          43.3534063
        ]
      },
      "properties": {
        "id": 1304328655,
        "osm_type": "way",
        "tourism": "apartment"
      }
    },
    {
      "type": "Feature",
      "geometry": {
        "type": "Point",
        "coordinates": [
          21.9282746,
          43.3532912
        ]
      },
      "properties": {
        "id": 1304328656,
        "osm_type": "way",
        "tourism": "guest_house",
        "phone": "+381 63 827 37 85",
        "website": "https://imunsan.net/"
      }
    }
  ]
}