{
  "type": "FeatureCollection",
  "features": [
    {
      "type": "Feature",
      "geometry": {
        "type": "Point",
        "coordinates": [
          30.0390477,
          39.9063112
        ]
      },
      "properties": {
        "id": 3129699260,
        "osm_type": "node",
        "tourism": "hotel"
      }
    },
    {
      "type": "Feature",
      "geometry": {
        "type": "Point",
        "coordinates": [
          29.7889878,
          39.9612308
        ]
      },
      "properties": {
        "id": 5760321122,
        "osm_type": "node",
        "tourism": "alpine_hut"
      }
    },
    {
      "type": "Feature",
      "geometry": {
        "type": "Point",
        "coordinates": [
          29.9033092,
          39.9964259
        ]
      },
      "properties": {
        "id": 5820462253,
        "osm_type": "node",
        "name": "Aktaşlar Otel",
        "tourism": "hotel"
      }
    },
    {
      "type": "Feature",
      "geometry": {
        "type": "Point",
        "coordinates": [
          29.7893458,
          39.9591158
        ]
      },
      "properties": {
        "id": 5837075686,
        "osm_type": "node",
        "name": "Bozcaarmut Kamp",
        "tourism": "camp_site"
      }
    },
    {
      "type": "Feature",
      "geometry": {
        "type": "Point",
        "coordinates": [
          29.9835939,
          40.1305671
        ]
      },
      "properties": {
        "id": 6989062391,
        "osm_type": "node",
        "name": "Hakan Yavuz Sufi Trail Bike Camp",
        "tourism": "camp_site",
        "phone": "+905436467918"
      }
    },
    {
      "type": "Feature",
      "geometry": {
        "type": "Point",
        "coordinates": [
          30.0233684,
          40.2428663
        ]
      },
      "properties": {
        "id": 6993256929,
        "osm_type": "node",
        "name": "Köprülü Mehmet Paşa Kervansarayı",
        "tourism": "hotel"
      }
    },
    {
      "type": "Feature",
      "geometry": {
        "type": "Point",
        "coordinates": [
          29.9763142,
          40.1411944
        ]
      },
      "properties": {
        "id": 7794412012,
        "osm_type": "node",
        "name": "Bilecik Polis evi",
        "tourism": "guest_house",
        "website": "https://www.polisevi.com/bilecik-polis-evi/"
      }
    },
    {
      "type": "Feature",
      "geometry": {
        "type": "Point",
        "coordinates": [
          29.9786376,
          40.1434348
        ]
      },
      "properties": {
        "id": 8980125493,
        "osm_type": "node",
        "name": "New Point",
        "tourism": "hotel"
      }
    },
    {
      "type": "Feature",
      "geometry": {
        "type": "Point",
        "coordinates": [
          29.9781666,
          40.1449606
        ]
      },
      "properties": {
        "id": 8982649776,
        "osm_type": "node",
        "name": "Hotel Eronur",
        "tourism": "hotel"
      }
    },
    {
      "type": "Feature",
      "geometry": {
        "type": "Point",
        "coordinates": [
          29.9796956,
          40.1433219
        ]
      },
      "properties": {
        "id": 8982649778,
        "osm_type": "node",
        "name": "Kent Otel",
        "tourism": "hotel"
      }
    },
    {
      "type": "Feature",
      "geometry": {
        "type": "Point",
        "coordinates": [
          29.9779287,
          40.1437223
        ]
      },
      "properties": {
        "id": 8982649790,
        "osm_type": "node",
        "name": "Otel Başaran",
        "tourism": "hotel"
      }
    },
    {
      "type": "Feature",
      "geometry": {
        "type": "Point",
        "coordinates": [
          30.0073588,
          40.3594663
        ]
      },
      "properties": {
        "id": 9193849297,
        "osm_type": "node",
        "name": "Otel Osmaneli",
        "tourism": "hotel",
        "phone": "+905332523377",
        "website": "http://www.osmaneliotel.net/"
      }
    },
    {
      "type": "Feature",
      "geometry": {
        "type": "Point",
        "coordinates": [
          30.0158583,
          40.3569852
        ]
      },
      "properties": {
        "id": 9193868322,
        "osm_type": "node",
        "name": "Osmaneli By Asım Azapoğlu Butik Otel",
        "tourism": "hotel"
      }
    },
    {
      "type": "Feature",
      "geometry": {
        "type": "Point",
        "coordinates": [
          30.015927,
          40.356941
        ]
      },
      "properties": {
        "id": 9193875144,
        "osm_type": "node",
        "name": "Kelemcioğlu Otel",
        "tourism": "hotel"
      }
    },
    {
      "type": "Feature",
      "geometry": {
        "type": "Point",
        "coordinates": [
          29.978869,
          40.1422777
        ]
      },
      "properties": {
        "id": 9901194218,
        "osm_type": "node",
        "name": "Otel 11",
        "tourism": "hotel"
      }
    },
    {
      "type": "Feature",
      "geometry": {
        "type": "Point",
        "coordinates": [
          30.0225782,
          40.3697209
        ]
      },
      "properties": {
        "id": 10146966770,
        "osm_type": "node",
        "tourism": "hotel"
      }
    },
    {
      "type": "Feature",
      "geometry": {
        "type": "Point",
        "coordinates": [
          29.797101,
          40.0150703
        ]
      },
      "properties": {
        "id": 10773706590,
        "osm_type": "node",
        "name": "Karavan Park Alani",
        "tourism": "caravan_site"
      }
    },
    {
      "type": "Feature",
      "geometry": {
        "type": "Point",
        "coordinates": [
          29.976778,
          40.1561175
        ]
      },
      "properties": {
        "id": 11017998805,
        "osm_type": "node",
        "name": "Bilecik Öğretmenevi ve Akşam Sanat Okulu",
        "tourism": "guest_house",
        "opening_hours": "24/7",
        "phone": "+90 228 212 50 51",
        "check_date": "2026-02-03"
      }
    },
    {
      "type": "Feature",
      "geometry": {
        "type": "Point",
        "coordinates": [
          30.0332596,
          39.902323
        ]
      },
      "properties": {
        "id": 896786852,
        "osm_type": "way",
        "name": "Grand Çalışkan Hotel",
        "tourism": "hotel"
      }
    },
    {
      "type": "Feature",
      "geometry": {
        "type": "Point",
        "coordinates": [
          30.031234,
          40.2917181
        ]
      },
      "properties": {
        "id": 1015612475,
        "osm_type": "way",
        "name": "Sümela Park Otel",
        "tourism": "hotel"
      }
    },
    {
      "type": "Feature",
      "geometry": {
        "type": "Point",
        "coordinates": [
          30.1791182,
          40.0244486
        ]
      },
      "properties": {
        "id": 1099906177,
        "osm_type": "way",
        "name": "Namlı Osmanlı Otel",
        "tourism": "hotel"
      }
    }
  ]
}