{
  "type": "FeatureCollection",
  "features": [
    {
      "type": "Feature",
      "geometry": {
        "type": "Point",
        "coordinates": [
          -7.4966348,
          39.8206217
        ]
      },
      "properties": {
        "id": 686559565,
        "osm_type": "node",
        "name": "Hotel Rainha Dona Amélia",
        "tourism": "hotel",
        "phone": "+351 272 348 800",
        "website": "https://www.hotelrainhadamelia.pt/"
      }
    },
    {
      "type": "Feature",
      "geometry": {
        "type": "Point",
        "coordinates": [
          -7.3523104,
          40.3656775
        ]
      },
      "properties": {
        "id": 853080093,
        "osm_type": "node",
        "name": "Belsol",
        "tourism": "hotel",
        "phone": "+351 275 912 206",
        "website": "http://www.hotelbelsol.com/"
      }
    },
    {
      "type": "Feature",
      "geometry": {
        "type": "Point",
        "coordinates": [
          -7.5506246,
          40.3108353
        ]
      },
      "properties": {
        "id": 1106235906,
        "osm_type": "node",
        "name": "Pousada da Juventude Penhas da Saúde",
        "tourism": "hostel",
        "phone": "+351275335375"
      }
    },
    {
      "type": "Feature",
      "geometry": {
        "type": "Point",
        "coordinates": [
          -7.5489283,
          40.3073439
        ]
      },
      "properties": {
        "id": 1106294978,
        "osm_type": "node",
        "name": "Luna Hotel Serra da Estrela",
        "tourism": "hotel",
        "phone": "+351 275 310 300",
        "website": "https://www.lunahoteis.com/pt/Luna-Hotels-Resorts/Hoteis/Luna-Serra-da-Estrela/O-Hotel.aspx"
      }
    },
    {
      "type": "Feature",
      "geometry": {
        "type": "Point",
        "coordinates": [
          -7.9198152,
          39.7492656
        ]
      },
      "properties": {
        "id": 1596650483,
        "osm_type": "node",
        "name": "Hotel Amoras",
        "tourism": "hotel"
      }
    },
    {
      "type": "Feature",
      "geometry": {
        "type": "Point",
        "coordinates": [
          -7.5056516,
          40.2841131
        ]
      },
      "properties": {
        "id": 1696148283,
        "osm_type": "node",
        "name": "SportHotel",
        "tourism": "hotel"
      }
    },
    {
      "type": "Feature",
      "geometry": {
        "type": "Point",
        "coordinates": [
          -7.5118801,
          40.1318388
        ]
      },
      "properties": {
        "id": 1722665452,
        "osm_type": "node",
        "name": "Parque de Campismo do Fundão",
        "tourism": "camp_site",
        "phone": "+351 965 230 695",
        "website": "http://campismofundao.com"
      }
    },
    {
      "type": "Feature",
      "geometry": {
        "type": "Point",
        "coordinates": [
          -7.4872046,
          40.2363849
        ]
      },
      "properties": {
        "id": 2235500911,
        "osm_type": "node",
        "name": "Parque Carlos Pinto",
        "tourism": "caravan_site"
      }
    },
    {
      "type": "Feature",
      "geometry": {
        "type": "Point",
        "coordinates": [
          -7.487623,
          40.2363931
        ]
      },
      "properties": {
        "id": 2235500912,
        "osm_type": "node",
        "name": "Parque Carlos Pinto",
        "tourism": "camp_site"
      }
    },
    {
      "type": "Feature",
      "geometry": {
        "type": "Point",
        "coordinates": [
          -7.4959831,
          40.0774661
        ]
      },
      "properties": {
        "id": 2286484053,
        "osm_type": "node",
        "name": "Casa Petrus Guterri",
        "tourism": "guest_house"
      }
    },
    {
      "type": "Feature",
      "geometry": {
        "type": "Point",
        "coordinates": [
          -8.1302313,
          39.9119118
        ]
      },
      "properties": {
        "id": 2367544296,
        "osm_type": "node",
        "name": "Hotel da Montanha",
        "tourism": "hotel",
        "phone": "+351 236 480 000",
        "website": "https://www.hoteldamontanha.com/"
      }
    },
    {
      "type": "Feature",
      "geometry": {
        "type": "Point",
        "coordinates": [
          -7.5024362,
          39.8212951
        ]
      },
      "properties": {
        "id": 2387522699,
        "osm_type": "node",
        "name": "Pousada da Juventude",
        "tourism": "hostel",
        "phone": "+351 272 321 363"
      }
    },
    {
      "type": "Feature",
      "geometry": {
        "type": "Point",
        "coordinates": [
          -7.1731459,
          40.1614994
        ]
      },
      "properties": {
        "id": 2426057891,
        "osm_type": "node",
        "name": "Palace Hotel de São Tiago",
        "tourism": "hotel",
        "phone": "+351 277 390 070",
        "website": "https://www.termasdesaotiago.com/"
      }
    },
    {
      "type": "Feature",
      "geometry": {
        "type": "Point",
        "coordinates": [
          -7.6379457,
          40.2015087
        ]
      },
      "properties": {
        "id": 2665276930,
        "osm_type": "node",
        "tourism": "hotel"
      }
    },
    {
      "type": "Feature",
      "geometry": {
        "type": "Point",
        "coordinates": [
          -7.5647576,
          40.2713392
        ]
      },
      "properties": {
        "id": 3030943815,
        "osm_type": "node",
        "name": "Casa do Circo",
        "tourism": "chalet",
        "phone": "+351 919 990 379",
        "website": "http://www.facebook.com/casadocirco.serradaestrela"
      }
    },
    {
      "type": "Feature",
      "geometry": {
        "type": "Point",
        "coordinates": [
          -7.6728109,
          39.6513832
        ]
      },
      "properties": {
        "id": 3370741302,
        "osm_type": "node",
        "tourism": "camp_site"
      }
    },
    {
      "type": "Feature",
      "geometry": {
        "type": "Point",
        "coordinates": [
          -7.0824412,
          40.1564376
        ]
      },
      "properties": {
        "id": 3563081034,
        "osm_type": "node",
        "name": "Moinho do Maneio",
        "tourism": "guest_house"
      }
    },
    {
      "type": "Feature",
      "geometry": {
        "type": "Point",
        "coordinates": [
          -8.1417144,
          39.8310793
        ]
      },
      "properties": {
        "id": 3564081577,
        "osm_type": "node",
        "name": "Quinta de Santa Theresinha",
        "tourism": "guest_house",
        "website": "https://www.santosemarcal.pt/"
      }
    },
    {
      "type": "Feature",
      "geometry": {
        "type": "Point",
        "coordinates": [
          -7.2967131,
          39.7398015
        ]
      },
      "properties": {
        "id": 3955463954,
        "osm_type": "node",
        "name": "Casa d'Aldeia",
        "tourism": "hotel"
      }
    },
    {
      "type": "Feature",
      "geometry": {
        "type": "Point",
        "coordinates": [
          -7.4987278,
          40.2346956
        ]
      },
      "properties": {
        "id": 4235735900,
        "osm_type": "node",
        "name": "Terrace Serra",
        "tourism": "hotel"
      }
    },
    {
      "type": "Feature",
      "geometry": {
        "type": "Point",
        "coordinates": [
          -7.3410091,
          40.3639397
        ]
      },
      "properties": {
        "id": 4402192291,
        "osm_type": "node",
        "name": "Parque de Santiago",
        "tourism": "caravan_site"
      }
    },
    {
      "type": "Feature",
      "geometry": {
        "type": "Point",
        "coordinates": [
          -7.2209348,
          40.2295017
        ]
      },
      "properties": {
        "id": 4423380694,
        "osm_type": "node",
        "name": "Área de Serviço",
        "tourism": "caravan_site"
      }
    },
    {
      "type": "Feature",
      "geometry": {
        "type": "Point",
        "coordinates": [
          -7.4359511,
          40.3104357
        ]
      },
      "properties": {
        "id": 4693228603,
        "osm_type": "node",
        "name": "Centro de Lazer da Quinta de Santa Iria",
        "tourism": "hostel",
        "website": "https://cofre.org/centro-de-lazer-da-quinta-sta-iria.html"
      }
    },
    {
      "type": "Feature",
      "geometry": {
        "type": "Point",
        "coordinates": [
          -6.879805,
          39.9978168
        ]
      },
      "properties": {
        "id": 4698095656,
        "osm_type": "node",
        "name": "Hotel Boa Vista",
        "tourism": "hotel"
      }
    },
    {
      "type": "Feature",
      "geometry": {
        "type": "Point",
        "coordinates": [
          -7.9641277,
          39.9732297
        ]
      },
      "properties": {
        "id": 4759061792,
        "osm_type": "node",
        "name": "TerimaQuinta",
        "tourism": "guest_house",
        "opening_hours": "24/7"
      }
    },
    {
      "type": "Feature",
      "geometry": {
        "type": "Point",
        "coordinates": [
          -7.3513457,
          40.358387
        ]
      },
      "properties": {
        "id": 5026651522,
        "osm_type": "node",
        "name": "Município De Belmonte",
        "tourism": "hotel",
        "opening_hours": "Mo-Fr 09:00-05:30",
        "phone": "+351 275 910 010"
      }
    },
    {
      "type": "Feature",
      "geometry": {
        "type": "Point",
        "coordinates": [
          -7.7614296,
          39.7292737
        ]
      },
      "properties": {
        "id": 5149916020,
        "osm_type": "node",
        "name": "Casa da Meia Encosta",
        "tourism": "guest_house"
      }
    },
    {
      "type": "Feature",
      "geometry": {
        "type": "Point",
        "coordinates": [
          -8.0999982,
          39.8010633
        ]
      },
      "properties": {
        "id": 5335674017,
        "osm_type": "node",
        "name": "O Convento",
        "tourism": "hotel"
      }
    },
    {
      "type": "Feature",
      "geometry": {
        "type": "Point",
        "coordinates": [
          -8.091405,
          39.7988673
        ]
      },
      "properties": {
        "id": 5381704192,
        "osm_type": "node",
        "name": "Lar Verde",
        "tourism": "hotel"
      }
    },
    {
      "type": "Feature",
      "geometry": {
        "type": "Point",
        "coordinates": [
          -8.22618,
          39.8396125
        ]
      },
      "properties": {
        "id": 5627666737,
        "osm_type": "node",
        "name": "Glamping do Zê",
        "tourism": "guest_house",
        "phone": "+351 913 929 833",
        "website": "http://www.GlampingdoZe.com"
      }
    },
    {
      "type": "Feature",
      "geometry": {
        "type": "Point",
        "coordinates": [
          -7.475555,
          40.2307189
        ]
      },
      "properties": {
        "id": 5823951132,
        "osm_type": "node",
        "name": "Quinta de Seves",
        "tourism": "guest_house"
      }
    },
    {
      "type": "Feature",
      "geometry": {
        "type": "Point",
        "coordinates": [
          -7.7991862,
          40.0667911
        ]
      },
      "properties": {
        "id": 5940249244,
        "osm_type": "node",
        "name": "Casa do Quelho",
        "tourism": "guest_house",
        "website": "https://www.facebook.com/casadoquelho"
      }
    },
    {
      "type": "Feature",
      "geometry": {
        "type": "Point",
        "coordinates": [
          -7.7991065,
          40.0692437
        ]
      },
      "properties": {
        "id": 5940261588,
        "osm_type": "node",
        "name": "Casa Cova do Barro",
        "tourism": "guest_house",
        "website": "http://www.covadobarro.com"
      }
    },
    {
      "type": "Feature",
      "geometry": {
        "type": "Point",
        "coordinates": [
          -7.8014939,
          40.0667198
        ]
      },
      "properties": {
        "id": 5940261589,
        "osm_type": "node",
        "name": "Casa da Pedra Rolada",
        "tourism": "guest_house",
        "website": "http://www.casadejaneiro.com"
      }
    },
    {
      "type": "Feature",
      "geometry": {
        "type": "Point",
        "coordinates": [
          -7.8003794,
          40.0667187
        ]
      },
      "properties": {
        "id": 5940261590,
        "osm_type": "node",
        "name": "Casa de Janeiro",
        "tourism": "guest_house",
        "website": "http://www.casadejaneiro.com"
      }
    },
    {
      "type": "Feature",
      "geometry": {
        "type": "Point",
        "coordinates": [
          -7.8003256,
          40.0659464
        ]
      },
      "properties": {
        "id": 5940261591,
        "osm_type": "node",
        "name": "Casa Maria Dias",
        "tourism": "guest_house",
        "website": "http://www.casadejaneiro.com"
      }
    },
    {
      "type": "Feature",
      "geometry": {
        "type": "Point",
        "coordinates": [
          -7.9228995,
          39.9101949
        ]
      },
      "properties": {
        "id": 6013429278,
        "osm_type": "node",
        "tourism": "guest_house"
      }
    },
    {
      "type": "Feature",
      "geometry": {
        "type": "Point",
        "coordinates": [
          -7.0169093,
          40.0389296
        ]
      },
      "properties": {
        "id": 6024872525,
        "osm_type": "node",
        "name": "Casa Santa Catarina",
        "tourism": "hotel"
      }
    },
    {
      "type": "Feature",
      "geometry": {
        "type": "Point",
        "coordinates": [
          -7.3606592,
          40.3438031
        ]
      },
      "properties": {
        "id": 6329057691,
        "osm_type": "node",
        "name": "Pousada Convento de Belmonte",
        "tourism": "hotel",
        "contact:phone": "+351 275 910 300",
        "contact:website": "http://www.conventodebelmonte.pt"
      }
    },
    {
      "type": "Feature",
      "geometry": {
        "type": "Point",
        "coordinates": [
          -7.4976453,
          39.8175385
        ]
      },
      "properties": {
        "id": 6427489049,
        "osm_type": "node",
        "name": "Guest House Esplanada",
        "tourism": "hotel",
        "phone": "+351 926 048 427"
      }
    },
    {
      "type": "Feature",
      "geometry": {
        "type": "Point",
        "coordinates": [
          -7.6730878,
          39.6525645
        ]
      },
      "properties": {
        "id": 6427508564,
        "osm_type": "node",
        "name": "Vilaportuguesa",
        "tourism": "hotel",
        "phone": "+351 272 541 138"
      }
    },
    {
      "type": "Feature",
      "geometry": {
        "type": "Point",
        "coordinates": [
          -8.1429827,
          39.6765249
        ]
      },
      "properties": {
        "id": 6452213263,
        "osm_type": "node",
        "name": "Albergaria D. Dinis",
        "tourism": "hotel",
        "phone": "+351 961 485 129"
      }
    },
    {
      "type": "Feature",
      "geometry": {
        "type": "Point",
        "coordinates": [
          -8.1459653,
          39.6762606
        ]
      },
      "properties": {
        "id": 6452213265,
        "osm_type": "node",
        "name": "A Velha Casa",
        "tourism": "guest_house"
      }
    },
    {
      "type": "Feature",
      "geometry": {
        "type": "Point",
        "coordinates": [
          -7.9823613,
          39.7683457
        ]
      },
      "properties": {
        "id": 6649657422,
        "osm_type": "node",
        "tourism": "camp_site"
      }
    },
    {
      "type": "Feature",
      "geometry": {
        "type": "Point",
        "coordinates": [
          -7.983807,
          39.7688054
        ]
      },
      "properties": {
        "id": 6649672624,
        "osm_type": "node",
        "tourism": "camp_site"
      }
    },
    {
      "type": "Feature",
      "geometry": {
        "type": "Point",
        "coordinates": [
          -8.1627902,
          39.6251566
        ]
      },
      "properties": {
        "id": 6852718586,
        "osm_type": "node",
        "tourism": "camp_site"
      }
    },
    {
      "type": "Feature",
      "geometry": {
        "type": "Point",
        "coordinates": [
          -7.0169935,
          40.0385098
        ]
      },
      "properties": {
        "id": 7629489618,
        "osm_type": "node",
        "name": "Cantinho da Laura",
        "tourism": "hotel"
      }
    },
    {
      "type": "Feature",
      "geometry": {
        "type": "Point",
        "coordinates": [
          -7.7992101,
          40.066531
        ]
      },
      "properties": {
        "id": 7684989679,
        "osm_type": "node",
        "name": "Casa da Avó Amália",
        "tourism": "guest_house",
        "website": "https://www.booking.com/hotel/pt/casa-da-avo-amalia.pt-pt.html"
      }
    },
    {
      "type": "Feature",
      "geometry": {
        "type": "Point",
        "coordinates": [
          -7.3497861,
          40.3601678
        ]
      },
      "properties": {
        "id": 7853247385,
        "osm_type": "node",
        "name": "Casa Rafael",
        "tourism": "guest_house",
        "phone": "+351 928 056 552"
      }
    },
    {
      "type": "Feature",
      "geometry": {
        "type": "Point",
        "coordinates": [
          -7.3645641,
          40.352434
        ]
      },
      "properties": {
        "id": 8971739582,
        "osm_type": "node",
        "name": "Casa dos Caseiros",
        "tourism": "guest_house"
      }
    },
    {
      "type": "Feature",
      "geometry": {
        "type": "Point",
        "coordinates": [
          -7.5852433,
          40.2513582
        ]
      },
      "properties": {
        "id": 9007201804,
        "osm_type": "node",
        "name": "Quinta do Pé Longo",
        "tourism": "chalet",
        "phone": "+351 919 742 286"
      }
    },
    {
      "type": "Feature",
      "geometry": {
        "type": "Point",
        "coordinates": [
          -7.4589258,
          40.1349394
        ]
      },
      "properties": {
        "id": 9089452317,
        "osm_type": "node",
        "name": "Cerca Design",
        "tourism": "hotel",
        "website": "http://www.cercadesignhouse.com"
      }
    },
    {
      "type": "Feature",
      "geometry": {
        "type": "Point",
        "coordinates": [
          -7.4904058,
          39.8237914
        ]
      },
      "properties": {
        "id": 9530453613,
        "osm_type": "node",
        "name": "Casa 92",
        "tourism": "hostel",
        "phone": "+351 272 322 398",
        "website": "https://www.casa92.pt/"
      }
    },
    {
      "type": "Feature",
      "geometry": {
        "type": "Point",
        "coordinates": [
          -7.5074723,
          40.2734517
        ]
      },
      "properties": {
        "id": 9678824317,
        "osm_type": "node",
        "name": "University Researchers Residence",
        "tourism": "apartment"
      }
    },
    {
      "type": "Feature",
      "geometry": {
        "type": "Point",
        "coordinates": [
          -7.5630419,
          40.3139045
        ]
      },
      "properties": {
        "id": 9974933817,
        "osm_type": "node",
        "tourism": "alpine_hut"
      }
    },
    {
      "type": "Feature",
      "geometry": {
        "type": "Point",
        "coordinates": [
          -7.9797643,
          39.8991963
        ]
      },
      "properties": {
        "id": 10020582789,
        "osm_type": "node",
        "name": "naturalma",
        "tourism": "guest_house"
      }
    },
    {
      "type": "Feature",
      "geometry": {
        "type": "Point",
        "coordinates": [
          -8.1457168,
          39.67464
        ]
      },
      "properties": {
        "id": 10117380572,
        "osm_type": "node",
        "tourism": "caravan_site",
        "opening_hours": "24/7"
      }
    },
    {
      "type": "Feature",
      "geometry": {
        "type": "Point",
        "coordinates": [
          -7.1437212,
          39.9983684
        ]
      },
      "properties": {
        "id": 10159350217,
        "osm_type": "node",
        "tourism": "caravan_site"
      }
    },
    {
      "type": "Feature",
      "geometry": {
        "type": "Point",
        "coordinates": [
          -7.6064221,
          40.1335638
        ]
      },
      "properties": {
        "id": 10199431317,
        "osm_type": "node",
        "name": "Quinta da Filhadeira",
        "tourism": "guest_house"
      }
    },
    {
      "type": "Feature",
      "geometry": {
        "type": "Point",
        "coordinates": [
          -7.6068531,
          40.127156
        ]
      },
      "properties": {
        "id": 10199759019,
        "osm_type": "node",
        "name": "Quinta da Filhadeira",
        "tourism": "guest_house"
      }
    },
    {
      "type": "Feature",
      "geometry": {
        "type": "Point",
        "coordinates": [
          -7.2845315,
          40.0418994
        ]
      },
      "properties": {
        "id": 10764710905,
        "osm_type": "node",
        "name": "Spirala EcoVillage",
        "tourism": "camp_site",
        "tents": "yes",
        "phone": "+351934377948",
        "website": "https://spiralaecovillage.com/"
      }
    },
    {
      "type": "Feature",
      "geometry": {
        "type": "Point",
        "coordinates": [
          -6.878333,
          39.998056
        ]
      },
      "properties": {
        "id": 10769084117,
        "osm_type": "node",
        "name": "Stellplatz Termas de Monfortinho",
        "tourism": "caravan_site"
      }
    },
    {
      "type": "Feature",
      "geometry": {
        "type": "Point",
        "coordinates": [
          -7.6823738,
          40.1462559
        ]
      },
      "properties": {
        "id": 11177292446,
        "osm_type": "node",
        "name": "Refúgio Dos Mauzinhos",
        "tourism": "hostel"
      }
    },
    {
      "type": "Feature",
      "geometry": {
        "type": "Point",
        "coordinates": [
          -7.6221509,
          40.258433
        ]
      },
      "properties": {
        "id": 11775285722,
        "osm_type": "node",
        "name": "AL",
        "tourism": "hostel"
      }
    },
    {
      "type": "Feature",
      "geometry": {
        "type": "Point",
        "coordinates": [
          -7.917985,
          39.7513396
        ]
      },
      "properties": {
        "id": 12128159286,
        "osm_type": "node",
        "tourism": "caravan_site"
      }
    },
    {
      "type": "Feature",
      "geometry": {
        "type": "Point",
        "coordinates": [
          -7.4957356,
          40.166215
        ]
      },
      "properties": {
        "id": 12254926488,
        "osm_type": "node",
        "name": "Alambique Hotel Resort & Spa",
        "tourism": "hotel",
        "phone": "+351 275 774 145",
        "website": "https://www.hotelalambique.com/"
      }
    },
    {
      "type": "Feature",
      "geometry": {
        "type": "Point",
        "coordinates": [
          -7.4858537,
          39.8250184
        ]
      },
      "properties": {
        "id": 12850974784,
        "osm_type": "node",
        "name": "Casa 3",
        "tourism": "hotel"
      }
    },
    {
      "type": "Feature",
      "geometry": {
        "type": "Point",
        "coordinates": [
          -7.5009973,
          39.8128124
        ]
      },
      "properties": {
        "id": 12857898813,
        "osm_type": "node",
        "tourism": "caravan_site"
      }
    },
    {
      "type": "Feature",
      "geometry": {
        "type": "Point",
        "coordinates": [
          -7.5063269,
          40.2807901
        ]
      },
      "properties": {
        "id": 12952429225,
        "osm_type": "node",
        "name": "Casa do Castelo",
        "tourism": "guest_house"
      }
    },
    {
      "type": "Feature",
      "geometry": {
        "type": "Point",
        "coordinates": [
          -7.6382161,
          40.2032667
        ]
      },
      "properties": {
        "id": 13006666101,
        "osm_type": "node",
        "tourism": "hotel"
      }
    },
    {
      "type": "Feature",
      "geometry": {
        "type": "Point",
        "coordinates": [
          -7.2411952,
          39.931123
        ]
      },
      "properties": {
        "id": 119793229,
        "osm_type": "way",
        "name": "Hotel Estrela da Idanha",
        "tourism": "hotel"
      }
    },
    {
      "type": "Feature",
      "geometry": {
        "type": "Point",
        "coordinates": [
          -7.6242127,
          40.2655565
        ]
      },
      "properties": {
        "id": 183851025,
        "osm_type": "way",
        "name": "H2otel Congress & Medical Spa",
        "tourism": "hotel",
        "website": "http://www.h2otel.com.pt",
        "check_date": "2025-05-12"
      }
    },
    {
      "type": "Feature",
      "geometry": {
        "type": "Point",
        "coordinates": [
          -7.9667202,
          39.9758795
        ]
      },
      "properties": {
        "id": 227519987,
        "osm_type": "way",
        "name": "Casa dos Hospitalários",
        "tourism": "guest_house"
      }
    },
    {
      "type": "Feature",
      "geometry": {
        "type": "Point",
        "coordinates": [
          -7.9106125,
          39.9156581
        ]
      },
      "properties": {
        "id": 227520667,
        "osm_type": "way",
        "name": "Hotel Santa Margarida",
        "tourism": "hotel",
        "phone": "+351 272 680 010",
        "website": "http://www.hotelsantamargarida.pt"
      }
    },
    {
      "type": "Feature",
      "geometry": {
        "type": "Point",
        "coordinates": [
          -7.5283995,
          40.2874208
        ]
      },
      "properties": {
        "id": 291391731,
        "osm_type": "way",
        "name": "Parque do Pião",
        "tourism": "camp_site"
      }
    },
    {
      "type": "Feature",
      "geometry": {
        "type": "Point",
        "coordinates": [
          -7.4960582,
          40.0774823
        ]
      },
      "properties": {
        "id": 294847212,
        "osm_type": "way",
        "name": "Casa Petrus Guterri",
        "tourism": "hotel"
      }
    },
    {
      "type": "Feature",
      "geometry": {
        "type": "Point",
        "coordinates": [
          -6.8766392,
          40.0002743
        ]
      },
      "properties": {
        "id": 310770848,
        "osm_type": "way",
        "name": "Hotel Fonte Santa",
        "tourism": "hotel"
      }
    },
    {
      "type": "Feature",
      "geometry": {
        "type": "Point",
        "coordinates": [
          -6.8797831,
          39.9987759
        ]
      },
      "properties": {
        "id": 310771869,
        "osm_type": "way",
        "name": "Hotel Astória",
        "tourism": "hotel"
      }
    },
    {
      "type": "Feature",
      "geometry": {
        "type": "Point",
        "coordinates": [
          -7.518082,
          39.8063999
        ]
      },
      "properties": {
        "id": 315732218,
        "osm_type": "way",
        "tourism": "hotel"
      }
    },
    {
      "type": "Feature",
      "geometry": {
        "type": "Point",
        "coordinates": [
          -7.2413234,
          39.9312448
        ]
      },
      "properties": {
        "id": 341080227,
        "osm_type": "way",
        "name": "Hotel Estrela da Idanha",
        "tourism": "hotel"
      }
    },
    {
      "type": "Feature",
      "geometry": {
        "type": "Point",
        "coordinates": [
          -7.4943672,
          40.1660877
        ]
      },
      "properties": {
        "id": 357912600,
        "osm_type": "way",
        "name": "Alambique Hotel Resort & Spa",
        "tourism": "hotel",
        "website": "https://www.hotelalambique.com/"
      }
    },
    {
      "type": "Feature",
      "geometry": {
        "type": "Point",
        "coordinates": [
          -7.4953142,
          40.171312
        ]
      },
      "properties": {
        "id": 357950199,
        "osm_type": "way",
        "tourism": "hotel"
      }
    },
    {
      "type": "Feature",
      "geometry": {
        "type": "Point",
        "coordinates": [
          -7.4984409,
          40.2672843
        ]
      },
      "properties": {
        "id": 358193649,
        "osm_type": "way",
        "name": "Puralã - Wool Valley Hotel & SPA",
        "tourism": "hotel"
      }
    },
    {
      "type": "Feature",
      "geometry": {
        "type": "Point",
        "coordinates": [
          -7.505349,
          40.2695952
        ]
      },
      "properties": {
        "id": 358202793,
        "osm_type": "way",
        "name": "Hotel Covilhã Dona Maria",
        "tourism": "hotel",
        "phone": "+351 275 310 000",
        "website": "https://www.melia.com/en/hotels/portugal/covilha/hotel-covilha-dona-maria-by-melia"
      }
    },
    {
      "type": "Feature",
      "geometry": {
        "type": "Point",
        "coordinates": [
          -7.5036283,
          40.2808805
        ]
      },
      "properties": {
        "id": 358205107,
        "osm_type": "way",
        "name": "Hotel Sol e Neve",
        "tourism": "hotel"
      }
    },
    {
      "type": "Feature",
      "geometry": {
        "type": "Point",
        "coordinates": [
          -7.1135916,
          40.0392806
        ]
      },
      "properties": {
        "id": 383375172,
        "osm_type": "way",
        "name": "Casa Pires Mateus",
        "tourism": "motel"
      }
    },
    {
      "type": "Feature",
      "geometry": {
        "type": "Point",
        "coordinates": [
          -7.3615402,
          40.3282758
        ]
      },
      "properties": {
        "id": 400020151,
        "osm_type": "way",
        "name": "Casa Da Chandeirinha",
        "tourism": "guest_house"
      }
    },
    {
      "type": "Feature",
      "geometry": {
        "type": "Point",
        "coordinates": [
          -7.8930508,
          39.9214185
        ]
      },
      "properties": {
        "id": 417606795,
        "osm_type": "way",
        "name": "Parque de Campismo de Oleiros",
        "tourism": "camp_site",
        "phone": "+351 926 860 112;+351 272 681 106",
        "website": "https://campingoleiros.com"
      }
    },
    {
      "type": "Feature",
      "geometry": {
        "type": "Point",
        "coordinates": [
          -7.4581163,
          40.1052167
        ]
      },
      "properties": {
        "id": 429706963,
        "osm_type": "way",
        "tourism": "hostel"
      }
    },
    {
      "type": "Feature",
      "geometry": {
        "type": "Point",
        "coordinates": [
          -7.4953134,
          40.1712408
        ]
      },
      "properties": {
        "id": 432553649,
        "osm_type": "way",
        "name": "Fundão Palace Hotel",
        "tourism": "hotel"
      }
    },
    {
      "type": "Feature",
      "geometry": {
        "type": "Point",
        "coordinates": [
          -7.5321984,
          40.130737
        ]
      },
      "properties": {
        "id": 434435194,
        "osm_type": "way",
        "name": "Casa do Cimo",
        "tourism": "hotel"
      }
    },
    {
      "type": "Feature",
      "geometry": {
        "type": "Point",
        "coordinates": [
          -7.4987017,
          40.1393931
        ]
      },
      "properties": {
        "id": 435504492,
        "osm_type": "way",
        "name": "Hotel Samasa",
        "tourism": "hotel",
        "phone": "+351 275 779 930",
        "website": "http://www.hotelsamasafundao.com"
      }
    },
    {
      "type": "Feature",
      "geometry": {
        "type": "Point",
        "coordinates": [
          -7.4977992,
          40.1341316
        ]
      },
      "properties": {
        "id": 435683242,
        "osm_type": "way",
        "name": "Estalagem da Neve",
        "tourism": "hotel"
      }
    },
    {
      "type": "Feature",
      "geometry": {
        "type": "Point",
        "coordinates": [
          -7.4981421,
          40.1374038
        ]
      },
      "properties": {
        "id": 435689270,
        "osm_type": "way",
        "name": "Tarouca",
        "tourism": "motel"
      }
    },
    {
      "type": "Feature",
      "geometry": {
        "type": "Point",
        "coordinates": [
          -7.4993432,
          40.1383759
        ]
      },
      "properties": {
        "id": 436259470,
        "osm_type": "way",
        "name": "Rivoli",
        "tourism": "guest_house"
      }
    },
    {
      "type": "Feature",
      "geometry": {
        "type": "Point",
        "coordinates": [
          -7.709661,
          40.132482
        ]
      },
      "properties": {
        "id": 468407322,
        "osm_type": "way",
        "name": "Apartamentos Casas da Mina",
        "tourism": "hostel"
      }
    },
    {
      "type": "Feature",
      "geometry": {
        "type": "Point",
        "coordinates": [
          -7.7083481,
          40.1315478
        ]
      },
      "properties": {
        "id": 468407638,
        "osm_type": "way",
        "name": "Casas da Mina Hostel",
        "tourism": "hostel"
      }
    },
    {
      "type": "Feature",
      "geometry": {
        "type": "Point",
        "coordinates": [
          -7.1883726,
          39.9231592
        ]
      },
      "properties": {
        "id": 486077524,
        "osm_type": "way",
        "name": "CNAE – Campo Nacional de Atividades Escutistas de Idanha-a-Nova",
        "tourism": "camp_site"
      }
    },
    {
      "type": "Feature",
      "geometry": {
        "type": "Point",
        "coordinates": [
          -7.5288122,
          40.2895638
        ]
      },
      "properties": {
        "id": 496497810,
        "osm_type": "way",
        "name": "Lam Hotel Dos Carqueijais",
        "tourism": "hotel",
        "phone": "+351 275 319 120",
        "website": "https://flagworldhotels.com/hotel.php?&h=17"
      }
    },
    {
      "type": "Feature",
      "geometry": {
        "type": "Point",
        "coordinates": [
          -7.4989313,
          39.8264223
        ]
      },
      "properties": {
        "id": 552849676,
        "osm_type": "way",
        "name": "MELIÁ CASTELO BRANCO",
        "tourism": "hotel",
        "phone": "+351 272 349 280",
        "website": "https://www.meliacastelobranco.com/"
      }
    },
    {
      "type": "Feature",
      "geometry": {
        "type": "Point",
        "coordinates": [
          -8.0946454,
          39.8024787
        ]
      },
      "properties": {
        "id": 576287279,
        "osm_type": "way",
        "name": "Residence Inn",
        "tourism": "hotel"
      }
    },
    {
      "type": "Feature",
      "geometry": {
        "type": "Point",
        "coordinates": [
          -7.8055827,
          40.0664893
        ]
      },
      "properties": {
        "id": 606853168,
        "osm_type": "way",
        "tourism": "camp_site"
      }
    },
    {
      "type": "Feature",
      "geometry": {
        "type": "Point",
        "coordinates": [
          -7.6233142,
          40.2332822
        ]
      },
      "properties": {
        "id": 615908099,
        "osm_type": "way",
        "name": "Quinta da Vargem",
        "tourism": "guest_house"
      }
    },
    {
      "type": "Feature",
      "geometry": {
        "type": "Point",
        "coordinates": [
          -7.6721449,
          39.6515822
        ]
      },
      "properties": {
        "id": 712382107,
        "osm_type": "way",
        "tourism": "caravan_site"
      }
    },
    {
      "type": "Feature",
      "geometry": {
        "type": "Point",
        "coordinates": [
          -7.5803008,
          39.6813501
        ]
      },
      "properties": {
        "id": 720888799,
        "osm_type": "way",
        "name": "Herdade da Urgueira",
        "tourism": "guest_house"
      }
    },
    {
      "type": "Feature",
      "geometry": {
        "type": "Point",
        "coordinates": [
          -8.1629126,
          39.8134579
        ]
      },
      "properties": {
        "id": 746199742,
        "osm_type": "way",
        "name": "Albergue do Bonjardim",
        "tourism": "guest_house"
      }
    },
    {
      "type": "Feature",
      "geometry": {
        "type": "Point",
        "coordinates": [
          -7.0729891,
          40.1296644
        ]
      },
      "properties": {
        "id": 783137356,
        "osm_type": "way",
        "name": "Parque de Campismo do Freixial",
        "tourism": "camp_site"
      }
    },
    {
      "type": "Feature",
      "geometry": {
        "type": "Point",
        "coordinates": [
          -7.5498771,
          40.3066553
        ]
      },
      "properties": {
        "id": 783930423,
        "osm_type": "way",
        "tourism": "hotel"
      }
    },
    {
      "type": "Feature",
      "geometry": {
        "type": "Point",
        "coordinates": [
          -7.1842208,
          40.2262089
        ]
      },
      "properties": {
        "id": 894932039,
        "osm_type": "way",
        "name": "Meimoa Guesthouse",
        "tourism": "guest_house"
      }
    },
    {
      "type": "Feature",
      "geometry": {
        "type": "Point",
        "coordinates": [
          -7.2370261,
          39.9209318
        ]
      },
      "properties": {
        "id": 1004659245,
        "osm_type": "way",
        "name": "HI Idanha-a-Nova",
        "tourism": "hostel",
        "phone": "+351 925 664 989",
        "website": "https://www.pousadasjuventude.pt/pt/pousadas/pousada-de-idanha-a-nova/"
      }
    },
    {
      "type": "Feature",
      "geometry": {
        "type": "Point",
        "coordinates": [
          -7.4839632,
          40.1085148
        ]
      },
      "properties": {
        "id": 1040014698,
        "osm_type": "way",
        "name": "Natura Glamping (Gardunha)",
        "tourism": "hotel",
        "phone": "+351 275 031 786",
        "website": "https://naturaglamping.com"
      }
    },
    {
      "type": "Feature",
      "geometry": {
        "type": "Point",
        "coordinates": [
          -7.3752167,
          39.8768981
        ]
      },
      "properties": {
        "id": 1079812269,
        "osm_type": "way",
        "name": "Campo do Rosmaninho",
        "tourism": "apartment"
      }
    },
    {
      "type": "Feature",
      "geometry": {
        "type": "Point",
        "coordinates": [
          -8.0091801,
          39.8608837
        ]
      },
      "properties": {
        "id": 1081536172,
        "osm_type": "way",
        "tourism": "caravan_site"
      }
    },
    {
      "type": "Feature",
      "geometry": {
        "type": "Point",
        "coordinates": [
          -7.2774449,
          40.3388294
        ]
      },
      "properties": {
        "id": 1095956436,
        "osm_type": "way",
        "name": "Solar Rubina",
        "tourism": "guest_house"
      }
    },
    {
      "type": "Feature",
      "geometry": {
        "type": "Point",
        "coordinates": [
          -7.5420662,
          39.9521475
        ]
      },
      "properties": {
        "id": 1103532282,
        "osm_type": "way",
        "tourism": "camp_site"
      }
    },
    {
      "type": "Feature",
      "geometry": {
        "type": "Point",
        "coordinates": [
          -7.2013665,
          40.2766759
        ]
      },
      "properties": {
        "id": 1123689464,
        "osm_type": "way",
        "tourism": "guest_house",
        "phone": "+351 919 367 875",
        "website": "https://casadasmargaridass.wixsite.com/"
      }
    },
    {
      "type": "Feature",
      "geometry": {
        "type": "Point",
        "coordinates": [
          -8.0961068,
          39.7975114
        ]
      },
      "properties": {
        "id": 1174834422,
        "osm_type": "way",
        "tourism": "caravan_site"
      }
    },
    {
      "type": "Feature",
      "geometry": {
        "type": "Point",
        "coordinates": [
          -7.5069031,
          39.8126845
        ]
      },
      "properties": {
        "id": 1180091096,
        "osm_type": "way",
        "name": "Área de Autocaravanas de Castelo Branco",
        "tourism": "caravan_site",
        "opening_hours": "24/7"
      }
    },
    {
      "type": "Feature",
      "geometry": {
        "type": "Point",
        "coordinates": [
          -8.0913004,
          39.7987323
        ]
      },
      "properties": {
        "id": 1182352810,
        "osm_type": "way",
        "tourism": "hotel"
      }
    },
    {
      "type": "Feature",
      "geometry": {
        "type": "Point",
        "coordinates": [
          -7.6680754,
          39.6523871
        ]
      },
      "properties": {
        "id": 1188696206,
        "osm_type": "way",
        "name": "Rupestre Arts Hotel Ródão",
        "tourism": "hotel",
        "phone": "+351 272 100 000",
        "website": "https://www.rodaohotel.com/"
      }
    },
    {
      "type": "Feature",
      "geometry": {
        "type": "Point",
        "coordinates": [
          -7.6231909,
          40.2558125
        ]
      },
      "properties": {
        "id": 1200956076,
        "osm_type": "way",
        "name": "Parque de Autocaravanas de Unhais da Serra",
        "tourism": "caravan_site"
      }
    },
    {
      "type": "Feature",
      "geometry": {
        "type": "Point",
        "coordinates": [
          -7.49042,
          39.8258326
        ]
      },
      "properties": {
        "id": 1225625184,
        "osm_type": "way",
        "name": "Império do Rei",
        "tourism": "hotel"
      }
    },
    {
      "type": "Feature",
      "geometry": {
        "type": "Point",
        "coordinates": [
          -7.494594,
          39.8579901
        ]
      },
      "properties": {
        "id": 1243524114,
        "osm_type": "way",
        "name": "Parque de Campismo de Castelo Branco",
        "tourism": "camp_site",
        "tents": "yes"
      }
    },
    {
      "type": "Feature",
      "geometry": {
        "type": "Point",
        "coordinates": [
          -7.7518224,
          39.6305409
        ]
      },
      "properties": {
        "id": 1266625442,
        "osm_type": "way",
        "name": "Lpa Pereira Hotel Restaurante",
        "tourism": "hotel"
      }
    },
    {
      "type": "Feature",
      "geometry": {
        "type": "Point",
        "coordinates": [
          -7.0140054,
          40.045562
        ]
      },
      "properties": {
        "id": 1311288867,
        "osm_type": "way",
        "tourism": "caravan_site"
      }
    },
    {
      "type": "Feature",
      "geometry": {
        "type": "Point",
        "coordinates": [
          -7.5336817,
          40.2915764
        ]
      },
      "properties": {
        "id": 1368344373,
        "osm_type": "way",
        "name": "Pousada Serra da Estrela",
        "tourism": "hotel",
        "phone": "+351210407660",
        "website": "https://www.pousadas.pt/pt/hotel/pousada-serra-estrela"
      }
    },
    {
      "type": "Feature",
      "geometry": {
        "type": "Point",
        "coordinates": [
          -7.7842591,
          39.777164
        ]
      },
      "properties": {
        "id": 1389049304,
        "osm_type": "way",
        "tourism": "caravan_site"
      }
    },
    {
      "type": "Feature",
      "geometry": {
        "type": "Point",
        "coordinates": [
          -7.8632313,
          39.9383909
        ]
      },
      "properties": {
        "id": 1422832195,
        "osm_type": "way",
        "name": "Casa do Dão - Turismo",
        "tourism": "alpine_hut",
        "phone": "+351 932 952 972"
      }
    },
    {
      "type": "Feature",
      "geometry": {
        "type": "Point",
        "coordinates": [
          -7.4343562,
          40.3115777
        ]
      },
      "properties": {
        "id": 1431826013,
        "osm_type": "way",
        "name": "Centro de Lazer da Quinta de Santa Iria",
        "tourism": "hotel",
        "website": "https://cofre.org/centro-de-lazer-da-quinta-sta-iria.html"
      }
    },
    {
      "type": "Feature",
      "geometry": {
        "type": "Point",
        "coordinates": [
          -7.667641,
          40.1430067
        ]
      },
      "properties": {
        "id": 1468717915,
        "osm_type": "way",
        "name": "Parque de Campismo Rural de Silvares",
        "tourism": "camp_site"
      }
    },
    {
      "type": "Feature",
      "geometry": {
        "type": "Point",
        "coordinates": [
          -7.1853714,
          39.9495976
        ]
      },
      "properties": {
        "id": 1373991,
        "osm_type": "relation",
        "name": "Parque de Campismo Municipal de Idanha-a-Nova",
        "tourism": "camp_site",
        "phone": "+351 277 201 029"
      }
    }
  ]
}