{
  "type": "FeatureCollection",
  "features": [
    {
      "type": "Feature",
      "geometry": {
        "type": "Point",
        "coordinates": [
          24.8366627,
          44.8531686
        ]
      },
      "properties": {
        "id": 261499035,
        "osm_type": "node",
        "name": "Cornul Vânătorului",
        "tourism": "hotel",
        "phone": "+40248275091",
        "website": "https://www.cornulvanatorului.ro/"
      }
    },
    {
      "type": "Feature",
      "geometry": {
        "type": "Point",
        "coordinates": [
          24.6272332,
          45.3916297
        ]
      },
      "properties": {
        "id": 471225575,
        "osm_type": "node",
        "name": "Hotel Valea cu Pești",
        "tourism": "hotel",
        "opening_hours": "Mo-Su 08:00-24:00",
        "phone": "+40 248 721 070",
        "website": "https://www.valea-cu-pesti.ro/"
      }
    },
    {
      "type": "Feature",
      "geometry": {
        "type": "Point",
        "coordinates": [
          24.6363317,
          45.3348682
        ]
      },
      "properties": {
        "id": 471225577,
        "osm_type": "node",
        "name": "Complex Dracula",
        "tourism": "hostel",
        "phone": "0040745473381",
        "website": "https://www.pensiuneadracula.ro/"
      }
    },
    {
      "type": "Feature",
      "geometry": {
        "type": "Point",
        "coordinates": [
          24.6392133,
          45.3218684
        ]
      },
      "properties": {
        "id": 853007224,
        "osm_type": "node",
        "name": "Pensiunea Iuliana",
        "tourism": "guest_house",
        "phone": "+40741508396"
      }
    },
    {
      "type": "Feature",
      "geometry": {
        "type": "Point",
        "coordinates": [
          24.6005648,
          45.5567424
        ]
      },
      "properties": {
        "id": 875047000,
        "osm_type": "node",
        "name": "Cabana Piscul Negru",
        "tourism": "hotel"
      }
    },
    {
      "type": "Feature",
      "geometry": {
        "type": "Point",
        "coordinates": [
          24.6007844,
          45.557114
        ]
      },
      "properties": {
        "id": 875047006,
        "osm_type": "node",
        "name": "Pensiune Casa Miorita",
        "tourism": "hotel"
      }
    },
    {
      "type": "Feature",
      "geometry": {
        "type": "Point",
        "coordinates": [
          24.6006591,
          45.5569357
        ]
      },
      "properties": {
        "id": 875047012,
        "osm_type": "node",
        "name": "Hotel Siesta",
        "tourism": "hotel"
      }
    },
    {
      "type": "Feature",
      "geometry": {
        "type": "Point",
        "coordinates": [
          24.6279224,
          45.5826686
        ]
      },
      "properties": {
        "id": 886077231,
        "osm_type": "node",
        "name": "Hotel Pârâul Capra",
        "tourism": "hotel",
        "website": "https://hotelcapra.ro"
      }
    },
    {
      "type": "Feature",
      "geometry": {
        "type": "Point",
        "coordinates": [
          24.6065393,
          45.4361394
        ]
      },
      "properties": {
        "id": 999160085,
        "osm_type": "node",
        "name": "Cabana Cumpăna",
        "tourism": "hotel"
      }
    },
    {
      "type": "Feature",
      "geometry": {
        "type": "Point",
        "coordinates": [
          24.6589778,
          45.4078239
        ]
      },
      "properties": {
        "id": 1314390839,
        "osm_type": "node",
        "name": "Vidraru",
        "tourism": "camp_site"
      }
    },
    {
      "type": "Feature",
      "geometry": {
        "type": "Point",
        "coordinates": [
          24.6356171,
          45.3344281
        ]
      },
      "properties": {
        "id": 1314395027,
        "osm_type": "node",
        "name": "Pensiunea Dracula",
        "tourism": "hotel",
        "phone": "0040745473381",
        "website": "http://pensiuneadracula.ro"
      }
    },
    {
      "type": "Feature",
      "geometry": {
        "type": "Point",
        "coordinates": [
          25.1884973,
          45.4052935
        ]
      },
      "properties": {
        "id": 1365804347,
        "osm_type": "node",
        "name": "Panorama",
        "tourism": "camp_site",
        "phone": "+40 740 666 279"
      }
    },
    {
      "type": "Feature",
      "geometry": {
        "type": "Point",
        "coordinates": [
          24.8026779,
          45.3637744
        ]
      },
      "properties": {
        "id": 1429903566,
        "osm_type": "node",
        "name": "Pensiunea Danvi",
        "tourism": "guest_house",
        "phone": "0248 250 203",
        "website": "http://www.nucsoara-pensiuneadanvi.ro/"
      }
    },
    {
      "type": "Feature",
      "geometry": {
        "type": "Point",
        "coordinates": [
          24.8645047,
          44.8631348
        ]
      },
      "properties": {
        "id": 1495075098,
        "osm_type": "node",
        "name": "Hotel Euro",
        "tourism": "hotel"
      }
    },
    {
      "type": "Feature",
      "geometry": {
        "type": "Point",
        "coordinates": [
          24.866783,
          44.8508806
        ]
      },
      "properties": {
        "id": 1495075103,
        "osm_type": "node",
        "name": "Pensiune Restaurant Ella",
        "tourism": "hostel"
      }
    },
    {
      "type": "Feature",
      "geometry": {
        "type": "Point",
        "coordinates": [
          24.8654759,
          44.8531505
        ]
      },
      "properties": {
        "id": 1495075177,
        "osm_type": "node",
        "name": "Flamingo Hostel",
        "tourism": "hostel",
        "check_date": "2025-04-03"
      }
    },
    {
      "type": "Feature",
      "geometry": {
        "type": "Point",
        "coordinates": [
          24.866171,
          44.8607786
        ]
      },
      "properties": {
        "id": 1495075379,
        "osm_type": "node",
        "name": "Hotel Loviscu",
        "tourism": "hotel"
      }
    },
    {
      "type": "Feature",
      "geometry": {
        "type": "Point",
        "coordinates": [
          24.869145,
          44.8573297
        ]
      },
      "properties": {
        "id": 1495075456,
        "osm_type": "node",
        "name": "Hotel Magic",
        "tourism": "hotel"
      }
    },
    {
      "type": "Feature",
      "geometry": {
        "type": "Point",
        "coordinates": [
          24.8661056,
          44.8554945
        ]
      },
      "properties": {
        "id": 1495075465,
        "osm_type": "node",
        "name": "Hotel Duet",
        "tourism": "hotel",
        "check_date": "2024-03-18"
      }
    },
    {
      "type": "Feature",
      "geometry": {
        "type": "Point",
        "coordinates": [
          24.865771,
          44.8629406
        ]
      },
      "properties": {
        "id": 1495076248,
        "osm_type": "node",
        "name": "Hotel Bădulescu",
        "tourism": "hotel"
      }
    },
    {
      "type": "Feature",
      "geometry": {
        "type": "Point",
        "coordinates": [
          24.8772397,
          44.8645999
        ]
      },
      "properties": {
        "id": 1503633701,
        "osm_type": "node",
        "name": "Hotel Ramada",
        "tourism": "hotel",
        "website": "https://www.ramadapitesti.ro/"
      }
    },
    {
      "type": "Feature",
      "geometry": {
        "type": "Point",
        "coordinates": [
          24.8260753,
          44.8872057
        ]
      },
      "properties": {
        "id": 1508398054,
        "osm_type": "node",
        "name": "hotel Serela",
        "tourism": "hotel"
      }
    },
    {
      "type": "Feature",
      "geometry": {
        "type": "Point",
        "coordinates": [
          24.7102481,
          45.602283
        ]
      },
      "properties": {
        "id": 1665246273,
        "osm_type": "node",
        "name": "Corabia",
        "tourism": "camp_site"
      }
    },
    {
      "type": "Feature",
      "geometry": {
        "type": "Point",
        "coordinates": [
          25.2260479,
          45.4715441
        ]
      },
      "properties": {
        "id": 1674387575,
        "osm_type": "node",
        "name": "Cabana Brusturet",
        "tourism": "guest_house",
        "contact:website": "http://cabanabrusturet.fedcoop.ro"
      }
    },
    {
      "type": "Feature",
      "geometry": {
        "type": "Point",
        "coordinates": [
          24.63198,
          45.45491
        ]
      },
      "properties": {
        "id": 1684570623,
        "osm_type": "node",
        "name": "Gura Oticu",
        "tourism": "camp_site"
      }
    },
    {
      "type": "Feature",
      "geometry": {
        "type": "Point",
        "coordinates": [
          25.0680818,
          45.3496098
        ]
      },
      "properties": {
        "id": 1700153356,
        "osm_type": "node",
        "name": "Poiana Lerului",
        "tourism": "hotel"
      }
    },
    {
      "type": "Feature",
      "geometry": {
        "type": "Point",
        "coordinates": [
          24.6009284,
          45.554593
        ]
      },
      "properties": {
        "id": 1866971941,
        "osm_type": "node",
        "name": "Hotelul Piscu Negru",
        "tourism": "hotel"
      }
    },
    {
      "type": "Feature",
      "geometry": {
        "type": "Point",
        "coordinates": [
          25.0603632,
          45.2842403
        ]
      },
      "properties": {
        "id": 2096801941,
        "osm_type": "node",
        "name": "Pensiunea Casa Cristina ",
        "tourism": "guest_house",
        "phone": "760 174 339",
        "website": "musceladventure.eu"
      }
    },
    {
      "type": "Feature",
      "geometry": {
        "type": "Point",
        "coordinates": [
          24.6747955,
          45.1318114
        ]
      },
      "properties": {
        "id": 2245212648,
        "osm_type": "node",
        "name": "Pensiunea Ruxi",
        "tourism": "hotel",
        "phone": "+40 727 82 76 75",
        "website": "https://pensiunea-ruxi.ro/"
      }
    },
    {
      "type": "Feature",
      "geometry": {
        "type": "Point",
        "coordinates": [
          24.8895849,
          44.8174613
        ]
      },
      "properties": {
        "id": 2264604207,
        "osm_type": "node",
        "name": "The Union Jack Villa. English Bed and Breakfast",
        "tourism": "guest_house"
      }
    },
    {
      "type": "Feature",
      "geometry": {
        "type": "Point",
        "coordinates": [
          24.8037049,
          44.7343068
        ]
      },
      "properties": {
        "id": 2336368813,
        "osm_type": "node",
        "name": "Hanul Stejarul",
        "tourism": "guest_house",
        "website": "http://hanul-stejarul.ro/"
      }
    },
    {
      "type": "Feature",
      "geometry": {
        "type": "Point",
        "coordinates": [
          24.8966106,
          44.8232826
        ]
      },
      "properties": {
        "id": 2336884256,
        "osm_type": "node",
        "name": "Hotel Restaurant Veneția",
        "tourism": "hotel",
        "website": "http://www.hotelvenetia.ro/"
      }
    },
    {
      "type": "Feature",
      "geometry": {
        "type": "Point",
        "coordinates": [
          24.8582551,
          44.7899906
        ]
      },
      "properties": {
        "id": 2336884260,
        "osm_type": "node",
        "name": "Pensiunea Relly",
        "tourism": "guest_house",
        "website": "http://www.pensiunea-relly.ro/"
      }
    },
    {
      "type": "Feature",
      "geometry": {
        "type": "Point",
        "coordinates": [
          24.5739109,
          45.5815583
        ]
      },
      "properties": {
        "id": 2447206246,
        "osm_type": "node",
        "name": "Călțun",
        "tourism": "camp_site",
        "tents": "yes"
      }
    },
    {
      "type": "Feature",
      "geometry": {
        "type": "Point",
        "coordinates": [
          24.8462418,
          44.8752503
        ]
      },
      "properties": {
        "id": 2505948812,
        "osm_type": "node",
        "name": "Marian",
        "tourism": "hotel"
      }
    },
    {
      "type": "Feature",
      "geometry": {
        "type": "Point",
        "coordinates": [
          24.6355329,
          45.3319071
        ]
      },
      "properties": {
        "id": 2533507687,
        "osm_type": "node",
        "name": "Pensiunea Bella Vista",
        "tourism": "motel",
        "phone": "+40 748 166 473",
        "website": "http://www.pensiuneabellavista.ro"
      }
    },
    {
      "type": "Feature",
      "geometry": {
        "type": "Point",
        "coordinates": [
          24.6541214,
          45.2531417
        ]
      },
      "properties": {
        "id": 2550586659,
        "osm_type": "node",
        "name": "Pensiunea Raluca",
        "tourism": "guest_house",
        "phone": "+40747101 010 ",
        "website": "http://www.costtelinos.ro"
      }
    },
    {
      "type": "Feature",
      "geometry": {
        "type": "Point",
        "coordinates": [
          24.9202881,
          44.8635705
        ]
      },
      "properties": {
        "id": 2567779325,
        "osm_type": "node",
        "name": "Pensiunea Florica",
        "tourism": "guest_house",
        "opening_hours": "24/7",
        "phone": "+40 722 512 259",
        "website": "https://www.pensiunepitesti.ro/"
      }
    },
    {
      "type": "Feature",
      "geometry": {
        "type": "Point",
        "coordinates": [
          25.0714264,
          45.3333245
        ]
      },
      "properties": {
        "id": 2629582545,
        "osm_type": "node",
        "name": "Pensiunea Jupâniței",
        "tourism": "guest_house",
        "opening_hours": "Mo-Su 07:00-24:00",
        "phone": "+40 248 549 147",
        "website": "http://www.pensiunea-jupanitei.ro"
      }
    },
    {
      "type": "Feature",
      "geometry": {
        "type": "Point",
        "coordinates": [
          25.14601,
          45.401325
        ]
      },
      "properties": {
        "id": 2633714034,
        "osm_type": "node",
        "name": "Pensiunea Valea Cascadelor",
        "tourism": "guest_house",
        "phone": "+40785349788",
        "website": "http://www.pensiuneavaleacascadelor.ro/"
      }
    },
    {
      "type": "Feature",
      "geometry": {
        "type": "Point",
        "coordinates": [
          25.1682319,
          45.3672124
        ]
      },
      "properties": {
        "id": 2697524045,
        "osm_type": "node",
        "name": "Pensiunea La Casa Rucăreană",
        "tourism": "guest_house",
        "phone": "0748 847 457"
      }
    },
    {
      "type": "Feature",
      "geometry": {
        "type": "Point",
        "coordinates": [
          24.6474021,
          45.3048648
        ]
      },
      "properties": {
        "id": 2932503257,
        "osm_type": "node",
        "name": "Pensiunea Tiuța",
        "tourism": "guest_house",
        "phone": "+40742260575"
      }
    },
    {
      "type": "Feature",
      "geometry": {
        "type": "Point",
        "coordinates": [
          25.1654921,
          45.3318959
        ]
      },
      "properties": {
        "id": 2943396909,
        "osm_type": "node",
        "name": "Pensiunea Floare De Colț",
        "tourism": "guest_house",
        "opening_hours": "24/7",
        "phone": "+40 248-544 429, +40 722-844 487",
        "website": "www.pensiunea-floaredecolt.ro"
      }
    },
    {
      "type": "Feature",
      "geometry": {
        "type": "Point",
        "coordinates": [
          24.8401626,
          44.8493104
        ]
      },
      "properties": {
        "id": 2996721693,
        "osm_type": "node",
        "name": "Hotel Monte Carlo",
        "tourism": "hotel"
      }
    },
    {
      "type": "Feature",
      "geometry": {
        "type": "Point",
        "coordinates": [
          24.6585333,
          45.305985
        ]
      },
      "properties": {
        "id": 3037382886,
        "osm_type": "node",
        "name": "Casa Bogdan",
        "tourism": "guest_house"
      }
    },
    {
      "type": "Feature",
      "geometry": {
        "type": "Point",
        "coordinates": [
          24.6457229,
          45.3098844
        ]
      },
      "properties": {
        "id": 3037382887,
        "osm_type": "node",
        "name": "Casa Mădălina",
        "tourism": "guest_house"
      }
    },
    {
      "type": "Feature",
      "geometry": {
        "type": "Point",
        "coordinates": [
          24.656151,
          45.3049616
        ]
      },
      "properties": {
        "id": 3037391343,
        "osm_type": "node",
        "name": "Pensiunea 3 Ponei",
        "tourism": "guest_house"
      }
    },
    {
      "type": "Feature",
      "geometry": {
        "type": "Point",
        "coordinates": [
          24.6443195,
          45.3123864
        ]
      },
      "properties": {
        "id": 3037391344,
        "osm_type": "node",
        "name": "Pensiunea Andreea",
        "tourism": "guest_house"
      }
    },
    {
      "type": "Feature",
      "geometry": {
        "type": "Point",
        "coordinates": [
          24.647781,
          45.3089921
        ]
      },
      "properties": {
        "id": 3037391345,
        "osm_type": "node",
        "name": "Pensiunea Belvedere",
        "tourism": "guest_house"
      }
    },
    {
      "type": "Feature",
      "geometry": {
        "type": "Point",
        "coordinates": [
          24.6532485,
          45.3036426
        ]
      },
      "properties": {
        "id": 3037391346,
        "osm_type": "node",
        "name": "Pensiunea Colț de Munte",
        "tourism": "guest_house"
      }
    },
    {
      "type": "Feature",
      "geometry": {
        "type": "Point",
        "coordinates": [
          24.6536869,
          45.3053158
        ]
      },
      "properties": {
        "id": 3037391347,
        "osm_type": "node",
        "name": "Pensiunea Dandu",
        "tourism": "guest_house"
      }
    },
    {
      "type": "Feature",
      "geometry": {
        "type": "Point",
        "coordinates": [
          24.6540085,
          45.3036483
        ]
      },
      "properties": {
        "id": 3037391348,
        "osm_type": "node",
        "name": "Pensiunea Elza",
        "tourism": "guest_house",
        "phone": "+40727797736"
      }
    },
    {
      "type": "Feature",
      "geometry": {
        "type": "Point",
        "coordinates": [
          24.6511636,
          45.3048429
        ]
      },
      "properties": {
        "id": 3037391351,
        "osm_type": "node",
        "name": "Vila Elena",
        "tourism": "guest_house"
      }
    },
    {
      "type": "Feature",
      "geometry": {
        "type": "Point",
        "coordinates": [
          24.6601806,
          45.3053246
        ]
      },
      "properties": {
        "id": 3037391352,
        "osm_type": "node",
        "name": "Vila Iuliana",
        "tourism": "guest_house",
        "phone": "+40752215727"
      }
    },
    {
      "type": "Feature",
      "geometry": {
        "type": "Point",
        "coordinates": [
          24.6517249,
          45.3046458
        ]
      },
      "properties": {
        "id": 3037391353,
        "osm_type": "node",
        "name": "Vila Vivianne",
        "tourism": "guest_house",
        "phone": "+40742129282"
      }
    },
    {
      "type": "Feature",
      "geometry": {
        "type": "Point",
        "coordinates": [
          24.6591671,
          45.3065439
        ]
      },
      "properties": {
        "id": 3037392828,
        "osm_type": "node",
        "name": "Pensiunea Irina",
        "tourism": "guest_house",
        "phone": "+40740 120 498"
      }
    },
    {
      "type": "Feature",
      "geometry": {
        "type": "Point",
        "coordinates": [
          24.6111517,
          45.5695345
        ]
      },
      "properties": {
        "id": 3037639892,
        "osm_type": "node",
        "name": "Conacul Ursului",
        "tourism": "guest_house",
        "check_date": "2025-07-22"
      }
    },
    {
      "type": "Feature",
      "geometry": {
        "type": "Point",
        "coordinates": [
          24.6360473,
          45.3652657
        ]
      },
      "properties": {
        "id": 3039892122,
        "osm_type": "node",
        "name": "Hotel Posada Vidraru",
        "tourism": "hotel",
        "phone": "+40372731169",
        "website": "http://www.posadavidraru.ro/"
      }
    },
    {
      "type": "Feature",
      "geometry": {
        "type": "Point",
        "coordinates": [
          24.7799005,
          44.8872725
        ]
      },
      "properties": {
        "id": 3124254880,
        "osm_type": "node",
        "name": "Pensiunea Valea Ursului",
        "tourism": "hostel",
        "phone": "0248 - 270 577",
        "website": "https://pensiuneavaleaursului.fedcoop.ro/"
      }
    },
    {
      "type": "Feature",
      "geometry": {
        "type": "Point",
        "coordinates": [
          24.6538727,
          45.0954845
        ]
      },
      "properties": {
        "id": 3174931390,
        "osm_type": "node",
        "name": "Arges",
        "tourism": "camp_site",
        "phone": "+40 722 552 460",
        "website": "http://www.camping-arges.ro"
      }
    },
    {
      "type": "Feature",
      "geometry": {
        "type": "Point",
        "coordinates": [
          24.6749858,
          45.1392011
        ]
      },
      "properties": {
        "id": 3180439679,
        "osm_type": "node",
        "name": "Pensiunea Mikelis Internațional",
        "tourism": "guest_house",
        "phone": "+40744 885 815"
      }
    },
    {
      "type": "Feature",
      "geometry": {
        "type": "Point",
        "coordinates": [
          24.633083,
          45.349986
        ]
      },
      "properties": {
        "id": 3214140613,
        "osm_type": "node",
        "name": "Camping Dracula",
        "tourism": "camp_site",
        "tents": "yes",
        "phone": "+40 745 473 381",
        "website": "https://www.campingdracula.ro/"
      }
    },
    {
      "type": "Feature",
      "geometry": {
        "type": "Point",
        "coordinates": [
          25.1625821,
          45.3592177
        ]
      },
      "properties": {
        "id": 3488021158,
        "osm_type": "node",
        "name": "Frasin",
        "tourism": "alpine_hut",
        "website": "https://cabanafrasin.ro/"
      }
    },
    {
      "type": "Feature",
      "geometry": {
        "type": "Point",
        "coordinates": [
          24.9779131,
          44.7447391
        ]
      },
      "properties": {
        "id": 3578192877,
        "osm_type": "node",
        "name": "Belegania Villa",
        "tourism": "guest_house",
        "phone": "+40722684271"
      }
    },
    {
      "type": "Feature",
      "geometry": {
        "type": "Point",
        "coordinates": [
          24.6112591,
          45.569684
        ]
      },
      "properties": {
        "id": 3602139809,
        "osm_type": "node",
        "name": "Conacul Ursului",
        "tourism": "camp_site",
        "tents": "yes"
      }
    },
    {
      "type": "Feature",
      "geometry": {
        "type": "Point",
        "coordinates": [
          24.6395128,
          45.3521389
        ]
      },
      "properties": {
        "id": 3686458242,
        "osm_type": "node",
        "tourism": "camp_site"
      }
    },
    {
      "type": "Feature",
      "geometry": {
        "type": "Point",
        "coordinates": [
          24.5202108,
          45.1113002
        ]
      },
      "properties": {
        "id": 3686458746,
        "osm_type": "node",
        "name": "Camping Burluși",
        "tourism": "camp_site"
      }
    },
    {
      "type": "Feature",
      "geometry": {
        "type": "Point",
        "coordinates": [
          24.6077322,
          45.3290211
        ]
      },
      "properties": {
        "id": 3693745978,
        "osm_type": "node",
        "name": "Pensiunea Mountain",
        "tourism": "guest_house",
        "phone": "+40740036013"
      }
    },
    {
      "type": "Feature",
      "geometry": {
        "type": "Point",
        "coordinates": [
          24.6372801,
          45.3288679
        ]
      },
      "properties": {
        "id": 3693829732,
        "osm_type": "node",
        "name": "Pensiunea Dor de Munte",
        "tourism": "guest_house",
        "phone": "+40740014779"
      }
    },
    {
      "type": "Feature",
      "geometry": {
        "type": "Point",
        "coordinates": [
          24.6382484,
          45.3287585
        ]
      },
      "properties": {
        "id": 3693829754,
        "osm_type": "node",
        "name": "Casa Aris",
        "tourism": "guest_house",
        "phone": "+40730639463"
      }
    },
    {
      "type": "Feature",
      "geometry": {
        "type": "Point",
        "coordinates": [
          24.6367705,
          45.3312665
        ]
      },
      "properties": {
        "id": 3693829755,
        "osm_type": "node",
        "name": "Pensiunea Adonis",
        "tourism": "guest_house",
        "phone": "+40740345500"
      }
    },
    {
      "type": "Feature",
      "geometry": {
        "type": "Point",
        "coordinates": [
          24.6381492,
          45.3289847
        ]
      },
      "properties": {
        "id": 3693829781,
        "osm_type": "node",
        "name": "Vila Deea",
        "tourism": "guest_house",
        "phone": "+40745531202"
      }
    },
    {
      "type": "Feature",
      "geometry": {
        "type": "Point",
        "coordinates": [
          24.6224448,
          45.3329823
        ]
      },
      "properties": {
        "id": 3693829789,
        "osm_type": "node",
        "name": "Pensiunea Lotus",
        "tourism": "guest_house",
        "phone": "+40722447003"
      }
    },
    {
      "type": "Feature",
      "geometry": {
        "type": "Point",
        "coordinates": [
          24.6254006,
          45.3328466
        ]
      },
      "properties": {
        "id": 3693829806,
        "osm_type": "node",
        "name": "Casa Mariana",
        "tourism": "guest_house",
        "phone": "+40744928547"
      }
    },
    {
      "type": "Feature",
      "geometry": {
        "type": "Point",
        "coordinates": [
          24.626165,
          45.3321489
        ]
      },
      "properties": {
        "id": 3693829811,
        "osm_type": "node",
        "name": "Poteca Ursului",
        "tourism": "guest_house",
        "phone": "+40745373508"
      }
    },
    {
      "type": "Feature",
      "geometry": {
        "type": "Point",
        "coordinates": [
          24.6515673,
          45.2596013
        ]
      },
      "properties": {
        "id": 3695655875,
        "osm_type": "node",
        "name": "Pensiunea Pomi",
        "tourism": "guest_house",
        "phone": "+40744593776"
      }
    },
    {
      "type": "Feature",
      "geometry": {
        "type": "Point",
        "coordinates": [
          24.6553153,
          45.2845691
        ]
      },
      "properties": {
        "id": 3695663402,
        "osm_type": "node",
        "name": "Casa Lăzăroiu",
        "tourism": "guest_house",
        "phone": "+40371111010",
        "website": "https://www.casalazaroiu.ro/"
      }
    },
    {
      "type": "Feature",
      "geometry": {
        "type": "Point",
        "coordinates": [
          24.6108804,
          45.3303196
        ]
      },
      "properties": {
        "id": 3697660855,
        "osm_type": "node",
        "name": "Casa Arefeana",
        "tourism": "guest_house",
        "phone": "+40752054750"
      }
    },
    {
      "type": "Feature",
      "geometry": {
        "type": "Point",
        "coordinates": [
          24.6101106,
          45.3317904
        ]
      },
      "properties": {
        "id": 3697660869,
        "osm_type": "node",
        "name": "Vila Iuliana",
        "tourism": "guest_house",
        "phone": "+40752215727"
      }
    },
    {
      "type": "Feature",
      "geometry": {
        "type": "Point",
        "coordinates": [
          24.9411999,
          45.0177097
        ]
      },
      "properties": {
        "id": 4162048689,
        "osm_type": "node",
        "tourism": "hotel"
      }
    },
    {
      "type": "Feature",
      "geometry": {
        "type": "Point",
        "coordinates": [
          25.0786859,
          44.8107299
        ]
      },
      "properties": {
        "id": 4223679727,
        "osm_type": "node",
        "name": "Podgoria",
        "tourism": "guest_house"
      }
    },
    {
      "type": "Feature",
      "geometry": {
        "type": "Point",
        "coordinates": [
          24.6787414,
          45.1412021
        ]
      },
      "properties": {
        "id": 4290080361,
        "osm_type": "node",
        "name": "Casa Domnească",
        "tourism": "guest_house",
        "phone": "+40 755-134 819",
        "website": "https://www.casa-domneasca.ro/"
      }
    },
    {
      "type": "Feature",
      "geometry": {
        "type": "Point",
        "coordinates": [
          24.6811051,
          45.1532146
        ]
      },
      "properties": {
        "id": 4290540358,
        "osm_type": "node",
        "name": "Pensiunea Jankovic",
        "tourism": "guest_house"
      }
    },
    {
      "type": "Feature",
      "geometry": {
        "type": "Point",
        "coordinates": [
          24.6749085,
          45.1319044
        ]
      },
      "properties": {
        "id": 4294950167,
        "osm_type": "node",
        "name": "Pensiune Ioana",
        "tourism": "guest_house",
        "phone": "+40 721 322 966;+40 768 504 204",
        "website": "https://pensiuneaioana-ag.ro/"
      }
    },
    {
      "type": "Feature",
      "geometry": {
        "type": "Point",
        "coordinates": [
          24.6711008,
          45.1635494
        ]
      },
      "properties": {
        "id": 4296954370,
        "osm_type": "node",
        "name": "Meșterul Manole",
        "tourism": "guest_house"
      }
    },
    {
      "type": "Feature",
      "geometry": {
        "type": "Point",
        "coordinates": [
          24.7622691,
          45.3120398
        ]
      },
      "properties": {
        "id": 4315746091,
        "osm_type": "node",
        "name": "Pensiunea Cristina",
        "tourism": "guest_house"
      }
    },
    {
      "type": "Feature",
      "geometry": {
        "type": "Point",
        "coordinates": [
          24.6369042,
          45.3425222
        ]
      },
      "properties": {
        "id": 4365346282,
        "osm_type": "node",
        "name": "Pensiunea Crăița",
        "tourism": "guest_house"
      }
    },
    {
      "type": "Feature",
      "geometry": {
        "type": "Point",
        "coordinates": [
          24.6359762,
          45.3431047
        ]
      },
      "properties": {
        "id": 4365346751,
        "osm_type": "node",
        "name": "Hanul Voievozilor",
        "tourism": "motel"
      }
    },
    {
      "type": "Feature",
      "geometry": {
        "type": "Point",
        "coordinates": [
          24.6285935,
          45.5999839
        ]
      },
      "properties": {
        "id": 4382449596,
        "osm_type": "node",
        "name": "Capra",
        "tourism": "camp_site"
      }
    },
    {
      "type": "Feature",
      "geometry": {
        "type": "Point",
        "coordinates": [
          24.6729128,
          45.141076
        ]
      },
      "properties": {
        "id": 4393702590,
        "osm_type": "node",
        "name": "Pensiunea HANUL LUI SIMION",
        "tourism": "guest_house",
        "phone": "+40728220099",
        "website": "http://www.pensiunearges.com"
      }
    },
    {
      "type": "Feature",
      "geometry": {
        "type": "Point",
        "coordinates": [
          24.5743039,
          45.0100271
        ]
      },
      "properties": {
        "id": 4411395667,
        "osm_type": "node",
        "name": "Hotel Regal Vâlcea",
        "tourism": "hotel"
      }
    },
    {
      "type": "Feature",
      "geometry": {
        "type": "Point",
        "coordinates": [
          24.6174395,
          44.9983006
        ]
      },
      "properties": {
        "id": 4411416881,
        "osm_type": "node",
        "name": "Motel Traffic",
        "tourism": "motel"
      }
    },
    {
      "type": "Feature",
      "geometry": {
        "type": "Point",
        "coordinates": [
          24.7728769,
          45.2538027
        ]
      },
      "properties": {
        "id": 4421669490,
        "osm_type": "node",
        "name": "Barlog",
        "tourism": "chalet"
      }
    },
    {
      "type": "Feature",
      "geometry": {
        "type": "Point",
        "coordinates": [
          24.6758113,
          45.1323423
        ]
      },
      "properties": {
        "id": 4437383252,
        "osm_type": "node",
        "name": "Vila Bichir",
        "tourism": "guest_house",
        "phone": "+40747887577"
      }
    },
    {
      "type": "Feature",
      "geometry": {
        "type": "Point",
        "coordinates": [
          24.6746504,
          45.1325446
        ]
      },
      "properties": {
        "id": 4437388083,
        "osm_type": "node",
        "name": "Pensiunea Cristiana",
        "tourism": "guest_house",
        "phone": "+40749648926"
      }
    },
    {
      "type": "Feature",
      "geometry": {
        "type": "Point",
        "coordinates": [
          24.8861961,
          44.9680365
        ]
      },
      "properties": {
        "id": 4666737391,
        "osm_type": "node",
        "name": "Alberto",
        "tourism": "guest_house"
      }
    },
    {
      "type": "Feature",
      "geometry": {
        "type": "Point",
        "coordinates": [
          25.0121812,
          44.9852131
        ]
      },
      "properties": {
        "id": 4668057390,
        "osm_type": "node",
        "name": "Hârniciu",
        "tourism": "guest_house"
      }
    },
    {
      "type": "Feature",
      "geometry": {
        "type": "Point",
        "coordinates": [
          24.7047198,
          44.9406914
        ]
      },
      "properties": {
        "id": 4674690489,
        "osm_type": "node",
        "name": "Casa Românească",
        "tourism": "guest_house"
      }
    },
    {
      "type": "Feature",
      "geometry": {
        "type": "Point",
        "coordinates": [
          24.7288755,
          44.9063754
        ]
      },
      "properties": {
        "id": 4674697690,
        "osm_type": "node",
        "name": "Dumitru & Herța",
        "tourism": "guest_house"
      }
    },
    {
      "type": "Feature",
      "geometry": {
        "type": "Point",
        "coordinates": [
          24.7465555,
          44.8932563
        ]
      },
      "properties": {
        "id": 4706390590,
        "osm_type": "node",
        "name": "Elitte",
        "tourism": "guest_house"
      }
    },
    {
      "type": "Feature",
      "geometry": {
        "type": "Point",
        "coordinates": [
          25.0060337,
          45.2060455
        ]
      },
      "properties": {
        "id": 4706472533,
        "osm_type": "node",
        "name": "Mușceleanu",
        "tourism": "guest_house"
      }
    },
    {
      "type": "Feature",
      "geometry": {
        "type": "Point",
        "coordinates": [
          24.8274694,
          45.2412209
        ]
      },
      "properties": {
        "id": 4706472534,
        "osm_type": "node",
        "name": "Stănescu",
        "tourism": "guest_house"
      }
    },
    {
      "type": "Feature",
      "geometry": {
        "type": "Point",
        "coordinates": [
          24.834896,
          45.2277439
        ]
      },
      "properties": {
        "id": 4716748691,
        "osm_type": "node",
        "name": "Kicaciov",
        "tourism": "guest_house"
      }
    },
    {
      "type": "Feature",
      "geometry": {
        "type": "Point",
        "coordinates": [
          24.9632817,
          45.0244591
        ]
      },
      "properties": {
        "id": 4732449609,
        "osm_type": "node",
        "name": "Hotel Petriș",
        "tourism": "hotel"
      }
    },
    {
      "type": "Feature",
      "geometry": {
        "type": "Point",
        "coordinates": [
          24.8228661,
          44.8904386
        ]
      },
      "properties": {
        "id": 4785836721,
        "osm_type": "node",
        "name": "Net hotel",
        "tourism": "hotel",
        "opening_hours": "24/7"
      }
    },
    {
      "type": "Feature",
      "geometry": {
        "type": "Point",
        "coordinates": [
          24.6633865,
          45.2254244
        ]
      },
      "properties": {
        "id": 4807595642,
        "osm_type": "node",
        "name": "Valea Argeșului",
        "tourism": "guest_house"
      }
    },
    {
      "type": "Feature",
      "geometry": {
        "type": "Point",
        "coordinates": [
          24.649975,
          45.2700993
        ]
      },
      "properties": {
        "id": 4807595644,
        "osm_type": "node",
        "name": "Pensiunea no name",
        "tourism": "guest_house"
      }
    },
    {
      "type": "Feature",
      "geometry": {
        "type": "Point",
        "coordinates": [
          24.8831116,
          44.8452331
        ]
      },
      "properties": {
        "id": 4834627425,
        "osm_type": "node",
        "name": "Parcul Tineretului",
        "tourism": "camp_site"
      }
    },
    {
      "type": "Feature",
      "geometry": {
        "type": "Point",
        "coordinates": [
          25.0358248,
          45.2584715
        ]
      },
      "properties": {
        "id": 4860793423,
        "osm_type": "node",
        "tourism": "motel"
      }
    },
    {
      "type": "Feature",
      "geometry": {
        "type": "Point",
        "coordinates": [
          25.0689052,
          45.3291906
        ]
      },
      "properties": {
        "id": 4881664259,
        "osm_type": "node",
        "name": "Hotel & Restaurant Zeus",
        "tourism": "hotel"
      }
    },
    {
      "type": "Feature",
      "geometry": {
        "type": "Point",
        "coordinates": [
          25.0066353,
          45.2129325
        ]
      },
      "properties": {
        "id": 4881664263,
        "osm_type": "node",
        "name": "Popas Poiana",
        "tourism": "guest_house"
      }
    },
    {
      "type": "Feature",
      "geometry": {
        "type": "Point",
        "coordinates": [
          24.7592904,
          44.8901485
        ]
      },
      "properties": {
        "id": 5081771946,
        "osm_type": "node",
        "name": "Sorelo",
        "tourism": "motel",
        "website": "http://www.sorelo.ro/index.php/servicii-hoteliere/hotel-sorelo-valea-ursului-"
      }
    },
    {
      "type": "Feature",
      "geometry": {
        "type": "Point",
        "coordinates": [
          24.8646713,
          44.9348343
        ]
      },
      "properties": {
        "id": 5084097627,
        "osm_type": "node",
        "name": "Pensiuoane Diana",
        "tourism": "guest_house",
        "phone": "+40 722 286717",
        "website": "https://dianapensiune.ro/"
      }
    },
    {
      "type": "Feature",
      "geometry": {
        "type": "Point",
        "coordinates": [
          24.6698807,
          45.1766572
        ]
      },
      "properties": {
        "id": 5138950948,
        "osm_type": "node",
        "name": "Dacia",
        "tourism": "hotel"
      }
    },
    {
      "type": "Feature",
      "geometry": {
        "type": "Point",
        "coordinates": [
          24.9278431,
          44.9523835
        ]
      },
      "properties": {
        "id": 5510571221,
        "osm_type": "node",
        "name": "Pensiunea Modern",
        "tourism": "guest_house"
      }
    },
    {
      "type": "Feature",
      "geometry": {
        "type": "Point",
        "coordinates": [
          24.8070607,
          45.3588209
        ]
      },
      "properties": {
        "id": 5624058022,
        "osm_type": "node",
        "tourism": "hotel"
      }
    },
    {
      "type": "Feature",
      "geometry": {
        "type": "Point",
        "coordinates": [
          24.6704563,
          45.1705787
        ]
      },
      "properties": {
        "id": 5855720950,
        "osm_type": "node",
        "name": "Pensiunea Valea Argeșului",
        "tourism": "guest_house"
      }
    },
    {
      "type": "Feature",
      "geometry": {
        "type": "Point",
        "coordinates": [
          25.2503735,
          45.4221301
        ]
      },
      "properties": {
        "id": 6082451399,
        "osm_type": "node",
        "name": "Pensiunea Gura Văii",
        "tourism": "alpine_hut"
      }
    },
    {
      "type": "Feature",
      "geometry": {
        "type": "Point",
        "coordinates": [
          24.8548438,
          44.7871962
        ]
      },
      "properties": {
        "id": 6562385264,
        "osm_type": "node",
        "name": "Pensiunea Ema",
        "tourism": "motel"
      }
    },
    {
      "type": "Feature",
      "geometry": {
        "type": "Point",
        "coordinates": [
          24.9919525,
          45.2162045
        ]
      },
      "properties": {
        "id": 6569306653,
        "osm_type": "node",
        "name": "Pensiunea Monument",
        "tourism": "guest_house"
      }
    },
    {
      "type": "Feature",
      "geometry": {
        "type": "Point",
        "coordinates": [
          24.5336388,
          45.5838341
        ]
      },
      "properties": {
        "id": 6695689547,
        "osm_type": "node",
        "tourism": "camp_site"
      }
    },
    {
      "type": "Feature",
      "geometry": {
        "type": "Point",
        "coordinates": [
          24.5313764,
          45.5817579
        ]
      },
      "properties": {
        "id": 6695689548,
        "osm_type": "node",
        "tourism": "camp_site"
      }
    },
    {
      "type": "Feature",
      "geometry": {
        "type": "Point",
        "coordinates": [
          24.6821889,
          45.5988993
        ]
      },
      "properties": {
        "id": 6697813417,
        "osm_type": "node",
        "tourism": "camp_site"
      }
    },
    {
      "type": "Feature",
      "geometry": {
        "type": "Point",
        "coordinates": [
          24.8406821,
          45.1466446
        ]
      },
      "properties": {
        "id": 6804957624,
        "osm_type": "node",
        "name": "Pensiunea Ovidiu",
        "tourism": "hostel"
      }
    },
    {
      "type": "Feature",
      "geometry": {
        "type": "Point",
        "coordinates": [
          25.2238318,
          45.4363547
        ]
      },
      "properties": {
        "id": 6830689085,
        "osm_type": "node",
        "name": "Lip și Ely",
        "tourism": "guest_house"
      }
    },
    {
      "type": "Feature",
      "geometry": {
        "type": "Point",
        "coordinates": [
          24.8282904,
          44.8933382
        ]
      },
      "properties": {
        "id": 6954241362,
        "osm_type": "node",
        "name": "Motel Dinastia",
        "tourism": "motel"
      }
    },
    {
      "type": "Feature",
      "geometry": {
        "type": "Point",
        "coordinates": [
          24.6546265,
          45.2513589
        ]
      },
      "properties": {
        "id": 7699925538,
        "osm_type": "node",
        "name": "Vila Nadia",
        "tourism": "guest_house",
        "phone": "+40744351315",
        "website": "https://www.booking.com/hotel/ro/pensiunea-nadia.ro.html"
      }
    },
    {
      "type": "Feature",
      "geometry": {
        "type": "Point",
        "coordinates": [
          24.6740386,
          45.1574665
        ]
      },
      "properties": {
        "id": 7792098485,
        "osm_type": "node",
        "name": "Parcare rulotă",
        "tourism": "caravan_site"
      }
    },
    {
      "type": "Feature",
      "geometry": {
        "type": "Point",
        "coordinates": [
          25.0915908,
          45.2815807
        ]
      },
      "properties": {
        "id": 7884935485,
        "osm_type": "node",
        "tourism": "alpine_hut"
      }
    },
    {
      "type": "Feature",
      "geometry": {
        "type": "Point",
        "coordinates": [
          24.6187664,
          45.5944887
        ]
      },
      "properties": {
        "id": 7925876085,
        "osm_type": "node",
        "name": "Refugiul Bâlea Tunel",
        "tourism": "alpine_hut"
      }
    },
    {
      "type": "Feature",
      "geometry": {
        "type": "Point",
        "coordinates": [
          25.0786847,
          45.314653
        ]
      },
      "properties": {
        "id": 9048913267,
        "osm_type": "node",
        "name": "Casa Adam",
        "tourism": "guest_house"
      }
    },
    {
      "type": "Feature",
      "geometry": {
        "type": "Point",
        "coordinates": [
          25.0642323,
          45.3377596
        ]
      },
      "properties": {
        "id": 9048913268,
        "osm_type": "node",
        "name": "Cabana Silva",
        "tourism": "chalet"
      }
    },
    {
      "type": "Feature",
      "geometry": {
        "type": "Point",
        "coordinates": [
          24.5162606,
          45.436863
        ]
      },
      "properties": {
        "id": 9556030355,
        "osm_type": "node",
        "name": "Cabana Stubeaua",
        "tourism": "alpine_hut"
      }
    },
    {
      "type": "Feature",
      "geometry": {
        "type": "Point",
        "coordinates": [
          24.4814635,
          45.4499377
        ]
      },
      "properties": {
        "id": 9556030356,
        "osm_type": "node",
        "name": "Cabana Iedu",
        "tourism": "alpine_hut",
        "phone": "0744912810"
      }
    },
    {
      "type": "Feature",
      "geometry": {
        "type": "Point",
        "coordinates": [
          25.0439845,
          45.2695456
        ]
      },
      "properties": {
        "id": 9853035015,
        "osm_type": "node",
        "name": "Pensiunea Aleea Teilor",
        "tourism": "hotel"
      }
    },
    {
      "type": "Feature",
      "geometry": {
        "type": "Point",
        "coordinates": [
          24.6349753,
          45.3436067
        ]
      },
      "properties": {
        "id": 9908977817,
        "osm_type": "node",
        "tourism": "camp_site"
      }
    },
    {
      "type": "Feature",
      "geometry": {
        "type": "Point",
        "coordinates": [
          24.8769631,
          44.8887079
        ]
      },
      "properties": {
        "id": 9918801923,
        "osm_type": "node",
        "name": "Bloc 3 sc A",
        "tourism": "apartment"
      }
    },
    {
      "type": "Feature",
      "geometry": {
        "type": "Point",
        "coordinates": [
          24.8667782,
          44.8597511
        ]
      },
      "properties": {
        "id": 9918801932,
        "osm_type": "node",
        "name": "Blo",
        "tourism": "apartment"
      }
    },
    {
      "type": "Feature",
      "geometry": {
        "type": "Point",
        "coordinates": [
          24.867155,
          44.8594788
        ]
      },
      "properties": {
        "id": 9918801933,
        "osm_type": "node",
        "name": "Bloc 2 IRTA sc C",
        "tourism": "apartment"
      }
    },
    {
      "type": "Feature",
      "geometry": {
        "type": "Point",
        "coordinates": [
          24.9106364,
          44.8289205
        ]
      },
      "properties": {
        "id": 9918833117,
        "osm_type": "node",
        "tourism": "apartment"
      }
    },
    {
      "type": "Feature",
      "geometry": {
        "type": "Point",
        "coordinates": [
          24.8757219,
          44.862434
        ]
      },
      "properties": {
        "id": 9918833122,
        "osm_type": "node",
        "name": "Sc. A",
        "tourism": "apartment"
      }
    },
    {
      "type": "Feature",
      "geometry": {
        "type": "Point",
        "coordinates": [
          24.8669593,
          44.8595807
        ]
      },
      "properties": {
        "id": 9918833123,
        "osm_type": "node",
        "name": "Bloc 2 IRTA sc B",
        "tourism": "apartment"
      }
    },
    {
      "type": "Feature",
      "geometry": {
        "type": "Point",
        "coordinates": [
          24.8827944,
          44.8328507
        ]
      },
      "properties": {
        "id": 9918833124,
        "osm_type": "node",
        "name": "Bloc N1 sc B",
        "tourism": "apartment"
      }
    },
    {
      "type": "Feature",
      "geometry": {
        "type": "Point",
        "coordinates": [
          24.8803678,
          44.8437624
        ]
      },
      "properties": {
        "id": 9918833125,
        "osm_type": "node",
        "name": "Bloc 25",
        "tourism": "apartment"
      }
    },
    {
      "type": "Feature",
      "geometry": {
        "type": "Point",
        "coordinates": [
          24.8776095,
          44.8449951
        ]
      },
      "properties": {
        "id": 9918833136,
        "osm_type": "node",
        "name": "Bl  D Sc A",
        "tourism": "apartment"
      }
    },
    {
      "type": "Feature",
      "geometry": {
        "type": "Point",
        "coordinates": [
          24.8687256,
          44.863659
        ]
      },
      "properties": {
        "id": 9918833221,
        "osm_type": "node",
        "name": "Bloc N1 tronson B Sc. B",
        "tourism": "apartment"
      }
    },
    {
      "type": "Feature",
      "geometry": {
        "type": "Point",
        "coordinates": [
          24.8762826,
          44.8889128
        ]
      },
      "properties": {
        "id": 9918833223,
        "osm_type": "node",
        "name": "Bloc 1 sc C",
        "tourism": "apartment"
      }
    },
    {
      "type": "Feature",
      "geometry": {
        "type": "Point",
        "coordinates": [
          24.8767524,
          44.8889996
        ]
      },
      "properties": {
        "id": 9918833325,
        "osm_type": "node",
        "name": "Bloc 3 sc B",
        "tourism": "apartment"
      }
    },
    {
      "type": "Feature",
      "geometry": {
        "type": "Point",
        "coordinates": [
          24.8824601,
          44.8330385
        ]
      },
      "properties": {
        "id": 9918833337,
        "osm_type": "node",
        "name": "Bloc N1 sc A",
        "tourism": "apartment"
      }
    },
    {
      "type": "Feature",
      "geometry": {
        "type": "Point",
        "coordinates": [
          24.8749203,
          44.8440641
        ]
      },
      "properties": {
        "id": 9918833343,
        "osm_type": "node",
        "name": "Bloc J18 sc A",
        "tourism": "apartment"
      }
    },
    {
      "type": "Feature",
      "geometry": {
        "type": "Point",
        "coordinates": [
          24.8758012,
          44.855262
        ]
      },
      "properties": {
        "id": 9918833353,
        "osm_type": "node",
        "name": "Mobilux sc C",
        "tourism": "apartment"
      }
    },
    {
      "type": "Feature",
      "geometry": {
        "type": "Point",
        "coordinates": [
          24.8526528,
          44.847676
        ]
      },
      "properties": {
        "id": 9918833822,
        "osm_type": "node",
        "name": "Bloc 50-51 sc A",
        "tourism": "apartment"
      }
    },
    {
      "type": "Feature",
      "geometry": {
        "type": "Point",
        "coordinates": [
          24.8523727,
          44.8476614
        ]
      },
      "properties": {
        "id": 9918833823,
        "osm_type": "node",
        "name": "Bloc 50-51 sc b",
        "tourism": "apartment"
      }
    },
    {
      "type": "Feature",
      "geometry": {
        "type": "Point",
        "coordinates": [
          24.8745909,
          44.843258
        ]
      },
      "properties": {
        "id": 9918833830,
        "osm_type": "node",
        "name": "Bloc J17 sc A",
        "tourism": "apartment"
      }
    },
    {
      "type": "Feature",
      "geometry": {
        "type": "Point",
        "coordinates": [
          24.8744037,
          44.8434316
        ]
      },
      "properties": {
        "id": 9918833831,
        "osm_type": "node",
        "name": "Bloc j17 sc B",
        "tourism": "apartment"
      }
    },
    {
      "type": "Feature",
      "geometry": {
        "type": "Point",
        "coordinates": [
          24.8749872,
          44.8556897
        ]
      },
      "properties": {
        "id": 9918833937,
        "osm_type": "node",
        "name": "Bloc 13 sc A",
        "tourism": "apartment"
      }
    },
    {
      "type": "Feature",
      "geometry": {
        "type": "Point",
        "coordinates": [
          24.8400585,
          44.8776397
        ]
      },
      "properties": {
        "id": 9922495318,
        "osm_type": "node",
        "name": "S2",
        "tourism": "apartment"
      }
    },
    {
      "type": "Feature",
      "geometry": {
        "type": "Point",
        "coordinates": [
          24.8968222,
          44.8395664
        ]
      },
      "properties": {
        "id": 9929909117,
        "osm_type": "node",
        "name": "B31 sc G",
        "tourism": "apartment"
      }
    },
    {
      "type": "Feature",
      "geometry": {
        "type": "Point",
        "coordinates": [
          24.8884214,
          44.8409486
        ]
      },
      "properties": {
        "id": 9945822083,
        "osm_type": "node",
        "name": "Casa Domneasca Riana",
        "tourism": "hotel"
      }
    },
    {
      "type": "Feature",
      "geometry": {
        "type": "Point",
        "coordinates": [
          24.8637084,
          44.8647558
        ]
      },
      "properties": {
        "id": 9951215017,
        "osm_type": "node",
        "name": "c4a sc A",
        "tourism": "apartment"
      }
    },
    {
      "type": "Feature",
      "geometry": {
        "type": "Point",
        "coordinates": [
          24.7874822,
          45.6053827
        ]
      },
      "properties": {
        "id": 9951555557,
        "osm_type": "node",
        "name": "Fereastra Mică",
        "tourism": "camp_site"
      }
    },
    {
      "type": "Feature",
      "geometry": {
        "type": "Point",
        "coordinates": [
          24.9364241,
          45.5826761
        ]
      },
      "properties": {
        "id": 9951555559,
        "osm_type": "node",
        "name": "Curmătura Brătilei",
        "tourism": "camp_site"
      }
    },
    {
      "type": "Feature",
      "geometry": {
        "type": "Point",
        "coordinates": [
          24.845224,
          44.8735002
        ]
      },
      "properties": {
        "id": 9954656817,
        "osm_type": "node",
        "name": "E3",
        "tourism": "apartment"
      }
    },
    {
      "type": "Feature",
      "geometry": {
        "type": "Point",
        "coordinates": [
          24.8560742,
          44.8487914
        ]
      },
      "properties": {
        "id": 9960131417,
        "osm_type": "node",
        "name": "43 sc H",
        "tourism": "apartment"
      }
    },
    {
      "type": "Feature",
      "geometry": {
        "type": "Point",
        "coordinates": [
          24.8424647,
          44.8762956
        ]
      },
      "properties": {
        "id": 9961062917,
        "osm_type": "node",
        "name": "P5A sc A",
        "tourism": "apartment"
      }
    },
    {
      "type": "Feature",
      "geometry": {
        "type": "Point",
        "coordinates": [
          24.9253607,
          44.9508575
        ]
      },
      "properties": {
        "id": 9980466764,
        "osm_type": "node",
        "name": "Hotel grandis Apulum",
        "tourism": "hotel",
        "phone": "+40348 807 414"
      }
    },
    {
      "type": "Feature",
      "geometry": {
        "type": "Point",
        "coordinates": [
          25.196636,
          45.4069715
        ]
      },
      "properties": {
        "id": 9982836228,
        "osm_type": "node",
        "name": "Pensiunea Izvorul Dâmboviței",
        "tourism": "guest_house",
        "phone": "+40721993794"
      }
    },
    {
      "type": "Feature",
      "geometry": {
        "type": "Point",
        "coordinates": [
          24.8013297,
          45.3737768
        ]
      },
      "properties": {
        "id": 9986669318,
        "osm_type": "node",
        "name": "Valea Doamnei",
        "tourism": "hotel",
        "opening_hours": "24/7",
        "phone": "0745011170"
      }
    },
    {
      "type": "Feature",
      "geometry": {
        "type": "Point",
        "coordinates": [
          25.2254594,
          45.4355851
        ]
      },
      "properties": {
        "id": 9989968886,
        "osm_type": "node",
        "name": "Pensiunea Cerbul",
        "tourism": "guest_house",
        "phone": "+40744 313 098"
      }
    },
    {
      "type": "Feature",
      "geometry": {
        "type": "Point",
        "coordinates": [
          25.2160301,
          45.4288401
        ]
      },
      "properties": {
        "id": 9989989735,
        "osm_type": "node",
        "name": "Pensiunea Liliana - Cheile Dâmbovicioarei",
        "tourism": "guest_house",
        "phone": "+40745831346"
      }
    },
    {
      "type": "Feature",
      "geometry": {
        "type": "Point",
        "coordinates": [
          25.2247477,
          45.4360294
        ]
      },
      "properties": {
        "id": 9992115199,
        "osm_type": "node",
        "name": "Casa Andu",
        "tourism": "guest_house",
        "phone": "+40745158603"
      }
    },
    {
      "type": "Feature",
      "geometry": {
        "type": "Point",
        "coordinates": [
          25.2246538,
          45.4366448
        ]
      },
      "properties": {
        "id": 9992115200,
        "osm_type": "node",
        "name": "Pensiunea La Ionică",
        "tourism": "guest_house",
        "phone": "+40744424959"
      }
    },
    {
      "type": "Feature",
      "geometry": {
        "type": "Point",
        "coordinates": [
          25.2461797,
          45.4255358
        ]
      },
      "properties": {
        "id": 10593974099,
        "osm_type": "node",
        "name": "Casa Boghez Ion",
        "tourism": "chalet"
      }
    },
    {
      "type": "Feature",
      "geometry": {
        "type": "Point",
        "coordinates": [
          24.6191506,
          44.9985682
        ]
      },
      "properties": {
        "id": 10929758142,
        "osm_type": "node",
        "name": "Still",
        "tourism": "hotel"
      }
    },
    {
      "type": "Feature",
      "geometry": {
        "type": "Point",
        "coordinates": [
          25.0469571,
          45.2877029
        ]
      },
      "properties": {
        "id": 11101294420,
        "osm_type": "node",
        "name": "ANL",
        "tourism": "apartment"
      }
    },
    {
      "type": "Feature",
      "geometry": {
        "type": "Point",
        "coordinates": [
          25.0828682,
          44.8087248
        ]
      },
      "properties": {
        "id": 11352086499,
        "osm_type": "node",
        "name": "Hotel-Restaurant Podgoria",
        "tourism": "hotel"
      }
    },
    {
      "type": "Feature",
      "geometry": {
        "type": "Point",
        "coordinates": [
          24.6765456,
          45.171192
        ]
      },
      "properties": {
        "id": 11390378592,
        "osm_type": "node",
        "name": "Pensiunea Four Seasons",
        "tourism": "guest_house"
      }
    },
    {
      "type": "Feature",
      "geometry": {
        "type": "Point",
        "coordinates": [
          24.8623841,
          44.8683793
        ]
      },
      "properties": {
        "id": 11401544970,
        "osm_type": "node",
        "tourism": "apartment"
      }
    },
    {
      "type": "Feature",
      "geometry": {
        "type": "Point",
        "coordinates": [
          24.8620766,
          44.8687709
        ]
      },
      "properties": {
        "id": 11401547669,
        "osm_type": "node",
        "tourism": "apartment"
      }
    },
    {
      "type": "Feature",
      "geometry": {
        "type": "Point",
        "coordinates": [
          24.6365594,
          45.4065627
        ]
      },
      "properties": {
        "id": 12118525397,
        "osm_type": "node",
        "name": "Transfagarasan Treehouse Village",
        "tourism": "hotel",
        "website": "https://transfagarasantreehousevillage.com"
      }
    },
    {
      "type": "Feature",
      "geometry": {
        "type": "Point",
        "coordinates": [
          24.6005326,
          45.5567574
        ]
      },
      "properties": {
        "id": 12144405570,
        "osm_type": "node",
        "name": "Casa Flora",
        "tourism": "guest_house"
      }
    },
    {
      "type": "Feature",
      "geometry": {
        "type": "Point",
        "coordinates": [
          24.6755235,
          45.146226
        ]
      },
      "properties": {
        "id": 12163069089,
        "osm_type": "node",
        "name": "Montana",
        "tourism": "hotel",
        "phone": "0248722364",
        "website": "https://pensiunemontana.hotelonia.com/"
      }
    },
    {
      "type": "Feature",
      "geometry": {
        "type": "Point",
        "coordinates": [
          24.872094,
          44.8117101
        ]
      },
      "properties": {
        "id": 12243524515,
        "osm_type": "node",
        "name": "Hotel Papillon",
        "tourism": "hotel"
      }
    },
    {
      "type": "Feature",
      "geometry": {
        "type": "Point",
        "coordinates": [
          24.7365806,
          44.6711311
        ]
      },
      "properties": {
        "id": 12549501032,
        "osm_type": "node",
        "name": "Teo-han",
        "tourism": "hotel"
      }
    },
    {
      "type": "Feature",
      "geometry": {
        "type": "Point",
        "coordinates": [
          25.2553079,
          45.457403
        ]
      },
      "properties": {
        "id": 13019079772,
        "osm_type": "node",
        "tourism": "camp_site"
      }
    },
    {
      "type": "Feature",
      "geometry": {
        "type": "Point",
        "coordinates": [
          25.2311863,
          45.4366787
        ]
      },
      "properties": {
        "id": 13069080668,
        "osm_type": "node",
        "name": "Vila Bianca",
        "tourism": "guest_house"
      }
    },
    {
      "type": "Feature",
      "geometry": {
        "type": "Point",
        "coordinates": [
          25.1967398,
          45.4097237
        ]
      },
      "properties": {
        "id": 13069265900,
        "osm_type": "node",
        "name": "GreenHouse",
        "tourism": "guest_house"
      }
    },
    {
      "type": "Feature",
      "geometry": {
        "type": "Point",
        "coordinates": [
          25.1782348,
          45.3929581
        ]
      },
      "properties": {
        "id": 13070443005,
        "osm_type": "node",
        "name": "Pensiunea Nicola",
        "tourism": "guest_house"
      }
    },
    {
      "type": "Feature",
      "geometry": {
        "type": "Point",
        "coordinates": [
          25.1794006,
          45.3950927
        ]
      },
      "properties": {
        "id": 13070443026,
        "osm_type": "node",
        "name": "Pensiunea Haras",
        "tourism": "guest_house"
      }
    },
    {
      "type": "Feature",
      "geometry": {
        "type": "Point",
        "coordinates": [
          25.1712159,
          45.3872956
        ]
      },
      "properties": {
        "id": 13070456227,
        "osm_type": "node",
        "name": "Cabana Haiducilor",
        "tourism": "guest_house"
      }
    },
    {
      "type": "Feature",
      "geometry": {
        "type": "Point",
        "coordinates": [
          25.1648846,
          45.3923964
        ]
      },
      "properties": {
        "id": 13070456228,
        "osm_type": "node",
        "name": "David resort",
        "tourism": "guest_house"
      }
    },
    {
      "type": "Feature",
      "geometry": {
        "type": "Point",
        "coordinates": [
          25.1499204,
          45.4029157
        ]
      },
      "properties": {
        "id": 13070468006,
        "osm_type": "node",
        "name": "Pensiunea Poiana Uliului",
        "tourism": "guest_house"
      }
    },
    {
      "type": "Feature",
      "geometry": {
        "type": "Point",
        "coordinates": [
          25.1503348,
          45.4028242
        ]
      },
      "properties": {
        "id": 13070468011,
        "osm_type": "node",
        "name": "Pensiunea Roxy",
        "tourism": "guest_house"
      }
    },
    {
      "type": "Feature",
      "geometry": {
        "type": "Point",
        "coordinates": [
          25.1286413,
          45.4454457
        ]
      },
      "properties": {
        "id": 13152648178,
        "osm_type": "node",
        "name": "Dor de Verde Rucăr",
        "tourism": "alpine_hut",
        "phone": "+40 723 828 639",
        "website": "https://dordeverderucar.ro/",
        "check_date": "2024-10-13"
      }
    },
    {
      "type": "Feature",
      "geometry": {
        "type": "Point",
        "coordinates": [
          24.9048414,
          44.787767
        ]
      },
      "properties": {
        "id": 13257281401,
        "osm_type": "node",
        "name": "Cartier SSM",
        "tourism": "chalet"
      }
    },
    {
      "type": "Feature",
      "geometry": {
        "type": "Point",
        "coordinates": [
          24.8836463,
          44.8357381
        ]
      },
      "properties": {
        "id": 13337765531,
        "osm_type": "node",
        "name": "Pavo",
        "tourism": "hotel",
        "phone": "0748788887",
        "website": "https://pensiune-pavo.ro/"
      }
    },
    {
      "type": "Feature",
      "geometry": {
        "type": "Point",
        "coordinates": [
          24.7047009,
          45.6019695
        ]
      },
      "properties": {
        "id": 13423479046,
        "osm_type": "node",
        "tourism": "camp_site"
      }
    },
    {
      "type": "Feature",
      "geometry": {
        "type": "Point",
        "coordinates": [
          25.2251933,
          45.4718657
        ]
      },
      "properties": {
        "id": 13739607582,
        "osm_type": "node",
        "name": "Salvamont Brusturet",
        "tourism": "alpine_hut"
      }
    },
    {
      "type": "Feature",
      "geometry": {
        "type": "Point",
        "coordinates": [
          24.8268633,
          44.9203542
        ]
      },
      "properties": {
        "id": 13769491101,
        "osm_type": "node",
        "tourism": "camp_site",
        "opening_hours": "24/7",
        "phone": "+40723610481"
      }
    },
    {
      "type": "Feature",
      "geometry": {
        "type": "Point",
        "coordinates": [
          24.8734266,
          44.8563879
        ]
      },
      "properties": {
        "id": 76985381,
        "osm_type": "way",
        "name": "Hotel Argesul",
        "tourism": "hotel"
      }
    },
    {
      "type": "Feature",
      "geometry": {
        "type": "Point",
        "coordinates": [
          24.863631,
          44.8525181
        ]
      },
      "properties": {
        "id": 136268717,
        "osm_type": "way",
        "name": "Pensiune",
        "tourism": "hostel"
      }
    },
    {
      "type": "Feature",
      "geometry": {
        "type": "Point",
        "coordinates": [
          24.8634299,
          44.8526362
        ]
      },
      "properties": {
        "id": 136271541,
        "osm_type": "way",
        "name": "Pesiunea Cristine",
        "tourism": "hostel"
      }
    },
    {
      "type": "Feature",
      "geometry": {
        "type": "Point",
        "coordinates": [
          25.0558462,
          45.2787346
        ]
      },
      "properties": {
        "id": 199685767,
        "osm_type": "way",
        "name": "Pensiunea Anomis",
        "tourism": "guest_house",
        "phone": "+40 248 532 770"
      }
    },
    {
      "type": "Feature",
      "geometry": {
        "type": "Point",
        "coordinates": [
          25.0475149,
          45.4389696
        ]
      },
      "properties": {
        "id": 199701153,
        "osm_type": "way",
        "name": "Cabana",
        "tourism": "motel"
      }
    },
    {
      "type": "Feature",
      "geometry": {
        "type": "Point",
        "coordinates": [
          25.0446257,
          45.4416667
        ]
      },
      "properties": {
        "id": 199701167,
        "osm_type": "way",
        "name": "Cabana Voina",
        "tourism": "alpine_hut",
        "website": "https://www.cabanavoina.ro/"
      }
    },
    {
      "type": "Feature",
      "geometry": {
        "type": "Point",
        "coordinates": [
          25.1732474,
          45.5135521
        ]
      },
      "properties": {
        "id": 204185222,
        "osm_type": "way",
        "name": "Cabana Garofița Pietrei Craiului",
        "tourism": "alpine_hut"
      }
    },
    {
      "type": "Feature",
      "geometry": {
        "type": "Point",
        "coordinates": [
          25.1741287,
          45.4954194
        ]
      },
      "properties": {
        "id": 204185223,
        "osm_type": "way",
        "name": "Cabana Dragoș Bejan (Valea lui Ivan)",
        "tourism": "chalet"
      }
    },
    {
      "type": "Feature",
      "geometry": {
        "type": "Point",
        "coordinates": [
          25.139954,
          45.5068081
        ]
      },
      "properties": {
        "id": 204185566,
        "osm_type": "way",
        "name": "Cabana Cascoe",
        "tourism": "alpine_hut",
        "website": "https://www.cabanacascoe.ro"
      }
    },
    {
      "type": "Feature",
      "geometry": {
        "type": "Point",
        "coordinates": [
          25.0463893,
          45.4748837
        ]
      },
      "properties": {
        "id": 217470714,
        "osm_type": "way",
        "name": "Cabana Cuca",
        "tourism": "alpine_hut"
      }
    },
    {
      "type": "Feature",
      "geometry": {
        "type": "Point",
        "coordinates": [
          24.6258018,
          45.590223
        ]
      },
      "properties": {
        "id": 230446502,
        "osm_type": "way",
        "name": "Refugiul Salvamont Argeș",
        "tourism": "alpine_hut"
      }
    },
    {
      "type": "Feature",
      "geometry": {
        "type": "Point",
        "coordinates": [
          24.8721289,
          44.856931
        ]
      },
      "properties": {
        "id": 236842390,
        "osm_type": "way",
        "name": "Hotel Muntenia",
        "tourism": "hotel"
      }
    },
    {
      "type": "Feature",
      "geometry": {
        "type": "Point",
        "coordinates": [
          24.8717159,
          44.8563824
        ]
      },
      "properties": {
        "id": 236843715,
        "osm_type": "way",
        "name": "Hotel Carmen",
        "tourism": "hotel"
      }
    },
    {
      "type": "Feature",
      "geometry": {
        "type": "Point",
        "coordinates": [
          24.6315476,
          45.3484487
        ]
      },
      "properties": {
        "id": 270550299,
        "osm_type": "way",
        "name": "La Cetate",
        "tourism": "guest_house"
      }
    },
    {
      "type": "Feature",
      "geometry": {
        "type": "Point",
        "coordinates": [
          24.6511285,
          45.306331
        ]
      },
      "properties": {
        "id": 298781933,
        "osm_type": "way",
        "name": "Belvedere La Cristina",
        "tourism": "guest_house",
        "website": "https://www.pensiuneacristina.com/"
      }
    },
    {
      "type": "Feature",
      "geometry": {
        "type": "Point",
        "coordinates": [
          24.6488835,
          45.3078294
        ]
      },
      "properties": {
        "id": 298781941,
        "osm_type": "way",
        "name": "Pensiunea Arizonia",
        "tourism": "guest_house"
      }
    },
    {
      "type": "Feature",
      "geometry": {
        "type": "Point",
        "coordinates": [
          24.6751615,
          45.131414
        ]
      },
      "properties": {
        "id": 300666443,
        "osm_type": "way",
        "name": "Hotel Restaurant Camino",
        "tourism": "hotel",
        "phone": "+40745274705"
      }
    },
    {
      "type": "Feature",
      "geometry": {
        "type": "Point",
        "coordinates": [
          24.6759994,
          45.152194
        ]
      },
      "properties": {
        "id": 300789203,
        "osm_type": "way",
        "name": "Hotel Posada",
        "tourism": "hotel"
      }
    },
    {
      "type": "Feature",
      "geometry": {
        "type": "Point",
        "coordinates": [
          25.0458311,
          45.2721655
        ]
      },
      "properties": {
        "id": 304438322,
        "osm_type": "way",
        "name": "Hotel Muscelul",
        "tourism": "hotel",
        "website": "https://www.muscelul.ro"
      }
    },
    {
      "type": "Feature",
      "geometry": {
        "type": "Point",
        "coordinates": [
          24.8741709,
          44.8542154
        ]
      },
      "properties": {
        "id": 319106804,
        "osm_type": "way",
        "name": "Victoria",
        "tourism": "hotel"
      }
    },
    {
      "type": "Feature",
      "geometry": {
        "type": "Point",
        "coordinates": [
          24.8739542,
          44.8554802
        ]
      },
      "properties": {
        "id": 319145863,
        "osm_type": "way",
        "name": "La Strada Boutique Villa",
        "tourism": "hotel",
        "website": "https://www.lastradapitesti.ro/"
      }
    },
    {
      "type": "Feature",
      "geometry": {
        "type": "Point",
        "coordinates": [
          24.8594768,
          44.8704745
        ]
      },
      "properties": {
        "id": 319448250,
        "osm_type": "way",
        "name": "Oxygen Club",
        "tourism": "hotel"
      }
    },
    {
      "type": "Feature",
      "geometry": {
        "type": "Point",
        "coordinates": [
          24.6600162,
          45.4078065
        ]
      },
      "properties": {
        "id": 336108080,
        "osm_type": "way",
        "name": "Pensiunea Vidraru",
        "tourism": "guest_house"
      }
    },
    {
      "type": "Feature",
      "geometry": {
        "type": "Point",
        "coordinates": [
          25.0349406,
          45.2799094
        ]
      },
      "properties": {
        "id": 336911001,
        "osm_type": "way",
        "name": "Ceramus",
        "tourism": "guest_house",
        "phone": "0248537040",
        "website": "http://www.ceramussport.ro/"
      }
    },
    {
      "type": "Feature",
      "geometry": {
        "type": "Point",
        "coordinates": [
          24.6050666,
          45.3309064
        ]
      },
      "properties": {
        "id": 365176119,
        "osm_type": "way",
        "name": "Pensiunea Eden",
        "tourism": "guest_house"
      }
    },
    {
      "type": "Feature",
      "geometry": {
        "type": "Point",
        "coordinates": [
          24.7451248,
          44.9698677
        ]
      },
      "properties": {
        "id": 366061602,
        "osm_type": "way",
        "name": "Pensiunea Boby",
        "tourism": "guest_house"
      }
    },
    {
      "type": "Feature",
      "geometry": {
        "type": "Point",
        "coordinates": [
          24.6786351,
          45.1722761
        ]
      },
      "properties": {
        "id": 401724541,
        "osm_type": "way",
        "name": "Hostel Venus",
        "tourism": "hostel"
      }
    },
    {
      "type": "Feature",
      "geometry": {
        "type": "Point",
        "coordinates": [
          25.2193103,
          45.4492271
        ]
      },
      "properties": {
        "id": 415723103,
        "osm_type": "way",
        "name": "Pensiunea Piatra Craiului",
        "tourism": "hotel"
      }
    },
    {
      "type": "Feature",
      "geometry": {
        "type": "Point",
        "coordinates": [
          24.7138638,
          45.3999343
        ]
      },
      "properties": {
        "id": 422153442,
        "osm_type": "way",
        "name": "Cabana Ionescu",
        "tourism": "guest_house"
      }
    },
    {
      "type": "Feature",
      "geometry": {
        "type": "Point",
        "coordinates": [
          25.2038487,
          45.4120956
        ]
      },
      "properties": {
        "id": 436464743,
        "osm_type": "way",
        "name": "Pensiunea Buburuza",
        "tourism": "motel"
      }
    },
    {
      "type": "Feature",
      "geometry": {
        "type": "Point",
        "coordinates": [
          25.2090341,
          45.4686861
        ]
      },
      "properties": {
        "id": 448730498,
        "osm_type": "way",
        "name": "Cabana Pietricica",
        "tourism": "chalet",
        "contact:phone": "+40 744313182",
        "contact:website": "http://www.cabana-pietricica.ro"
      }
    },
    {
      "type": "Feature",
      "geometry": {
        "type": "Point",
        "coordinates": [
          24.5518136,
          45.1377027
        ]
      },
      "properties": {
        "id": 478553795,
        "osm_type": "way",
        "name": "Vila Flori",
        "tourism": "guest_house"
      }
    },
    {
      "type": "Feature",
      "geometry": {
        "type": "Point",
        "coordinates": [
          24.840382,
          45.208504
        ]
      },
      "properties": {
        "id": 479485839,
        "osm_type": "way",
        "name": "Hotel Domnești",
        "tourism": "hotel"
      }
    },
    {
      "type": "Feature",
      "geometry": {
        "type": "Point",
        "coordinates": [
          24.7087075,
          45.1861155
        ]
      },
      "properties": {
        "id": 495651912,
        "osm_type": "way",
        "name": "Pensiunea Ester",
        "tourism": "guest_house"
      }
    },
    {
      "type": "Feature",
      "geometry": {
        "type": "Point",
        "coordinates": [
          24.9097988,
          44.872231
        ]
      },
      "properties": {
        "id": 502946996,
        "osm_type": "way",
        "name": "La Cetate",
        "tourism": "hotel"
      }
    },
    {
      "type": "Feature",
      "geometry": {
        "type": "Point",
        "coordinates": [
          24.8363985,
          44.853086
        ]
      },
      "properties": {
        "id": 525195947,
        "osm_type": "way",
        "name": "Cornul Vânătorului",
        "tourism": "hotel"
      }
    },
    {
      "type": "Feature",
      "geometry": {
        "type": "Point",
        "coordinates": [
          24.8283038,
          44.8933028
        ]
      },
      "properties": {
        "id": 608288110,
        "osm_type": "way",
        "tourism": "motel"
      }
    },
    {
      "type": "Feature",
      "geometry": {
        "type": "Point",
        "coordinates": [
          24.6564356,
          45.2843742
        ]
      },
      "properties": {
        "id": 653571996,
        "osm_type": "way",
        "tourism": "hotel"
      }
    },
    {
      "type": "Feature",
      "geometry": {
        "type": "Point",
        "coordinates": [
          25.0477509,
          45.2749767
        ]
      },
      "properties": {
        "id": 664854358,
        "osm_type": "way",
        "name": "Pensiunea Hangița",
        "tourism": "guest_house",
        "website": "https://www.hangita.ro/"
      }
    },
    {
      "type": "Feature",
      "geometry": {
        "type": "Point",
        "coordinates": [
          25.239183,
          45.4149974
        ]
      },
      "properties": {
        "id": 680889643,
        "osm_type": "way",
        "name": "Pensiunea Dealul Sasului",
        "tourism": "guest_house"
      }
    },
    {
      "type": "Feature",
      "geometry": {
        "type": "Point",
        "coordinates": [
          25.1188771,
          45.5459084
        ]
      },
      "properties": {
        "id": 683606901,
        "osm_type": "way",
        "name": "Centrul de Activități și Explorare a Naturii Richita",
        "tourism": "alpine_hut",
        "website": "https://www.carpathia.org/ro/richita-cel-mai-mare-centru-de-activitati-si-explorarea-naturii-din-romania-si-a-deschis-portile/"
      }
    },
    {
      "type": "Feature",
      "geometry": {
        "type": "Point",
        "coordinates": [
          24.9608805,
          45.4606367
        ]
      },
      "properties": {
        "id": 707936618,
        "osm_type": "way",
        "tourism": "camp_site"
      }
    },
    {
      "type": "Feature",
      "geometry": {
        "type": "Point",
        "coordinates": [
          25.0461039,
          45.4407662
        ]
      },
      "properties": {
        "id": 708459639,
        "osm_type": "way",
        "tourism": "camp_site"
      }
    },
    {
      "type": "Feature",
      "geometry": {
        "type": "Point",
        "coordinates": [
          25.1818315,
          45.3847543
        ]
      },
      "properties": {
        "id": 737200089,
        "osm_type": "way",
        "name": "Resort David",
        "tourism": "guest_house",
        "website": "https://www.resortdavid.ro/"
      }
    },
    {
      "type": "Feature",
      "geometry": {
        "type": "Point",
        "coordinates": [
          25.0107897,
          45.4591432
        ]
      },
      "properties": {
        "id": 943982918,
        "osm_type": "way",
        "name": "Cabana Bătrâna",
        "tourism": "alpine_hut",
        "phone": "+40744789547;+40741043903"
      }
    },
    {
      "type": "Feature",
      "geometry": {
        "type": "Point",
        "coordinates": [
          25.0438397,
          45.2657076
        ]
      },
      "properties": {
        "id": 1007898906,
        "osm_type": "way",
        "name": "Pensiunea Brâncovenească",
        "tourism": "guest_house"
      }
    },
    {
      "type": "Feature",
      "geometry": {
        "type": "Point",
        "coordinates": [
          24.516273,
          45.4368647
        ]
      },
      "properties": {
        "id": 1037337975,
        "osm_type": "way",
        "name": "CABANA STUBEAUA",
        "tourism": "alpine_hut"
      }
    },
    {
      "type": "Feature",
      "geometry": {
        "type": "Point",
        "coordinates": [
          25.2411263,
          45.4146714
        ]
      },
      "properties": {
        "id": 1074319455,
        "osm_type": "way",
        "name": "Pensiunea Nedelea",
        "tourism": "guest_house"
      }
    },
    {
      "type": "Feature",
      "geometry": {
        "type": "Point",
        "coordinates": [
          24.8370914,
          44.861875
        ]
      },
      "properties": {
        "id": 1101776557,
        "osm_type": "way",
        "name": "La Villa",
        "tourism": "guest_house"
      }
    },
    {
      "type": "Feature",
      "geometry": {
        "type": "Point",
        "coordinates": [
          25.1720098,
          45.4434928
        ]
      },
      "properties": {
        "id": 1182259647,
        "osm_type": "way",
        "name": "La Naica",
        "tourism": "guest_house",
        "phone": "+40 74 208 9522"
      }
    },
    {
      "type": "Feature",
      "geometry": {
        "type": "Point",
        "coordinates": [
          24.881659,
          44.9443699
        ]
      },
      "properties": {
        "id": 1200632040,
        "osm_type": "way",
        "name": "Pensiunea Vlad",
        "tourism": "guest_house",
        "phone": "+40771768571",
        "website": "https://www.facebook.com/profile.php?id=100095270766901"
      }
    },
    {
      "type": "Feature",
      "geometry": {
        "type": "Point",
        "coordinates": [
          24.9779742,
          45.2486843
        ]
      },
      "properties": {
        "id": 1204413409,
        "osm_type": "way",
        "name": "Pensiunea Maria",
        "tourism": "guest_house"
      }
    },
    {
      "type": "Feature",
      "geometry": {
        "type": "Point",
        "coordinates": [
          24.9772132,
          45.3062665
        ]
      },
      "properties": {
        "id": 1207851129,
        "osm_type": "way",
        "name": "Satu' Muscelean",
        "tourism": "guest_house"
      }
    },
    {
      "type": "Feature",
      "geometry": {
        "type": "Point",
        "coordinates": [
          24.6174197,
          44.9967648
        ]
      },
      "properties": {
        "id": 1209444915,
        "osm_type": "way",
        "name": "Traffic Camping",
        "tourism": "camp_site"
      }
    },
    {
      "type": "Feature",
      "geometry": {
        "type": "Point",
        "coordinates": [
          24.8816015,
          44.9446569
        ]
      },
      "properties": {
        "id": 1214403767,
        "osm_type": "way",
        "tourism": "guest_house"
      }
    },
    {
      "type": "Feature",
      "geometry": {
        "type": "Point",
        "coordinates": [
          25.0462604,
          45.2766766
        ]
      },
      "properties": {
        "id": 1263416216,
        "osm_type": "way",
        "name": "Pensiunea Un băiat și o fată",
        "tourism": "guest_house",
        "website": "https://www.unbaiatsiofata.ro/pensiune/#Contact"
      }
    },
    {
      "type": "Feature",
      "geometry": {
        "type": "Point",
        "coordinates": [
          25.1697939,
          45.3753253
        ]
      },
      "properties": {
        "id": 1303876191,
        "osm_type": "way",
        "name": "Royal Rucăr Villa",
        "tourism": "chalet"
      }
    },
    {
      "type": "Feature",
      "geometry": {
        "type": "Point",
        "coordinates": [
          24.8379447,
          44.8486009
        ]
      },
      "properties": {
        "id": 1393902073,
        "osm_type": "way",
        "name": "HOTEL MAGIC TRIVALE",
        "tourism": "hotel"
      }
    },
    {
      "type": "Feature",
      "geometry": {
        "type": "Point",
        "coordinates": [
          25.1287811,
          45.4458037
        ]
      },
      "properties": {
        "id": 1430844445,
        "osm_type": "way",
        "name": "Cabana 1",
        "tourism": "alpine_hut"
      }
    },
    {
      "type": "Feature",
      "geometry": {
        "type": "Point",
        "coordinates": [
          25.1284092,
          45.4456622
        ]
      },
      "properties": {
        "id": 1430844449,
        "osm_type": "way",
        "name": "Cabana 2",
        "tourism": "alpine_hut"
      }
    },
    {
      "type": "Feature",
      "geometry": {
        "type": "Point",
        "coordinates": [
          25.1287355,
          45.437988
        ]
      },
      "properties": {
        "id": 1431676674,
        "osm_type": "way",
        "name": "Casa Camellie",
        "tourism": "guest_house"
      }
    },
    {
      "type": "Feature",
      "geometry": {
        "type": "Point",
        "coordinates": [
          25.1292308,
          45.4384408
        ]
      },
      "properties": {
        "id": 1431676675,
        "osm_type": "way",
        "name": "Casa Ștefan",
        "tourism": "guest_house",
        "phone": "+40751147121"
      }
    },
    {
      "type": "Feature",
      "geometry": {
        "type": "Point",
        "coordinates": [
          25.1291345,
          45.4363113
        ]
      },
      "properties": {
        "id": 1431676689,
        "osm_type": "way",
        "name": "Casa Alexandra",
        "tourism": "guest_house",
        "phone": "+40775200535"
      }
    },
    {
      "type": "Feature",
      "geometry": {
        "type": "Point",
        "coordinates": [
          25.1291695,
          45.4359267
        ]
      },
      "properties": {
        "id": 1431676695,
        "osm_type": "way",
        "name": "Cabana Soarelui Rucăr",
        "tourism": "guest_house",
        "phone": "+40723137696"
      }
    },
    {
      "type": "Feature",
      "geometry": {
        "type": "Point",
        "coordinates": [
          25.1292651,
          45.435579
        ]
      },
      "properties": {
        "id": 1431676697,
        "osm_type": "way",
        "name": "Cabana Ancuței",
        "tourism": "guest_house",
        "phone": "+40753053981",
        "website": "https://www.turistinfo.ro/rucar/cazare-rucar/cabana_ancutei-c71039.html"
      }
    },
    {
      "type": "Feature",
      "geometry": {
        "type": "Point",
        "coordinates": [
          25.1301702,
          45.4339684
        ]
      },
      "properties": {
        "id": 1431676711,
        "osm_type": "way",
        "name": "Casa de Vacanță Garofița",
        "tourism": "guest_house",
        "phone": "+40733278101",
        "website": "https://www.facebook.com/casadevacantagarofita1/"
      }
    },
    {
      "type": "Feature",
      "geometry": {
        "type": "Point",
        "coordinates": [
          25.131259,
          45.4328165
        ]
      },
      "properties": {
        "id": 1431697281,
        "osm_type": "way",
        "name": "Cabana Râuşor",
        "tourism": "guest_house",
        "phone": "+40726175970"
      }
    },
    {
      "type": "Feature",
      "geometry": {
        "type": "Point",
        "coordinates": [
          25.0730236,
          45.3071355
        ]
      },
      "properties": {
        "id": 1463884855,
        "osm_type": "way",
        "name": "CasaRim",
        "tourism": "motel",
        "website": "CasaRim.ro"
      }
    },
    {
      "type": "Feature",
      "geometry": {
        "type": "Point",
        "coordinates": [
          25.07029,
          45.2931834
        ]
      },
      "properties": {
        "id": 1463884857,
        "osm_type": "way",
        "name": "Casa Tirol",
        "tourism": "motel",
        "website": "CasaTirol.ro"
      }
    },
    {
      "type": "Feature",
      "geometry": {
        "type": "Point",
        "coordinates": [
          25.1272015,
          45.4483169
        ]
      },
      "properties": {
        "id": 19628957,
        "osm_type": "relation",
        "name": "Casa Natalia",
        "tourism": "guest_house"
      }
    },
    {
      "type": "Feature",
      "geometry": {
        "type": "Point",
        "coordinates": [
          25.125606,
          45.4490599
        ]
      },
      "properties": {
        "id": 19628958,
        "osm_type": "relation",
        "name": "Pensiunea Pietrele Albe",
        "tourism": "guest_house",
        "phone": "+40721894021",
        "website": "https://www.pensiuneapietrelealbe.ro/"
      }
    },
    {
      "type": "Feature",
      "geometry": {
        "type": "Point",
        "coordinates": [
          25.1253503,
          45.4497574
        ]
      },
      "properties": {
        "id": 19628959,
        "osm_type": "relation",
        "name": "Cabana Păpușa",
        "tourism": "guest_house"
      }
    },
    {
      "type": "Feature",
      "geometry": {
        "type": "Point",
        "coordinates": [
          25.1243009,
          45.4523617
        ]
      },
      "properties": {
        "id": 19628960,
        "osm_type": "relation",
        "name": "Cabana Doi Brazi",
        "tourism": "guest_house"
      }
    },
    {
      "type": "Feature",
      "geometry": {
        "type": "Point",
        "coordinates": [
          25.1243209,
          45.4535975
        ]
      },
      "properties": {
        "id": 19628961,
        "osm_type": "relation",
        "name": "Casa de la Munte Rucăr",
        "tourism": "guest_house",
        "phone": "+40751281974"
      }
    },
    {
      "type": "Feature",
      "geometry": {
        "type": "Point",
        "coordinates": [
          25.123559,
          45.4374223
        ]
      },
      "properties": {
        "id": 19628962,
        "osm_type": "relation",
        "name": "Cabana Valea Haiducilor",
        "tourism": "guest_house",
        "phone": "+40766364202",
        "website": "https://www.valea-haiducilor.ro/"
      }
    },
    {
      "type": "Feature",
      "geometry": {
        "type": "Point",
        "coordinates": [
          25.1266514,
          45.4385998
        ]
      },
      "properties": {
        "id": 19628963,
        "osm_type": "relation",
        "name": "Cabana Bros' Lodge",
        "tourism": "guest_house",
        "phone": "+40744313089"
      }
    },
    {
      "type": "Feature",
      "geometry": {
        "type": "Point",
        "coordinates": [
          25.1290157,
          45.4370433
        ]
      },
      "properties": {
        "id": 19628964,
        "osm_type": "relation",
        "name": "Casa EDA",
        "tourism": "guest_house"
      }
    },
    {
      "type": "Feature",
      "geometry": {
        "type": "Point",
        "coordinates": [
          25.1292739,
          45.4367324
        ]
      },
      "properties": {
        "id": 19628965,
        "osm_type": "relation",
        "name": "Casa IRISS",
        "tourism": "guest_house",
        "phone": "+40747117642",
        "website": "https://www.turistinfo.ro/rucar/cazare-rucar/cabana_iriss/harta-acces-cabana_iriss-c99417.html"
      }
    },
    {
      "type": "Feature",
      "geometry": {
        "type": "Point",
        "coordinates": [
          25.1291626,
          45.4369221
        ]
      },
      "properties": {
        "id": 19628966,
        "osm_type": "relation",
        "name": "Cabana Ioana",
        "tourism": "guest_house"
      }
    },
    {
      "type": "Feature",
      "geometry": {
        "type": "Point",
        "coordinates": [
          25.1307586,
          45.4349241
        ]
      },
      "properties": {
        "id": 19628967,
        "osm_type": "relation",
        "name": "Cabana Genovita Rucăr",
        "tourism": "guest_house",
        "phone": "+40744325271",
        "website": "https://www.turistinfo.ro/rucar/cazare-rucar/cabana_genovita-c101122.html"
      }
    },
    {
      "type": "Feature",
      "geometry": {
        "type": "Point",
        "coordinates": [
          25.1318732,
          45.4213922
        ]
      },
      "properties": {
        "id": 19629244,
        "osm_type": "relation",
        "name": "Pensiunea Valea Râsului Râuşor",
        "tourism": "guest_house",
        "phone": "+40757861708"
      }
    },
    {
      "type": "Feature",
      "geometry": {
        "type": "Point",
        "coordinates": [
          25.1385304,
          45.4137339
        ]
      },
      "properties": {
        "id": 19629245,
        "osm_type": "relation",
        "name": "Pensiunea Orizont Rucăr",
        "tourism": "guest_house",
        "phone": "+40744753162"
      }
    },
    {
      "type": "Feature",
      "geometry": {
        "type": "Point",
        "coordinates": [
          25.1433168,
          45.4074819
        ]
      },
      "properties": {
        "id": 19629246,
        "osm_type": "relation",
        "name": "Cabana Popasul Drumețului",
        "tourism": "guest_house"
      }
    }
  ]
}