{
  "type": "FeatureCollection",
  "features": [
    {
      "type": "Feature",
      "geometry": {
        "type": "Point",
        "coordinates": [
          26.7500069,
          47.7309896
        ]
      },
      "properties": {
        "id": 702797413,
        "osm_type": "node",
        "name": "Pensiunea Andreea",
        "tourism": "guest_house"
      }
    },
    {
      "type": "Feature",
      "geometry": {
        "type": "Point",
        "coordinates": [
          26.6167275,
          48.1789393
        ]
      },
      "properties": {
        "id": 2025351986,
        "osm_type": "node",
        "name": "Pensiunea Andrei",
        "tourism": "motel"
      }
    },
    {
      "type": "Feature",
      "geometry": {
        "type": "Point",
        "coordinates": [
          26.5942294,
          48.185734
        ]
      },
      "properties": {
        "id": 3002228870,
        "osm_type": "node",
        "name": "Pensiunea Koket",
        "tourism": "motel"
      }
    },
    {
      "type": "Feature",
      "geometry": {
        "type": "Point",
        "coordinates": [
          26.6707666,
          47.7438932
        ]
      },
      "properties": {
        "id": 3456302139,
        "osm_type": "node",
        "name": "Hotel Europa",
        "tourism": "hotel",
        "phone": "0721 387 672",
        "website": "http://www.complex-europa.com/"
      }
    },
    {
      "type": "Feature",
      "geometry": {
        "type": "Point",
        "coordinates": [
          26.6617954,
          47.7453661
        ]
      },
      "properties": {
        "id": 4393860988,
        "osm_type": "node",
        "name": "Hotel Rapsodia",
        "tourism": "hotel",
        "phone": "0752018071"
      }
    },
    {
      "type": "Feature",
      "geometry": {
        "type": "Point",
        "coordinates": [
          26.6795985,
          47.738943
        ]
      },
      "properties": {
        "id": 4912237466,
        "osm_type": "node",
        "name": "Pensiunea Bianca",
        "tourism": "hotel"
      }
    },
    {
      "type": "Feature",
      "geometry": {
        "type": "Point",
        "coordinates": [
          26.1497002,
          47.9677352
        ]
      },
      "properties": {
        "id": 5793468855,
        "osm_type": "node",
        "name": "Pensiunea Piscina",
        "tourism": "motel"
      }
    },
    {
      "type": "Feature",
      "geometry": {
        "type": "Point",
        "coordinates": [
          26.6538542,
          47.7369836
        ]
      },
      "properties": {
        "id": 6401044300,
        "osm_type": "node",
        "name": "Hotel Restaurant Tex-Club",
        "tourism": "hotel",
        "phone": "0231 584 206",
        "website": "http://texclub.ro/"
      }
    },
    {
      "type": "Feature",
      "geometry": {
        "type": "Point",
        "coordinates": [
          26.6700992,
          47.7452583
        ]
      },
      "properties": {
        "id": 6411378415,
        "osm_type": "node",
        "name": "Hotel Rareș",
        "tourism": "hotel",
        "phone": "0231 536 453",
        "website": "https://hotel-rares-botosani.business.site/"
      }
    },
    {
      "type": "Feature",
      "geometry": {
        "type": "Point",
        "coordinates": [
          26.4398666,
          47.7688047
        ]
      },
      "properties": {
        "id": 6449067599,
        "osm_type": "node",
        "name": "Blocul 6",
        "tourism": "apartment"
      }
    },
    {
      "type": "Feature",
      "geometry": {
        "type": "Point",
        "coordinates": [
          26.5680817,
          47.7256265
        ]
      },
      "properties": {
        "id": 9759515082,
        "osm_type": "node",
        "name": "Cabana Stejarul",
        "tourism": "hotel",
        "website": "https://cabanastejarul.ro"
      }
    },
    {
      "type": "Feature",
      "geometry": {
        "type": "Point",
        "coordinates": [
          26.6915185,
          47.7031162
        ]
      },
      "properties": {
        "id": 13134713500,
        "osm_type": "node",
        "name": "Hotel Lebăda",
        "tourism": "hotel",
        "phone": "+40 751 222 259",
        "website": "https://popaslebada.ro/"
      }
    },
    {
      "type": "Feature",
      "geometry": {
        "type": "Point",
        "coordinates": [
          26.3680979,
          47.8325862
        ]
      },
      "properties": {
        "id": 221841212,
        "osm_type": "way",
        "name": "Cai de Vis",
        "tourism": "guest_house"
      }
    },
    {
      "type": "Feature",
      "geometry": {
        "type": "Point",
        "coordinates": [
          26.5998678,
          47.7691245
        ]
      },
      "properties": {
        "id": 240572634,
        "osm_type": "way",
        "name": "Casa Boemă",
        "tourism": "hotel",
        "opening_hours": "24/7",
        "phone": "+40 231 518 916",
        "website": "http://www.casaboema.ro"
      }
    },
    {
      "type": "Feature",
      "geometry": {
        "type": "Point",
        "coordinates": [
          26.6713836,
          47.7339593
        ]
      },
      "properties": {
        "id": 278506506,
        "osm_type": "way",
        "name": "Casa Lux",
        "tourism": "motel",
        "phone": "0231 510510",
        "website": "https://pensiuneacasalux.ro/"
      }
    },
    {
      "type": "Feature",
      "geometry": {
        "type": "Point",
        "coordinates": [
          26.658316,
          47.7421945
        ]
      },
      "properties": {
        "id": 312884116,
        "osm_type": "way",
        "name": "Belvedere",
        "tourism": "hotel"
      }
    },
    {
      "type": "Feature",
      "geometry": {
        "type": "Point",
        "coordinates": [
          26.6585923,
          47.7422672
        ]
      },
      "properties": {
        "id": 318356672,
        "osm_type": "way",
        "tourism": "hotel"
      }
    },
    {
      "type": "Feature",
      "geometry": {
        "type": "Point",
        "coordinates": [
          26.6711316,
          47.7336772
        ]
      },
      "properties": {
        "id": 321871373,
        "osm_type": "way",
        "name": "Pensiunea Casa Lux",
        "tourism": "guest_house",
        "phone": "0754799799",
        "website": "https://pensiuneacasalux.ro/"
      }
    },
    {
      "type": "Feature",
      "geometry": {
        "type": "Point",
        "coordinates": [
          26.6574483,
          47.7444155
        ]
      },
      "properties": {
        "id": 510145015,
        "osm_type": "way",
        "name": "Hotel Maria",
        "tourism": "hotel",
        "phone": "0231 514 334",
        "website": "https://maria-hotel.ro/"
      }
    },
    {
      "type": "Feature",
      "geometry": {
        "type": "Point",
        "coordinates": [
          26.6707574,
          47.7437957
        ]
      },
      "properties": {
        "id": 532664694,
        "osm_type": "way",
        "tourism": "hotel"
      }
    },
    {
      "type": "Feature",
      "geometry": {
        "type": "Point",
        "coordinates": [
          26.7100867,
          47.7355608
        ]
      },
      "properties": {
        "id": 682143046,
        "osm_type": "way",
        "name": "Hotel Restaurant Rediu",
        "tourism": "hotel"
      }
    },
    {
      "type": "Feature",
      "geometry": {
        "type": "Point",
        "coordinates": [
          26.6501675,
          47.7490595
        ]
      },
      "properties": {
        "id": 683099845,
        "osm_type": "way",
        "name": "Pensiunea Țâbu",
        "tourism": "hotel"
      }
    },
    {
      "type": "Feature",
      "geometry": {
        "type": "Point",
        "coordinates": [
          26.6417262,
          47.7462252
        ]
      },
      "properties": {
        "id": 683483340,
        "osm_type": "way",
        "name": "Hotel Premier",
        "tourism": "hotel"
      }
    },
    {
      "type": "Feature",
      "geometry": {
        "type": "Point",
        "coordinates": [
          26.5596123,
          47.7654812
        ]
      },
      "properties": {
        "id": 4626716,
        "osm_type": "relation",
        "tourism": "chalet"
      }
    }
  ]
}