{
  "type": "FeatureCollection",
  "features": [
    {
      "type": "Feature",
      "geometry": {
        "type": "Point",
        "coordinates": [
          20.1327376,
          45.7966129
        ]
      },
      "properties": {
        "id": 1275763871,
        "osm_type": "node",
        "name": "Хотел Парк",
        "tourism": "hotel"
      }
    },
    {
      "type": "Feature",
      "geometry": {
        "type": "Point",
        "coordinates": [
          20.1445417,
          45.797162
        ]
      },
      "properties": {
        "id": 1434095620,
        "osm_type": "node",
        "tourism": "camp_site"
      }
    },
    {
      "type": "Feature",
      "geometry": {
        "type": "Point",
        "coordinates": [
          20.1446276,
          45.7975659
        ]
      },
      "properties": {
        "id": 1434095621,
        "osm_type": "node",
        "tourism": "caravan_site"
      }
    },
    {
      "type": "Feature",
      "geometry": {
        "type": "Point",
        "coordinates": [
          20.1404084,
          45.9385875
        ]
      },
      "properties": {
        "id": 3865738758,
        "osm_type": "node",
        "name": "Хотел Чока",
        "tourism": "hotel",
        "phone": "+38123072102"
      }
    },
    {
      "type": "Feature",
      "geometry": {
        "type": "Point",
        "coordinates": [
          19.9160707,
          46.1341137
        ]
      },
      "properties": {
        "id": 7626973476,
        "osm_type": "node",
        "name": "Domus Pacis",
        "tourism": "hostel",
        "contact:website": "https://domuspacis.org.rs/"
      }
    },
    {
      "type": "Feature",
      "geometry": {
        "type": "Point",
        "coordinates": [
          20.4186559,
          45.9274248
        ]
      },
      "properties": {
        "id": 7741516942,
        "osm_type": "node",
        "name": "Етно кућа Ђерам",
        "tourism": "guest_house",
        "phone": "+381 23 061196",
        "website": "https://etnokucadjeram.com/"
      }
    },
    {
      "type": "Feature",
      "geometry": {
        "type": "Point",
        "coordinates": [
          20.4671843,
          45.8269814
        ]
      },
      "properties": {
        "id": 11248542511,
        "osm_type": "node",
        "name": "Sobe Sova",
        "tourism": "apartment"
      }
    },
    {
      "type": "Feature",
      "geometry": {
        "type": "Point",
        "coordinates": [
          20.4715169,
          45.8321042
        ]
      },
      "properties": {
        "id": 11963275069,
        "osm_type": "node",
        "name": "Čudesni drvored",
        "tourism": "guest_house"
      }
    },
    {
      "type": "Feature",
      "geometry": {
        "type": "Point",
        "coordinates": [
          20.0950515,
          46.0463587
        ]
      },
      "properties": {
        "id": 12070209386,
        "osm_type": "node",
        "name": "Vila Vasilije",
        "tourism": "guest_house",
        "phone": "+381 62 211144",
        "check_date": "2024-07-23"
      }
    },
    {
      "type": "Feature",
      "geometry": {
        "type": "Point",
        "coordinates": [
          20.0983832,
          45.9241267
        ]
      },
      "properties": {
        "id": 13308204951,
        "osm_type": "node",
        "name": "Pink Flamingo Nest Apartment",
        "tourism": "apartment",
        "phone": "+381621959159",
        "website": "www.pinkflamingonest.com"
      }
    },
    {
      "type": "Feature",
      "geometry": {
        "type": "Point",
        "coordinates": [
          20.0881273,
          45.9313853
        ]
      },
      "properties": {
        "id": 13308218487,
        "osm_type": "node",
        "name": "Red&Black Apartment",
        "tourism": "apartment",
        "phone": "+381659213140",
        "website": "https://linktr.ee/redandblackapartment"
      }
    },
    {
      "type": "Feature",
      "geometry": {
        "type": "Point",
        "coordinates": [
          20.096134,
          45.9288768
        ]
      },
      "properties": {
        "id": 13308244650,
        "osm_type": "node",
        "name": "Black Diamond Lux Apartment",
        "tourism": "apartment",
        "phone": "+381621959159",
        "website": "www.blackdiamondlux.click"
      }
    },
    {
      "type": "Feature",
      "geometry": {
        "type": "Point",
        "coordinates": [
          20.083485,
          45.9249471
        ]
      },
      "properties": {
        "id": 13308251048,
        "osm_type": "node",
        "name": "Green Cactus Rooms Apartment",
        "tourism": "hostel",
        "phone": "+381621959159",
        "website": "www.greencactusrooms.com"
      }
    },
    {
      "type": "Feature",
      "geometry": {
        "type": "Point",
        "coordinates": [
          20.0907438,
          45.9322138
        ]
      },
      "properties": {
        "id": 61918828,
        "osm_type": "way",
        "name": "Hotel Royal",
        "tourism": "hotel",
        "phone": "+381 24812368",
        "website": "https://hotel-royal.rs/"
      }
    },
    {
      "type": "Feature",
      "geometry": {
        "type": "Point",
        "coordinates": [
          20.1467453,
          45.7970566
        ]
      },
      "properties": {
        "id": 742334802,
        "osm_type": "way",
        "tourism": "camp_site"
      }
    },
    {
      "type": "Feature",
      "geometry": {
        "type": "Point",
        "coordinates": [
          20.1445764,
          45.7623586
        ]
      },
      "properties": {
        "id": 846348706,
        "osm_type": "way",
        "name": "Јелен",
        "tourism": "guest_house"
      }
    },
    {
      "type": "Feature",
      "geometry": {
        "type": "Point",
        "coordinates": [
          20.0631923,
          46.0701121
        ]
      },
      "properties": {
        "id": 1307204188,
        "osm_type": "way",
        "tourism": "guest_house"
      }
    },
    {
      "type": "Feature",
      "geometry": {
        "type": "Point",
        "coordinates": [
          20.0630268,
          46.0703907
        ]
      },
      "properties": {
        "id": 1307204190,
        "osm_type": "way",
        "name": "Vila Marija",
        "tourism": "guest_house"
      }
    },
    {
      "type": "Feature",
      "geometry": {
        "type": "Point",
        "coordinates": [
          20.0677369,
          46.0678248
        ]
      },
      "properties": {
        "id": 1307204241,
        "osm_type": "way",
        "tourism": "camp_site"
      }
    }
  ]
}