{
  "type": "FeatureCollection",
  "features": [
    {
      "type": "Feature",
      "geometry": {
        "type": "Point",
        "coordinates": [
          -7.907104,
          38.5704628
        ]
      },
      "properties": {
        "id": 304977484,
        "osm_type": "node",
        "name": "Albergaria Solar de Monfalim",
        "tourism": "hotel",
        "phone": "+351 266 703 529",
        "website": "https://www.solarmonfalim.com/solar-monfalim"
      }
    },
    {
      "type": "Feature",
      "geometry": {
        "type": "Point",
        "coordinates": [
          -7.763063,
          38.7142642
        ]
      },
      "properties": {
        "id": 775374959,
        "osm_type": "node",
        "name": "Belver Monte do Carmo Hotel Rural",
        "tourism": "guest_house"
      }
    },
    {
      "type": "Feature",
      "geometry": {
        "type": "Point",
        "coordinates": [
          -7.9133469,
          38.5692907
        ]
      },
      "properties": {
        "id": 1072934201,
        "osm_type": "node",
        "name": "M'Ar de Ar Muralhas",
        "tourism": "hotel",
        "contact:phone": "+351 266 739 300",
        "website": "https://mardearhotels.com"
      }
    },
    {
      "type": "Feature",
      "geometry": {
        "type": "Point",
        "coordinates": [
          -8.1668769,
          38.9441548
        ]
      },
      "properties": {
        "id": 1357092999,
        "osm_type": "node",
        "name": "Solar dos Lilases",
        "tourism": "hotel",
        "phone": "+351 266 403 315",
        "website": "https://www.hotelsolardoslilases.com/"
      }
    },
    {
      "type": "Feature",
      "geometry": {
        "type": "Point",
        "coordinates": [
          -7.9094976,
          38.5695459
        ]
      },
      "properties": {
        "id": 1740807002,
        "osm_type": "node",
        "name": "Embrace Évora Hostel",
        "tourism": "hostel",
        "phone": "+351 266 705 418",
        "website": "http://www.embraceevorahostel.com/en-gb/contact.htm"
      }
    },
    {
      "type": "Feature",
      "geometry": {
        "type": "Point",
        "coordinates": [
          -8.3303833,
          38.7872749
        ]
      },
      "properties": {
        "id": 1906611931,
        "osm_type": "node",
        "name": "Monte dos Arneiros",
        "tourism": "guest_house"
      }
    },
    {
      "type": "Feature",
      "geometry": {
        "type": "Point",
        "coordinates": [
          -7.5870959,
          38.8421704
        ]
      },
      "properties": {
        "id": 2030932638,
        "osm_type": "node",
        "name": "Hotel Alentejano",
        "tourism": "hotel"
      }
    },
    {
      "type": "Feature",
      "geometry": {
        "type": "Point",
        "coordinates": [
          -8.246897,
          38.645534
        ]
      },
      "properties": {
        "id": 2195149030,
        "osm_type": "node",
        "name": "L'and Vineyards",
        "tourism": "hotel",
        "check_date": "2025-08-31"
      }
    },
    {
      "type": "Feature",
      "geometry": {
        "type": "Point",
        "coordinates": [
          -8.1074964,
          38.9540373
        ]
      },
      "properties": {
        "id": 2326433081,
        "osm_type": "node",
        "name": "Parque de Campismo do Gameiro",
        "tourism": "camp_site"
      }
    },
    {
      "type": "Feature",
      "geometry": {
        "type": "Point",
        "coordinates": [
          -7.8982403,
          38.5309052
        ]
      },
      "properties": {
        "id": 2947828167,
        "osm_type": "node",
        "name": "Monte da Serralheira",
        "tourism": "guest_house"
      }
    },
    {
      "type": "Feature",
      "geometry": {
        "type": "Point",
        "coordinates": [
          -7.9132593,
          38.5706448
        ]
      },
      "properties": {
        "id": 3157718879,
        "osm_type": "node",
        "name": "Pensão Alentejo",
        "tourism": "hotel",
        "phone": "+351 266 702 903"
      }
    },
    {
      "type": "Feature",
      "geometry": {
        "type": "Point",
        "coordinates": [
          -7.9093213,
          38.5698518
        ]
      },
      "properties": {
        "id": 3158320174,
        "osm_type": "node",
        "name": "Casa dos Teles",
        "tourism": "guest_house",
        "phone": "+351 266 702 453",
        "website": "http://casadosteles.planetaclix.pt/"
      }
    },
    {
      "type": "Feature",
      "geometry": {
        "type": "Point",
        "coordinates": [
          -7.9139596,
          38.5747208
        ]
      },
      "properties": {
        "id": 3575234601,
        "osm_type": "node",
        "name": "Albergaria do Calvário",
        "tourism": "hotel",
        "phone": "+351 266 745 930",
        "website": "https://adcevora.com/pt/"
      }
    },
    {
      "type": "Feature",
      "geometry": {
        "type": "Point",
        "coordinates": [
          -7.5383697,
          38.2150969
        ]
      },
      "properties": {
        "id": 3827756050,
        "osm_type": "node",
        "name": "Hostel de Alqueva",
        "tourism": "hostel"
      }
    },
    {
      "type": "Feature",
      "geometry": {
        "type": "Point",
        "coordinates": [
          -7.4037545,
          38.7028048
        ]
      },
      "properties": {
        "id": 4299185623,
        "osm_type": "node",
        "name": "Landroal Residencial",
        "tourism": "hotel",
        "website": "http://www.landroalresidencial.com"
      }
    },
    {
      "type": "Feature",
      "geometry": {
        "type": "Point",
        "coordinates": [
          -7.9072534,
          38.5699218
        ]
      },
      "properties": {
        "id": 4556998633,
        "osm_type": "node",
        "name": "Pousada da Juventude",
        "tourism": "hostel",
        "phone": "+351 707 233 233",
        "website": "https://pousadasjuventude.pt/pt/pousadas/evora/",
        "check_date": "2025-09-30"
      }
    },
    {
      "type": "Feature",
      "geometry": {
        "type": "Point",
        "coordinates": [
          -7.9086453,
          38.571208
        ]
      },
      "properties": {
        "id": 4579954254,
        "osm_type": "node",
        "name": "Burgos Hostel",
        "tourism": "guest_house"
      }
    },
    {
      "type": "Feature",
      "geometry": {
        "type": "Point",
        "coordinates": [
          -7.9858634,
          38.7081078
        ]
      },
      "properties": {
        "id": 4718736492,
        "osm_type": "node",
        "name": "Villa Extramuros",
        "tourism": "hotel"
      }
    },
    {
      "type": "Feature",
      "geometry": {
        "type": "Point",
        "coordinates": [
          -7.3804144,
          38.4435553
        ]
      },
      "properties": {
        "id": 4738679644,
        "osm_type": "node",
        "name": "St. Condestável",
        "tourism": "hotel",
        "contact:phone": "+351 966 926 970"
      }
    },
    {
      "type": "Feature",
      "geometry": {
        "type": "Point",
        "coordinates": [
          -7.3804408,
          38.4437833
        ]
      },
      "properties": {
        "id": 4738679851,
        "osm_type": "node",
        "name": "Casa Dona Antónia",
        "tourism": "hotel",
        "phone": "+351961544559",
        "website": "https://www.casadantonia-monsaraz.com/"
      }
    },
    {
      "type": "Feature",
      "geometry": {
        "type": "Point",
        "coordinates": [
          -7.3811568,
          38.4433913
        ]
      },
      "properties": {
        "id": 4738682539,
        "osm_type": "node",
        "name": "Casa da Terra",
        "tourism": "guest_house",
        "phone": "+351969699223"
      }
    },
    {
      "type": "Feature",
      "geometry": {
        "type": "Point",
        "coordinates": [
          -7.3808302,
          38.4433142
        ]
      },
      "properties": {
        "id": 4738683883,
        "osm_type": "node",
        "name": "Casa Pinto",
        "tourism": "guest_house",
        "phone": "+351932739898",
        "website": "www.casapinto.net"
      }
    },
    {
      "type": "Feature",
      "geometry": {
        "type": "Point",
        "coordinates": [
          -7.3793901,
          38.4456885
        ]
      },
      "properties": {
        "id": 4740551586,
        "osm_type": "node",
        "name": "Estalagem do Monsaraz",
        "tourism": "guest_house"
      }
    },
    {
      "type": "Feature",
      "geometry": {
        "type": "Point",
        "coordinates": [
          -7.9080718,
          38.5712559
        ]
      },
      "properties": {
        "id": 4773316532,
        "osm_type": "node",
        "name": "Mont'Sobro House",
        "tourism": "hotel",
        "contact:phone": "+351 266 703 710",
        "website": "http://www.montsobro.com/house.html"
      }
    },
    {
      "type": "Feature",
      "geometry": {
        "type": "Point",
        "coordinates": [
          -7.9086948,
          38.5704437
        ]
      },
      "properties": {
        "id": 5153966129,
        "osm_type": "node",
        "name": "Evora Inn",
        "tourism": "guest_house",
        "contact:phone": "+351 266 744 500",
        "website": "evorainn.pt",
        "check_date": "2024-06-10"
      }
    },
    {
      "type": "Feature",
      "geometry": {
        "type": "Point",
        "coordinates": [
          -7.8360667,
          38.8301418
        ]
      },
      "properties": {
        "id": 5225458993,
        "osm_type": "node",
        "name": "Antiga Moagem",
        "tourism": "hotel",
        "phone": "+351933494685",
        "website": "http://antigamoagem.com"
      }
    },
    {
      "type": "Feature",
      "geometry": {
        "type": "Point",
        "coordinates": [
          -7.9135651,
          38.5759071
        ]
      },
      "properties": {
        "id": 5236356423,
        "osm_type": "node",
        "tourism": "caravan_site"
      }
    },
    {
      "type": "Feature",
      "geometry": {
        "type": "Point",
        "coordinates": [
          -7.9108546,
          38.5691932
        ]
      },
      "properties": {
        "id": 5333663361,
        "osm_type": "node",
        "name": "Pensão Casa Palma",
        "tourism": "hotel",
        "phone": "+351 266 703 560",
        "website": "https://casapalma29a.blogspot.pt/"
      }
    },
    {
      "type": "Feature",
      "geometry": {
        "type": "Point",
        "coordinates": [
          -7.9106513,
          38.5699584
        ]
      },
      "properties": {
        "id": 5333745471,
        "osm_type": "node",
        "name": "Hostel Raymundo",
        "tourism": "hostel",
        "phone": "+351 266 098 411",
        "website": "https://www.raymundohostel.com/index.php/pt/"
      }
    },
    {
      "type": "Feature",
      "geometry": {
        "type": "Point",
        "coordinates": [
          -7.9057366,
          38.5692737
        ]
      },
      "properties": {
        "id": 5333895707,
        "osm_type": "node",
        "name": "Hostel Namasté Évora",
        "tourism": "hostel",
        "phone": "+351 266 743 014"
      }
    },
    {
      "type": "Feature",
      "geometry": {
        "type": "Point",
        "coordinates": [
          -7.9113309,
          38.5691538
        ]
      },
      "properties": {
        "id": 5335170921,
        "osm_type": "node",
        "name": "Touros 31",
        "tourism": "apartment"
      }
    },
    {
      "type": "Feature",
      "geometry": {
        "type": "Point",
        "coordinates": [
          -7.9085702,
          38.5721725
        ]
      },
      "properties": {
        "id": 5335394662,
        "osm_type": "node",
        "name": "Casa Morgado Esporão",
        "tourism": "guest_house",
        "phone": "+351 960267700",
        "website": "https://www.casamorgadoesporao.com/"
      }
    },
    {
      "type": "Feature",
      "geometry": {
        "type": "Point",
        "coordinates": [
          -7.9409398,
          38.6000991
        ]
      },
      "properties": {
        "id": 5342875117,
        "osm_type": "node",
        "name": "Quinta da Espada",
        "tourism": "hotel",
        "phone": "+351 266734549",
        "website": "https://www.quintadaespada.pt/"
      }
    },
    {
      "type": "Feature",
      "geometry": {
        "type": "Point",
        "coordinates": [
          -7.9425505,
          38.6005477
        ]
      },
      "properties": {
        "id": 5342875118,
        "osm_type": "node",
        "name": "Quinta do Cano",
        "tourism": "hotel",
        "phone": "+351 969118520",
        "website": "https://www.quintadocano.com/"
      }
    },
    {
      "type": "Feature",
      "geometry": {
        "type": "Point",
        "coordinates": [
          -7.9100795,
          38.5696694
        ]
      },
      "properties": {
        "id": 5347927421,
        "osm_type": "node",
        "name": "Casa Palma",
        "tourism": "apartment",
        "check_date": "2024-10-23"
      }
    },
    {
      "type": "Feature",
      "geometry": {
        "type": "Point",
        "coordinates": [
          -7.3802794,
          38.4432114
        ]
      },
      "properties": {
        "id": 5503045658,
        "osm_type": "node",
        "name": "Casa das Videiras",
        "tourism": "apartment"
      }
    },
    {
      "type": "Feature",
      "geometry": {
        "type": "Point",
        "coordinates": [
          -7.588497,
          38.843653
        ]
      },
      "properties": {
        "id": 5565135834,
        "osm_type": "node",
        "name": "Hotel O Gadanha",
        "tourism": "hotel"
      }
    },
    {
      "type": "Feature",
      "geometry": {
        "type": "Point",
        "coordinates": [
          -7.5888047,
          38.8431111
        ]
      },
      "properties": {
        "id": 5565137017,
        "osm_type": "node",
        "name": "Residencial Miguel José",
        "tourism": "hostel"
      }
    },
    {
      "type": "Feature",
      "geometry": {
        "type": "Point",
        "coordinates": [
          -7.5891048,
          38.8427093
        ]
      },
      "properties": {
        "id": 5565138410,
        "osm_type": "node",
        "name": "Mateus",
        "tourism": "hostel"
      }
    },
    {
      "type": "Feature",
      "geometry": {
        "type": "Point",
        "coordinates": [
          -7.4107826,
          38.3398049
        ]
      },
      "properties": {
        "id": 5582406837,
        "osm_type": "node",
        "name": "Monte do Caneiro",
        "tourism": "hotel"
      }
    },
    {
      "type": "Feature",
      "geometry": {
        "type": "Point",
        "coordinates": [
          -7.5317673,
          38.424869
        ]
      },
      "properties": {
        "id": 5598946696,
        "osm_type": "node",
        "name": "Casa Monsaraz",
        "tourism": "hostel"
      }
    },
    {
      "type": "Feature",
      "geometry": {
        "type": "Point",
        "coordinates": [
          -7.716384,
          38.771202
        ]
      },
      "properties": {
        "id": 5702952645,
        "osm_type": "node",
        "name": "The Place",
        "tourism": "guest_house",
        "phone": "+351 927 603 884",
        "website": "https://www.evoramonte.com/"
      }
    },
    {
      "type": "Feature",
      "geometry": {
        "type": "Point",
        "coordinates": [
          -7.9886882,
          38.364467
        ]
      },
      "properties": {
        "id": 5746018515,
        "osm_type": "node",
        "name": "Herdade da Samarra - Agroturismo",
        "tourism": "guest_house",
        "phone": "+351 969 939 154"
      }
    },
    {
      "type": "Feature",
      "geometry": {
        "type": "Point",
        "coordinates": [
          -7.7089515,
          38.3093409
        ]
      },
      "properties": {
        "id": 6022743778,
        "osm_type": "node",
        "name": "O Castelo",
        "tourism": "guest_house"
      }
    },
    {
      "type": "Feature",
      "geometry": {
        "type": "Point",
        "coordinates": [
          -7.9874885,
          38.7232931
        ]
      },
      "properties": {
        "id": 6129563046,
        "osm_type": "node",
        "name": "Solar Cor de Rosa",
        "tourism": "guest_house",
        "phone": "+351 266 419 050"
      }
    },
    {
      "type": "Feature",
      "geometry": {
        "type": "Point",
        "coordinates": [
          -7.9101394,
          38.5750615
        ]
      },
      "properties": {
        "id": 6130576610,
        "osm_type": "node",
        "name": "Good Mood",
        "tourism": "hostel"
      }
    },
    {
      "type": "Feature",
      "geometry": {
        "type": "Point",
        "coordinates": [
          -7.9096459,
          38.5761381
        ]
      },
      "properties": {
        "id": 6130576616,
        "osm_type": "node",
        "name": "Avis Guest House",
        "tourism": "hostel"
      }
    },
    {
      "type": "Feature",
      "geometry": {
        "type": "Point",
        "coordinates": [
          -7.9131595,
          38.5706758
        ]
      },
      "properties": {
        "id": 6131336033,
        "osm_type": "node",
        "name": "Old Évora Hostel",
        "tourism": "hostel",
        "phone": "+351 934 734 493"
      }
    },
    {
      "type": "Feature",
      "geometry": {
        "type": "Point",
        "coordinates": [
          -7.9128912,
          38.5699029
        ]
      },
      "properties": {
        "id": 6211523488,
        "osm_type": "node",
        "name": "A Casa de Ana",
        "tourism": "hotel"
      }
    },
    {
      "type": "Feature",
      "geometry": {
        "type": "Point",
        "coordinates": [
          -7.4320963,
          38.5629772
        ]
      },
      "properties": {
        "id": 6261568337,
        "osm_type": "node",
        "name": "Herdade dos Mestres",
        "tourism": "hotel",
        "phone": "+351 268 102 528",
        "website": "https://www.herdadedosmestres.pt/"
      }
    },
    {
      "type": "Feature",
      "geometry": {
        "type": "Point",
        "coordinates": [
          -8.3050917,
          38.4742538
        ]
      },
      "properties": {
        "id": 6340794923,
        "osm_type": "node",
        "name": "Monte da Pereira",
        "tourism": "guest_house"
      }
    },
    {
      "type": "Feature",
      "geometry": {
        "type": "Point",
        "coordinates": [
          -7.9093175,
          38.5710188
        ]
      },
      "properties": {
        "id": 6383810062,
        "osm_type": "node",
        "name": "Fanatismo Guest House",
        "tourism": "guest_house",
        "phone": "+351 969 664 393"
      }
    },
    {
      "type": "Feature",
      "geometry": {
        "type": "Point",
        "coordinates": [
          -7.4800217,
          38.448699
        ]
      },
      "properties": {
        "id": 6393119143,
        "osm_type": "node",
        "name": "Casa Rico Frade",
        "tourism": "guest_house",
        "phone": "+351 981 516 798",
        "website": "https://www.casaricofrade.com/en-us"
      }
    },
    {
      "type": "Feature",
      "geometry": {
        "type": "Point",
        "coordinates": [
          -7.4189697,
          38.7786926
        ]
      },
      "properties": {
        "id": 6400026129,
        "osm_type": "node",
        "name": "Hospedaria Dom Carlos",
        "tourism": "guest_house",
        "phone": "+351 268 980 318"
      }
    },
    {
      "type": "Feature",
      "geometry": {
        "type": "Point",
        "coordinates": [
          -8.6242791,
          38.6006646
        ]
      },
      "properties": {
        "id": 6410386500,
        "osm_type": "node",
        "name": "Casa Zanzibar",
        "tourism": "guest_house"
      }
    },
    {
      "type": "Feature",
      "geometry": {
        "type": "Point",
        "coordinates": [
          -7.4190483,
          38.7786613
        ]
      },
      "properties": {
        "id": 6458876116,
        "osm_type": "node",
        "name": "Hospedaria Dom Carlos",
        "tourism": "hotel",
        "phone": "+351 268 980 318"
      }
    },
    {
      "type": "Feature",
      "geometry": {
        "type": "Point",
        "coordinates": [
          -7.8525473,
          38.6707316
        ]
      },
      "properties": {
        "id": 6510017054,
        "osm_type": "node",
        "name": "Herdade Outeiro da Esquila",
        "tourism": "guest_house"
      }
    },
    {
      "type": "Feature",
      "geometry": {
        "type": "Point",
        "coordinates": [
          -7.9167246,
          38.5635539
        ]
      },
      "properties": {
        "id": 6561420185,
        "osm_type": "node",
        "tourism": "caravan_site"
      }
    },
    {
      "type": "Feature",
      "geometry": {
        "type": "Point",
        "coordinates": [
          -8.024126,
          38.9395693
        ]
      },
      "properties": {
        "id": 6565785660,
        "osm_type": "node",
        "name": "Azenhas da Seda",
        "tourism": "chalet",
        "contact:website": "https://www.azenhasdaseda.com/"
      }
    },
    {
      "type": "Feature",
      "geometry": {
        "type": "Point",
        "coordinates": [
          -7.9252192,
          38.5565474
        ]
      },
      "properties": {
        "id": 6824419485,
        "osm_type": "node",
        "tourism": "guest_house"
      }
    },
    {
      "type": "Feature",
      "geometry": {
        "type": "Point",
        "coordinates": [
          -7.9262725,
          38.5530443
        ]
      },
      "properties": {
        "id": 6828679085,
        "osm_type": "node",
        "tourism": "guest_house"
      }
    },
    {
      "type": "Feature",
      "geometry": {
        "type": "Point",
        "coordinates": [
          -7.737172,
          38.6375913
        ]
      },
      "properties": {
        "id": 6900758185,
        "osm_type": "node",
        "name": "Casa Relvas",
        "tourism": "caravan_site"
      }
    },
    {
      "type": "Feature",
      "geometry": {
        "type": "Point",
        "coordinates": [
          -8.0092746,
          38.8646335
        ]
      },
      "properties": {
        "id": 6960821133,
        "osm_type": "node",
        "name": "Herdade Vale Poço",
        "tourism": "chalet"
      }
    },
    {
      "type": "Feature",
      "geometry": {
        "type": "Point",
        "coordinates": [
          -7.536525,
          38.4256135
        ]
      },
      "properties": {
        "id": 7069843810,
        "osm_type": "node",
        "name": "Hospedaria Os Condes",
        "tourism": "hostel",
        "phone": "+351938 959 493",
        "website": "https://www.hospedariaoscondes.com/"
      }
    },
    {
      "type": "Feature",
      "geometry": {
        "type": "Point",
        "coordinates": [
          -7.8418262,
          38.8296128
        ]
      },
      "properties": {
        "id": 7188346133,
        "osm_type": "node",
        "name": "Casas da Vila",
        "tourism": "guest_house"
      }
    },
    {
      "type": "Feature",
      "geometry": {
        "type": "Point",
        "coordinates": [
          -8.5132312,
          38.6817575
        ]
      },
      "properties": {
        "id": 7239210382,
        "osm_type": "node",
        "name": "Laranjal Inn",
        "tourism": "guest_house"
      }
    },
    {
      "type": "Feature",
      "geometry": {
        "type": "Point",
        "coordinates": [
          -7.6261792,
          38.8854179
        ]
      },
      "properties": {
        "id": 7366247829,
        "osm_type": "node",
        "name": "Dá Licença",
        "tourism": "hotel"
      }
    },
    {
      "type": "Feature",
      "geometry": {
        "type": "Point",
        "coordinates": [
          -8.0754972,
          38.3724128
        ]
      },
      "properties": {
        "id": 7677523606,
        "osm_type": "node",
        "name": "Monte do Sobral",
        "tourism": "guest_house",
        "phone": "+351 266 954 717"
      }
    },
    {
      "type": "Feature",
      "geometry": {
        "type": "Point",
        "coordinates": [
          -7.6665039,
          38.2227071
        ]
      },
      "properties": {
        "id": 7787670625,
        "osm_type": "node",
        "name": "Herdade da Várzea",
        "tourism": "guest_house"
      }
    },
    {
      "type": "Feature",
      "geometry": {
        "type": "Point",
        "coordinates": [
          -8.002859,
          38.335294
        ]
      },
      "properties": {
        "id": 7829961152,
        "osm_type": "node",
        "name": "Hospedaria Maria de Jesus",
        "tourism": "guest_house",
        "phone": "+351 962 382 190"
      }
    },
    {
      "type": "Feature",
      "geometry": {
        "type": "Point",
        "coordinates": [
          -7.382917,
          38.4701276
        ]
      },
      "properties": {
        "id": 8005885489,
        "osm_type": "node",
        "name": "Charme de Monsaraz II",
        "tourism": "guest_house",
        "contact:phone": "+351 926018507"
      }
    },
    {
      "type": "Feature",
      "geometry": {
        "type": "Point",
        "coordinates": [
          -7.5816262,
          38.7030227
        ]
      },
      "properties": {
        "id": 8023292089,
        "osm_type": "node",
        "name": "Monte das Sesmarias",
        "tourism": "motel"
      }
    },
    {
      "type": "Feature",
      "geometry": {
        "type": "Point",
        "coordinates": [
          -7.5604511,
          38.707262
        ]
      },
      "properties": {
        "id": 8023292092,
        "osm_type": "node",
        "name": "Herdade Água d'Alte",
        "tourism": "motel",
        "website": "https://www.herdadeaguadalte.pt/"
      }
    },
    {
      "type": "Feature",
      "geometry": {
        "type": "Point",
        "coordinates": [
          -7.6319793,
          38.7231664
        ]
      },
      "properties": {
        "id": 8023298277,
        "osm_type": "node",
        "name": "Monte das Fontes",
        "tourism": "motel"
      }
    },
    {
      "type": "Feature",
      "geometry": {
        "type": "Point",
        "coordinates": [
          -7.5323583,
          38.4261058
        ]
      },
      "properties": {
        "id": 8287911031,
        "osm_type": "node",
        "name": "Casas da Colmeia",
        "tourism": "apartment"
      }
    },
    {
      "type": "Feature",
      "geometry": {
        "type": "Point",
        "coordinates": [
          -7.5322751,
          38.426069
        ]
      },
      "properties": {
        "id": 8287911032,
        "osm_type": "node",
        "name": "Casa de Santa Maria",
        "tourism": "apartment"
      }
    },
    {
      "type": "Feature",
      "geometry": {
        "type": "Point",
        "coordinates": [
          -7.339829,
          38.6181237
        ]
      },
      "properties": {
        "id": 8320880818,
        "osm_type": "node",
        "name": "Monte das Galhanas-Turismo Rural",
        "tourism": "chalet"
      }
    },
    {
      "type": "Feature",
      "geometry": {
        "type": "Point",
        "coordinates": [
          -7.9141085,
          38.5711714
        ]
      },
      "properties": {
        "id": 8343402151,
        "osm_type": "node",
        "name": "Casinha Alentejana",
        "tourism": "guest_house",
        "phone": "+351 266098411"
      }
    },
    {
      "type": "Feature",
      "geometry": {
        "type": "Point",
        "coordinates": [
          -7.5106174,
          38.2170332
        ]
      },
      "properties": {
        "id": 8489911225,
        "osm_type": "node",
        "name": "Herdade Monte da Tapada",
        "tourism": "guest_house"
      }
    },
    {
      "type": "Feature",
      "geometry": {
        "type": "Point",
        "coordinates": [
          -7.6797779,
          38.2254901
        ]
      },
      "properties": {
        "id": 8508584148,
        "osm_type": "node",
        "name": "Quinta da Fonte Lugar",
        "tourism": "guest_house"
      }
    },
    {
      "type": "Feature",
      "geometry": {
        "type": "Point",
        "coordinates": [
          -7.702355,
          38.3070201
        ]
      },
      "properties": {
        "id": 8508609508,
        "osm_type": "node",
        "name": "Hotel Rural Refúgio da Vila",
        "tourism": "hotel"
      }
    },
    {
      "type": "Feature",
      "geometry": {
        "type": "Point",
        "coordinates": [
          -7.8832771,
          38.8300765
        ]
      },
      "properties": {
        "id": 8843372508,
        "osm_type": "node",
        "name": "Bubulcus & Bolotas",
        "tourism": "camp_site",
        "website": "https://www.bbcamping.eu/"
      }
    },
    {
      "type": "Feature",
      "geometry": {
        "type": "Point",
        "coordinates": [
          -7.5464898,
          38.6473117
        ]
      },
      "properties": {
        "id": 8869969431,
        "osm_type": "node",
        "name": "Alojamento local Bastião",
        "tourism": "hostel"
      }
    },
    {
      "type": "Feature",
      "geometry": {
        "type": "Point",
        "coordinates": [
          -7.8326853,
          38.4114811
        ]
      },
      "properties": {
        "id": 8910277877,
        "osm_type": "node",
        "name": "Casas da Torre",
        "tourism": "guest_house",
        "phone": "+351 926 555 164"
      }
    },
    {
      "type": "Feature",
      "geometry": {
        "type": "Point",
        "coordinates": [
          -8.2717776,
          38.6843423
        ]
      },
      "properties": {
        "id": 9025361404,
        "osm_type": "node",
        "tourism": "chalet"
      }
    },
    {
      "type": "Feature",
      "geometry": {
        "type": "Point",
        "coordinates": [
          -8.0030009,
          38.335625
        ]
      },
      "properties": {
        "id": 9525504652,
        "osm_type": "node",
        "name": "O Convento",
        "tourism": "guest_house",
        "phone": "+351 266 247 623"
      }
    },
    {
      "type": "Feature",
      "geometry": {
        "type": "Point",
        "coordinates": [
          -7.5350734,
          38.4226998
        ]
      },
      "properties": {
        "id": 9569637905,
        "osm_type": "node",
        "name": "C.A.T.'Espero Sossego",
        "tourism": "apartment",
        "phone": "+351 913 221 835"
      }
    },
    {
      "type": "Feature",
      "geometry": {
        "type": "Point",
        "coordinates": [
          -7.5322158,
          38.4257463
        ]
      },
      "properties": {
        "id": 9603853676,
        "osm_type": "node",
        "name": "Casas de Santo António",
        "tourism": "apartment"
      }
    },
    {
      "type": "Feature",
      "geometry": {
        "type": "Point",
        "coordinates": [
          -7.5353385,
          38.4243283
        ]
      },
      "properties": {
        "id": 9604350168,
        "osm_type": "node",
        "name": "Pensão Fialho",
        "tourism": "guest_house"
      }
    },
    {
      "type": "Feature",
      "geometry": {
        "type": "Point",
        "coordinates": [
          -7.5341296,
          38.4244571
        ]
      },
      "properties": {
        "id": 9633275784,
        "osm_type": "node",
        "name": "Raíz Alentejana",
        "tourism": "apartment"
      }
    },
    {
      "type": "Feature",
      "geometry": {
        "type": "Point",
        "coordinates": [
          -8.4425523,
          38.6790932
        ]
      },
      "properties": {
        "id": 9775635717,
        "osm_type": "node",
        "name": "MIX Inn",
        "tourism": "apartment",
        "phone": "+351 914 440 711"
      }
    },
    {
      "type": "Feature",
      "geometry": {
        "type": "Point",
        "coordinates": [
          -7.3651719,
          38.4482267
        ]
      },
      "properties": {
        "id": 9833711218,
        "osm_type": "node",
        "name": "Monte Alerta Turismo Rural",
        "tourism": "guest_house"
      }
    },
    {
      "type": "Feature",
      "geometry": {
        "type": "Point",
        "coordinates": [
          -7.5352257,
          38.4241659
        ]
      },
      "properties": {
        "id": 9835930062,
        "osm_type": "node",
        "name": "O Gato",
        "tourism": "guest_house"
      }
    },
    {
      "type": "Feature",
      "geometry": {
        "type": "Point",
        "coordinates": [
          -7.3806281,
          38.4428887
        ]
      },
      "properties": {
        "id": 9838957126,
        "osm_type": "node",
        "name": "Casa Dom Dinis",
        "tourism": "apartment"
      }
    },
    {
      "type": "Feature",
      "geometry": {
        "type": "Point",
        "coordinates": [
          -7.9038046,
          38.5712349
        ]
      },
      "properties": {
        "id": 9872925748,
        "osm_type": "node",
        "name": "Guesthouse Alentejo",
        "tourism": "guest_house"
      }
    },
    {
      "type": "Feature",
      "geometry": {
        "type": "Point",
        "coordinates": [
          -7.4201859,
          38.7114935
        ]
      },
      "properties": {
        "id": 9879674249,
        "osm_type": "node",
        "name": "Horta da Fonte das Freiras",
        "tourism": "guest_house"
      }
    },
    {
      "type": "Feature",
      "geometry": {
        "type": "Point",
        "coordinates": [
          -7.3850778,
          38.4562722
        ]
      },
      "properties": {
        "id": 9895095918,
        "osm_type": "node",
        "name": "Monte da Pega",
        "tourism": "hostel",
        "website": "https://www.montedapega.com/"
      }
    },
    {
      "type": "Feature",
      "geometry": {
        "type": "Point",
        "coordinates": [
          -7.5150659,
          38.8331689
        ]
      },
      "properties": {
        "id": 9904289294,
        "osm_type": "node",
        "tourism": "guest_house"
      }
    },
    {
      "type": "Feature",
      "geometry": {
        "type": "Point",
        "coordinates": [
          -7.9103675,
          38.5720622
        ]
      },
      "properties": {
        "id": 9981296315,
        "osm_type": "node",
        "name": "StayInn City",
        "tourism": "hotel"
      }
    },
    {
      "type": "Feature",
      "geometry": {
        "type": "Point",
        "coordinates": [
          -8.2108696,
          38.6443919
        ]
      },
      "properties": {
        "id": 10117380526,
        "osm_type": "node",
        "tourism": "caravan_site",
        "opening_hours": "24/7"
      }
    },
    {
      "type": "Feature",
      "geometry": {
        "type": "Point",
        "coordinates": [
          -8.0106568,
          38.3392727
        ]
      },
      "properties": {
        "id": 10117380533,
        "osm_type": "node",
        "tourism": "caravan_site",
        "opening_hours": "24/7"
      }
    },
    {
      "type": "Feature",
      "geometry": {
        "type": "Point",
        "coordinates": [
          -7.9163656,
          38.5698357
        ]
      },
      "properties": {
        "id": 10218002585,
        "osm_type": "node",
        "name": "Hotel O Cante",
        "tourism": "hotel"
      }
    },
    {
      "type": "Feature",
      "geometry": {
        "type": "Point",
        "coordinates": [
          -7.6819667,
          38.3241768
        ]
      },
      "properties": {
        "id": 10271800256,
        "osm_type": "node",
        "name": "Herdade Vale de Cabras",
        "tourism": "guest_house"
      }
    },
    {
      "type": "Feature",
      "geometry": {
        "type": "Point",
        "coordinates": [
          -7.6890179,
          38.3102827
        ]
      },
      "properties": {
        "id": 10271800292,
        "osm_type": "node",
        "name": "Quinta da Boavista",
        "tourism": "guest_house"
      }
    },
    {
      "type": "Feature",
      "geometry": {
        "type": "Point",
        "coordinates": [
          -8.1967377,
          38.6385321
        ]
      },
      "properties": {
        "id": 10598735978,
        "osm_type": "node",
        "name": "Monte de Santa Margarida",
        "tourism": "apartment"
      }
    },
    {
      "type": "Feature",
      "geometry": {
        "type": "Point",
        "coordinates": [
          -7.8737518,
          38.5883774
        ]
      },
      "properties": {
        "id": 10693420331,
        "osm_type": "node",
        "name": "Madrugada Turismo Rural",
        "tourism": "guest_house",
        "opening_hours": "24/7",
        "phone": "+351 918784221",
        "website": "https://turismoruralmadrugada.com"
      }
    },
    {
      "type": "Feature",
      "geometry": {
        "type": "Point",
        "coordinates": [
          -8.2458568,
          38.6329884
        ]
      },
      "properties": {
        "id": 10704976319,
        "osm_type": "node",
        "tourism": "guest_house"
      }
    },
    {
      "type": "Feature",
      "geometry": {
        "type": "Point",
        "coordinates": [
          -7.5886791,
          38.8418297
        ]
      },
      "properties": {
        "id": 10717966954,
        "osm_type": "node",
        "name": "Casa do Gadanha",
        "tourism": "hotel",
        "phone": "+351 268 249 790",
        "website": "https://casadogadanha.pt"
      }
    },
    {
      "type": "Feature",
      "geometry": {
        "type": "Point",
        "coordinates": [
          -7.8967621,
          38.5846359
        ]
      },
      "properties": {
        "id": 10742204322,
        "osm_type": "node",
        "tourism": "guest_house"
      }
    },
    {
      "type": "Feature",
      "geometry": {
        "type": "Point",
        "coordinates": [
          -7.9462397,
          38.5668167
        ]
      },
      "properties": {
        "id": 10749200915,
        "osm_type": "node",
        "tourism": "hotel",
        "phone": "+351 266 738 030",
        "website": "https://www.casadovalehotel.com"
      }
    },
    {
      "type": "Feature",
      "geometry": {
        "type": "Point",
        "coordinates": [
          -7.3440653,
          38.3828758
        ]
      },
      "properties": {
        "id": 11055366878,
        "osm_type": "node",
        "name": "Casa dos Lacerdas",
        "tourism": "hotel",
        "opening_hours": "08:00-20:00",
        "phone": "+351 266 586 191",
        "check_date": "2023-07-19"
      }
    },
    {
      "type": "Feature",
      "geometry": {
        "type": "Point",
        "coordinates": [
          -7.9036214,
          38.5719721
        ]
      },
      "properties": {
        "id": 11090429504,
        "osm_type": "node",
        "name": "limehome",
        "tourism": "apartment"
      }
    },
    {
      "type": "Feature",
      "geometry": {
        "type": "Point",
        "coordinates": [
          -7.9080978,
          38.5711742
        ]
      },
      "properties": {
        "id": 11109481930,
        "osm_type": "node",
        "name": "Palácio Diana",
        "tourism": "guest_house"
      }
    },
    {
      "type": "Feature",
      "geometry": {
        "type": "Point",
        "coordinates": [
          -7.9119687,
          38.5711704
        ]
      },
      "properties": {
        "id": 11134585083,
        "osm_type": "node",
        "name": "Stay Hotel",
        "tourism": "hotel"
      }
    },
    {
      "type": "Feature",
      "geometry": {
        "type": "Point",
        "coordinates": [
          -7.9097482,
          38.5708713
        ]
      },
      "properties": {
        "id": 11165336258,
        "osm_type": "node",
        "name": "Évora Terrace",
        "tourism": "guest_house",
        "phone": "+351 932 644 459"
      }
    },
    {
      "type": "Feature",
      "geometry": {
        "type": "Point",
        "coordinates": [
          -7.580097,
          38.5709556
        ]
      },
      "properties": {
        "id": 11341625809,
        "osm_type": "node",
        "name": "Parque de Redondo",
        "tourism": "apartment"
      }
    },
    {
      "type": "Feature",
      "geometry": {
        "type": "Point",
        "coordinates": [
          -7.9093263,
          38.5732425
        ]
      },
      "properties": {
        "id": 11346855023,
        "osm_type": "node",
        "name": "Templo Boutique Hotel",
        "tourism": "hotel"
      }
    },
    {
      "type": "Feature",
      "geometry": {
        "type": "Point",
        "coordinates": [
          -7.4231874,
          38.5521632
        ]
      },
      "properties": {
        "id": 12068139366,
        "osm_type": "node",
        "name": "Herdade do Monte Outeiro - Turismo Rural",
        "tourism": "guest_house"
      }
    },
    {
      "type": "Feature",
      "geometry": {
        "type": "Point",
        "coordinates": [
          -7.3914211,
          38.436138
        ]
      },
      "properties": {
        "id": 12103230649,
        "osm_type": "node",
        "name": "Monte do Laranjal",
        "tourism": "hotel"
      }
    },
    {
      "type": "Feature",
      "geometry": {
        "type": "Point",
        "coordinates": [
          -7.3476996,
          38.5482049
        ]
      },
      "properties": {
        "id": 12153801783,
        "osm_type": "node",
        "name": "Monte dos Ramalhos",
        "tourism": "apartment"
      }
    },
    {
      "type": "Feature",
      "geometry": {
        "type": "Point",
        "coordinates": [
          -7.8981216,
          38.564996
        ]
      },
      "properties": {
        "id": 12201419799,
        "osm_type": "node",
        "name": "Hospedaria d'El Rei",
        "tourism": "hotel"
      }
    },
    {
      "type": "Feature",
      "geometry": {
        "type": "Point",
        "coordinates": [
          -8.3627905,
          38.7532903
        ]
      },
      "properties": {
        "id": 12630505696,
        "osm_type": "node",
        "name": "Sleep & Nature",
        "tourism": "hotel",
        "opening_hours": "24/7",
        "phone": "+351266009970",
        "website": "https://www.sleepandnature.pt"
      }
    },
    {
      "type": "Feature",
      "geometry": {
        "type": "Point",
        "coordinates": [
          -7.5579096,
          38.2872292
        ]
      },
      "properties": {
        "id": 12849305090,
        "osm_type": "node",
        "name": "Aldeia do Lago",
        "tourism": "guest_house"
      }
    },
    {
      "type": "Feature",
      "geometry": {
        "type": "Point",
        "coordinates": [
          -7.3449955,
          38.3832576
        ]
      },
      "properties": {
        "id": 13000005101,
        "osm_type": "node",
        "tourism": "guest_house"
      }
    },
    {
      "type": "Feature",
      "geometry": {
        "type": "Point",
        "coordinates": [
          -7.8853766,
          38.5982586
        ]
      },
      "properties": {
        "id": 13129020775,
        "osm_type": "node",
        "name": "Cenoura-Brava",
        "tourism": "hotel",
        "website": "https://www.cenourabrava.com"
      }
    },
    {
      "type": "Feature",
      "geometry": {
        "type": "Point",
        "coordinates": [
          -8.0164761,
          38.5299753
        ]
      },
      "properties": {
        "id": 13147588503,
        "osm_type": "node",
        "name": "O Conventinho",
        "tourism": "hotel"
      }
    },
    {
      "type": "Feature",
      "geometry": {
        "type": "Point",
        "coordinates": [
          -7.8679385,
          38.3143416
        ]
      },
      "properties": {
        "id": 13371649301,
        "osm_type": "node",
        "tourism": "caravan_site"
      }
    },
    {
      "type": "Feature",
      "geometry": {
        "type": "Point",
        "coordinates": [
          -8.1494405,
          38.3917217
        ]
      },
      "properties": {
        "id": 13372401106,
        "osm_type": "node",
        "tourism": "caravan_site",
        "opening_hours": "24/7"
      }
    },
    {
      "type": "Feature",
      "geometry": {
        "type": "Point",
        "coordinates": [
          -8.0440146,
          38.5689812
        ]
      },
      "properties": {
        "id": 13767318103,
        "osm_type": "node",
        "name": "Imani Country House",
        "tourism": "hotel",
        "phone": "+351 925613847",
        "website": "https://www.imani.pt/"
      }
    },
    {
      "type": "Feature",
      "geometry": {
        "type": "Point",
        "coordinates": [
          -7.9126691,
          38.5659385
        ]
      },
      "properties": {
        "id": 49209516,
        "osm_type": "way",
        "name": "Hotel Ibis",
        "tourism": "hotel",
        "phone": "+351 266 760 700"
      }
    },
    {
      "type": "Feature",
      "geometry": {
        "type": "Point",
        "coordinates": [
          -7.913327,
          38.5754685
        ]
      },
      "properties": {
        "id": 93405428,
        "osm_type": "way",
        "name": "M'Ar de Ar Aqueduto",
        "tourism": "hotel",
        "contact:phone": "+351 266 740 700",
        "contact:website": "https://mardearhotels.com/mar-de-ar-aqueduto/"
      }
    },
    {
      "type": "Feature",
      "geometry": {
        "type": "Point",
        "coordinates": [
          -7.9263092,
          38.5574708
        ]
      },
      "properties": {
        "id": 147046546,
        "osm_type": "way",
        "name": "Évora Camping",
        "tourism": "camp_site",
        "tents": "yes",
        "website": "https://www.orbitur.pt/destinos/alentejo/orbitur-evora?lang=pt"
      }
    },
    {
      "type": "Feature",
      "geometry": {
        "type": "Point",
        "coordinates": [
          -8.4540648,
          38.6788285
        ]
      },
      "properties": {
        "id": 159818776,
        "osm_type": "way",
        "name": "Hotel Acez",
        "tourism": "hotel"
      }
    },
    {
      "type": "Feature",
      "geometry": {
        "type": "Point",
        "coordinates": [
          -7.9054335,
          38.5719611
        ]
      },
      "properties": {
        "id": 162545054,
        "osm_type": "way",
        "name": "The Noble House Hotel",
        "tourism": "hotel",
        "phone": "+351 266 247 290",
        "website": "https://thenoblehouse.pt/pt/home"
      }
    },
    {
      "type": "Feature",
      "geometry": {
        "type": "Point",
        "coordinates": [
          -7.346996,
          38.6068739
        ]
      },
      "properties": {
        "id": 163607542,
        "osm_type": "way",
        "name": "Rosário Rural Campsite",
        "tourism": "camp_site",
        "tents": "yes",
        "phone": "+351 268 459 566",
        "website": "https://www.campingrosario.com"
      }
    },
    {
      "type": "Feature",
      "geometry": {
        "type": "Point",
        "coordinates": [
          -7.3788867,
          38.4428876
        ]
      },
      "properties": {
        "id": 182617633,
        "osm_type": "way",
        "name": "Área de Autocaravanas de Monsaraz",
        "tourism": "caravan_site"
      }
    },
    {
      "type": "Feature",
      "geometry": {
        "type": "Point",
        "coordinates": [
          -7.3985284,
          38.4562063
        ]
      },
      "properties": {
        "id": 214710966,
        "osm_type": "way",
        "name": "Monte Saraz",
        "tourism": "hotel",
        "phone": "+351266557385",
        "website": "http://www.MonteSaraz.com"
      }
    },
    {
      "type": "Feature",
      "geometry": {
        "type": "Point",
        "coordinates": [
          -8.2166469,
          38.6491419
        ]
      },
      "properties": {
        "id": 252696392,
        "osm_type": "way",
        "name": "Montemor",
        "tourism": "hotel"
      }
    },
    {
      "type": "Feature",
      "geometry": {
        "type": "Point",
        "coordinates": [
          -8.3566907,
          38.7585781
        ]
      },
      "properties": {
        "id": 290275504,
        "osm_type": "way",
        "name": "Courelas da Mata - Hotel Restaurante",
        "tourism": "hotel"
      }
    },
    {
      "type": "Feature",
      "geometry": {
        "type": "Point",
        "coordinates": [
          -8.3169512,
          38.4903796
        ]
      },
      "properties": {
        "id": 305264646,
        "osm_type": "way",
        "name": "Monte do Tangarrinha",
        "tourism": "hotel"
      }
    },
    {
      "type": "Feature",
      "geometry": {
        "type": "Point",
        "coordinates": [
          -7.3889672,
          38.4352708
        ]
      },
      "properties": {
        "id": 305980682,
        "osm_type": "way",
        "name": "Horta da Moura",
        "tourism": "hotel"
      }
    },
    {
      "type": "Feature",
      "geometry": {
        "type": "Point",
        "coordinates": [
          -7.381291,
          38.4429248
        ]
      },
      "properties": {
        "id": 330588644,
        "osm_type": "way",
        "name": "Dom Nuno",
        "tourism": "hotel",
        "phone": "+351 964 304 078",
        "website": "https://www.dnunoth.com/"
      }
    },
    {
      "type": "Feature",
      "geometry": {
        "type": "Point",
        "coordinates": [
          -7.3409395,
          38.3835506
        ]
      },
      "properties": {
        "id": 341770454,
        "osm_type": "way",
        "name": "Casa Esquivel",
        "tourism": "hotel"
      }
    },
    {
      "type": "Feature",
      "geometry": {
        "type": "Point",
        "coordinates": [
          -7.3158874,
          38.6074172
        ]
      },
      "properties": {
        "id": 345407328,
        "osm_type": "way",
        "name": "Monte dos Apóstolos",
        "tourism": "guest_house"
      }
    },
    {
      "type": "Feature",
      "geometry": {
        "type": "Point",
        "coordinates": [
          -7.6873831,
          38.7925859
        ]
      },
      "properties": {
        "id": 350780926,
        "osm_type": "way",
        "name": "Camping Alentejo",
        "tourism": "camp_site",
        "tents": "yes",
        "phone": "+351268959283",
        "website": "https://www.campingalentejo.com/"
      }
    },
    {
      "type": "Feature",
      "geometry": {
        "type": "Point",
        "coordinates": [
          -7.9156027,
          38.5665696
        ]
      },
      "properties": {
        "id": 365213183,
        "osm_type": "way",
        "name": "Vila Galé Évora",
        "tourism": "hotel",
        "phone": "+351 266 758 100"
      }
    },
    {
      "type": "Feature",
      "geometry": {
        "type": "Point",
        "coordinates": [
          -7.886085,
          38.5694649
        ]
      },
      "properties": {
        "id": 365850301,
        "osm_type": "way",
        "name": "Graça",
        "tourism": "hotel",
        "phone": "+351 266 700 444",
        "contact:website": "http://www.gracahotel.com/",
        "check_date": "2024-08-19"
      }
    },
    {
      "type": "Feature",
      "geometry": {
        "type": "Point",
        "coordinates": [
          -7.5353604,
          38.4212766
        ]
      },
      "properties": {
        "id": 392432332,
        "osm_type": "way",
        "name": "Área de Serviço para Autocaravanas de Reguengos de Monsaraz",
        "tourism": "caravan_site",
        "opening_hours": "24/7",
        "website": "https://www.cm-reguengos-monsaraz.pt/locais/area-de-servico-para-autocaravanas-em-reguengos-de-monsaraz/"
      }
    },
    {
      "type": "Feature",
      "geometry": {
        "type": "Point",
        "coordinates": [
          -7.4178108,
          38.4420945
        ]
      },
      "properties": {
        "id": 398689596,
        "osm_type": "way",
        "name": "São Lourenço do Barrocal",
        "tourism": "hotel"
      }
    },
    {
      "type": "Feature",
      "geometry": {
        "type": "Point",
        "coordinates": [
          -7.3795108,
          38.4453055
        ]
      },
      "properties": {
        "id": 402488088,
        "osm_type": "way",
        "name": "Charme de Monsaraz",
        "tourism": "apartment",
        "contact:phone": "+351 926 018 507"
      }
    },
    {
      "type": "Feature",
      "geometry": {
        "type": "Point",
        "coordinates": [
          -7.9063852,
          38.5682422
        ]
      },
      "properties": {
        "id": 464441194,
        "osm_type": "way",
        "name": "Évora Olive Hotel",
        "tourism": "hotel",
        "contact:phone": "+351266760050",
        "contact:website": "https://evora.luxhotels.pt/"
      }
    },
    {
      "type": "Feature",
      "geometry": {
        "type": "Point",
        "coordinates": [
          -7.9124212,
          38.5684689
        ]
      },
      "properties": {
        "id": 468125056,
        "osm_type": "way",
        "name": "Estalagem de Évora",
        "tourism": "guest_house",
        "check_date": "2024-10-22"
      }
    },
    {
      "type": "Feature",
      "geometry": {
        "type": "Point",
        "coordinates": [
          -7.9054565,
          38.5703011
        ]
      },
      "properties": {
        "id": 471269515,
        "osm_type": "way",
        "name": "MouraSuites Hotel",
        "tourism": "hotel",
        "phone": "+351266245000",
        "website": "http://mourasuites.pt/",
        "check_date": "2025-09-22"
      }
    },
    {
      "type": "Feature",
      "geometry": {
        "type": "Point",
        "coordinates": [
          -7.9119447,
          38.5685797
        ]
      },
      "properties": {
        "id": 499198749,
        "osm_type": "way",
        "name": "Moov Hotel Évora",
        "tourism": "hotel",
        "contact:phone": "+351 220 407 000"
      }
    },
    {
      "type": "Feature",
      "geometry": {
        "type": "Point",
        "coordinates": [
          -7.9327122,
          38.563816
        ]
      },
      "properties": {
        "id": 502110573,
        "osm_type": "way",
        "name": "Évora Hotel",
        "tourism": "hotel"
      }
    },
    {
      "type": "Feature",
      "geometry": {
        "type": "Point",
        "coordinates": [
          -8.1802422,
          38.6410272
        ]
      },
      "properties": {
        "id": 503557801,
        "osm_type": "way",
        "name": "Hotel da Ameira",
        "tourism": "hotel"
      }
    },
    {
      "type": "Feature",
      "geometry": {
        "type": "Point",
        "coordinates": [
          -7.9686794,
          38.553415
        ]
      },
      "properties": {
        "id": 504680805,
        "osm_type": "way",
        "name": "Ecork Hotel Évora",
        "tourism": "hotel",
        "website": "https://thelincehotels.com/ecorkhotel/"
      }
    },
    {
      "type": "Feature",
      "geometry": {
        "type": "Point",
        "coordinates": [
          -8.0338017,
          38.4954701
        ]
      },
      "properties": {
        "id": 529664708,
        "osm_type": "way",
        "name": "Camping São Jorge",
        "tourism": "camp_site"
      }
    },
    {
      "type": "Feature",
      "geometry": {
        "type": "Point",
        "coordinates": [
          -7.3355185,
          38.4049435
        ]
      },
      "properties": {
        "id": 535651989,
        "osm_type": "way",
        "name": "L'AND Reserve - Hotel e Aldeamento",
        "tourism": "hotel"
      }
    },
    {
      "type": "Feature",
      "geometry": {
        "type": "Point",
        "coordinates": [
          -7.9103858,
          38.5779218
        ]
      },
      "properties": {
        "id": 549617248,
        "osm_type": "way",
        "name": "Holiday Inn Express",
        "tourism": "hotel"
      }
    },
    {
      "type": "Feature",
      "geometry": {
        "type": "Point",
        "coordinates": [
          -7.4098367,
          38.772079
        ]
      },
      "properties": {
        "id": 553389853,
        "osm_type": "way",
        "name": "Aldeamento Turístico de Peixinhos",
        "tourism": "motel"
      }
    },
    {
      "type": "Feature",
      "geometry": {
        "type": "Point",
        "coordinates": [
          -7.4197608,
          38.7770773
        ]
      },
      "properties": {
        "id": 553857600,
        "osm_type": "way",
        "name": "Alentejo Marmoris Hotel & SPA",
        "tourism": "hotel"
      }
    },
    {
      "type": "Feature",
      "geometry": {
        "type": "Point",
        "coordinates": [
          -7.4199401,
          38.7808913
        ]
      },
      "properties": {
        "id": 553864163,
        "osm_type": "way",
        "name": "Solar dos Mascarenhas",
        "tourism": "hotel"
      }
    },
    {
      "type": "Feature",
      "geometry": {
        "type": "Point",
        "coordinates": [
          -7.9122038,
          38.5641488
        ]
      },
      "properties": {
        "id": 569138730,
        "osm_type": "way",
        "name": "Vitória Stone Hotel",
        "tourism": "hotel",
        "phone": "+351 266 707 174",
        "check_date": "2025-02-13"
      }
    },
    {
      "type": "Feature",
      "geometry": {
        "type": "Point",
        "coordinates": [
          -8.1573973,
          38.3805617
        ]
      },
      "properties": {
        "id": 602987908,
        "osm_type": "way",
        "tourism": "apartment"
      }
    },
    {
      "type": "Feature",
      "geometry": {
        "type": "Point",
        "coordinates": [
          -8.1572544,
          38.3807458
        ]
      },
      "properties": {
        "id": 602987909,
        "osm_type": "way",
        "name": "Monte Cabeça Gorda",
        "tourism": "apartment"
      }
    },
    {
      "type": "Feature",
      "geometry": {
        "type": "Point",
        "coordinates": [
          -8.0155385,
          38.3039902
        ]
      },
      "properties": {
        "id": 608458235,
        "osm_type": "way",
        "name": "Monte dos Alfanges",
        "tourism": "guest_house"
      }
    },
    {
      "type": "Feature",
      "geometry": {
        "type": "Point",
        "coordinates": [
          -7.4562821,
          38.8060634
        ]
      },
      "properties": {
        "id": 619896178,
        "osm_type": "way",
        "name": "Residencial Inaramos",
        "tourism": "hotel"
      }
    },
    {
      "type": "Feature",
      "geometry": {
        "type": "Point",
        "coordinates": [
          -7.6420618,
          38.2872684
        ]
      },
      "properties": {
        "id": 638602108,
        "osm_type": "way",
        "name": "Herdade do Rio Torto",
        "tourism": "guest_house"
      }
    },
    {
      "type": "Feature",
      "geometry": {
        "type": "Point",
        "coordinates": [
          -7.7079268,
          38.3060664
        ]
      },
      "properties": {
        "id": 639148586,
        "osm_type": "way",
        "tourism": "caravan_site"
      }
    },
    {
      "type": "Feature",
      "geometry": {
        "type": "Point",
        "coordinates": [
          -7.6137317,
          38.8440514
        ]
      },
      "properties": {
        "id": 644878541,
        "osm_type": "way",
        "name": "Estremoz Hotel",
        "tourism": "hotel",
        "phone": "+351268339950",
        "website": "https://www.estremozhotel.com/"
      }
    },
    {
      "type": "Feature",
      "geometry": {
        "type": "Point",
        "coordinates": [
          -7.5236625,
          38.2213831
        ]
      },
      "properties": {
        "id": 648853069,
        "osm_type": "way",
        "name": "Herdade Monte da Tapada",
        "tourism": "apartment"
      }
    },
    {
      "type": "Feature",
      "geometry": {
        "type": "Point",
        "coordinates": [
          -7.3741069,
          38.3431025
        ]
      },
      "properties": {
        "id": 648911984,
        "osm_type": "way",
        "tourism": "caravan_site"
      }
    },
    {
      "type": "Feature",
      "geometry": {
        "type": "Point",
        "coordinates": [
          -7.7627673,
          38.5493366
        ]
      },
      "properties": {
        "id": 656541692,
        "osm_type": "way",
        "tourism": "guest_house"
      }
    },
    {
      "type": "Feature",
      "geometry": {
        "type": "Point",
        "coordinates": [
          -7.4782468,
          38.8140139
        ]
      },
      "properties": {
        "id": 667584234,
        "osm_type": "way",
        "name": "Alojamento L&R",
        "tourism": "hotel"
      }
    },
    {
      "type": "Feature",
      "geometry": {
        "type": "Point",
        "coordinates": [
          -8.2052748,
          38.7612659
        ]
      },
      "properties": {
        "id": 670938499,
        "osm_type": "way",
        "name": "Monte da Comenda da Igreja",
        "tourism": "guest_house"
      }
    },
    {
      "type": "Feature",
      "geometry": {
        "type": "Point",
        "coordinates": [
          -7.2361508,
          38.7396466
        ]
      },
      "properties": {
        "id": 676053996,
        "osm_type": "way",
        "name": "Casas de Juromenha",
        "tourism": "guest_house",
        "website": "https://casasdejuromenha.com/"
      }
    },
    {
      "type": "Feature",
      "geometry": {
        "type": "Point",
        "coordinates": [
          -7.2362358,
          38.7397747
        ]
      },
      "properties": {
        "id": 676053998,
        "osm_type": "way",
        "name": "Casas de Juromenha",
        "tourism": "guest_house",
        "website": "https://casasdejuromenha.com/"
      }
    },
    {
      "type": "Feature",
      "geometry": {
        "type": "Point",
        "coordinates": [
          -7.4647111,
          38.3578572
        ]
      },
      "properties": {
        "id": 720438513,
        "osm_type": "way",
        "name": "Sorte Verde - Alentejo Tourism",
        "tourism": "camp_site"
      }
    },
    {
      "type": "Feature",
      "geometry": {
        "type": "Point",
        "coordinates": [
          -7.5595238,
          38.2937297
        ]
      },
      "properties": {
        "id": 722183690,
        "osm_type": "way",
        "tourism": "caravan_site"
      }
    },
    {
      "type": "Feature",
      "geometry": {
        "type": "Point",
        "coordinates": [
          -7.8307487,
          38.8253823
        ]
      },
      "properties": {
        "id": 770007956,
        "osm_type": "way",
        "name": "Quinta da Tapada de São Pedro - Turismo Rural",
        "tourism": "guest_house"
      }
    },
    {
      "type": "Feature",
      "geometry": {
        "type": "Point",
        "coordinates": [
          -7.8443175,
          38.810986
        ]
      },
      "properties": {
        "id": 770011316,
        "osm_type": "way",
        "name": "Quinta da Abrunheira",
        "tourism": "guest_house"
      }
    },
    {
      "type": "Feature",
      "geometry": {
        "type": "Point",
        "coordinates": [
          -7.8266868,
          38.8184416
        ]
      },
      "properties": {
        "id": 770014466,
        "osm_type": "way",
        "name": "Quinta A Cabra Verde",
        "tourism": "guest_house"
      }
    },
    {
      "type": "Feature",
      "geometry": {
        "type": "Point",
        "coordinates": [
          -7.4319931,
          38.5629227
        ]
      },
      "properties": {
        "id": 802503215,
        "osm_type": "way",
        "name": "Herdade dos Mestres",
        "tourism": "guest_house"
      }
    },
    {
      "type": "Feature",
      "geometry": {
        "type": "Point",
        "coordinates": [
          -7.4641901,
          38.5945011
        ]
      },
      "properties": {
        "id": 802578238,
        "osm_type": "way",
        "name": "Monte da Fonte dos Orvalhos",
        "tourism": "guest_house"
      }
    },
    {
      "type": "Feature",
      "geometry": {
        "type": "Point",
        "coordinates": [
          -7.3721843,
          38.6294703
        ]
      },
      "properties": {
        "id": 803118916,
        "osm_type": "way",
        "name": "Herdade Dom Pedro",
        "tourism": "guest_house"
      }
    },
    {
      "type": "Feature",
      "geometry": {
        "type": "Point",
        "coordinates": [
          -7.704866,
          38.3088912
        ]
      },
      "properties": {
        "id": 803624604,
        "osm_type": "way",
        "name": "Matriz Guest House",
        "tourism": "guest_house",
        "phone": "+351 919 318 528",
        "website": "https://www.facebook.com/matrizguesthouseofficial/"
      }
    },
    {
      "type": "Feature",
      "geometry": {
        "type": "Point",
        "coordinates": [
          -7.3483434,
          38.6513817
        ]
      },
      "properties": {
        "id": 804371308,
        "osm_type": "way",
        "name": "Land of Alandroal",
        "tourism": "hotel",
        "website": "https://landofalandroal.pt/"
      }
    },
    {
      "type": "Feature",
      "geometry": {
        "type": "Point",
        "coordinates": [
          -7.6133613,
          38.846778
        ]
      },
      "properties": {
        "id": 806374543,
        "osm_type": "way",
        "name": "Monte dos Pensamentos",
        "tourism": "guest_house"
      }
    },
    {
      "type": "Feature",
      "geometry": {
        "type": "Point",
        "coordinates": [
          -7.703764,
          38.3111485
        ]
      },
      "properties": {
        "id": 915854759,
        "osm_type": "way",
        "name": "Cantinho da Bia",
        "tourism": "guest_house",
        "website": "https://www.cantinhodabia.com"
      }
    },
    {
      "type": "Feature",
      "geometry": {
        "type": "Point",
        "coordinates": [
          -7.5247629,
          38.9543365
        ]
      },
      "properties": {
        "id": 936325470,
        "osm_type": "way",
        "name": "Glamping Skies",
        "tourism": "camp_site",
        "phone": "+351 917853889",
        "website": "https://glampingskies.com"
      }
    },
    {
      "type": "Feature",
      "geometry": {
        "type": "Point",
        "coordinates": [
          -7.5047352,
          38.953021
        ]
      },
      "properties": {
        "id": 936534873,
        "osm_type": "way",
        "name": "Casa de Veiros",
        "tourism": "guest_house"
      }
    },
    {
      "type": "Feature",
      "geometry": {
        "type": "Point",
        "coordinates": [
          -7.5892162,
          38.8393603
        ]
      },
      "properties": {
        "id": 936937857,
        "osm_type": "way",
        "name": "Pateo dos Solares",
        "tourism": "hotel"
      }
    },
    {
      "type": "Feature",
      "geometry": {
        "type": "Point",
        "coordinates": [
          -7.6276959,
          38.8855856
        ]
      },
      "properties": {
        "id": 936944660,
        "osm_type": "way",
        "name": "Dá Licença",
        "tourism": "hotel",
        "phone": "+351 962 950 540",
        "website": "https://dalicenca.pt/"
      }
    },
    {
      "type": "Feature",
      "geometry": {
        "type": "Point",
        "coordinates": [
          -8.1535541,
          38.8707495
        ]
      },
      "properties": {
        "id": 956139542,
        "osm_type": "way",
        "tourism": "apartment"
      }
    },
    {
      "type": "Feature",
      "geometry": {
        "type": "Point",
        "coordinates": [
          -8.1669422,
          38.9442557
        ]
      },
      "properties": {
        "id": 957490171,
        "osm_type": "way",
        "name": "Hotel Solar dos Lilases",
        "tourism": "hotel",
        "website": "https://www.hotelsolardoslilases.com/"
      }
    },
    {
      "type": "Feature",
      "geometry": {
        "type": "Point",
        "coordinates": [
          -7.7555436,
          38.5477808
        ]
      },
      "properties": {
        "id": 1025789393,
        "osm_type": "way",
        "name": "Octant Hotels Évora",
        "tourism": "hotel",
        "phone": "+351 266 248 530",
        "website": "https://evora.octanthotels.com"
      }
    },
    {
      "type": "Feature",
      "geometry": {
        "type": "Point",
        "coordinates": [
          -7.4225661,
          38.4149071
        ]
      },
      "properties": {
        "id": 1031679399,
        "osm_type": "way",
        "name": "Montimerso Skyscape Country House",
        "tourism": "hotel",
        "phone": "+351 266557083",
        "website": "https://www.montimerso.pt/"
      }
    },
    {
      "type": "Feature",
      "geometry": {
        "type": "Point",
        "coordinates": [
          -7.4587853,
          38.8046924
        ]
      },
      "properties": {
        "id": 1040877380,
        "osm_type": "way",
        "tourism": "hotel"
      }
    },
    {
      "type": "Feature",
      "geometry": {
        "type": "Point",
        "coordinates": [
          -7.382741,
          38.4547845
        ]
      },
      "properties": {
        "id": 1041748206,
        "osm_type": "way",
        "name": "Vila Planície",
        "tourism": "hotel",
        "website": "https://vilaplanicie.pt/"
      }
    },
    {
      "type": "Feature",
      "geometry": {
        "type": "Point",
        "coordinates": [
          -7.8788176,
          38.7723395
        ]
      },
      "properties": {
        "id": 1059296314,
        "osm_type": "way",
        "name": "Monte do Álamo",
        "tourism": "guest_house"
      }
    },
    {
      "type": "Feature",
      "geometry": {
        "type": "Point",
        "coordinates": [
          -8.1984935,
          38.9692129
        ]
      },
      "properties": {
        "id": 1063588234,
        "osm_type": "way",
        "tourism": "guest_house"
      }
    },
    {
      "type": "Feature",
      "geometry": {
        "type": "Point",
        "coordinates": [
          -7.3426866,
          38.621775
        ]
      },
      "properties": {
        "id": 1066174453,
        "osm_type": "way",
        "name": "Monte das Palavras",
        "tourism": "guest_house"
      }
    },
    {
      "type": "Feature",
      "geometry": {
        "type": "Point",
        "coordinates": [
          -7.3582113,
          38.3860559
        ]
      },
      "properties": {
        "id": 1103134655,
        "osm_type": "way",
        "name": "Herdade dos Delgados",
        "tourism": "hotel",
        "phone": "+351 266 247 900",
        "website": "https://www.herdadedosdelgados.pt/"
      }
    },
    {
      "type": "Feature",
      "geometry": {
        "type": "Point",
        "coordinates": [
          -7.4905423,
          38.8204436
        ]
      },
      "properties": {
        "id": 1106656311,
        "osm_type": "way",
        "name": "Viajante",
        "tourism": "hotel"
      }
    },
    {
      "type": "Feature",
      "geometry": {
        "type": "Point",
        "coordinates": [
          -7.4019563,
          38.7030813
        ]
      },
      "properties": {
        "id": 1119685609,
        "osm_type": "way",
        "name": "C'Alma d'Alentejo",
        "tourism": "guest_house",
        "phone": "+351 268 448 113",
        "website": "https://calmadalentejo.pt/"
      }
    },
    {
      "type": "Feature",
      "geometry": {
        "type": "Point",
        "coordinates": [
          -7.9285824,
          38.563163
        ]
      },
      "properties": {
        "id": 1120773268,
        "osm_type": "way",
        "tourism": "apartment"
      }
    },
    {
      "type": "Feature",
      "geometry": {
        "type": "Point",
        "coordinates": [
          -7.9292774,
          38.5626963
        ]
      },
      "properties": {
        "id": 1120773269,
        "osm_type": "way",
        "tourism": "apartment"
      }
    },
    {
      "type": "Feature",
      "geometry": {
        "type": "Point",
        "coordinates": [
          -7.3541196,
          38.5319105
        ]
      },
      "properties": {
        "id": 1135407806,
        "osm_type": "way",
        "name": "Monte do Peral",
        "tourism": "hotel",
        "phone": "+351 268 469 153",
        "website": "https://montedoperal.com/"
      }
    },
    {
      "type": "Feature",
      "geometry": {
        "type": "Point",
        "coordinates": [
          -7.4070595,
          38.6319978
        ]
      },
      "properties": {
        "id": 1136667416,
        "osm_type": "way",
        "name": "Herdade dos Barros",
        "tourism": "guest_house"
      }
    },
    {
      "type": "Feature",
      "geometry": {
        "type": "Point",
        "coordinates": [
          -7.3668208,
          38.4466453
        ]
      },
      "properties": {
        "id": 1137195484,
        "osm_type": "way",
        "name": "Monte de Santa Catarina",
        "tourism": "hotel"
      }
    },
    {
      "type": "Feature",
      "geometry": {
        "type": "Point",
        "coordinates": [
          -8.2930144,
          38.6818063
        ]
      },
      "properties": {
        "id": 1150133469,
        "osm_type": "way",
        "name": "Moinho do Álamo",
        "tourism": "hotel"
      }
    },
    {
      "type": "Feature",
      "geometry": {
        "type": "Point",
        "coordinates": [
          -7.9087732,
          38.5649526
        ]
      },
      "properties": {
        "id": 1181998435,
        "osm_type": "way",
        "name": "Hilton Garden Inn Evora",
        "tourism": "hotel",
        "phone": "+351 266 248 840",
        "website": "https://www.hilton.com/en/hotels/liseagi-hilton-garden-inn-evora/"
      }
    },
    {
      "type": "Feature",
      "geometry": {
        "type": "Point",
        "coordinates": [
          -7.9093004,
          38.5732801
        ]
      },
      "properties": {
        "id": 1223268332,
        "osm_type": "way",
        "name": "Templo Boutique Hotel",
        "tourism": "hotel"
      }
    },
    {
      "type": "Feature",
      "geometry": {
        "type": "Point",
        "coordinates": [
          -7.9084562,
          38.5734354
        ]
      },
      "properties": {
        "id": 1223268334,
        "osm_type": "way",
        "tourism": "hotel"
      }
    },
    {
      "type": "Feature",
      "geometry": {
        "type": "Point",
        "coordinates": [
          -7.9573139,
          38.8760434
        ]
      },
      "properties": {
        "id": 1238465057,
        "osm_type": "way",
        "name": "Monte da Bela Raposa",
        "tourism": "guest_house"
      }
    },
    {
      "type": "Feature",
      "geometry": {
        "type": "Point",
        "coordinates": [
          -8.2062282,
          38.6223608
        ]
      },
      "properties": {
        "id": 1280348472,
        "osm_type": "way",
        "name": "Gandum Village - Hotel Rural",
        "tourism": "hotel",
        "phone": "+351 266 079 000",
        "website": "https://www.gandum.pt"
      }
    },
    {
      "type": "Feature",
      "geometry": {
        "type": "Point",
        "coordinates": [
          -7.885952,
          38.5694773
        ]
      },
      "properties": {
        "id": 1353770399,
        "osm_type": "way",
        "tourism": "hotel"
      }
    },
    {
      "type": "Feature",
      "geometry": {
        "type": "Point",
        "coordinates": [
          -7.9463029,
          38.5668082
        ]
      },
      "properties": {
        "id": 1356272589,
        "osm_type": "way",
        "name": "Casa do Vale Hotel",
        "tourism": "hotel"
      }
    },
    {
      "type": "Feature",
      "geometry": {
        "type": "Point",
        "coordinates": [
          -7.5241725,
          38.424741
        ]
      },
      "properties": {
        "id": 1388777111,
        "osm_type": "way",
        "tourism": "caravan_site"
      }
    },
    {
      "type": "Feature",
      "geometry": {
        "type": "Point",
        "coordinates": [
          -7.4091686,
          38.6184857
        ]
      },
      "properties": {
        "id": 1388779918,
        "osm_type": "way",
        "tourism": "caravan_site"
      }
    },
    {
      "type": "Feature",
      "geometry": {
        "type": "Point",
        "coordinates": [
          -7.4185285,
          38.4422735
        ]
      },
      "properties": {
        "id": 1395935218,
        "osm_type": "way",
        "name": "Sáo Lourenço do Barrocal",
        "tourism": "hotel"
      }
    },
    {
      "type": "Feature",
      "geometry": {
        "type": "Point",
        "coordinates": [
          -7.8887123,
          38.6013285
        ]
      },
      "properties": {
        "id": 1428116697,
        "osm_type": "way",
        "name": "Convento do Espinheiro",
        "tourism": "hotel",
        "phone": "+351 266788200",
        "website": "https://www.conventodoespinheiro.com/"
      }
    },
    {
      "type": "Feature",
      "geometry": {
        "type": "Point",
        "coordinates": [
          -7.3189645,
          38.3944772
        ]
      },
      "properties": {
        "id": 1432569612,
        "osm_type": "way",
        "name": "Monte do Colmeal - Rural Accomodation",
        "tourism": "guest_house",
        "website": "https://www.montedocolmeal.com/"
      }
    },
    {
      "type": "Feature",
      "geometry": {
        "type": "Point",
        "coordinates": [
          -7.5448432,
          38.6472081
        ]
      },
      "properties": {
        "id": 1447122845,
        "osm_type": "way",
        "name": "Di&Ana II",
        "tourism": "chalet"
      }
    },
    {
      "type": "Feature",
      "geometry": {
        "type": "Point",
        "coordinates": [
          -7.4272536,
          38.3703771
        ]
      },
      "properties": {
        "id": 1464129432,
        "osm_type": "way",
        "name": "Casa Nossa by Jose Avillez",
        "tourism": "guest_house",
        "website": "https://www.casanossajoseavillez.pt/"
      }
    },
    {
      "type": "Feature",
      "geometry": {
        "type": "Point",
        "coordinates": [
          -7.9067359,
          38.5728103
        ]
      },
      "properties": {
        "id": 2174123,
        "osm_type": "relation",
        "name": "Pousada dos Lóios",
        "tourism": "hotel",
        "phone": "+351 266 730 070",
        "website": "https://www.pousadas.pt/en/hotel/pousada-evora"
      }
    },
    {
      "type": "Feature",
      "geometry": {
        "type": "Point",
        "coordinates": [
          -7.9889616,
          38.7320543
        ]
      },
      "properties": {
        "id": 6926369,
        "osm_type": "relation",
        "name": "Pousada Nossa Senhora da Assunção",
        "tourism": "hotel"
      }
    },
    {
      "type": "Feature",
      "geometry": {
        "type": "Point",
        "coordinates": [
          -7.5783344,
          38.7260851
        ]
      },
      "properties": {
        "id": 7653327,
        "osm_type": "relation",
        "name": "Convento São Paulo Hotel Rural",
        "tourism": "hotel",
        "phone": "+351 266 989 160",
        "website": "https://www.hotelconventosaopaulo.com/"
      }
    },
    {
      "type": "Feature",
      "geometry": {
        "type": "Point",
        "coordinates": [
          -8.1447354,
          38.5350125
        ]
      },
      "properties": {
        "id": 8398181,
        "osm_type": "relation",
        "name": "Serrinha",
        "tourism": "hotel"
      }
    },
    {
      "type": "Feature",
      "geometry": {
        "type": "Point",
        "coordinates": [
          -7.5921323,
          38.8420899
        ]
      },
      "properties": {
        "id": 8971750,
        "osm_type": "relation",
        "name": "Pousada Rainha Santa Isabel",
        "tourism": "hotel",
        "phone": "+351 268332075",
        "website": "https://www.pousadas.pt/pt/hotel/pousada-estremoz"
      }
    },
    {
      "type": "Feature",
      "geometry": {
        "type": "Point",
        "coordinates": [
          -7.4214005,
          38.7814747
        ]
      },
      "properties": {
        "id": 10668735,
        "osm_type": "relation",
        "name": "Pousada de Vila Viçosa, Dom João IV",
        "tourism": "hotel"
      }
    },
    {
      "type": "Feature",
      "geometry": {
        "type": "Point",
        "coordinates": [
          -7.4544947,
          38.8045309
        ]
      },
      "properties": {
        "id": 13927554,
        "osm_type": "relation",
        "name": "Casa de Borba",
        "tourism": "hotel"
      }
    },
    {
      "type": "Feature",
      "geometry": {
        "type": "Point",
        "coordinates": [
          -7.8969775,
          38.7090814
        ]
      },
      "properties": {
        "id": 14166521,
        "osm_type": "relation",
        "name": "Casa de Baco",
        "tourism": "guest_house",
        "phone": "+351 266477030",
        "website": "https://casadebaco.pt/"
      }
    },
    {
      "type": "Feature",
      "geometry": {
        "type": "Point",
        "coordinates": [
          -7.9080534,
          38.5650238
        ]
      },
      "properties": {
        "id": 15981812,
        "osm_type": "relation",
        "name": "Hotel Dom Fernando",
        "tourism": "hotel"
      }
    },
    {
      "type": "Feature",
      "geometry": {
        "type": "Point",
        "coordinates": [
          -7.3579099,
          38.3856076
        ]
      },
      "properties": {
        "id": 19266269,
        "osm_type": "relation",
        "name": "Herdade dos Delgados",
        "tourism": "hotel",
        "website": "https://www.herdadedosdelgados.pt/"
      }
    }
  ]
}