{
  "type": "FeatureCollection",
  "features": [
    {
      "type": "Feature",
      "geometry": {
        "type": "Point",
        "coordinates": [
          34.2984853,
          39.0992321
        ]
      },
      "properties": {
        "id": 4397817389,
        "osm_type": "node",
        "name": "Yesilyurt Camping",
        "tourism": "camp_site"
      }
    },
    {
      "type": "Feature",
      "geometry": {
        "type": "Point",
        "coordinates": [
          34.1601507,
          39.1471017
        ]
      },
      "properties": {
        "id": 7793681656,
        "osm_type": "node",
        "name": "Kırşehir Polis Evi",
        "tourism": "guest_house",
        "website": "https://www.polisevi.com/kirsehir-polisevi/"
      }
    },
    {
      "type": "Feature",
      "geometry": {
        "type": "Point",
        "coordinates": [
          34.1694943,
          39.1500937
        ]
      },
      "properties": {
        "id": 12300445142,
        "osm_type": "node",
        "name": "Coşkuntuna Otel",
        "tourism": "hotel"
      }
    },
    {
      "type": "Feature",
      "geometry": {
        "type": "Point",
        "coordinates": [
          34.1513228,
          39.1361996
        ]
      },
      "properties": {
        "id": 195742014,
        "osm_type": "way",
        "name": "Terme Hotel",
        "tourism": "hotel"
      }
    },
    {
      "type": "Feature",
      "geometry": {
        "type": "Point",
        "coordinates": [
          34.1292891,
          39.1308492
        ]
      },
      "properties": {
        "id": 310466420,
        "osm_type": "way",
        "name": "Armas Termal Resort",
        "tourism": "hotel",
        "phone": "+90 386 419 40 40",
        "website": "https://www.armashotels.com/tr/hotel/armas_termal"
      }
    },
    {
      "type": "Feature",
      "geometry": {
        "type": "Point",
        "coordinates": [
          34.1605639,
          39.1481656
        ]
      },
      "properties": {
        "id": 449610455,
        "osm_type": "way",
        "name": "Kapris Hotel",
        "tourism": "hotel"
      }
    },
    {
      "type": "Feature",
      "geometry": {
        "type": "Point",
        "coordinates": [
          34.1605809,
          39.1480631
        ]
      },
      "properties": {
        "id": 449610456,
        "osm_type": "way",
        "name": "Cingöz Resort Otel",
        "tourism": "hotel"
      }
    },
    {
      "type": "Feature",
      "geometry": {
        "type": "Point",
        "coordinates": [
          33.7208041,
          39.3589588
        ]
      },
      "properties": {
        "id": 685721613,
        "osm_type": "way",
        "name": "Öğretmenevi Lokali",
        "tourism": "apartment"
      }
    },
    {
      "type": "Feature",
      "geometry": {
        "type": "Point",
        "coordinates": [
          34.0565622,
          39.7039281
        ]
      },
      "properties": {
        "id": 1249820992,
        "osm_type": "way",
        "name": "Kilimli Köyü Konağı",
        "tourism": "apartment"
      }
    },
    {
      "type": "Feature",
      "geometry": {
        "type": "Point",
        "coordinates": [
          34.0977757,
          39.5904856
        ]
      },
      "properties": {
        "id": 1251156113,
        "osm_type": "way",
        "name": "Köy Konağı",
        "tourism": "guest_house"
      }
    }
  ]
}