{
  "type": "FeatureCollection",
  "features": [
    {
      "type": "Feature",
      "geometry": {
        "type": "Point",
        "coordinates": [
          27.5805959,
          47.1666759
        ]
      },
      "properties": {
        "id": 263878668,
        "osm_type": "node",
        "name": "Hotel Unirea",
        "tourism": "hotel",
        "contact:phone": "+40 232 205000",
        "contact:website": "https://www.hotelunirea.ro/"
      }
    },
    {
      "type": "Feature",
      "geometry": {
        "type": "Point",
        "coordinates": [
          27.6428437,
          47.1524567
        ]
      },
      "properties": {
        "id": 263881816,
        "osm_type": "node",
        "name": "Amadeo",
        "tourism": "hotel"
      }
    },
    {
      "type": "Feature",
      "geometry": {
        "type": "Point",
        "coordinates": [
          27.5977691,
          47.1749313
        ]
      },
      "properties": {
        "id": 263884509,
        "osm_type": "node",
        "name": "Little Texas",
        "tourism": "hotel"
      }
    },
    {
      "type": "Feature",
      "geometry": {
        "type": "Point",
        "coordinates": [
          27.5817725,
          47.165057
        ]
      },
      "properties": {
        "id": 263886116,
        "osm_type": "node",
        "name": "Hotel Continental",
        "tourism": "hotel"
      }
    },
    {
      "type": "Feature",
      "geometry": {
        "type": "Point",
        "coordinates": [
          27.5847201,
          47.1623846
        ]
      },
      "properties": {
        "id": 263888571,
        "osm_type": "node",
        "name": "Institutul Ecumenic",
        "tourism": "hotel"
      }
    },
    {
      "type": "Feature",
      "geometry": {
        "type": "Point",
        "coordinates": [
          27.5693322,
          47.1701433
        ]
      },
      "properties": {
        "id": 263895463,
        "osm_type": "node",
        "name": "Moldotur",
        "tourism": "hotel"
      }
    },
    {
      "type": "Feature",
      "geometry": {
        "type": "Point",
        "coordinates": [
          27.5893628,
          47.174545
        ]
      },
      "properties": {
        "id": 263898042,
        "osm_type": "node",
        "name": "Holiday",
        "tourism": "hotel"
      }
    },
    {
      "type": "Feature",
      "geometry": {
        "type": "Point",
        "coordinates": [
          27.5757826,
          47.1656179
        ]
      },
      "properties": {
        "id": 263898969,
        "osm_type": "node",
        "name": "Majestic",
        "tourism": "hotel",
        "website": "http://www.hotel-majestic.ro",
        "check_date": "2024-05-25"
      }
    },
    {
      "type": "Feature",
      "geometry": {
        "type": "Point",
        "coordinates": [
          27.6512044,
          47.0916292
        ]
      },
      "properties": {
        "id": 263900632,
        "osm_type": "node",
        "name": "Bucium Motel",
        "tourism": "hotel",
        "check_date": "2024-11-06"
      }
    },
    {
      "type": "Feature",
      "geometry": {
        "type": "Point",
        "coordinates": [
          27.588747,
          47.1458013
        ]
      },
      "properties": {
        "id": 264130495,
        "osm_type": "node",
        "name": "Orion",
        "tourism": "hotel"
      }
    },
    {
      "type": "Feature",
      "geometry": {
        "type": "Point",
        "coordinates": [
          27.6076716,
          47.1348064
        ]
      },
      "properties": {
        "id": 264550716,
        "osm_type": "node",
        "name": "Pleiada Boutique Hotel",
        "tourism": "hotel"
      }
    },
    {
      "type": "Feature",
      "geometry": {
        "type": "Point",
        "coordinates": [
          27.5591947,
          47.196162
        ]
      },
      "properties": {
        "id": 267709380,
        "osm_type": "node",
        "name": "Retiro",
        "tourism": "hotel"
      }
    },
    {
      "type": "Feature",
      "geometry": {
        "type": "Point",
        "coordinates": [
          27.5842002,
          47.1644572
        ]
      },
      "properties": {
        "id": 269223199,
        "osm_type": "node",
        "name": "Casa Bucovineană",
        "tourism": "hostel"
      }
    },
    {
      "type": "Feature",
      "geometry": {
        "type": "Point",
        "coordinates": [
          27.6069124,
          47.1601319
        ]
      },
      "properties": {
        "id": 269550768,
        "osm_type": "node",
        "name": "New House",
        "tourism": "hotel"
      }
    },
    {
      "type": "Feature",
      "geometry": {
        "type": "Point",
        "coordinates": [
          27.5797659,
          47.1712561
        ]
      },
      "properties": {
        "id": 269575009,
        "osm_type": "node",
        "name": "Ambiance City",
        "tourism": "hotel"
      }
    },
    {
      "type": "Feature",
      "geometry": {
        "type": "Point",
        "coordinates": [
          27.5649737,
          47.1712588
        ]
      },
      "properties": {
        "id": 274089857,
        "osm_type": "node",
        "name": "Villa Verde",
        "tourism": "hotel"
      }
    },
    {
      "type": "Feature",
      "geometry": {
        "type": "Point",
        "coordinates": [
          27.6006898,
          47.1853304
        ]
      },
      "properties": {
        "id": 297993716,
        "osm_type": "node",
        "name": "Hotel Ciric",
        "tourism": "hotel",
        "contact:phone": "+40 232 219 000",
        "contact:website": "http://www.ciric.com.ro/"
      }
    },
    {
      "type": "Feature",
      "geometry": {
        "type": "Point",
        "coordinates": [
          27.5974899,
          47.180806
        ]
      },
      "properties": {
        "id": 298867100,
        "osm_type": "node",
        "name": "Alexia",
        "tourism": "guest_house"
      }
    },
    {
      "type": "Feature",
      "geometry": {
        "type": "Point",
        "coordinates": [
          27.6547717,
          47.0871989
        ]
      },
      "properties": {
        "id": 302080843,
        "osm_type": "node",
        "name": "Mirage",
        "tourism": "hotel"
      }
    },
    {
      "type": "Feature",
      "geometry": {
        "type": "Point",
        "coordinates": [
          27.6497128,
          47.0896343
        ]
      },
      "properties": {
        "id": 302083233,
        "osm_type": "node",
        "name": "Suzana",
        "tourism": "hotel"
      }
    },
    {
      "type": "Feature",
      "geometry": {
        "type": "Point",
        "coordinates": [
          27.6531546,
          47.0920653
        ]
      },
      "properties": {
        "id": 302083669,
        "osm_type": "node",
        "name": "No Limits",
        "tourism": "hotel",
        "check_date": "2024-11-06"
      }
    },
    {
      "type": "Feature",
      "geometry": {
        "type": "Point",
        "coordinates": [
          27.6514875,
          47.0979556
        ]
      },
      "properties": {
        "id": 302084716,
        "osm_type": "node",
        "name": "Cardinale",
        "tourism": "hotel"
      }
    },
    {
      "type": "Feature",
      "geometry": {
        "type": "Point",
        "coordinates": [
          27.6449392,
          47.1033439
        ]
      },
      "properties": {
        "id": 302085975,
        "osm_type": "node",
        "name": "Shamrock Inn",
        "tourism": "hotel"
      }
    },
    {
      "type": "Feature",
      "geometry": {
        "type": "Point",
        "coordinates": [
          27.6418421,
          47.1054219
        ]
      },
      "properties": {
        "id": 302086573,
        "osm_type": "node",
        "name": "TB",
        "tourism": "hotel"
      }
    },
    {
      "type": "Feature",
      "geometry": {
        "type": "Point",
        "coordinates": [
          27.6376589,
          47.1084694
        ]
      },
      "properties": {
        "id": 302087629,
        "osm_type": "node",
        "name": "Casa Boierească",
        "tourism": "hotel"
      }
    },
    {
      "type": "Feature",
      "geometry": {
        "type": "Point",
        "coordinates": [
          27.6296335,
          47.1195132
        ]
      },
      "properties": {
        "id": 311931093,
        "osm_type": "node",
        "name": "Hanul Dacilor",
        "tourism": "hotel"
      }
    },
    {
      "type": "Feature",
      "geometry": {
        "type": "Point",
        "coordinates": [
          27.6486068,
          47.1014475
        ]
      },
      "properties": {
        "id": 331323325,
        "osm_type": "node",
        "name": "Anelis",
        "tourism": "hotel"
      }
    },
    {
      "type": "Feature",
      "geometry": {
        "type": "Point",
        "coordinates": [
          27.6149332,
          47.129783
        ]
      },
      "properties": {
        "id": 331324624,
        "osm_type": "node",
        "name": "La Palia",
        "tourism": "hotel"
      }
    },
    {
      "type": "Feature",
      "geometry": {
        "type": "Point",
        "coordinates": [
          27.6147179,
          47.1301405
        ]
      },
      "properties": {
        "id": 331324641,
        "osm_type": "node",
        "name": "La Cumătru'",
        "tourism": "hotel"
      }
    },
    {
      "type": "Feature",
      "geometry": {
        "type": "Point",
        "coordinates": [
          27.612237,
          47.132481
        ]
      },
      "properties": {
        "id": 331324862,
        "osm_type": "node",
        "name": "Hotel Bellaria",
        "tourism": "hotel",
        "website": "https://www.bellaria.ro/"
      }
    },
    {
      "type": "Feature",
      "geometry": {
        "type": "Point",
        "coordinates": [
          26.9369112,
          47.1109622
        ]
      },
      "properties": {
        "id": 387468305,
        "osm_type": "node",
        "name": "Trei Iazuri -",
        "tourism": "motel"
      }
    },
    {
      "type": "Feature",
      "geometry": {
        "type": "Point",
        "coordinates": [
          27.5448114,
          47.1184349
        ]
      },
      "properties": {
        "id": 427632471,
        "osm_type": "node",
        "name": "Nova Nautic",
        "tourism": "hotel"
      }
    },
    {
      "type": "Feature",
      "geometry": {
        "type": "Point",
        "coordinates": [
          27.6576138,
          47.0892896
        ]
      },
      "properties": {
        "id": 430382261,
        "osm_type": "node",
        "name": "Popasul Păun",
        "tourism": "hotel",
        "check_date": "2024-11-06"
      }
    },
    {
      "type": "Feature",
      "geometry": {
        "type": "Point",
        "coordinates": [
          27.659363,
          47.0956125
        ]
      },
      "properties": {
        "id": 430383343,
        "osm_type": "node",
        "name": "Călina",
        "tourism": "hotel"
      }
    },
    {
      "type": "Feature",
      "geometry": {
        "type": "Point",
        "coordinates": [
          27.5587986,
          47.1134624
        ]
      },
      "properties": {
        "id": 469728299,
        "osm_type": "node",
        "name": "Hotel Capitol",
        "tourism": "hotel",
        "opening_hours": "24/7",
        "phone": "+40232-264 264, +40755-083 635",
        "website": "https://www.capitol-hotel.ro/"
      }
    },
    {
      "type": "Feature",
      "geometry": {
        "type": "Point",
        "coordinates": [
          27.579079,
          47.1256748
        ]
      },
      "properties": {
        "id": 559464723,
        "osm_type": "node",
        "name": "Cristian",
        "tourism": "hotel"
      }
    },
    {
      "type": "Feature",
      "geometry": {
        "type": "Point",
        "coordinates": [
          27.6155826,
          47.1288961
        ]
      },
      "properties": {
        "id": 574784026,
        "osm_type": "node",
        "name": "Aristocrat",
        "tourism": "hotel",
        "phone": "+40 0232 450 000"
      }
    },
    {
      "type": "Feature",
      "geometry": {
        "type": "Point",
        "coordinates": [
          27.620699,
          47.1131137
        ]
      },
      "properties": {
        "id": 574869621,
        "osm_type": "node",
        "name": "Pensiunea Garofița",
        "tourism": "hotel"
      }
    },
    {
      "type": "Feature",
      "geometry": {
        "type": "Point",
        "coordinates": [
          27.6326084,
          47.1162141
        ]
      },
      "properties": {
        "id": 574899770,
        "osm_type": "node",
        "name": "Anais",
        "tourism": "hotel"
      }
    },
    {
      "type": "Feature",
      "geometry": {
        "type": "Point",
        "coordinates": [
          27.6328361,
          47.1155597
        ]
      },
      "properties": {
        "id": 574902398,
        "osm_type": "node",
        "name": "La Strada",
        "tourism": "hotel"
      }
    },
    {
      "type": "Feature",
      "geometry": {
        "type": "Point",
        "coordinates": [
          27.5863706,
          47.1620326
        ]
      },
      "properties": {
        "id": 660601822,
        "osm_type": "node",
        "name": "Hotel Eden Iaşi",
        "tourism": "hotel"
      }
    },
    {
      "type": "Feature",
      "geometry": {
        "type": "Point",
        "coordinates": [
          27.6197924,
          47.1581703
        ]
      },
      "properties": {
        "id": 666948421,
        "osm_type": "node",
        "name": "Edy",
        "tourism": "hotel",
        "phone": "+40763612249"
      }
    },
    {
      "type": "Feature",
      "geometry": {
        "type": "Point",
        "coordinates": [
          27.9419566,
          46.9582541
        ]
      },
      "properties": {
        "id": 720662527,
        "osm_type": "node",
        "name": "Romava",
        "tourism": "hotel"
      }
    },
    {
      "type": "Feature",
      "geometry": {
        "type": "Point",
        "coordinates": [
          27.574241,
          47.1529631
        ]
      },
      "properties": {
        "id": 726668444,
        "osm_type": "node",
        "name": "Pensiunea Contour",
        "tourism": "guest_house"
      }
    },
    {
      "type": "Feature",
      "geometry": {
        "type": "Point",
        "coordinates": [
          27.6508006,
          47.0964752
        ]
      },
      "properties": {
        "id": 731233162,
        "osm_type": "node",
        "name": "All Seasons",
        "tourism": "hotel"
      }
    },
    {
      "type": "Feature",
      "geometry": {
        "type": "Point",
        "coordinates": [
          27.739451,
          47.0469438
        ]
      },
      "properties": {
        "id": 766938585,
        "osm_type": "node",
        "name": "Quattro Ruote (închis)",
        "tourism": "hotel"
      }
    },
    {
      "type": "Feature",
      "geometry": {
        "type": "Point",
        "coordinates": [
          27.7451499,
          47.0473178
        ]
      },
      "properties": {
        "id": 766938660,
        "osm_type": "node",
        "name": "Stâna Poieni",
        "tourism": "hotel"
      }
    },
    {
      "type": "Feature",
      "geometry": {
        "type": "Point",
        "coordinates": [
          27.241048,
          47.2169515
        ]
      },
      "properties": {
        "id": 835367800,
        "osm_type": "node",
        "name": "Kaze m",
        "tourism": "hotel"
      }
    },
    {
      "type": "Feature",
      "geometry": {
        "type": "Point",
        "coordinates": [
          27.0347003,
          47.2177695
        ]
      },
      "properties": {
        "id": 835370640,
        "osm_type": "node",
        "name": "Rami",
        "tourism": "hotel"
      }
    },
    {
      "type": "Feature",
      "geometry": {
        "type": "Point",
        "coordinates": [
          27.0621563,
          47.2197442
        ]
      },
      "properties": {
        "id": 942807848,
        "osm_type": "node",
        "name": "Coroana",
        "tourism": "hotel",
        "website": "http://www.hotelcoroanaiasi.ro/"
      }
    },
    {
      "type": "Feature",
      "geometry": {
        "type": "Point",
        "coordinates": [
          27.626894,
          47.1205582
        ]
      },
      "properties": {
        "id": 1068130353,
        "osm_type": "node",
        "name": "Diplomat",
        "tourism": "hotel"
      }
    },
    {
      "type": "Feature",
      "geometry": {
        "type": "Point",
        "coordinates": [
          27.5300149,
          47.1802559
        ]
      },
      "properties": {
        "id": 1237373280,
        "osm_type": "node",
        "name": "Pensiunea Crystal",
        "tourism": "guest_house",
        "opening_hours": "Mo-Fr 09:00-17:30",
        "phone": "+40 788-373 798",
        "website": "https://pensiuneacrystal.ro/"
      }
    },
    {
      "type": "Feature",
      "geometry": {
        "type": "Point",
        "coordinates": [
          27.6324454,
          47.11594
        ]
      },
      "properties": {
        "id": 1483293942,
        "osm_type": "node",
        "name": "Novis",
        "tourism": "hotel"
      }
    },
    {
      "type": "Feature",
      "geometry": {
        "type": "Point",
        "coordinates": [
          27.8231229,
          46.9373723
        ]
      },
      "properties": {
        "id": 1566942330,
        "osm_type": "node",
        "name": "Hanul Florilor",
        "tourism": "motel"
      }
    },
    {
      "type": "Feature",
      "geometry": {
        "type": "Point",
        "coordinates": [
          26.642313,
          47.24616
        ]
      },
      "properties": {
        "id": 1617907402,
        "osm_type": "node",
        "name": "Pensiunea Markos",
        "tourism": "guest_house"
      }
    },
    {
      "type": "Feature",
      "geometry": {
        "type": "Point",
        "coordinates": [
          27.5465109,
          47.2213607
        ]
      },
      "properties": {
        "id": 1735651797,
        "osm_type": "node",
        "name": "Carolina",
        "tourism": "guest_house"
      }
    },
    {
      "type": "Feature",
      "geometry": {
        "type": "Point",
        "coordinates": [
          27.7037437,
          47.1192472
        ]
      },
      "properties": {
        "id": 1792237556,
        "osm_type": "node",
        "name": "Acasa - centru rezidential",
        "tourism": "guest_house"
      }
    },
    {
      "type": "Feature",
      "geometry": {
        "type": "Point",
        "coordinates": [
          27.7039637,
          47.1189515
        ]
      },
      "properties": {
        "id": 1792237558,
        "osm_type": "node",
        "name": "Pensiunea Rodeo",
        "tourism": "guest_house"
      }
    },
    {
      "type": "Feature",
      "geometry": {
        "type": "Point",
        "coordinates": [
          27.6556779,
          47.0856699
        ]
      },
      "properties": {
        "id": 1805428787,
        "osm_type": "node",
        "name": "Cabana Bucium",
        "tourism": "chalet"
      }
    },
    {
      "type": "Feature",
      "geometry": {
        "type": "Point",
        "coordinates": [
          27.6990054,
          47.1302163
        ]
      },
      "properties": {
        "id": 1932523736,
        "osm_type": "node",
        "name": "Pensiunea Kojiro",
        "tourism": "guest_house"
      }
    },
    {
      "type": "Feature",
      "geometry": {
        "type": "Point",
        "coordinates": [
          27.6077099,
          47.1794536
        ]
      },
      "properties": {
        "id": 1952471228,
        "osm_type": "node",
        "name": "Vila Oana",
        "tourism": "guest_house"
      }
    },
    {
      "type": "Feature",
      "geometry": {
        "type": "Point",
        "coordinates": [
          27.6372796,
          47.1174408
        ]
      },
      "properties": {
        "id": 1962310565,
        "osm_type": "node",
        "name": "ForHeaven",
        "tourism": "guest_house"
      }
    },
    {
      "type": "Feature",
      "geometry": {
        "type": "Point",
        "coordinates": [
          26.9016562,
          47.4453618
        ]
      },
      "properties": {
        "id": 1965206963,
        "osm_type": "node",
        "name": "Polizu Manor",
        "tourism": "guest_house"
      }
    },
    {
      "type": "Feature",
      "geometry": {
        "type": "Point",
        "coordinates": [
          27.6030367,
          47.1643702
        ]
      },
      "properties": {
        "id": 2130444409,
        "osm_type": "node",
        "name": "Pensiunea Johnny House",
        "tourism": "guest_house"
      }
    },
    {
      "type": "Feature",
      "geometry": {
        "type": "Point",
        "coordinates": [
          27.6010735,
          47.1595501
        ]
      },
      "properties": {
        "id": 2136290233,
        "osm_type": "node",
        "name": "Hotel Dorobanți",
        "tourism": "hotel"
      }
    },
    {
      "type": "Feature",
      "geometry": {
        "type": "Point",
        "coordinates": [
          27.6335011,
          47.111948
        ]
      },
      "properties": {
        "id": 2159864234,
        "osm_type": "node",
        "name": "La Cabană",
        "tourism": "guest_house"
      }
    },
    {
      "type": "Feature",
      "geometry": {
        "type": "Point",
        "coordinates": [
          26.5591876,
          47.2535372
        ]
      },
      "properties": {
        "id": 2272583285,
        "osm_type": "node",
        "name": "Cristești p",
        "tourism": "guest_house"
      }
    },
    {
      "type": "Feature",
      "geometry": {
        "type": "Point",
        "coordinates": [
          27.6104467,
          47.1332417
        ]
      },
      "properties": {
        "id": 2293300832,
        "osm_type": "node",
        "name": "Rosemont p***",
        "tourism": "guest_house"
      }
    },
    {
      "type": "Feature",
      "geometry": {
        "type": "Point",
        "coordinates": [
          27.6042656,
          47.1373227
        ]
      },
      "properties": {
        "id": 2868263770,
        "osm_type": "node",
        "name": "Compania Unic",
        "tourism": "hostel"
      }
    },
    {
      "type": "Feature",
      "geometry": {
        "type": "Point",
        "coordinates": [
          27.7567377,
          47.1036879
        ]
      },
      "properties": {
        "id": 3869455842,
        "osm_type": "node",
        "name": "Pensiunea Casa Bella",
        "tourism": "hotel",
        "website": "https://www.pensiunea-bella.ro/"
      }
    },
    {
      "type": "Feature",
      "geometry": {
        "type": "Point",
        "coordinates": [
          27.5760465,
          47.1769631
        ]
      },
      "properties": {
        "id": 4009444625,
        "osm_type": "node",
        "name": "Stup Hostel",
        "tourism": "hostel"
      }
    },
    {
      "type": "Feature",
      "geometry": {
        "type": "Point",
        "coordinates": [
          26.7273764,
          47.3142532
        ]
      },
      "properties": {
        "id": 4233631193,
        "osm_type": "node",
        "name": "Pensiunea La Bunica",
        "tourism": "guest_house",
        "opening_hours": "Mo-Su 10:00-22:00",
        "phone": "07232715518"
      }
    },
    {
      "type": "Feature",
      "geometry": {
        "type": "Point",
        "coordinates": [
          27.6496364,
          47.1356077
        ]
      },
      "properties": {
        "id": 4233631194,
        "osm_type": "node",
        "name": "Pensiunea La Bunica 2",
        "tourism": "hostel",
        "phone": "0741618868"
      }
    },
    {
      "type": "Feature",
      "geometry": {
        "type": "Point",
        "coordinates": [
          27.6554505,
          47.0674027
        ]
      },
      "properties": {
        "id": 4334111992,
        "osm_type": "node",
        "name": "Nashpa's Crib",
        "tourism": "chalet"
      }
    },
    {
      "type": "Feature",
      "geometry": {
        "type": "Point",
        "coordinates": [
          27.0245783,
          47.211976
        ]
      },
      "properties": {
        "id": 4537582713,
        "osm_type": "node",
        "name": "Pensiunea Claudio",
        "tourism": "guest_house"
      }
    },
    {
      "type": "Feature",
      "geometry": {
        "type": "Point",
        "coordinates": [
          27.2276778,
          47.2184661
        ]
      },
      "properties": {
        "id": 4537582714,
        "osm_type": "node",
        "name": "Pensiunea Tyf",
        "tourism": "guest_house",
        "website": "https://www.turistinfo.ro/budai/cazare-budai/pensiunea_tyf-c72394.html"
      }
    },
    {
      "type": "Feature",
      "geometry": {
        "type": "Point",
        "coordinates": [
          27.2857754,
          47.2143922
        ]
      },
      "properties": {
        "id": 4537582715,
        "osm_type": "node",
        "name": "Casa Shelby",
        "tourism": "guest_house"
      }
    },
    {
      "type": "Feature",
      "geometry": {
        "type": "Point",
        "coordinates": [
          27.7208288,
          47.1159684
        ]
      },
      "properties": {
        "id": 4537582716,
        "osm_type": "node",
        "name": "Pensiunea Casa Lena",
        "tourism": "guest_house",
        "phone": "0741378234"
      }
    },
    {
      "type": "Feature",
      "geometry": {
        "type": "Point",
        "coordinates": [
          27.6161816,
          47.1281678
        ]
      },
      "properties": {
        "id": 5237476221,
        "osm_type": "node",
        "name": "Gold Residence",
        "tourism": "apartment"
      }
    },
    {
      "type": "Feature",
      "geometry": {
        "type": "Point",
        "coordinates": [
          27.6028007,
          47.12019
        ]
      },
      "properties": {
        "id": 5296033921,
        "osm_type": "node",
        "name": "vg10",
        "tourism": "apartment"
      }
    },
    {
      "type": "Feature",
      "geometry": {
        "type": "Point",
        "coordinates": [
          27.6030092,
          47.1203197
        ]
      },
      "properties": {
        "id": 5299944821,
        "osm_type": "node",
        "name": "Vg10",
        "tourism": "apartment"
      }
    },
    {
      "type": "Feature",
      "geometry": {
        "type": "Point",
        "coordinates": [
          27.603052,
          47.1200688
        ]
      },
      "properties": {
        "id": 5299945021,
        "osm_type": "node",
        "name": "Vg8",
        "tourism": "apartment"
      }
    },
    {
      "type": "Feature",
      "geometry": {
        "type": "Point",
        "coordinates": [
          27.5105701,
          47.1775624
        ]
      },
      "properties": {
        "id": 5448904322,
        "osm_type": "node",
        "name": "Apartamentul nr 1 Valea Lupului",
        "tourism": "apartment"
      }
    },
    {
      "type": "Feature",
      "geometry": {
        "type": "Point",
        "coordinates": [
          27.6598098,
          47.1535915
        ]
      },
      "properties": {
        "id": 5469430823,
        "osm_type": "node",
        "name": "Str. Daliei, Nr.18",
        "tourism": "apartment"
      }
    },
    {
      "type": "Feature",
      "geometry": {
        "type": "Point",
        "coordinates": [
          27.6562733,
          47.1536329
        ]
      },
      "properties": {
        "id": 5469430824,
        "osm_type": "node",
        "name": "Bloc A11, Scara C",
        "tourism": "apartment"
      }
    },
    {
      "type": "Feature",
      "geometry": {
        "type": "Point",
        "coordinates": [
          27.5658999,
          47.1871687
        ]
      },
      "properties": {
        "id": 5470691521,
        "osm_type": "node",
        "name": "A18",
        "tourism": "apartment"
      }
    },
    {
      "type": "Feature",
      "geometry": {
        "type": "Point",
        "coordinates": [
          27.5573396,
          47.1676969
        ]
      },
      "properties": {
        "id": 5572443022,
        "osm_type": "node",
        "name": "D1-3",
        "tourism": "apartment"
      }
    },
    {
      "type": "Feature",
      "geometry": {
        "type": "Point",
        "coordinates": [
          27.5562232,
          47.1669857
        ]
      },
      "properties": {
        "id": 5572453721,
        "osm_type": "node",
        "name": "D1-1",
        "tourism": "apartment"
      }
    },
    {
      "type": "Feature",
      "geometry": {
        "type": "Point",
        "coordinates": [
          27.5569167,
          47.1671512
        ]
      },
      "properties": {
        "id": 5572453821,
        "osm_type": "node",
        "name": "D1-2",
        "tourism": "apartment"
      }
    },
    {
      "type": "Feature",
      "geometry": {
        "type": "Point",
        "coordinates": [
          27.5492326,
          47.106139
        ]
      },
      "properties": {
        "id": 5572780722,
        "osm_type": "node",
        "name": "Armas",
        "tourism": "apartment"
      }
    },
    {
      "type": "Feature",
      "geometry": {
        "type": "Point",
        "coordinates": [
          26.8878615,
          47.4377603
        ]
      },
      "properties": {
        "id": 5614925341,
        "osm_type": "node",
        "name": "Conac Polizu",
        "tourism": "hotel"
      }
    },
    {
      "type": "Feature",
      "geometry": {
        "type": "Point",
        "coordinates": [
          27.5300983,
          47.1776496
        ]
      },
      "properties": {
        "id": 5950973685,
        "osm_type": "node",
        "name": "Bloc G1 G2 G3",
        "tourism": "apartment"
      }
    },
    {
      "type": "Feature",
      "geometry": {
        "type": "Point",
        "coordinates": [
          27.6032272,
          47.1200604
        ]
      },
      "properties": {
        "id": 6173379385,
        "osm_type": "node",
        "name": "VG 9",
        "tourism": "apartment"
      }
    },
    {
      "type": "Feature",
      "geometry": {
        "type": "Point",
        "coordinates": [
          26.6114509,
          47.2652739
        ]
      },
      "properties": {
        "id": 6413599716,
        "osm_type": "node",
        "name": "Pensiunea Cabana Vânătorescă",
        "tourism": "motel",
        "phone": "+40332711095",
        "website": "https://www.facebook.com/Pensiune-Cabana-Vanatoreasca-165649857103031/"
      }
    },
    {
      "type": "Feature",
      "geometry": {
        "type": "Point",
        "coordinates": [
          26.7383169,
          47.2903697
        ]
      },
      "properties": {
        "id": 6508967769,
        "osm_type": "node",
        "tourism": "guest_house"
      }
    },
    {
      "type": "Feature",
      "geometry": {
        "type": "Point",
        "coordinates": [
          26.6932218,
          47.2419904
        ]
      },
      "properties": {
        "id": 6750563521,
        "osm_type": "node",
        "name": "Royal Castle",
        "tourism": "hotel"
      }
    },
    {
      "type": "Feature",
      "geometry": {
        "type": "Point",
        "coordinates": [
          27.5994408,
          47.1456751
        ]
      },
      "properties": {
        "id": 7119313185,
        "osm_type": "node",
        "name": "Teleconstruc",
        "tourism": "camp_site"
      }
    },
    {
      "type": "Feature",
      "geometry": {
        "type": "Point",
        "coordinates": [
          27.5458389,
          47.1764794
        ]
      },
      "properties": {
        "id": 7168738285,
        "osm_type": "node",
        "name": "Violet2",
        "tourism": "apartment"
      }
    },
    {
      "type": "Feature",
      "geometry": {
        "type": "Point",
        "coordinates": [
          27.5871565,
          47.1244026
        ]
      },
      "properties": {
        "id": 7171268085,
        "osm_type": "node",
        "name": "Evolete",
        "tourism": "apartment"
      }
    },
    {
      "type": "Feature",
      "geometry": {
        "type": "Point",
        "coordinates": [
          27.5662446,
          47.1863294
        ]
      },
      "properties": {
        "id": 7263680285,
        "osm_type": "node",
        "name": "A13",
        "tourism": "apartment"
      }
    },
    {
      "type": "Feature",
      "geometry": {
        "type": "Point",
        "coordinates": [
          27.6021104,
          46.9912608
        ]
      },
      "properties": {
        "id": 7658903886,
        "osm_type": "node",
        "name": "Poiana cu cetate",
        "tourism": "guest_house"
      }
    },
    {
      "type": "Feature",
      "geometry": {
        "type": "Point",
        "coordinates": [
          27.5525612,
          47.1255849
        ]
      },
      "properties": {
        "id": 7868150185,
        "osm_type": "node",
        "tourism": "apartment"
      }
    },
    {
      "type": "Feature",
      "geometry": {
        "type": "Point",
        "coordinates": [
          27.6052305,
          47.1292977
        ]
      },
      "properties": {
        "id": 8520069117,
        "osm_type": "node",
        "tourism": "apartment"
      }
    },
    {
      "type": "Feature",
      "geometry": {
        "type": "Point",
        "coordinates": [
          27.6045831,
          47.1446593
        ]
      },
      "properties": {
        "id": 8524359017,
        "osm_type": "node",
        "tourism": "apartment"
      }
    },
    {
      "type": "Feature",
      "geometry": {
        "type": "Point",
        "coordinates": [
          27.6166162,
          47.1280264
        ]
      },
      "properties": {
        "id": 8532705117,
        "osm_type": "node",
        "tourism": "apartment"
      }
    },
    {
      "type": "Feature",
      "geometry": {
        "type": "Point",
        "coordinates": [
          27.5941166,
          47.1453481
        ]
      },
      "properties": {
        "id": 8535587917,
        "osm_type": "node",
        "tourism": "apartment"
      }
    },
    {
      "type": "Feature",
      "geometry": {
        "type": "Point",
        "coordinates": [
          27.6480053,
          47.1040948
        ]
      },
      "properties": {
        "id": 8578360719,
        "osm_type": "node",
        "tourism": "apartment"
      }
    },
    {
      "type": "Feature",
      "geometry": {
        "type": "Point",
        "coordinates": [
          27.6285111,
          47.1194574
        ]
      },
      "properties": {
        "id": 8579283517,
        "osm_type": "node",
        "tourism": "apartment"
      }
    },
    {
      "type": "Feature",
      "geometry": {
        "type": "Point",
        "coordinates": [
          27.5912087,
          47.1734319
        ]
      },
      "properties": {
        "id": 8723719417,
        "osm_type": "node",
        "tourism": "apartment"
      }
    },
    {
      "type": "Feature",
      "geometry": {
        "type": "Point",
        "coordinates": [
          27.568934,
          47.1665734
        ]
      },
      "properties": {
        "id": 8790566317,
        "osm_type": "node",
        "name": "Bloc L 7",
        "tourism": "apartment"
      }
    },
    {
      "type": "Feature",
      "geometry": {
        "type": "Point",
        "coordinates": [
          26.6929833,
          47.2419699
        ]
      },
      "properties": {
        "id": 10120619621,
        "osm_type": "node",
        "tourism": "guest_house"
      }
    },
    {
      "type": "Feature",
      "geometry": {
        "type": "Point",
        "coordinates": [
          27.6058578,
          47.1308087
        ]
      },
      "properties": {
        "id": 10659907105,
        "osm_type": "node",
        "name": "11cx",
        "tourism": "apartment"
      }
    },
    {
      "type": "Feature",
      "geometry": {
        "type": "Point",
        "coordinates": [
          27.5294633,
          47.1844103
        ]
      },
      "properties": {
        "id": 10659907205,
        "osm_type": "node",
        "name": "32n",
        "tourism": "apartment"
      }
    },
    {
      "type": "Feature",
      "geometry": {
        "type": "Point",
        "coordinates": [
          27.5944329,
          47.1315436
        ]
      },
      "properties": {
        "id": 10760038605,
        "osm_type": "node",
        "tourism": "apartment"
      }
    },
    {
      "type": "Feature",
      "geometry": {
        "type": "Point",
        "coordinates": [
          27.5943688,
          47.1314009
        ]
      },
      "properties": {
        "id": 10760038705,
        "osm_type": "node",
        "tourism": "apartment"
      }
    },
    {
      "type": "Feature",
      "geometry": {
        "type": "Point",
        "coordinates": [
          27.5955451,
          47.1361895
        ]
      },
      "properties": {
        "id": 10760038805,
        "osm_type": "node",
        "tourism": "apartment"
      }
    },
    {
      "type": "Feature",
      "geometry": {
        "type": "Point",
        "coordinates": [
          27.5440014,
          47.1778791
        ]
      },
      "properties": {
        "id": 11079034405,
        "osm_type": "node",
        "tourism": "apartment"
      }
    },
    {
      "type": "Feature",
      "geometry": {
        "type": "Point",
        "coordinates": [
          27.5446975,
          47.1449184
        ]
      },
      "properties": {
        "id": 11091329205,
        "osm_type": "node",
        "tourism": "apartment"
      }
    },
    {
      "type": "Feature",
      "geometry": {
        "type": "Point",
        "coordinates": [
          27.5838789,
          47.1720954
        ]
      },
      "properties": {
        "id": 11181749337,
        "osm_type": "node",
        "tourism": "apartment"
      }
    },
    {
      "type": "Feature",
      "geometry": {
        "type": "Point",
        "coordinates": [
          27.6046725,
          47.10372
        ]
      },
      "properties": {
        "id": 11837260559,
        "osm_type": "node",
        "name": "Pensiunea VisAventura",
        "tourism": "guest_house",
        "phone": "+40744474235"
      }
    },
    {
      "type": "Feature",
      "geometry": {
        "type": "Point",
        "coordinates": [
          27.3705798,
          47.3544382
        ]
      },
      "properties": {
        "id": 11898363158,
        "osm_type": "node",
        "tourism": "hotel"
      }
    },
    {
      "type": "Feature",
      "geometry": {
        "type": "Point",
        "coordinates": [
          27.5689741,
          47.1697179
        ]
      },
      "properties": {
        "id": 12039046988,
        "osm_type": "node",
        "name": "Hotel Arnia",
        "tourism": "hotel",
        "opening_hours": "24/7",
        "website": "https://www.hotelarnia.ro/",
        "check_date": "2024-07-07"
      }
    },
    {
      "type": "Feature",
      "geometry": {
        "type": "Point",
        "coordinates": [
          27.5758251,
          47.1654981
        ]
      },
      "properties": {
        "id": 12328165002,
        "osm_type": "node",
        "tourism": "hotel",
        "opening_hours": "24/7"
      }
    },
    {
      "type": "Feature",
      "geometry": {
        "type": "Point",
        "coordinates": [
          27.5757663,
          47.1654571
        ]
      },
      "properties": {
        "id": 12328166001,
        "osm_type": "node",
        "tourism": "hotel"
      }
    },
    {
      "type": "Feature",
      "geometry": {
        "type": "Point",
        "coordinates": [
          27.5757174,
          47.1654388
        ]
      },
      "properties": {
        "id": 12328168501,
        "osm_type": "node",
        "tourism": "hotel",
        "opening_hours": "24/7"
      }
    },
    {
      "type": "Feature",
      "geometry": {
        "type": "Point",
        "coordinates": [
          27.5697113,
          47.1762176
        ]
      },
      "properties": {
        "id": 12712322601,
        "osm_type": "node",
        "name": "Prestige Hotel",
        "tourism": "hotel",
        "phone": "+40 724 502 502"
      }
    },
    {
      "type": "Feature",
      "geometry": {
        "type": "Point",
        "coordinates": [
          27.4882568,
          47.1393477
        ]
      },
      "properties": {
        "id": 13172598339,
        "osm_type": "node",
        "name": "casă de vacanță de închiriat",
        "tourism": "guest_house"
      }
    },
    {
      "type": "Feature",
      "geometry": {
        "type": "Point",
        "coordinates": [
          27.5697019,
          47.1763915
        ]
      },
      "properties": {
        "id": 13205136301,
        "osm_type": "node",
        "name": "Hotel Prestige",
        "tourism": "hotel"
      }
    },
    {
      "type": "Feature",
      "geometry": {
        "type": "Point",
        "coordinates": [
          27.592111,
          47.1342684
        ]
      },
      "properties": {
        "id": 13355028501,
        "osm_type": "node",
        "tourism": "apartment",
        "opening_hours": "24/7"
      }
    },
    {
      "type": "Feature",
      "geometry": {
        "type": "Point",
        "coordinates": [
          27.5696873,
          47.1762972
        ]
      },
      "properties": {
        "id": 13705804001,
        "osm_type": "node",
        "name": "Prestige Hotel",
        "tourism": "hotel"
      }
    },
    {
      "type": "Feature",
      "geometry": {
        "type": "Point",
        "coordinates": [
          27.5792648,
          47.1662549
        ]
      },
      "properties": {
        "id": 40286950,
        "osm_type": "way",
        "name": "Grand Hotel Traian",
        "tourism": "hotel",
        "phone": "+40-232-266.666",
        "website": "http://www.grandhoteltraian.ro/"
      }
    },
    {
      "type": "Feature",
      "geometry": {
        "type": "Point",
        "coordinates": [
          27.6031255,
          47.1577652
        ]
      },
      "properties": {
        "id": 43061937,
        "osm_type": "way",
        "name": "Hotel Ceramica",
        "tourism": "hotel",
        "website": "https://hotelceramicaiasi.ro/"
      }
    },
    {
      "type": "Feature",
      "geometry": {
        "type": "Point",
        "coordinates": [
          27.6067977,
          47.1571925
        ]
      },
      "properties": {
        "id": 43483543,
        "osm_type": "way",
        "name": "Hotel T23",
        "tourism": "hotel",
        "website": "https://www.hotelt23.ro/"
      }
    },
    {
      "type": "Feature",
      "geometry": {
        "type": "Point",
        "coordinates": [
          27.5969782,
          47.1590923
        ]
      },
      "properties": {
        "id": 46096435,
        "osm_type": "way",
        "name": "Studis 1",
        "tourism": "hostel",
        "website": "https://www.studishotels.ro/studis-1/"
      }
    },
    {
      "type": "Feature",
      "geometry": {
        "type": "Point",
        "coordinates": [
          27.5855995,
          47.1456857
        ]
      },
      "properties": {
        "id": 48594022,
        "osm_type": "way",
        "name": "Hotel Victoria",
        "tourism": "hotel",
        "website": "https://hotelvictoriaiasi.ro/"
      }
    },
    {
      "type": "Feature",
      "geometry": {
        "type": "Point",
        "coordinates": [
          27.618553,
          47.1530592
        ]
      },
      "properties": {
        "id": 60174034,
        "osm_type": "way",
        "name": "Pensiunea Ando",
        "tourism": "guest_house"
      }
    },
    {
      "type": "Feature",
      "geometry": {
        "type": "Point",
        "coordinates": [
          27.6130577,
          47.1554669
        ]
      },
      "properties": {
        "id": 61740063,
        "osm_type": "way",
        "name": "Pensiunea Marcello",
        "tourism": "guest_house"
      }
    },
    {
      "type": "Feature",
      "geometry": {
        "type": "Point",
        "coordinates": [
          27.6113916,
          47.1542741
        ]
      },
      "properties": {
        "id": 62102722,
        "osm_type": "way",
        "name": "Pensiunea Velvet",
        "tourism": "guest_house"
      }
    },
    {
      "type": "Feature",
      "geometry": {
        "type": "Point",
        "coordinates": [
          27.6040003,
          47.1584797
        ]
      },
      "properties": {
        "id": 71286169,
        "osm_type": "way",
        "name": "Hotel Belleville",
        "tourism": "hotel",
        "website": "https://www.hotelbelleville.ro/"
      }
    },
    {
      "type": "Feature",
      "geometry": {
        "type": "Point",
        "coordinates": [
          27.6478624,
          47.0880901
        ]
      },
      "properties": {
        "id": 85646225,
        "osm_type": "way",
        "name": "camping",
        "tourism": "camp_site"
      }
    },
    {
      "type": "Feature",
      "geometry": {
        "type": "Point",
        "coordinates": [
          27.6198544,
          47.148229
        ]
      },
      "properties": {
        "id": 113751090,
        "osm_type": "way",
        "name": "Sans Rival",
        "tourism": "motel"
      }
    },
    {
      "type": "Feature",
      "geometry": {
        "type": "Point",
        "coordinates": [
          27.6068704,
          47.1530114
        ]
      },
      "properties": {
        "id": 113751109,
        "osm_type": "way",
        "name": "Hotel Zimbru",
        "tourism": "hotel"
      }
    },
    {
      "type": "Feature",
      "geometry": {
        "type": "Point",
        "coordinates": [
          27.5879537,
          47.2307428
        ]
      },
      "properties": {
        "id": 114315521,
        "osm_type": "way",
        "name": "ENPI Dorobanț - CS ENPI Baza Sportivă",
        "tourism": "camp_site"
      }
    },
    {
      "type": "Feature",
      "geometry": {
        "type": "Point",
        "coordinates": [
          27.6048564,
          47.1637475
        ]
      },
      "properties": {
        "id": 116860583,
        "osm_type": "way",
        "name": "Pensiunea Tătărași",
        "tourism": "guest_house"
      }
    },
    {
      "type": "Feature",
      "geometry": {
        "type": "Point",
        "coordinates": [
          27.6010907,
          47.1595103
        ]
      },
      "properties": {
        "id": 116968962,
        "osm_type": "way",
        "name": "Hotel Dorobanți",
        "tourism": "hotel"
      }
    },
    {
      "type": "Feature",
      "geometry": {
        "type": "Point",
        "coordinates": [
          27.5868258,
          47.1547598
        ]
      },
      "properties": {
        "id": 145117597,
        "osm_type": "way",
        "name": "International",
        "tourism": "hotel",
        "phone": "+40332110060",
        "website": "https://www.hotelinternationaliasi.ro/"
      }
    },
    {
      "type": "Feature",
      "geometry": {
        "type": "Point",
        "coordinates": [
          27.5341322,
          47.2099342
        ]
      },
      "properties": {
        "id": 159521658,
        "osm_type": "way",
        "name": "La Castel",
        "tourism": "hotel",
        "phone": "+40 232 225 225, +40 232 225 220",
        "website": "https://www.lacastel.ro/"
      }
    },
    {
      "type": "Feature",
      "geometry": {
        "type": "Point",
        "coordinates": [
          27.5884974,
          47.1537252
        ]
      },
      "properties": {
        "id": 165513947,
        "osm_type": "way",
        "name": "Hotel Sport",
        "tourism": "hotel"
      }
    },
    {
      "type": "Feature",
      "geometry": {
        "type": "Point",
        "coordinates": [
          27.5846061,
          47.1622472
        ]
      },
      "properties": {
        "id": 165811738,
        "osm_type": "way",
        "name": "Casa de oaspeți Sfântul Nicolae",
        "tourism": "hotel"
      }
    },
    {
      "type": "Feature",
      "geometry": {
        "type": "Point",
        "coordinates": [
          27.6862149,
          47.1485312
        ]
      },
      "properties": {
        "id": 184729210,
        "osm_type": "way",
        "name": "Popas Cristian",
        "tourism": "guest_house"
      }
    },
    {
      "type": "Feature",
      "geometry": {
        "type": "Point",
        "coordinates": [
          27.5908845,
          47.1655684
        ]
      },
      "properties": {
        "id": 203993467,
        "osm_type": "way",
        "name": "Hotel Indiana",
        "tourism": "hotel"
      }
    },
    {
      "type": "Feature",
      "geometry": {
        "type": "Point",
        "coordinates": [
          27.0138891,
          47.2115534
        ]
      },
      "properties": {
        "id": 204212586,
        "osm_type": "way",
        "name": "Pelișorul Moldovei",
        "tourism": "hotel"
      }
    },
    {
      "type": "Feature",
      "geometry": {
        "type": "Point",
        "coordinates": [
          27.5798331,
          47.1710671
        ]
      },
      "properties": {
        "id": 207183494,
        "osm_type": "way",
        "name": "Ambiance City",
        "tourism": "hotel"
      }
    },
    {
      "type": "Feature",
      "geometry": {
        "type": "Point",
        "coordinates": [
          27.5775413,
          47.1750409
        ]
      },
      "properties": {
        "id": 207185480,
        "osm_type": "way",
        "name": "Hostel Andrei",
        "tourism": "hostel"
      }
    },
    {
      "type": "Feature",
      "geometry": {
        "type": "Point",
        "coordinates": [
          27.5939024,
          47.1617501
        ]
      },
      "properties": {
        "id": 207232964,
        "osm_type": "way",
        "name": "Hampton by Hilton",
        "tourism": "hotel",
        "phone": "+40-232-242000",
        "website": "https://www.hilton.com/en/hotels/iashxhx-hampton-iasi/"
      }
    },
    {
      "type": "Feature",
      "geometry": {
        "type": "Point",
        "coordinates": [
          27.6335028,
          47.1119494
        ]
      },
      "properties": {
        "id": 209084058,
        "osm_type": "way",
        "name": "La Cabană",
        "tourism": "hotel"
      }
    },
    {
      "type": "Feature",
      "geometry": {
        "type": "Point",
        "coordinates": [
          27.6375563,
          47.1084034
        ]
      },
      "properties": {
        "id": 209263830,
        "osm_type": "way",
        "name": "Casa Boierească",
        "tourism": "hotel"
      }
    },
    {
      "type": "Feature",
      "geometry": {
        "type": "Point",
        "coordinates": [
          27.581783,
          47.1650413
        ]
      },
      "properties": {
        "id": 210853973,
        "osm_type": "way",
        "tourism": "hotel"
      }
    },
    {
      "type": "Feature",
      "geometry": {
        "type": "Point",
        "coordinates": [
          27.5335653,
          47.1726249
        ]
      },
      "properties": {
        "id": 213201639,
        "osm_type": "way",
        "name": "Vila Ilarion",
        "tourism": "hostel"
      }
    },
    {
      "type": "Feature",
      "geometry": {
        "type": "Point",
        "coordinates": [
          27.5740735,
          47.1620775
        ]
      },
      "properties": {
        "id": 213930444,
        "osm_type": "way",
        "name": "Bicycle Hostel",
        "tourism": "hostel"
      }
    },
    {
      "type": "Feature",
      "geometry": {
        "type": "Point",
        "coordinates": [
          27.558676,
          47.1133859
        ]
      },
      "properties": {
        "id": 243628470,
        "osm_type": "way",
        "name": "Hotel Capitol",
        "tourism": "hotel"
      }
    },
    {
      "type": "Feature",
      "geometry": {
        "type": "Point",
        "coordinates": [
          27.469057,
          47.1829654
        ]
      },
      "properties": {
        "id": 278903968,
        "osm_type": "way",
        "name": "Coral ***",
        "tourism": "hotel"
      }
    },
    {
      "type": "Feature",
      "geometry": {
        "type": "Point",
        "coordinates": [
          27.5792092,
          47.166597
        ]
      },
      "properties": {
        "id": 294925274,
        "osm_type": "way",
        "name": "Hotel Astoria",
        "tourism": "hotel",
        "phone": "+40.232.233.888",
        "website": "https://www.hotelastoria.ro/"
      }
    },
    {
      "type": "Feature",
      "geometry": {
        "type": "Point",
        "coordinates": [
          27.5868858,
          47.2040113
        ]
      },
      "properties": {
        "id": 396893687,
        "osm_type": "way",
        "name": "Pensiunea Grădina Verde",
        "tourism": "guest_house",
        "website": "http://pensiuneagradinaverde.ro/"
      }
    },
    {
      "type": "Feature",
      "geometry": {
        "type": "Point",
        "coordinates": [
          27.5791415,
          47.156581
        ]
      },
      "properties": {
        "id": 421726262,
        "osm_type": "way",
        "name": "Casa Mărguța",
        "tourism": "guest_house",
        "phone": "+40747651859",
        "website": "https://casamarguta.ro/"
      }
    },
    {
      "type": "Feature",
      "geometry": {
        "type": "Point",
        "coordinates": [
          26.6932204,
          47.2420576
        ]
      },
      "properties": {
        "id": 460615630,
        "osm_type": "way",
        "name": "Royal Castle Pascani",
        "tourism": "hotel"
      }
    },
    {
      "type": "Feature",
      "geometry": {
        "type": "Point",
        "coordinates": [
          26.5611959,
          47.252855
        ]
      },
      "properties": {
        "id": 460615632,
        "osm_type": "way",
        "name": "Pensiunea Cristești",
        "tourism": "guest_house"
      }
    },
    {
      "type": "Feature",
      "geometry": {
        "type": "Point",
        "coordinates": [
          27.5967438,
          47.1649745
        ]
      },
      "properties": {
        "id": 550945428,
        "osm_type": "way",
        "name": "Metropolitan Iassium Luxury Suites",
        "tourism": "apartment",
        "phone": "+40748770000",
        "website": "https://iassium.ro/apartment-hotel-iasi-center/?lang=en"
      }
    },
    {
      "type": "Feature",
      "geometry": {
        "type": "Point",
        "coordinates": [
          27.5697377,
          47.1762188
        ]
      },
      "properties": {
        "id": 598992853,
        "osm_type": "way",
        "name": "Apartment Hotel Prestige",
        "tourism": "hotel",
        "check_date": "2024-11-06"
      }
    },
    {
      "type": "Feature",
      "geometry": {
        "type": "Point",
        "coordinates": [
          27.9420439,
          46.9582063
        ]
      },
      "properties": {
        "id": 654313172,
        "osm_type": "way",
        "name": "Romava",
        "tourism": "motel"
      }
    },
    {
      "type": "Feature",
      "geometry": {
        "type": "Point",
        "coordinates": [
          26.7206238,
          47.2501197
        ]
      },
      "properties": {
        "id": 665281784,
        "osm_type": "way",
        "name": "Hotel Central",
        "tourism": "hotel"
      }
    },
    {
      "type": "Feature",
      "geometry": {
        "type": "Point",
        "coordinates": [
          26.623827,
          47.254528
        ]
      },
      "properties": {
        "id": 684535188,
        "osm_type": "way",
        "name": "Cabana Codrii Pașcanilor",
        "tourism": "hotel",
        "phone": "+40232765670"
      }
    },
    {
      "type": "Feature",
      "geometry": {
        "type": "Point",
        "coordinates": [
          26.6423246,
          47.2461826
        ]
      },
      "properties": {
        "id": 684543898,
        "osm_type": "way",
        "name": "Pensiunea Markos",
        "tourism": "hotel"
      }
    },
    {
      "type": "Feature",
      "geometry": {
        "type": "Point",
        "coordinates": [
          27.5810909,
          47.1651681
        ]
      },
      "properties": {
        "id": 745150695,
        "osm_type": "way",
        "name": "Select Hotel",
        "tourism": "hotel"
      }
    },
    {
      "type": "Feature",
      "geometry": {
        "type": "Point",
        "coordinates": [
          27.5940251,
          47.1619016
        ]
      },
      "properties": {
        "id": 836346310,
        "osm_type": "way",
        "name": "Hampton by Hilton Iasi - B",
        "tourism": "hotel"
      }
    },
    {
      "type": "Feature",
      "geometry": {
        "type": "Point",
        "coordinates": [
          27.5524432,
          47.1221068
        ]
      },
      "properties": {
        "id": 1065812877,
        "osm_type": "way",
        "name": "Helen House",
        "tourism": "guest_house"
      }
    },
    {
      "type": "Feature",
      "geometry": {
        "type": "Point",
        "coordinates": [
          27.5341603,
          47.2027608
        ]
      },
      "properties": {
        "id": 1076773871,
        "osm_type": "way",
        "name": "Grand View Hotel & Suites",
        "tourism": "hotel"
      }
    },
    {
      "type": "Feature",
      "geometry": {
        "type": "Point",
        "coordinates": [
          27.5890316,
          47.1590201
        ]
      },
      "properties": {
        "id": 1104929924,
        "osm_type": "way",
        "name": "Ramada",
        "tourism": "hotel"
      }
    },
    {
      "type": "Feature",
      "geometry": {
        "type": "Point",
        "coordinates": [
          27.3835226,
          47.2027343
        ]
      },
      "properties": {
        "id": 1105537346,
        "osm_type": "way",
        "name": "Popasul Măriei",
        "tourism": "guest_house"
      }
    },
    {
      "type": "Feature",
      "geometry": {
        "type": "Point",
        "coordinates": [
          27.3839184,
          47.2026123
        ]
      },
      "properties": {
        "id": 1105537347,
        "osm_type": "way",
        "name": "Valea Ilenei",
        "tourism": "guest_house"
      }
    },
    {
      "type": "Feature",
      "geometry": {
        "type": "Point",
        "coordinates": [
          27.5995963,
          47.1581364
        ]
      },
      "properties": {
        "id": 1155079059,
        "osm_type": "way",
        "name": "Studis 2",
        "tourism": "hostel"
      }
    },
    {
      "type": "Feature",
      "geometry": {
        "type": "Point",
        "coordinates": [
          27.6158829,
          47.1605836
        ]
      },
      "properties": {
        "id": 1220214607,
        "osm_type": "way",
        "name": "Hotel IRO ***",
        "tourism": "hotel"
      }
    },
    {
      "type": "Feature",
      "geometry": {
        "type": "Point",
        "coordinates": [
          26.7465308,
          47.1335703
        ]
      },
      "properties": {
        "id": 1368032816,
        "osm_type": "way",
        "name": "Tabara Muncelu de Sus",
        "tourism": "camp_site"
      }
    },
    {
      "type": "Feature",
      "geometry": {
        "type": "Point",
        "coordinates": [
          27.4886664,
          47.1776566
        ]
      },
      "properties": {
        "id": 1455448087,
        "osm_type": "way",
        "name": "Pensiunea Iriss",
        "tourism": "guest_house"
      }
    },
    {
      "type": "Feature",
      "geometry": {
        "type": "Point",
        "coordinates": [
          27.5939232,
          47.1618018
        ]
      },
      "properties": {
        "id": 11495799,
        "osm_type": "relation",
        "name": "Hampton by Hilton Iași",
        "tourism": "hotel"
      }
    }
  ]
}