{
  "type": "FeatureCollection",
  "features": [
    {
      "type": "Feature",
      "geometry": {
        "type": "Point",
        "coordinates": [
          43.3312365,
          40.8470567
        ]
      },
      "properties": {
        "id": 2969862615,
        "osm_type": "node",
        "name": "Öğretmen Evi",
        "tourism": "hotel"
      }
    },
    {
      "type": "Feature",
      "geometry": {
        "type": "Point",
        "coordinates": [
          43.0973062,
          40.6074708
        ]
      },
      "properties": {
        "id": 3002582533,
        "osm_type": "node",
        "name": "Hotel Kent Ani",
        "tourism": "hotel"
      }
    },
    {
      "type": "Feature",
      "geometry": {
        "type": "Point",
        "coordinates": [
          43.0896723,
          40.6031977
        ]
      },
      "properties": {
        "id": 4185157939,
        "osm_type": "node",
        "name": "Sim-Er",
        "tourism": "hotel",
        "website": "http://simerhotels.com/"
      }
    },
    {
      "type": "Feature",
      "geometry": {
        "type": "Point",
        "coordinates": [
          43.0976186,
          40.6058517
        ]
      },
      "properties": {
        "id": 4415951790,
        "osm_type": "node",
        "name": "Biz Motel",
        "tourism": "hotel",
        "opening_hours": "24/7"
      }
    },
    {
      "type": "Feature",
      "geometry": {
        "type": "Point",
        "coordinates": [
          43.0975777,
          40.6058171
        ]
      },
      "properties": {
        "id": 6073912885,
        "osm_type": "node",
        "tourism": "hotel"
      }
    },
    {
      "type": "Feature",
      "geometry": {
        "type": "Point",
        "coordinates": [
          43.0954543,
          40.6016638
        ]
      },
      "properties": {
        "id": 6389278185,
        "osm_type": "node",
        "name": "Kars Öğretmenevi",
        "tourism": "hostel",
        "phone": "+90 474 212 00 49",
        "website": "https://karsogretmenevi.com.tr/"
      }
    },
    {
      "type": "Feature",
      "geometry": {
        "type": "Point",
        "coordinates": [
          43.0964971,
          40.6050555
        ]
      },
      "properties": {
        "id": 6759138685,
        "osm_type": "node",
        "name": "İpekyolu Oteli",
        "tourism": "hotel",
        "phone": "+90 474 223 73 73"
      }
    },
    {
      "type": "Feature",
      "geometry": {
        "type": "Point",
        "coordinates": [
          43.0944802,
          40.6080851
        ]
      },
      "properties": {
        "id": 6796721687,
        "osm_type": "node",
        "name": "Otel Asya",
        "tourism": "hotel"
      }
    },
    {
      "type": "Feature",
      "geometry": {
        "type": "Point",
        "coordinates": [
          43.0967313,
          40.6048871
        ]
      },
      "properties": {
        "id": 6818249286,
        "osm_type": "node",
        "name": "Karabag",
        "tourism": "hotel"
      }
    },
    {
      "type": "Feature",
      "geometry": {
        "type": "Point",
        "coordinates": [
          43.0947361,
          40.6091103
        ]
      },
      "properties": {
        "id": 6818295586,
        "osm_type": "node",
        "name": "Temel",
        "tourism": "hotel"
      }
    },
    {
      "type": "Feature",
      "geometry": {
        "type": "Point",
        "coordinates": [
          43.1046296,
          40.5729157
        ]
      },
      "properties": {
        "id": 9974665262,
        "osm_type": "node",
        "name": "Arifoğlu Airport Hotel",
        "tourism": "hotel",
        "phone": "+905325899491",
        "website": "https://arifogluairporthotel.com/"
      }
    },
    {
      "type": "Feature",
      "geometry": {
        "type": "Point",
        "coordinates": [
          43.0985511,
          40.6067353
        ]
      },
      "properties": {
        "id": 9989812118,
        "osm_type": "node",
        "name": "Konak hotel",
        "tourism": "hotel"
      }
    },
    {
      "type": "Feature",
      "geometry": {
        "type": "Point",
        "coordinates": [
          43.0977093,
          40.6057985
        ]
      },
      "properties": {
        "id": 9989812317,
        "osm_type": "node",
        "name": "Konak Hotel 2",
        "tourism": "hotel"
      }
    },
    {
      "type": "Feature",
      "geometry": {
        "type": "Point",
        "coordinates": [
          43.09249,
          40.6065679
        ]
      },
      "properties": {
        "id": 10086445597,
        "osm_type": "node",
        "name": "Mavi Ladin Konukevi",
        "tourism": "guest_house",
        "contact:phone": "+905326162462"
      }
    },
    {
      "type": "Feature",
      "geometry": {
        "type": "Point",
        "coordinates": [
          43.0812507,
          40.5784365
        ]
      },
      "properties": {
        "id": 10134049365,
        "osm_type": "node",
        "name": "KYK Serhat Öğrenci Yurdu",
        "tourism": "hotel"
      }
    },
    {
      "type": "Feature",
      "geometry": {
        "type": "Point",
        "coordinates": [
          43.3028743,
          41.0137403
        ]
      },
      "properties": {
        "id": 10880717006,
        "osm_type": "node",
        "tourism": "camp_site"
      }
    },
    {
      "type": "Feature",
      "geometry": {
        "type": "Point",
        "coordinates": [
          43.3154599,
          41.0192517
        ]
      },
      "properties": {
        "id": 10880717805,
        "osm_type": "node",
        "tourism": "camp_site"
      }
    },
    {
      "type": "Feature",
      "geometry": {
        "type": "Point",
        "coordinates": [
          43.0930376,
          40.6081733
        ]
      },
      "properties": {
        "id": 10993712605,
        "osm_type": "node",
        "tourism": "hotel"
      }
    },
    {
      "type": "Feature",
      "geometry": {
        "type": "Point",
        "coordinates": [
          43.1622263,
          40.6938964
        ]
      },
      "properties": {
        "id": 12863967848,
        "osm_type": "node",
        "name": "Karsa otel",
        "tourism": "hotel"
      }
    },
    {
      "type": "Feature",
      "geometry": {
        "type": "Point",
        "coordinates": [
          42.6154039,
          40.3206143
        ]
      },
      "properties": {
        "id": 152479986,
        "osm_type": "way",
        "name": "Toprak Oteli",
        "tourism": "hotel"
      }
    },
    {
      "type": "Feature",
      "geometry": {
        "type": "Point",
        "coordinates": [
          42.6151508,
          40.3197147
        ]
      },
      "properties": {
        "id": 152480023,
        "osm_type": "way",
        "name": "Çamkar Oteli",
        "tourism": "hotel"
      }
    },
    {
      "type": "Feature",
      "geometry": {
        "type": "Point",
        "coordinates": [
          43.0971735,
          40.602237
        ]
      },
      "properties": {
        "id": 543704799,
        "osm_type": "way",
        "name": "Grand Ani Hotel",
        "tourism": "hotel"
      }
    },
    {
      "type": "Feature",
      "geometry": {
        "type": "Point",
        "coordinates": [
          43.0941539,
          40.6054783
        ]
      },
      "properties": {
        "id": 547635323,
        "osm_type": "way",
        "name": "Işıl Park Hotel",
        "tourism": "hotel",
        "phone": "+90 542 193 24 36"
      }
    },
    {
      "type": "Feature",
      "geometry": {
        "type": "Point",
        "coordinates": [
          43.0928548,
          40.5992414
        ]
      },
      "properties": {
        "id": 669758655,
        "osm_type": "way",
        "name": "Kars Polis Evi",
        "tourism": "guest_house",
        "website": "https://www.polisevi.com/kars-polisevi/"
      }
    },
    {
      "type": "Feature",
      "geometry": {
        "type": "Point",
        "coordinates": [
          43.0897014,
          40.6070261
        ]
      },
      "properties": {
        "id": 671777658,
        "osm_type": "way",
        "name": "Cheltikov Hotel",
        "tourism": "hotel"
      }
    },
    {
      "type": "Feature",
      "geometry": {
        "type": "Point",
        "coordinates": [
          43.0873313,
          40.6138002
        ]
      },
      "properties": {
        "id": 693532301,
        "osm_type": "way",
        "name": "Hotel Katerina Sarayı",
        "tourism": "hotel",
        "opening_hours": "24/7",
        "phone": "+90 474 223 06 36",
        "website": "http://www.katerinasarayi.com/"
      }
    },
    {
      "type": "Feature",
      "geometry": {
        "type": "Point",
        "coordinates": [
          43.0414848,
          40.5781835
        ]
      },
      "properties": {
        "id": 1425926772,
        "osm_type": "way",
        "name": "Konukevi",
        "tourism": "guest_house"
      }
    },
    {
      "type": "Feature",
      "geometry": {
        "type": "Point",
        "coordinates": [
          42.6165242,
          40.3238177
        ]
      },
      "properties": {
        "id": 1459802285,
        "osm_type": "way",
        "name": "DoubleTree by Hilton Kars Sarikamis",
        "tourism": "hotel",
        "phone": "+90 474 502 87 87",
        "website": "https://www.hilton.com/en/hotels/ksyutdi-doubletree-kars-sarikamis/"
      }
    }
  ]
}