{
  "type": "FeatureCollection",
  "features": [
    {
      "type": "Feature",
      "geometry": {
        "type": "Point",
        "coordinates": [
          15.7483202,
          46.1684478
        ]
      },
      "properties": {
        "id": 1355258518,
        "osm_type": "node",
        "name": "Planinarska kuća Kuna gora",
        "tourism": "alpine_hut"
      }
    },
    {
      "type": "Feature",
      "geometry": {
        "type": "Point",
        "coordinates": [
          16.0883558,
          46.1649062
        ]
      },
      "properties": {
        "id": 1509133947,
        "osm_type": "node",
        "name": "Planinarska kuća Majer",
        "tourism": "alpine_hut"
      }
    },
    {
      "type": "Feature",
      "geometry": {
        "type": "Point",
        "coordinates": [
          16.2343458,
          46.1798567
        ]
      },
      "properties": {
        "id": 1511896798,
        "osm_type": "node",
        "name": "Lujčekova hiža",
        "tourism": "alpine_hut"
      }
    },
    {
      "type": "Feature",
      "geometry": {
        "type": "Point",
        "coordinates": [
          16.0176179,
          45.9744827
        ]
      },
      "properties": {
        "id": 1654917745,
        "osm_type": "node",
        "name": "Hotel & restoran Puntar",
        "tourism": "hotel"
      }
    },
    {
      "type": "Feature",
      "geometry": {
        "type": "Point",
        "coordinates": [
          15.9194678,
          46.0901678
        ]
      },
      "properties": {
        "id": 1714660714,
        "osm_type": "node",
        "name": "Guest House Kozjak",
        "tourism": "hostel",
        "website": "https://klet-kozjak.hr/#smjestaj",
        "check_date": "2025-08-16"
      }
    },
    {
      "type": "Feature",
      "geometry": {
        "type": "Point",
        "coordinates": [
          15.6158236,
          46.1502551
        ]
      },
      "properties": {
        "id": 2152330860,
        "osm_type": "node",
        "name": "Seoski turizam Masnec",
        "tourism": "guest_house"
      }
    },
    {
      "type": "Feature",
      "geometry": {
        "type": "Point",
        "coordinates": [
          16.0043252,
          45.9692341
        ]
      },
      "properties": {
        "id": 2878490553,
        "osm_type": "node",
        "name": "Hiže na bregu",
        "tourism": "guest_house"
      }
    },
    {
      "type": "Feature",
      "geometry": {
        "type": "Point",
        "coordinates": [
          16.1194058,
          46.0034861
        ]
      },
      "properties": {
        "id": 2963959009,
        "osm_type": "node",
        "name": "Bluesun Hotel Kaj",
        "tourism": "hotel",
        "phone": "+385 49 326 600",
        "website": "https://www.hotelkaj.hr/"
      }
    },
    {
      "type": "Feature",
      "geometry": {
        "type": "Point",
        "coordinates": [
          15.8820443,
          46.0411826
        ]
      },
      "properties": {
        "id": 4113575890,
        "osm_type": "node",
        "name": "Picelj",
        "tourism": "alpine_hut"
      }
    },
    {
      "type": "Feature",
      "geometry": {
        "type": "Point",
        "coordinates": [
          15.8399874,
          46.1955752
        ]
      },
      "properties": {
        "id": 5147854621,
        "osm_type": "node",
        "name": "Ugostiteljstvo Čuček",
        "tourism": "hotel",
        "opening_hours": "Mo-Sa 06:00-22:00, Su 07:00-22:00",
        "contact:phone": "+385 49 346 651",
        "website": "https://www.ugostiteljstvocucek.hr/"
      }
    },
    {
      "type": "Feature",
      "geometry": {
        "type": "Point",
        "coordinates": [
          15.8387505,
          46.0981828
        ]
      },
      "properties": {
        "id": 7932011603,
        "osm_type": "node",
        "name": "Apartmani Polanščak",
        "tourism": "apartment"
      }
    },
    {
      "type": "Feature",
      "geometry": {
        "type": "Point",
        "coordinates": [
          15.7340433,
          46.0523419
        ]
      },
      "properties": {
        "id": 7984164146,
        "osm_type": "node",
        "name": "Studio apartman Kayersperg",
        "tourism": "apartment",
        "website": "https://kayersperg.com/"
      }
    },
    {
      "type": "Feature",
      "geometry": {
        "type": "Point",
        "coordinates": [
          16.1857729,
          46.0072916
        ]
      },
      "properties": {
        "id": 8399185730,
        "osm_type": "node",
        "name": "Ruralna kuća za odmor Cecilija",
        "tourism": "chalet",
        "opening_hours": "24/7",
        "website": "https://opgsalamonkucazaodmorcecilija.business.site/"
      }
    },
    {
      "type": "Feature",
      "geometry": {
        "type": "Point",
        "coordinates": [
          15.9467525,
          46.019597
        ]
      },
      "properties": {
        "id": 10921969309,
        "osm_type": "node",
        "name": "Indis Garden",
        "tourism": "apartment"
      }
    },
    {
      "type": "Feature",
      "geometry": {
        "type": "Point",
        "coordinates": [
          15.9240861,
          46.0530112
        ]
      },
      "properties": {
        "id": 10921989777,
        "osm_type": "node",
        "name": "Agroturizam Kos",
        "tourism": "apartment",
        "phone": "+38598405032"
      }
    },
    {
      "type": "Feature",
      "geometry": {
        "type": "Point",
        "coordinates": [
          15.9582628,
          46.0605676
        ]
      },
      "properties": {
        "id": 10922316678,
        "osm_type": "node",
        "name": "Greenhills Holiday House",
        "tourism": "apartment"
      }
    },
    {
      "type": "Feature",
      "geometry": {
        "type": "Point",
        "coordinates": [
          15.9388117,
          46.0460545
        ]
      },
      "properties": {
        "id": 10922326953,
        "osm_type": "node",
        "name": "House of the Red Poppy",
        "tourism": "apartment"
      }
    },
    {
      "type": "Feature",
      "geometry": {
        "type": "Point",
        "coordinates": [
          15.9385215,
          46.0507554
        ]
      },
      "properties": {
        "id": 10922334343,
        "osm_type": "node",
        "name": "Villa Botanica",
        "tourism": "apartment"
      }
    },
    {
      "type": "Feature",
      "geometry": {
        "type": "Point",
        "coordinates": [
          15.932245,
          46.0534108
        ]
      },
      "properties": {
        "id": 10923636186,
        "osm_type": "node",
        "name": "Kuća za odmor Mali Dvori",
        "tourism": "apartment"
      }
    },
    {
      "type": "Feature",
      "geometry": {
        "type": "Point",
        "coordinates": [
          15.848934,
          46.1139383
        ]
      },
      "properties": {
        "id": 11293426906,
        "osm_type": "node",
        "name": "Šturmanova klet",
        "tourism": "guest_house"
      }
    },
    {
      "type": "Feature",
      "geometry": {
        "type": "Point",
        "coordinates": [
          15.6807216,
          46.1581535
        ]
      },
      "properties": {
        "id": 11299194344,
        "osm_type": "node",
        "name": "Seoski turizam Trsek",
        "tourism": "guest_house"
      }
    },
    {
      "type": "Feature",
      "geometry": {
        "type": "Point",
        "coordinates": [
          15.9989782,
          46.0756056
        ]
      },
      "properties": {
        "id": 11750208623,
        "osm_type": "node",
        "name": "Kuća za odmor Karlina",
        "tourism": "guest_house"
      }
    },
    {
      "type": "Feature",
      "geometry": {
        "type": "Point",
        "coordinates": [
          15.8397507,
          46.1394901
        ]
      },
      "properties": {
        "id": 11882906243,
        "osm_type": "node",
        "name": "GOLUB",
        "tourism": "chalet"
      }
    },
    {
      "type": "Feature",
      "geometry": {
        "type": "Point",
        "coordinates": [
          16.2101357,
          46.1151782
        ]
      },
      "properties": {
        "id": 12001312643,
        "osm_type": "node",
        "name": "King's Lodge",
        "tourism": "chalet"
      }
    },
    {
      "type": "Feature",
      "geometry": {
        "type": "Point",
        "coordinates": [
          16.2173445,
          46.1074797
        ]
      },
      "properties": {
        "id": 12118725025,
        "osm_type": "node",
        "tourism": "apartment"
      }
    },
    {
      "type": "Feature",
      "geometry": {
        "type": "Point",
        "coordinates": [
          15.8930893,
          46.1622913
        ]
      },
      "properties": {
        "id": 12296537769,
        "osm_type": "node",
        "name": "Kuća Lopatice",
        "tourism": "chalet"
      }
    },
    {
      "type": "Feature",
      "geometry": {
        "type": "Point",
        "coordinates": [
          15.8982213,
          46.1699914
        ]
      },
      "properties": {
        "id": 12658353387,
        "osm_type": "node",
        "name": "Apartmani Cerovečki",
        "tourism": "apartment"
      }
    },
    {
      "type": "Feature",
      "geometry": {
        "type": "Point",
        "coordinates": [
          16.2250848,
          46.1242208
        ]
      },
      "properties": {
        "id": 12899679134,
        "osm_type": "node",
        "name": "Villa Kopjar",
        "tourism": "chalet",
        "website": "https://villa-kopjar.com/en/"
      }
    },
    {
      "type": "Feature",
      "geometry": {
        "type": "Point",
        "coordinates": [
          15.960959,
          46.1797675
        ]
      },
      "properties": {
        "id": 13230018811,
        "osm_type": "node",
        "name": "Smrečkov melin",
        "tourism": "guest_house"
      }
    },
    {
      "type": "Feature",
      "geometry": {
        "type": "Point",
        "coordinates": [
          15.9576286,
          45.9022563
        ]
      },
      "properties": {
        "id": 106365481,
        "osm_type": "way",
        "name": "Apartmanska kuća Snježna Kraljica",
        "tourism": "hotel",
        "phone": "+385 1 4604 555",
        "website": "https://www.sljeme.hr/hoteli/ta-snjezna-kraljica/22"
      }
    },
    {
      "type": "Feature",
      "geometry": {
        "type": "Point",
        "coordinates": [
          15.9387148,
          45.9760705
        ]
      },
      "properties": {
        "id": 146992074,
        "osm_type": "way",
        "name": "Hotel Matija Gubec",
        "tourism": "hotel",
        "website": "https://www.hotelmatijagubec.com/"
      }
    },
    {
      "type": "Feature",
      "geometry": {
        "type": "Point",
        "coordinates": [
          15.9260341,
          46.063125
        ]
      },
      "properties": {
        "id": 179273606,
        "osm_type": "way",
        "name": "Stara škola",
        "tourism": "hotel",
        "phone": "+38549228091",
        "website": "https://www.stara-skola.hr/"
      }
    },
    {
      "type": "Feature",
      "geometry": {
        "type": "Point",
        "coordinates": [
          15.8933395,
          46.1855578
        ]
      },
      "properties": {
        "id": 216952412,
        "osm_type": "way",
        "name": "Planinarska kuća na Strahinjščici",
        "tourism": "alpine_hut"
      }
    },
    {
      "type": "Feature",
      "geometry": {
        "type": "Point",
        "coordinates": [
          15.6797733,
          46.0766955
        ]
      },
      "properties": {
        "id": 218868778,
        "osm_type": "way",
        "name": "Hostel Kumrovec",
        "tourism": "hostel",
        "phone": "+38549553112",
        "website": "http://www.hostel-kumrovec.hr/"
      }
    },
    {
      "type": "Feature",
      "geometry": {
        "type": "Point",
        "coordinates": [
          15.8363486,
          46.0922558
        ]
      },
      "properties": {
        "id": 234321730,
        "osm_type": "way",
        "name": "Villa Magdalena",
        "tourism": "apartment",
        "website": "https://www.villa-magdalena.net/"
      }
    },
    {
      "type": "Feature",
      "geometry": {
        "type": "Point",
        "coordinates": [
          15.835844,
          46.0922893
        ]
      },
      "properties": {
        "id": 234321940,
        "osm_type": "way",
        "name": "Apartmani Toplice",
        "tourism": "guest_house",
        "website": "https://www.apartmani-toplice.com/"
      }
    },
    {
      "type": "Feature",
      "geometry": {
        "type": "Point",
        "coordinates": [
          15.9562464,
          45.9822
        ]
      },
      "properties": {
        "id": 235022806,
        "osm_type": "way",
        "name": "Hotel Terme Jezerčica",
        "tourism": "hotel",
        "phone": "+385 49 200 600",
        "website": "https://www.terme-jezercica.hr/",
        "check_date": "2025-11-19"
      }
    },
    {
      "type": "Feature",
      "geometry": {
        "type": "Point",
        "coordinates": [
          15.8328371,
          46.1776632
        ]
      },
      "properties": {
        "id": 240975471,
        "osm_type": "way",
        "name": "Ačkova hiža",
        "tourism": "alpine_hut",
        "phone": "+385 915041795"
      }
    },
    {
      "type": "Feature",
      "geometry": {
        "type": "Point",
        "coordinates": [
          15.7246623,
          46.0587917
        ]
      },
      "properties": {
        "id": 241239776,
        "osm_type": "way",
        "name": "Planinarska kuća Cesargrad",
        "tourism": "alpine_hut"
      }
    },
    {
      "type": "Feature",
      "geometry": {
        "type": "Point",
        "coordinates": [
          16.1172585,
          46.0030953
        ]
      },
      "properties": {
        "id": 321629674,
        "osm_type": "way",
        "name": "Bluesun Hotel Kaj",
        "tourism": "hotel",
        "phone": "+385 49 326 600",
        "website": "https://www.hotelkaj.hr/"
      }
    },
    {
      "type": "Feature",
      "geometry": {
        "type": "Point",
        "coordinates": [
          15.8802392,
          46.1475855
        ]
      },
      "properties": {
        "id": 430306355,
        "osm_type": "way",
        "name": "Poslon",
        "tourism": "hostel",
        "phone": "+385 912539868",
        "website": "http://www.hostelposlon.com/"
      }
    },
    {
      "type": "Feature",
      "geometry": {
        "type": "Point",
        "coordinates": [
          15.91798,
          45.9922183
        ]
      },
      "properties": {
        "id": 464481397,
        "osm_type": "way",
        "name": "Hotel Zagi ***",
        "tourism": "hotel",
        "phone": "+385 49 284 666, +385 99 2283 919",
        "website": "https://www.zagi.hr/"
      }
    },
    {
      "type": "Feature",
      "geometry": {
        "type": "Point",
        "coordinates": [
          15.9089796,
          46.0803406
        ]
      },
      "properties": {
        "id": 501358209,
        "osm_type": "way",
        "name": "Privatni smještaj Lucija",
        "tourism": "apartment"
      }
    },
    {
      "type": "Feature",
      "geometry": {
        "type": "Point",
        "coordinates": [
          15.9178232,
          45.9923815
        ]
      },
      "properties": {
        "id": 541768481,
        "osm_type": "way",
        "name": "Hotel Zagi ***",
        "tourism": "hotel"
      }
    },
    {
      "type": "Feature",
      "geometry": {
        "type": "Point",
        "coordinates": [
          16.1023456,
          46.0491221
        ]
      },
      "properties": {
        "id": 551241538,
        "osm_type": "way",
        "tourism": "motel"
      }
    },
    {
      "type": "Feature",
      "geometry": {
        "type": "Point",
        "coordinates": [
          15.8515341,
          46.1187664
        ]
      },
      "properties": {
        "id": 601148074,
        "osm_type": "way",
        "name": "Dragec",
        "tourism": "chalet",
        "website": "https://vuglec-breg.hr/accommodation/dragec/"
      }
    },
    {
      "type": "Feature",
      "geometry": {
        "type": "Point",
        "coordinates": [
          15.851736,
          46.1188557
        ]
      },
      "properties": {
        "id": 601148075,
        "osm_type": "way",
        "name": "Lac",
        "tourism": "chalet",
        "website": "https://vuglec-breg.hr/accommodation/lac/"
      }
    },
    {
      "type": "Feature",
      "geometry": {
        "type": "Point",
        "coordinates": [
          15.8517892,
          46.1185319
        ]
      },
      "properties": {
        "id": 601148076,
        "osm_type": "way",
        "name": "Jana",
        "tourism": "chalet",
        "website": "https://vuglec-breg.hr/accommodation/jana/"
      }
    },
    {
      "type": "Feature",
      "geometry": {
        "type": "Point",
        "coordinates": [
          15.8518469,
          46.1181971
        ]
      },
      "properties": {
        "id": 601353986,
        "osm_type": "way",
        "name": "Klet Imbra",
        "tourism": "chalet",
        "website": "https://vuglec-breg.hr/accommodation/imbra/"
      }
    },
    {
      "type": "Feature",
      "geometry": {
        "type": "Point",
        "coordinates": [
          15.8518532,
          46.1188065
        ]
      },
      "properties": {
        "id": 601353989,
        "osm_type": "way",
        "name": "Mica",
        "tourism": "chalet",
        "website": "https://vuglec-breg.hr/accommodation/mica/"
      }
    },
    {
      "type": "Feature",
      "geometry": {
        "type": "Point",
        "coordinates": [
          15.7866119,
          46.0655828
        ]
      },
      "properties": {
        "id": 618765884,
        "osm_type": "way",
        "name": "Camp Vita",
        "tourism": "camp_site",
        "website": "https://www.terme-tuhelj.hr/en/hotels/camp-vita"
      }
    },
    {
      "type": "Feature",
      "geometry": {
        "type": "Point",
        "coordinates": [
          16.1166787,
          46.1644359
        ]
      },
      "properties": {
        "id": 714496071,
        "osm_type": "way",
        "name": "Belecgrad",
        "tourism": "alpine_hut",
        "website": "https://belecgrad.com/?Planinarska_ku%C4%87a"
      }
    },
    {
      "type": "Feature",
      "geometry": {
        "type": "Point",
        "coordinates": [
          15.8376048,
          45.9818835
        ]
      },
      "properties": {
        "id": 816493300,
        "osm_type": "way",
        "name": "Hotel & Restaurant Se-Mi",
        "tourism": "hotel",
        "phone": "+385 49 237 238",
        "website": "https://www.se-mi.hr"
      }
    },
    {
      "type": "Feature",
      "geometry": {
        "type": "Point",
        "coordinates": [
          15.9540534,
          45.9818749
        ]
      },
      "properties": {
        "id": 838582022,
        "osm_type": "way",
        "name": "Kamp Terme Jezerčica",
        "tourism": "camp_site",
        "opening_hours": "24/7",
        "tents": "yes",
        "website": "https://terme-jezercica.hr/kamp/"
      }
    },
    {
      "type": "Feature",
      "geometry": {
        "type": "Point",
        "coordinates": [
          15.9544533,
          45.9824331
        ]
      },
      "properties": {
        "id": 838582023,
        "osm_type": "way",
        "name": "3",
        "tourism": "chalet"
      }
    },
    {
      "type": "Feature",
      "geometry": {
        "type": "Point",
        "coordinates": [
          15.9545747,
          45.9823365
        ]
      },
      "properties": {
        "id": 838582024,
        "osm_type": "way",
        "name": "7",
        "tourism": "chalet"
      }
    },
    {
      "type": "Feature",
      "geometry": {
        "type": "Point",
        "coordinates": [
          15.9543621,
          45.9823145
        ]
      },
      "properties": {
        "id": 838582025,
        "osm_type": "way",
        "name": "4",
        "tourism": "chalet"
      }
    },
    {
      "type": "Feature",
      "geometry": {
        "type": "Point",
        "coordinates": [
          15.9542439,
          45.9821504
        ]
      },
      "properties": {
        "id": 838582026,
        "osm_type": "way",
        "name": "5",
        "tourism": "chalet"
      }
    },
    {
      "type": "Feature",
      "geometry": {
        "type": "Point",
        "coordinates": [
          15.9544283,
          45.9821102
        ]
      },
      "properties": {
        "id": 838582027,
        "osm_type": "way",
        "name": "9",
        "tourism": "chalet"
      }
    },
    {
      "type": "Feature",
      "geometry": {
        "type": "Point",
        "coordinates": [
          15.9541509,
          45.9819996
        ]
      },
      "properties": {
        "id": 838582028,
        "osm_type": "way",
        "name": "6",
        "tourism": "chalet"
      }
    },
    {
      "type": "Feature",
      "geometry": {
        "type": "Point",
        "coordinates": [
          15.954054,
          45.9818738
        ]
      },
      "properties": {
        "id": 838582029,
        "osm_type": "way",
        "name": "12",
        "tourism": "chalet",
        "check_date": "2025-11-20"
      }
    },
    {
      "type": "Feature",
      "geometry": {
        "type": "Point",
        "coordinates": [
          15.9536304,
          45.9816672
        ]
      },
      "properties": {
        "id": 838582030,
        "osm_type": "way",
        "name": "15",
        "tourism": "chalet",
        "check_date": "2025-11-20"
      }
    },
    {
      "type": "Feature",
      "geometry": {
        "type": "Point",
        "coordinates": [
          15.9545416,
          45.9825947
        ]
      },
      "properties": {
        "id": 838582031,
        "osm_type": "way",
        "name": "2",
        "tourism": "chalet"
      }
    },
    {
      "type": "Feature",
      "geometry": {
        "type": "Point",
        "coordinates": [
          15.9545842,
          45.9827313
        ]
      },
      "properties": {
        "id": 838582032,
        "osm_type": "way",
        "name": "1",
        "tourism": "chalet"
      }
    },
    {
      "type": "Feature",
      "geometry": {
        "type": "Point",
        "coordinates": [
          15.9544837,
          45.9822359
        ]
      },
      "properties": {
        "id": 838582033,
        "osm_type": "way",
        "name": "8",
        "tourism": "chalet"
      }
    },
    {
      "type": "Feature",
      "geometry": {
        "type": "Point",
        "coordinates": [
          15.9543596,
          45.9820174
        ]
      },
      "properties": {
        "id": 838582034,
        "osm_type": "way",
        "name": "10",
        "tourism": "chalet"
      }
    },
    {
      "type": "Feature",
      "geometry": {
        "type": "Point",
        "coordinates": [
          15.9542642,
          45.9819245
        ]
      },
      "properties": {
        "id": 838582035,
        "osm_type": "way",
        "name": "11",
        "tourism": "chalet"
      }
    },
    {
      "type": "Feature",
      "geometry": {
        "type": "Point",
        "coordinates": [
          15.9539281,
          45.9817978
        ]
      },
      "properties": {
        "id": 838582036,
        "osm_type": "way",
        "name": "13",
        "tourism": "chalet",
        "check_date": "2025-11-20"
      }
    },
    {
      "type": "Feature",
      "geometry": {
        "type": "Point",
        "coordinates": [
          15.9537857,
          45.9817308
        ]
      },
      "properties": {
        "id": 838582037,
        "osm_type": "way",
        "name": "14",
        "tourism": "chalet",
        "check_date": "2025-11-20"
      }
    },
    {
      "type": "Feature",
      "geometry": {
        "type": "Point",
        "coordinates": [
          15.8387633,
          46.0981774
        ]
      },
      "properties": {
        "id": 850221006,
        "osm_type": "way",
        "name": "Apartmani Polanščak",
        "tourism": "apartment"
      }
    },
    {
      "type": "Feature",
      "geometry": {
        "type": "Point",
        "coordinates": [
          16.0354079,
          46.000858
        ]
      },
      "properties": {
        "id": 1035366963,
        "osm_type": "way",
        "name": "Mali dvorac",
        "tourism": "motel",
        "phone": ":+385 49 289 090",
        "website": "https://www.malidvorac.hr/"
      }
    },
    {
      "type": "Feature",
      "geometry": {
        "type": "Point",
        "coordinates": [
          15.9179559,
          46.1728995
        ]
      },
      "properties": {
        "id": 1062744478,
        "osm_type": "way",
        "name": "Planinarski dom Radoboj",
        "tourism": "alpine_hut"
      }
    },
    {
      "type": "Feature",
      "geometry": {
        "type": "Point",
        "coordinates": [
          15.8519779,
          46.1187048
        ]
      },
      "properties": {
        "id": 1218748479,
        "osm_type": "way",
        "name": "Jagica",
        "tourism": "chalet",
        "website": "https://vuglec-breg.hr/accommodation/jagica/"
      }
    },
    {
      "type": "Feature",
      "geometry": {
        "type": "Point",
        "coordinates": [
          15.7839263,
          46.0662083
        ]
      },
      "properties": {
        "id": 1308328418,
        "osm_type": "way",
        "name": "Hotel Well",
        "tourism": "hotel",
        "website": "https://www.terme-tuhelj.hr/hr/smjestaj/hotel-well"
      }
    }
  ]
}