{
  "type": "FeatureCollection",
  "features": [
    {
      "type": "Feature",
      "geometry": {
        "type": "Point",
        "coordinates": [
          20.3911176,
          45.379622
        ]
      },
      "properties": {
        "id": 1543004038,
        "osm_type": "node",
        "name": "Хотел Војводина",
        "tourism": "hotel",
        "phone": "+381 23 561 233",
        "website": "https://hotel-vojvodina.rs"
      }
    },
    {
      "type": "Feature",
      "geometry": {
        "type": "Point",
        "coordinates": [
          20.5306685,
          45.3859581
        ]
      },
      "properties": {
        "id": 6485723848,
        "osm_type": "node",
        "name": "Наша Прича",
        "tourism": "guest_house"
      }
    },
    {
      "type": "Feature",
      "geometry": {
        "type": "Point",
        "coordinates": [
          20.4074508,
          45.3449886
        ]
      },
      "properties": {
        "id": 10056995249,
        "osm_type": "node",
        "name": "Златни Клас",
        "tourism": "guest_house"
      }
    },
    {
      "type": "Feature",
      "geometry": {
        "type": "Point",
        "coordinates": [
          20.434232,
          45.32181
        ]
      },
      "properties": {
        "id": 10175492008,
        "osm_type": "node",
        "name": "Хотел Каштел Ечка",
        "tourism": "hotel",
        "phone": "+381 69 8697520"
      }
    },
    {
      "type": "Feature",
      "geometry": {
        "type": "Point",
        "coordinates": [
          20.6987113,
          45.7467972
        ]
      },
      "properties": {
        "id": 10214602780,
        "osm_type": "node",
        "name": "Kaštel Banaterra",
        "tourism": "hotel",
        "phone": "+381 23 811 360;+381 23 812 636;+381 23 812 637;"
      }
    },
    {
      "type": "Feature",
      "geometry": {
        "type": "Point",
        "coordinates": [
          20.2069723,
          45.3912633
        ]
      },
      "properties": {
        "id": 10742713505,
        "osm_type": "node",
        "name": "Kamp izletište TISA",
        "tourism": "camp_site"
      }
    },
    {
      "type": "Feature",
      "geometry": {
        "type": "Point",
        "coordinates": [
          20.680591,
          45.346419
        ]
      },
      "properties": {
        "id": 11073083621,
        "osm_type": "node",
        "name": "Kanu Avantura",
        "tourism": "camp_site",
        "opening_hours": "\"reservation by phone\"",
        "phone": "+381 60 0304757"
      }
    },
    {
      "type": "Feature",
      "geometry": {
        "type": "Point",
        "coordinates": [
          20.3600384,
          45.3812004
        ]
      },
      "properties": {
        "id": 11813993830,
        "osm_type": "node",
        "name": "Апартмани Дикси Зрењанин",
        "tourism": "apartment"
      }
    },
    {
      "type": "Feature",
      "geometry": {
        "type": "Point",
        "coordinates": [
          20.3531224,
          45.3800558
        ]
      },
      "properties": {
        "id": 12703569810,
        "osm_type": "node",
        "name": "Цитадела 023",
        "tourism": "guest_house",
        "contact:phone": "+381 23 521 000",
        "website": "https://citadela023.rs"
      }
    },
    {
      "type": "Feature",
      "geometry": {
        "type": "Point",
        "coordinates": [
          20.7582404,
          45.3681071
        ]
      },
      "properties": {
        "id": 12801803810,
        "osm_type": "node",
        "name": "Salaš Stanković",
        "tourism": "hotel",
        "phone": "+381 23 3150373",
        "website": "https://salasstankovic.com/"
      }
    },
    {
      "type": "Feature",
      "geometry": {
        "type": "Point",
        "coordinates": [
          20.5817908,
          45.2368708
        ]
      },
      "properties": {
        "id": 13263884314,
        "osm_type": "node",
        "name": "Вир",
        "tourism": "camp_site"
      }
    },
    {
      "type": "Feature",
      "geometry": {
        "type": "Point",
        "coordinates": [
          20.6994465,
          45.7402424
        ]
      },
      "properties": {
        "id": 13330223901,
        "osm_type": "node",
        "name": "Lovački dom",
        "tourism": "alpine_hut"
      }
    },
    {
      "type": "Feature",
      "geometry": {
        "type": "Point",
        "coordinates": [
          20.3048281,
          45.5299422
        ]
      },
      "properties": {
        "id": 217155162,
        "osm_type": "way",
        "name": "Липов Цвет",
        "tourism": "motel"
      }
    },
    {
      "type": "Feature",
      "geometry": {
        "type": "Point",
        "coordinates": [
          20.7715035,
          45.367121
        ]
      },
      "properties": {
        "id": 234863469,
        "osm_type": "way",
        "name": "Хотел Црвени Цвет",
        "tourism": "hotel",
        "phone": "+381 23 842151",
        "website": "https://www.crvenicvet.com/"
      }
    },
    {
      "type": "Feature",
      "geometry": {
        "type": "Point",
        "coordinates": [
          20.3915158,
          45.3708983
        ]
      },
      "properties": {
        "id": 569560891,
        "osm_type": "way",
        "tourism": "hostel"
      }
    },
    {
      "type": "Feature",
      "geometry": {
        "type": "Point",
        "coordinates": [
          20.3975688,
          45.3885618
        ]
      },
      "properties": {
        "id": 590148370,
        "osm_type": "way",
        "name": "Sala za venčanje „Park”",
        "tourism": "apartment",
        "phone": "063 506 740",
        "website": "http://svecanasalapark.rs/"
      }
    },
    {
      "type": "Feature",
      "geometry": {
        "type": "Point",
        "coordinates": [
          20.4194454,
          45.284896
        ]
      },
      "properties": {
        "id": 936302676,
        "osm_type": "way",
        "name": "Сибила",
        "tourism": "hotel"
      }
    },
    {
      "type": "Feature",
      "geometry": {
        "type": "Point",
        "coordinates": [
          20.7095998,
          45.5606122
        ]
      },
      "properties": {
        "id": 1098370217,
        "osm_type": "way",
        "name": "Мркшићеви Салаши",
        "tourism": "motel",
        "website": "https://msalasi.com/"
      }
    },
    {
      "type": "Feature",
      "geometry": {
        "type": "Point",
        "coordinates": [
          20.8703753,
          45.4429688
        ]
      },
      "properties": {
        "id": 1186860720,
        "osm_type": "way",
        "name": "Јелен",
        "tourism": "motel"
      }
    },
    {
      "type": "Feature",
      "geometry": {
        "type": "Point",
        "coordinates": [
          20.1327382,
          45.5942672
        ]
      },
      "properties": {
        "id": 1208630392,
        "osm_type": "way",
        "name": "Тиски цвет",
        "tourism": "hotel",
        "phone": "+381 23 771140",
        "website": "http://www.tiskicvet.com/"
      }
    }
  ]
}