{
  "type": "FeatureCollection",
  "features": [
    {
      "type": "Feature",
      "geometry": {
        "type": "Point",
        "coordinates": [
          23.9254542,
          42.0759732
        ]
      },
      "properties": {
        "id": 274090051,
        "osm_type": "node",
        "name": "х. Кладова",
        "tourism": "alpine_hut"
      }
    },
    {
      "type": "Feature",
      "geometry": {
        "type": "Point",
        "coordinates": [
          24.296645,
          42.6079169
        ]
      },
      "properties": {
        "id": 274090280,
        "osm_type": "node",
        "name": "Кръстьо Чолаков",
        "tourism": "alpine_hut"
      }
    },
    {
      "type": "Feature",
      "geometry": {
        "type": "Point",
        "coordinates": [
          23.7938006,
          42.1064523
        ]
      },
      "properties": {
        "id": 274090336,
        "osm_type": "node",
        "name": "х.Христо Смирненски",
        "tourism": "alpine_hut"
      }
    },
    {
      "type": "Feature",
      "geometry": {
        "type": "Point",
        "coordinates": [
          23.9793958,
          42.0273883
        ]
      },
      "properties": {
        "id": 506206878,
        "osm_type": "node",
        "name": "Елбрус",
        "tourism": "hotel"
      }
    },
    {
      "type": "Feature",
      "geometry": {
        "type": "Point",
        "coordinates": [
          24.1663996,
          42.3119442
        ]
      },
      "properties": {
        "id": 1425864140,
        "osm_type": "node",
        "name": "Мотел",
        "tourism": "motel"
      }
    },
    {
      "type": "Feature",
      "geometry": {
        "type": "Point",
        "coordinates": [
          24.2418924,
          42.6182753
        ]
      },
      "properties": {
        "id": 1552610994,
        "osm_type": "node",
        "name": "хижа Павел Делирадев",
        "tourism": "alpine_hut"
      }
    },
    {
      "type": "Feature",
      "geometry": {
        "type": "Point",
        "coordinates": [
          24.1278842,
          41.8481631
        ]
      },
      "properties": {
        "id": 1693527054,
        "osm_type": "node",
        "name": "Вила \"Родопска почивка\"",
        "tourism": "guest_house"
      }
    },
    {
      "type": "Feature",
      "geometry": {
        "type": "Point",
        "coordinates": [
          23.991741,
          42.0274168
        ]
      },
      "properties": {
        "id": 1699374674,
        "osm_type": "node",
        "name": "\"Абир\"",
        "tourism": "hotel"
      }
    },
    {
      "type": "Feature",
      "geometry": {
        "type": "Point",
        "coordinates": [
          24.332638,
          42.1925613
        ]
      },
      "properties": {
        "id": 1722047500,
        "osm_type": "node",
        "name": "Хотел \"Примавера 2\"",
        "tourism": "hotel"
      }
    },
    {
      "type": "Feature",
      "geometry": {
        "type": "Point",
        "coordinates": [
          24.1501626,
          41.9599593
        ]
      },
      "properties": {
        "id": 1859437985,
        "osm_type": "node",
        "name": "вили Самодиви",
        "tourism": "guest_house"
      }
    },
    {
      "type": "Feature",
      "geometry": {
        "type": "Point",
        "coordinates": [
          24.154435,
          41.9586925
        ]
      },
      "properties": {
        "id": 1868412641,
        "osm_type": "node",
        "name": "Еко къмпинг \"Батак\"",
        "tourism": "camp_site",
        "tents": "yes",
        "phone": "+359 89 420 9911",
        "website": "https://www.campingbatak.com/"
      }
    },
    {
      "type": "Feature",
      "geometry": {
        "type": "Point",
        "coordinates": [
          24.1504328,
          41.9549666
        ]
      },
      "properties": {
        "id": 2157279827,
        "osm_type": "node",
        "name": "Каталина",
        "tourism": "hotel"
      }
    },
    {
      "type": "Feature",
      "geometry": {
        "type": "Point",
        "coordinates": [
          24.305576,
          42.0439267
        ]
      },
      "properties": {
        "id": 2798987963,
        "osm_type": "node",
        "name": "Мотел \"Синия кайнак\"",
        "tourism": "motel"
      }
    },
    {
      "type": "Feature",
      "geometry": {
        "type": "Point",
        "coordinates": [
          24.3051883,
          42.0457248
        ]
      },
      "properties": {
        "id": 2798987965,
        "osm_type": "node",
        "name": "Хотел \"Домейн Пещера\"",
        "tourism": "hotel"
      }
    },
    {
      "type": "Feature",
      "geometry": {
        "type": "Point",
        "coordinates": [
          24.3057913,
          42.0442159
        ]
      },
      "properties": {
        "id": 2798987966,
        "osm_type": "node",
        "name": "Хотел \"Наги\"",
        "tourism": "hotel"
      }
    },
    {
      "type": "Feature",
      "geometry": {
        "type": "Point",
        "coordinates": [
          24.1492399,
          41.9608519
        ]
      },
      "properties": {
        "id": 2984728030,
        "osm_type": "node",
        "name": "Вили \"Петя\"",
        "tourism": "guest_house"
      }
    },
    {
      "type": "Feature",
      "geometry": {
        "type": "Point",
        "coordinates": [
          24.0318295,
          41.7199979
        ]
      },
      "properties": {
        "id": 2993601434,
        "osm_type": "node",
        "name": "Ваканционно селище Ива",
        "tourism": "guest_house",
        "website": "https://rodopi-iva.com/"
      }
    },
    {
      "type": "Feature",
      "geometry": {
        "type": "Point",
        "coordinates": [
          24.1497655,
          41.766626
        ]
      },
      "properties": {
        "id": 3116098283,
        "osm_type": "node",
        "tourism": "camp_site"
      }
    },
    {
      "type": "Feature",
      "geometry": {
        "type": "Point",
        "coordinates": [
          23.991612,
          42.0272037
        ]
      },
      "properties": {
        "id": 3872728543,
        "osm_type": "node",
        "name": "СПА Хотел Здравец",
        "tourism": "hotel"
      }
    },
    {
      "type": "Feature",
      "geometry": {
        "type": "Point",
        "coordinates": [
          23.974866,
          41.9980831
        ]
      },
      "properties": {
        "id": 3939649968,
        "osm_type": "node",
        "name": "Балнеокомплекс Свети Спас Велинград",
        "tourism": "hotel"
      }
    },
    {
      "type": "Feature",
      "geometry": {
        "type": "Point",
        "coordinates": [
          24.329762,
          42.184875
        ]
      },
      "properties": {
        "id": 3988080657,
        "osm_type": "node",
        "name": "Хотел-ресторант Старата Къща",
        "tourism": "hotel"
      }
    },
    {
      "type": "Feature",
      "geometry": {
        "type": "Point",
        "coordinates": [
          23.9867522,
          42.0161019
        ]
      },
      "properties": {
        "id": 4195095779,
        "osm_type": "node",
        "name": "Алегра хотел и СПА Велинград",
        "tourism": "hotel",
        "phone": "+359 89 339 5969",
        "website": "https://alegra-bg.com/"
      }
    },
    {
      "type": "Feature",
      "geometry": {
        "type": "Point",
        "coordinates": [
          23.9836451,
          42.0065405
        ]
      },
      "properties": {
        "id": 4213496993,
        "osm_type": "node",
        "name": "хотел България",
        "tourism": "hotel"
      }
    },
    {
      "type": "Feature",
      "geometry": {
        "type": "Point",
        "coordinates": [
          24.1548933,
          41.9552789
        ]
      },
      "properties": {
        "id": 4224321590,
        "osm_type": "node",
        "name": "Villa Santa Maria",
        "tourism": "hotel",
        "opening_hours": "24/7",
        "phone": "+359 89 610 0211",
        "website": "https://www.villasantamaria.bg/"
      }
    },
    {
      "type": "Feature",
      "geometry": {
        "type": "Point",
        "coordinates": [
          24.1218655,
          41.8113617
        ]
      },
      "properties": {
        "id": 4250026689,
        "osm_type": "node",
        "tourism": "camp_site"
      }
    },
    {
      "type": "Feature",
      "geometry": {
        "type": "Point",
        "coordinates": [
          24.1351426,
          41.9695402
        ]
      },
      "properties": {
        "id": 4309443793,
        "osm_type": "node",
        "name": "комплекс св. Георги",
        "tourism": "hotel",
        "phone": "+359 89 682 5448",
        "website": "http://www.svetigeorgi.info"
      }
    },
    {
      "type": "Feature",
      "geometry": {
        "type": "Point",
        "coordinates": [
          24.1153763,
          41.8147121
        ]
      },
      "properties": {
        "id": 4426353789,
        "osm_type": "node",
        "name": "Синият залив",
        "tourism": "hostel"
      }
    },
    {
      "type": "Feature",
      "geometry": {
        "type": "Point",
        "coordinates": [
          24.2991145,
          42.0309653
        ]
      },
      "properties": {
        "id": 4427622689,
        "osm_type": "node",
        "name": "Heat",
        "tourism": "hotel"
      }
    },
    {
      "type": "Feature",
      "geometry": {
        "type": "Point",
        "coordinates": [
          24.0503137,
          42.1313876
        ]
      },
      "properties": {
        "id": 4529868309,
        "osm_type": "node",
        "name": "Дом - паметник \"Милеви скали\"",
        "tourism": "hotel"
      }
    },
    {
      "type": "Feature",
      "geometry": {
        "type": "Point",
        "coordinates": [
          24.1396809,
          41.9501765
        ]
      },
      "properties": {
        "id": 4750279923,
        "osm_type": "node",
        "name": "Вилно селище \"Вивиана\"",
        "tourism": "hotel",
        "opening_hours": "24/7"
      }
    },
    {
      "type": "Feature",
      "geometry": {
        "type": "Point",
        "coordinates": [
          24.1140863,
          41.8107898
        ]
      },
      "properties": {
        "id": 4902137776,
        "osm_type": "node",
        "tourism": "camp_site"
      }
    },
    {
      "type": "Feature",
      "geometry": {
        "type": "Point",
        "coordinates": [
          24.0167128,
          42.1425835
        ]
      },
      "properties": {
        "id": 4915332127,
        "osm_type": "node",
        "name": "хижа Млековица (не функционира)",
        "tourism": "alpine_hut"
      }
    },
    {
      "type": "Feature",
      "geometry": {
        "type": "Point",
        "coordinates": [
          23.9933921,
          42.0436947
        ]
      },
      "properties": {
        "id": 5014821723,
        "osm_type": "node",
        "name": "Cornelia Family Hotel & Sport",
        "tourism": "hotel",
        "phone": "+359 89 998 5511",
        "website": "https://corneliahotel.com/"
      }
    },
    {
      "type": "Feature",
      "geometry": {
        "type": "Point",
        "coordinates": [
          23.9778907,
          41.9985742
        ]
      },
      "properties": {
        "id": 5033623600,
        "osm_type": "node",
        "name": "Хотел Преслав",
        "tourism": "hotel",
        "website": "http://hotelpreslav.com/"
      }
    },
    {
      "type": "Feature",
      "geometry": {
        "type": "Point",
        "coordinates": [
          24.0445568,
          42.2093447
        ]
      },
      "properties": {
        "id": 5143342824,
        "osm_type": "node",
        "name": "Къща за гости къосеви",
        "tourism": "guest_house",
        "phone": "+359 88 615 0954"
      }
    },
    {
      "type": "Feature",
      "geometry": {
        "type": "Point",
        "coordinates": [
          24.1367966,
          42.4639493
        ]
      },
      "properties": {
        "id": 5287807646,
        "osm_type": "node",
        "tourism": "hostel"
      }
    },
    {
      "type": "Feature",
      "geometry": {
        "type": "Point",
        "coordinates": [
          23.9851499,
          42.02312
        ]
      },
      "properties": {
        "id": 5326094289,
        "osm_type": "node",
        "name": "Maxi Velingrad Park Hotel & SPA",
        "tourism": "hotel"
      }
    },
    {
      "type": "Feature",
      "geometry": {
        "type": "Point",
        "coordinates": [
          24.03618,
          41.7139308
        ]
      },
      "properties": {
        "id": 5338644060,
        "osm_type": "node",
        "name": "Почивна база „Орлино“",
        "tourism": "chalet",
        "phone": "+359 89 991 6231;+359 89 991 6232;+359 354 72 884",
        "website": "http://www.orlino-bg.com"
      }
    },
    {
      "type": "Feature",
      "geometry": {
        "type": "Point",
        "coordinates": [
          23.9944223,
          42.0280633
        ]
      },
      "properties": {
        "id": 5430011869,
        "osm_type": "node",
        "name": "Старата къща",
        "tourism": "guest_house"
      }
    },
    {
      "type": "Feature",
      "geometry": {
        "type": "Point",
        "coordinates": [
          23.9685089,
          42.0286699
        ]
      },
      "properties": {
        "id": 5488916526,
        "osm_type": "node",
        "name": "Вила \"Олеж\"",
        "tourism": "guest_house"
      }
    },
    {
      "type": "Feature",
      "geometry": {
        "type": "Point",
        "coordinates": [
          24.1110458,
          41.813989
        ]
      },
      "properties": {
        "id": 5560613643,
        "osm_type": "node",
        "name": "Рай",
        "tourism": "hotel"
      }
    },
    {
      "type": "Feature",
      "geometry": {
        "type": "Point",
        "coordinates": [
          23.9917629,
          42.0276847
        ]
      },
      "properties": {
        "id": 5974378490,
        "osm_type": "node",
        "name": "Къща за гости Четири сезона",
        "tourism": "guest_house",
        "phone": "+359 87 866 5514"
      }
    },
    {
      "type": "Feature",
      "geometry": {
        "type": "Point",
        "coordinates": [
          24.1565483,
          41.9478889
        ]
      },
      "properties": {
        "id": 6248817406,
        "osm_type": "node",
        "name": "Комплекс Свети Георги",
        "tourism": "hotel",
        "phone": "+359 89 682 5448"
      }
    },
    {
      "type": "Feature",
      "geometry": {
        "type": "Point",
        "coordinates": [
          24.3685001,
          41.9522189
        ]
      },
      "properties": {
        "id": 6435268426,
        "osm_type": "node",
        "name": "Равногор",
        "tourism": "hotel"
      }
    },
    {
      "type": "Feature",
      "geometry": {
        "type": "Point",
        "coordinates": [
          24.3712165,
          41.9523177
        ]
      },
      "properties": {
        "id": 6435268444,
        "osm_type": "node",
        "name": "Борика",
        "tourism": "hotel"
      }
    },
    {
      "type": "Feature",
      "geometry": {
        "type": "Point",
        "coordinates": [
          24.3332725,
          41.9648798
        ]
      },
      "properties": {
        "id": 6436858225,
        "osm_type": "node",
        "name": "Атолука",
        "tourism": "guest_house"
      }
    },
    {
      "type": "Feature",
      "geometry": {
        "type": "Point",
        "coordinates": [
          24.0353657,
          41.7145721
        ]
      },
      "properties": {
        "id": 6699854111,
        "osm_type": "node",
        "name": "Вили „Сара“",
        "tourism": "chalet"
      }
    },
    {
      "type": "Feature",
      "geometry": {
        "type": "Point",
        "coordinates": [
          24.1449239,
          41.946341
        ]
      },
      "properties": {
        "id": 6833786962,
        "osm_type": "node",
        "name": "Къща за гости Родопи",
        "tourism": "guest_house",
        "phone": "+359 98 870 3141",
        "website": "https://guest-house-rodopi.business.site/"
      }
    },
    {
      "type": "Feature",
      "geometry": {
        "type": "Point",
        "coordinates": [
          24.0436429,
          41.7123031
        ]
      },
      "properties": {
        "id": 6833812557,
        "osm_type": "node",
        "name": "Ваканционно Селище Орлино",
        "tourism": "guest_house",
        "phone": "+359 89 853 7008",
        "website": "https://dospat-orlino.com/"
      }
    },
    {
      "type": "Feature",
      "geometry": {
        "type": "Point",
        "coordinates": [
          24.320796,
          42.5055688
        ]
      },
      "properties": {
        "id": 6926372185,
        "osm_type": "node",
        "name": "Perla",
        "tourism": "guest_house"
      }
    },
    {
      "type": "Feature",
      "geometry": {
        "type": "Point",
        "coordinates": [
          24.0347493,
          41.735265
        ]
      },
      "properties": {
        "id": 6944990812,
        "osm_type": "node",
        "name": "Къщи за гости Башеви",
        "tourism": "guest_house",
        "phone": "+359 89 919 6812",
        "website": "https://www.bashevihouses.com/"
      }
    },
    {
      "type": "Feature",
      "geometry": {
        "type": "Point",
        "coordinates": [
          24.2631903,
          42.0158866
        ]
      },
      "properties": {
        "id": 7023087577,
        "osm_type": "node",
        "name": "Снежанка",
        "tourism": "alpine_hut"
      }
    },
    {
      "type": "Feature",
      "geometry": {
        "type": "Point",
        "coordinates": [
          24.147006,
          41.9712286
        ]
      },
      "properties": {
        "id": 7399612704,
        "osm_type": "node",
        "tourism": "camp_site"
      }
    },
    {
      "type": "Feature",
      "geometry": {
        "type": "Point",
        "coordinates": [
          23.9910573,
          42.0237385
        ]
      },
      "properties": {
        "id": 8198926342,
        "osm_type": "node",
        "name": "Елена",
        "tourism": "guest_house"
      }
    },
    {
      "type": "Feature",
      "geometry": {
        "type": "Point",
        "coordinates": [
          24.1543602,
          41.9454023
        ]
      },
      "properties": {
        "id": 8431107112,
        "osm_type": "node",
        "name": "Семеен Хотел The View",
        "tourism": "hotel"
      }
    },
    {
      "type": "Feature",
      "geometry": {
        "type": "Point",
        "coordinates": [
          23.9867495,
          42.4613985
        ]
      },
      "properties": {
        "id": 8669572953,
        "osm_type": "node",
        "name": "Поленето",
        "tourism": "camp_site",
        "phone": "+359 88 510 9169"
      }
    },
    {
      "type": "Feature",
      "geometry": {
        "type": "Point",
        "coordinates": [
          24.1983518,
          42.0188685
        ]
      },
      "properties": {
        "id": 8718759154,
        "osm_type": "node",
        "name": "Шишарка",
        "tourism": "hotel"
      }
    },
    {
      "type": "Feature",
      "geometry": {
        "type": "Point",
        "coordinates": [
          24.1946831,
          42.0148643
        ]
      },
      "properties": {
        "id": 8718797645,
        "osm_type": "node",
        "name": "Хебър",
        "tourism": "hotel"
      }
    },
    {
      "type": "Feature",
      "geometry": {
        "type": "Point",
        "coordinates": [
          24.1352261,
          42.1609815
        ]
      },
      "properties": {
        "id": 8718801050,
        "osm_type": "node",
        "name": "Зора",
        "tourism": "motel"
      }
    },
    {
      "type": "Feature",
      "geometry": {
        "type": "Point",
        "coordinates": [
          24.2239575,
          42.0205888
        ]
      },
      "properties": {
        "id": 8718804418,
        "osm_type": "node",
        "tourism": "hotel"
      }
    },
    {
      "type": "Feature",
      "geometry": {
        "type": "Point",
        "coordinates": [
          24.0308209,
          41.7178618
        ]
      },
      "properties": {
        "id": 8992070016,
        "osm_type": "node",
        "name": "Лес",
        "tourism": "camp_site"
      }
    },
    {
      "type": "Feature",
      "geometry": {
        "type": "Point",
        "coordinates": [
          23.9671195,
          42.0311695
        ]
      },
      "properties": {
        "id": 9329479517,
        "osm_type": "node",
        "name": "Thermal Camping Velingrad",
        "tourism": "camp_site",
        "website": "https://campingvelingrad.com/"
      }
    },
    {
      "type": "Feature",
      "geometry": {
        "type": "Point",
        "coordinates": [
          23.9696438,
          42.028403
        ]
      },
      "properties": {
        "id": 9400917925,
        "osm_type": "node",
        "name": "Вила ,,Марина ливада''",
        "tourism": "guest_house",
        "phone": "+359 87 811 5268"
      }
    },
    {
      "type": "Feature",
      "geometry": {
        "type": "Point",
        "coordinates": [
          24.1297788,
          42.0438901
        ]
      },
      "properties": {
        "id": 9400956274,
        "osm_type": "node",
        "name": "Къща за гости ,,Доркос\"",
        "tourism": "guest_house"
      }
    },
    {
      "type": "Feature",
      "geometry": {
        "type": "Point",
        "coordinates": [
          24.1600987,
          41.8796193
        ]
      },
      "properties": {
        "id": 9801816248,
        "osm_type": "node",
        "name": "Почивна станция Картела",
        "tourism": "hotel",
        "phone": "+359 892 606 875",
        "website": "http://www.militaryclubs.bg/node/45"
      }
    },
    {
      "type": "Feature",
      "geometry": {
        "type": "Point",
        "coordinates": [
          24.0335852,
          41.7164131
        ]
      },
      "properties": {
        "id": 9929296256,
        "osm_type": "node",
        "name": "Вила Ягодка",
        "tourism": "chalet"
      }
    },
    {
      "type": "Feature",
      "geometry": {
        "type": "Point",
        "coordinates": [
          24.0246621,
          42.2255862
        ]
      },
      "properties": {
        "id": 10006152654,
        "osm_type": "node",
        "name": "Cob camp club",
        "tourism": "guest_house",
        "contact:phone": "+359 89 685 7400",
        "website": "https://cob-camp-club.business.site/"
      }
    },
    {
      "type": "Feature",
      "geometry": {
        "type": "Point",
        "coordinates": [
          24.3063977,
          42.0286493
        ]
      },
      "properties": {
        "id": 10121125313,
        "osm_type": "node",
        "name": "Хотел \"Биовет\"",
        "tourism": "hotel"
      }
    },
    {
      "type": "Feature",
      "geometry": {
        "type": "Point",
        "coordinates": [
          24.3610051,
          41.9939763
        ]
      },
      "properties": {
        "id": 10123537757,
        "osm_type": "node",
        "name": "Вила Липа",
        "tourism": "guest_house"
      }
    },
    {
      "type": "Feature",
      "geometry": {
        "type": "Point",
        "coordinates": [
          23.9915224,
          42.0303594
        ]
      },
      "properties": {
        "id": 10746689373,
        "osm_type": "node",
        "name": "Романтика",
        "tourism": "hotel"
      }
    },
    {
      "type": "Feature",
      "geometry": {
        "type": "Point",
        "coordinates": [
          24.1532952,
          41.9549215
        ]
      },
      "properties": {
        "id": 11019181013,
        "osm_type": "node",
        "name": "Grande Vista",
        "tourism": "hotel",
        "opening_hours": "24/7",
        "contact:phone": "+359 87 600 0500",
        "contact:website": "https://www.grandevista.bg",
        "check_date": "2023-07-02"
      }
    },
    {
      "type": "Feature",
      "geometry": {
        "type": "Point",
        "coordinates": [
          24.3285715,
          42.186724
        ]
      },
      "properties": {
        "id": 11063097491,
        "osm_type": "node",
        "name": "Exotic",
        "tourism": "guest_house"
      }
    },
    {
      "type": "Feature",
      "geometry": {
        "type": "Point",
        "coordinates": [
          24.1942669,
          42.0158398
        ]
      },
      "properties": {
        "id": 11113370006,
        "osm_type": "node",
        "name": "Тялото",
        "tourism": "hotel"
      }
    },
    {
      "type": "Feature",
      "geometry": {
        "type": "Point",
        "coordinates": [
          24.0688576,
          41.7209935
        ]
      },
      "properties": {
        "id": 11150957842,
        "osm_type": "node",
        "name": "Вила Парк ЕДЕЛВАЙС Сърница",
        "tourism": "hotel",
        "contact:phone": "+359 879 42 16 42",
        "contact:website": "https://edelweiss.bg/"
      }
    },
    {
      "type": "Feature",
      "geometry": {
        "type": "Point",
        "coordinates": [
          24.0290268,
          42.3171322
        ]
      },
      "properties": {
        "id": 11248986915,
        "osm_type": "node",
        "name": "Wild",
        "tourism": "camp_site"
      }
    },
    {
      "type": "Feature",
      "geometry": {
        "type": "Point",
        "coordinates": [
          24.0315614,
          42.1368932
        ]
      },
      "properties": {
        "id": 11248998422,
        "osm_type": "node",
        "name": "Wild",
        "tourism": "camp_site"
      }
    },
    {
      "type": "Feature",
      "geometry": {
        "type": "Point",
        "coordinates": [
          24.0410834,
          42.1426867
        ]
      },
      "properties": {
        "id": 11249008638,
        "osm_type": "node",
        "name": "Wild",
        "tourism": "camp_site"
      }
    },
    {
      "type": "Feature",
      "geometry": {
        "type": "Point",
        "coordinates": [
          24.1141288,
          42.5292265
        ]
      },
      "properties": {
        "id": 11277867982,
        "osm_type": "node",
        "name": "х. Оборище",
        "tourism": "chalet"
      }
    },
    {
      "type": "Feature",
      "geometry": {
        "type": "Point",
        "coordinates": [
          24.339735,
          42.5075614
        ]
      },
      "properties": {
        "id": 11552106792,
        "osm_type": "node",
        "name": "Базов лагер Стрелча",
        "tourism": "camp_site"
      }
    },
    {
      "type": "Feature",
      "geometry": {
        "type": "Point",
        "coordinates": [
          24.1109734,
          41.805677
        ]
      },
      "properties": {
        "id": 11563567762,
        "osm_type": "node",
        "name": "Гьоргузун",
        "tourism": "camp_site",
        "tents": "yes"
      }
    },
    {
      "type": "Feature",
      "geometry": {
        "type": "Point",
        "coordinates": [
          24.3029073,
          42.0324684
        ]
      },
      "properties": {
        "id": 12115561834,
        "osm_type": "node",
        "name": "Лаго",
        "tourism": "hotel"
      }
    },
    {
      "type": "Feature",
      "geometry": {
        "type": "Point",
        "coordinates": [
          23.9861588,
          42.0152857
        ]
      },
      "properties": {
        "id": 12898918418,
        "osm_type": "node",
        "name": "Santé SPA Hotel",
        "tourism": "hotel",
        "phone": "+359 89 308 0666",
        "website": "https://spahotelsante.com"
      }
    },
    {
      "type": "Feature",
      "geometry": {
        "type": "Point",
        "coordinates": [
          24.1301333,
          41.8340658
        ]
      },
      "properties": {
        "id": 12979780871,
        "osm_type": "node",
        "name": "Camping Beglika",
        "tourism": "camp_site",
        "tents": "yes",
        "website": "https://camping.bg/camping-beglika-en-camping274.html"
      }
    },
    {
      "type": "Feature",
      "geometry": {
        "type": "Point",
        "coordinates": [
          24.2799357,
          42.01695
        ]
      },
      "properties": {
        "id": 13347278677,
        "osm_type": "node",
        "tourism": "camp_site"
      }
    },
    {
      "type": "Feature",
      "geometry": {
        "type": "Point",
        "coordinates": [
          24.1524582,
          42.1563301
        ]
      },
      "properties": {
        "id": 13376404468,
        "osm_type": "node",
        "name": "Къща за гости Ема",
        "tourism": "hotel"
      }
    },
    {
      "type": "Feature",
      "geometry": {
        "type": "Point",
        "coordinates": [
          24.3418528,
          42.1981426
        ]
      },
      "properties": {
        "id": 13377780172,
        "osm_type": "node",
        "name": "Forum",
        "tourism": "hotel"
      }
    },
    {
      "type": "Feature",
      "geometry": {
        "type": "Point",
        "coordinates": [
          24.189022,
          42.4508268
        ]
      },
      "properties": {
        "id": 13524134301,
        "osm_type": "node",
        "name": "Бъта",
        "tourism": "hotel"
      }
    },
    {
      "type": "Feature",
      "geometry": {
        "type": "Point",
        "coordinates": [
          23.9905191,
          42.0307107
        ]
      },
      "properties": {
        "id": 13754417853,
        "osm_type": "node",
        "name": "Rich SPA",
        "tourism": "hotel",
        "website": "https://hotel-rich.com/"
      }
    },
    {
      "type": "Feature",
      "geometry": {
        "type": "Point",
        "coordinates": [
          24.33314,
          42.1895109
        ]
      },
      "properties": {
        "id": 102138825,
        "osm_type": "way",
        "name": "Тракия",
        "tourism": "hotel"
      }
    },
    {
      "type": "Feature",
      "geometry": {
        "type": "Point",
        "coordinates": [
          24.3347689,
          42.1892017
        ]
      },
      "properties": {
        "id": 160232058,
        "osm_type": "way",
        "name": "Hebar Hotel",
        "tourism": "hotel"
      }
    },
    {
      "type": "Feature",
      "geometry": {
        "type": "Point",
        "coordinates": [
          24.3337925,
          42.1914823
        ]
      },
      "properties": {
        "id": 160633634,
        "osm_type": "way",
        "name": "Хотел \"Примавера\"",
        "tourism": "hotel"
      }
    },
    {
      "type": "Feature",
      "geometry": {
        "type": "Point",
        "coordinates": [
          24.332581,
          42.1923183
        ]
      },
      "properties": {
        "id": 161336629,
        "osm_type": "way",
        "tourism": "hotel"
      }
    },
    {
      "type": "Feature",
      "geometry": {
        "type": "Point",
        "coordinates": [
          24.3356887,
          42.1906098
        ]
      },
      "properties": {
        "id": 161445216,
        "osm_type": "way",
        "name": "Хотел \"Елбрус\"",
        "tourism": "hotel"
      }
    },
    {
      "type": "Feature",
      "geometry": {
        "type": "Point",
        "coordinates": [
          24.2981793,
          42.2118505
        ]
      },
      "properties": {
        "id": 163394051,
        "osm_type": "way",
        "name": "Вионас",
        "tourism": "hotel"
      }
    },
    {
      "type": "Feature",
      "geometry": {
        "type": "Point",
        "coordinates": [
          24.1957511,
          42.5824044
        ]
      },
      "properties": {
        "id": 180876586,
        "osm_type": "way",
        "name": "Хижа \"Райна Княгиня\"",
        "tourism": "alpine_hut"
      }
    },
    {
      "type": "Feature",
      "geometry": {
        "type": "Point",
        "coordinates": [
          23.9820828,
          42.0029805
        ]
      },
      "properties": {
        "id": 231216288,
        "osm_type": "way",
        "name": "Клептуза",
        "tourism": "hotel",
        "opening_hours": "24/7",
        "phone": "+359 54 160;+359 87 939 8571",
        "website": "http://hotel-kleptuza.com/",
        "check_date": "2024-08-16"
      }
    },
    {
      "type": "Feature",
      "geometry": {
        "type": "Point",
        "coordinates": [
          23.8515991,
          42.0687201
        ]
      },
      "properties": {
        "id": 278296757,
        "osm_type": "way",
        "tourism": "hotel"
      }
    },
    {
      "type": "Feature",
      "geometry": {
        "type": "Point",
        "coordinates": [
          23.8534531,
          42.0644092
        ]
      },
      "properties": {
        "id": 278296761,
        "osm_type": "way",
        "name": "Студентски комплекс Юндола",
        "tourism": "hotel"
      }
    },
    {
      "type": "Feature",
      "geometry": {
        "type": "Point",
        "coordinates": [
          24.1492795,
          41.9599352
        ]
      },
      "properties": {
        "id": 294850665,
        "osm_type": "way",
        "name": "\"Слънчев цвят\"",
        "tourism": "hotel"
      }
    },
    {
      "type": "Feature",
      "geometry": {
        "type": "Point",
        "coordinates": [
          24.1353535,
          41.9697479
        ]
      },
      "properties": {
        "id": 294850678,
        "osm_type": "way",
        "tourism": "hotel"
      }
    },
    {
      "type": "Feature",
      "geometry": {
        "type": "Point",
        "coordinates": [
          24.1350647,
          41.9697234
        ]
      },
      "properties": {
        "id": 294850695,
        "osm_type": "way",
        "tourism": "hotel"
      }
    },
    {
      "type": "Feature",
      "geometry": {
        "type": "Point",
        "coordinates": [
          24.0317985,
          41.7332026
        ]
      },
      "properties": {
        "id": 295617967,
        "osm_type": "way",
        "name": "Мотел \"Сърница\"",
        "tourism": "motel"
      }
    },
    {
      "type": "Feature",
      "geometry": {
        "type": "Point",
        "coordinates": [
          24.0256243,
          41.725274
        ]
      },
      "properties": {
        "id": 295620050,
        "osm_type": "way",
        "name": "Почивна база \"Романтика\"",
        "tourism": "hotel"
      }
    },
    {
      "type": "Feature",
      "geometry": {
        "type": "Point",
        "coordinates": [
          24.1853691,
          41.7507924
        ]
      },
      "properties": {
        "id": 307456766,
        "osm_type": "way",
        "name": "комплекс бунгала Романтика",
        "tourism": "hotel"
      }
    },
    {
      "type": "Feature",
      "geometry": {
        "type": "Point",
        "coordinates": [
          24.3248713,
          42.505707
        ]
      },
      "properties": {
        "id": 313170734,
        "osm_type": "way",
        "name": "Хотел Средна Гора",
        "tourism": "hotel",
        "phone": "+359 89 780 1022",
        "website": "https://sredna-gora.eu/"
      }
    },
    {
      "type": "Feature",
      "geometry": {
        "type": "Point",
        "coordinates": [
          24.3259244,
          42.5075713
        ]
      },
      "properties": {
        "id": 313476502,
        "osm_type": "way",
        "name": "Балнеохотел \"Роза\"",
        "tourism": "hotel",
        "phone": "+359 87 857 7034",
        "website": "https://bgholiday.com/hotels/bh-roza"
      }
    },
    {
      "type": "Feature",
      "geometry": {
        "type": "Point",
        "coordinates": [
          24.2059377,
          41.8862912
        ]
      },
      "properties": {
        "id": 366090297,
        "osm_type": "way",
        "name": "х.Техеран(изоставена)",
        "tourism": "alpine_hut"
      }
    },
    {
      "type": "Feature",
      "geometry": {
        "type": "Point",
        "coordinates": [
          24.1470915,
          41.9427819
        ]
      },
      "properties": {
        "id": 366169608,
        "osm_type": "way",
        "name": "Сенатор",
        "tourism": "hotel",
        "phone": "+359 88 518 3318",
        "website": "https://www.hotel-senator.net/"
      }
    },
    {
      "type": "Feature",
      "geometry": {
        "type": "Point",
        "coordinates": [
          24.1539958,
          41.9452902
        ]
      },
      "properties": {
        "id": 366170887,
        "osm_type": "way",
        "name": "Етерно",
        "tourism": "hotel",
        "phone": "+359 355 32 841",
        "website": "https://www.hotel-eterno.com/"
      }
    },
    {
      "type": "Feature",
      "geometry": {
        "type": "Point",
        "coordinates": [
          24.1534802,
          41.9479838
        ]
      },
      "properties": {
        "id": 366172451,
        "osm_type": "way",
        "name": "Сезони",
        "tourism": "hotel",
        "phone": "+359 355 32 248"
      }
    },
    {
      "type": "Feature",
      "geometry": {
        "type": "Point",
        "coordinates": [
          24.1274127,
          41.8278037
        ]
      },
      "properties": {
        "id": 366192335,
        "osm_type": "way",
        "name": "Почивна база „Беглика” на НЕК",
        "tourism": "hotel",
        "phone": "+359884166303",
        "website": "https://nek.bg/vec/index.php/bg/pochivni-bazi"
      }
    },
    {
      "type": "Feature",
      "geometry": {
        "type": "Point",
        "coordinates": [
          24.204954,
          42.0112341
        ]
      },
      "properties": {
        "id": 366513047,
        "osm_type": "way",
        "tourism": "hotel"
      }
    },
    {
      "type": "Feature",
      "geometry": {
        "type": "Point",
        "coordinates": [
          24.2501965,
          42.0818996
        ]
      },
      "properties": {
        "id": 366707666,
        "osm_type": "way",
        "name": "ЛИВАДИТЕ",
        "tourism": "hotel",
        "phone": "+359 89 357 7065",
        "website": "http://www.livaditebg.com"
      }
    },
    {
      "type": "Feature",
      "geometry": {
        "type": "Point",
        "coordinates": [
          24.248523,
          42.0731048
        ]
      },
      "properties": {
        "id": 366707672,
        "osm_type": "way",
        "name": "Добра вода",
        "tourism": "alpine_hut"
      }
    },
    {
      "type": "Feature",
      "geometry": {
        "type": "Point",
        "coordinates": [
          24.1040097,
          42.1298906
        ]
      },
      "properties": {
        "id": 368458130,
        "osm_type": "way",
        "name": "хижа Равно боре",
        "tourism": "alpine_hut",
        "phone": "+359 87 794 3476"
      }
    },
    {
      "type": "Feature",
      "geometry": {
        "type": "Point",
        "coordinates": [
          24.1243444,
          42.1343729
        ]
      },
      "properties": {
        "id": 368466646,
        "osm_type": "way",
        "name": "Аква Варвара",
        "tourism": "hotel",
        "phone": "+359 89 988 8930",
        "website": "https://www.aquavarvara.com/"
      }
    },
    {
      "type": "Feature",
      "geometry": {
        "type": "Point",
        "coordinates": [
          24.1342553,
          42.2071035
        ]
      },
      "properties": {
        "id": 386499346,
        "osm_type": "way",
        "tourism": "hotel"
      }
    },
    {
      "type": "Feature",
      "geometry": {
        "type": "Point",
        "coordinates": [
          24.025155,
          41.7256173
        ]
      },
      "properties": {
        "id": 395225379,
        "osm_type": "way",
        "name": "Комплекс \"Романтика\"",
        "tourism": "chalet"
      }
    },
    {
      "type": "Feature",
      "geometry": {
        "type": "Point",
        "coordinates": [
          23.9939791,
          42.0330611
        ]
      },
      "properties": {
        "id": 402112230,
        "osm_type": "way",
        "name": "Аура",
        "tourism": "hotel",
        "phone": "035953129",
        "website": "https://www.hotelaura-bg.com"
      }
    },
    {
      "type": "Feature",
      "geometry": {
        "type": "Point",
        "coordinates": [
          23.9843427,
          42.0007851
        ]
      },
      "properties": {
        "id": 424971530,
        "osm_type": "way",
        "name": "ВЕЛИНА",
        "tourism": "hotel"
      }
    },
    {
      "type": "Feature",
      "geometry": {
        "type": "Point",
        "coordinates": [
          23.9978291,
          42.0352939
        ]
      },
      "properties": {
        "id": 447144185,
        "osm_type": "way",
        "name": "ВИТОША",
        "tourism": "hotel"
      }
    },
    {
      "type": "Feature",
      "geometry": {
        "type": "Point",
        "coordinates": [
          24.1996578,
          42.2074567
        ]
      },
      "properties": {
        "id": 488131469,
        "osm_type": "way",
        "name": "Италигентни,системи",
        "tourism": "guest_house"
      }
    },
    {
      "type": "Feature",
      "geometry": {
        "type": "Point",
        "coordinates": [
          24.1229091,
          42.0841231
        ]
      },
      "properties": {
        "id": 494981762,
        "osm_type": "way",
        "name": "хижа Цепина",
        "tourism": "alpine_hut"
      }
    },
    {
      "type": "Feature",
      "geometry": {
        "type": "Point",
        "coordinates": [
          24.1340998,
          42.463711
        ]
      },
      "properties": {
        "id": 497993163,
        "osm_type": "way",
        "name": "Хотел \"Оазис\"",
        "tourism": "hotel"
      }
    },
    {
      "type": "Feature",
      "geometry": {
        "type": "Point",
        "coordinates": [
          23.9726468,
          42.0306105
        ]
      },
      "properties": {
        "id": 513114442,
        "osm_type": "way",
        "name": "Арте Спа & Парк",
        "tourism": "hotel",
        "website": "https://artehotel.bg"
      }
    },
    {
      "type": "Feature",
      "geometry": {
        "type": "Point",
        "coordinates": [
          23.9800191,
          42.0001034
        ]
      },
      "properties": {
        "id": 517411941,
        "osm_type": "way",
        "name": "Акватоник",
        "tourism": "hotel",
        "opening_hours": "24/7",
        "contact:phone": "+359 87 844 1685",
        "contact:website": "https://aquatonic.com",
        "check_date": "2023-10-12"
      }
    },
    {
      "type": "Feature",
      "geometry": {
        "type": "Point",
        "coordinates": [
          24.35199,
          41.9313396
        ]
      },
      "properties": {
        "id": 588612324,
        "osm_type": "way",
        "tourism": "guest_house"
      }
    },
    {
      "type": "Feature",
      "geometry": {
        "type": "Point",
        "coordinates": [
          24.352013,
          41.9312164
        ]
      },
      "properties": {
        "id": 588612342,
        "osm_type": "way",
        "tourism": "guest_house"
      }
    },
    {
      "type": "Feature",
      "geometry": {
        "type": "Point",
        "coordinates": [
          24.3519734,
          41.931479
        ]
      },
      "properties": {
        "id": 588612351,
        "osm_type": "way",
        "tourism": "guest_house"
      }
    },
    {
      "type": "Feature",
      "geometry": {
        "type": "Point",
        "coordinates": [
          24.0906408,
          41.8094388
        ]
      },
      "properties": {
        "id": 618023419,
        "osm_type": "way",
        "name": "Горски център Чатъма",
        "tourism": "camp_site",
        "tents": "yes"
      }
    },
    {
      "type": "Feature",
      "geometry": {
        "type": "Point",
        "coordinates": [
          23.8608688,
          42.0628095
        ]
      },
      "properties": {
        "id": 618833641,
        "osm_type": "way",
        "name": "Villa Latinka",
        "tourism": "chalet"
      }
    },
    {
      "type": "Feature",
      "geometry": {
        "type": "Point",
        "coordinates": [
          23.8497589,
          42.0649037
        ]
      },
      "properties": {
        "id": 618834172,
        "osm_type": "way",
        "name": "Вила Бошнакови",
        "tourism": "chalet"
      }
    },
    {
      "type": "Feature",
      "geometry": {
        "type": "Point",
        "coordinates": [
          24.1307423,
          42.2067541
        ]
      },
      "properties": {
        "id": 619173058,
        "osm_type": "way",
        "tourism": "hotel"
      }
    },
    {
      "type": "Feature",
      "geometry": {
        "type": "Point",
        "coordinates": [
          24.1536766,
          41.9450707
        ]
      },
      "properties": {
        "id": 655930745,
        "osm_type": "way",
        "name": "Вила Райа - Цигов Чарк",
        "tourism": "hotel",
        "website": "https://www.raya-bg.com/"
      }
    },
    {
      "type": "Feature",
      "geometry": {
        "type": "Point",
        "coordinates": [
          24.0230047,
          41.7272091
        ]
      },
      "properties": {
        "id": 712599619,
        "osm_type": "way",
        "name": "Хисарски",
        "tourism": "guest_house"
      }
    },
    {
      "type": "Feature",
      "geometry": {
        "type": "Point",
        "coordinates": [
          24.0283493,
          41.7205643
        ]
      },
      "properties": {
        "id": 712599620,
        "osm_type": "way",
        "tourism": "guest_house"
      }
    },
    {
      "type": "Feature",
      "geometry": {
        "type": "Point",
        "coordinates": [
          24.0285041,
          41.7203818
        ]
      },
      "properties": {
        "id": 712599621,
        "osm_type": "way",
        "tourism": "guest_house"
      }
    },
    {
      "type": "Feature",
      "geometry": {
        "type": "Point",
        "coordinates": [
          24.0286399,
          41.7202212
        ]
      },
      "properties": {
        "id": 712599622,
        "osm_type": "way",
        "name": "Villa Hills",
        "tourism": "guest_house",
        "phone": "+359 87 867 6545"
      }
    },
    {
      "type": "Feature",
      "geometry": {
        "type": "Point",
        "coordinates": [
          24.3511554,
          41.929649
        ]
      },
      "properties": {
        "id": 712614434,
        "osm_type": "way",
        "tourism": "guest_house"
      }
    },
    {
      "type": "Feature",
      "geometry": {
        "type": "Point",
        "coordinates": [
          24.1891696,
          42.5111634
        ]
      },
      "properties": {
        "id": 789246210,
        "osm_type": "way",
        "name": "Парк Хотел Асарел",
        "tourism": "hotel"
      }
    },
    {
      "type": "Feature",
      "geometry": {
        "type": "Point",
        "coordinates": [
          24.1887626,
          42.5057884
        ]
      },
      "properties": {
        "id": 789246216,
        "osm_type": "way",
        "name": "Каменград",
        "tourism": "hotel"
      }
    },
    {
      "type": "Feature",
      "geometry": {
        "type": "Point",
        "coordinates": [
          24.1354503,
          41.969123
        ]
      },
      "properties": {
        "id": 835811003,
        "osm_type": "way",
        "name": "Family Hotel La Casa",
        "tourism": "hotel"
      }
    },
    {
      "type": "Feature",
      "geometry": {
        "type": "Point",
        "coordinates": [
          24.1356722,
          41.9691509
        ]
      },
      "properties": {
        "id": 835811004,
        "osm_type": "way",
        "name": "Къщи за Гости Колори",
        "tourism": "hotel",
        "website": "http://www.houses-colori.com"
      }
    },
    {
      "type": "Feature",
      "geometry": {
        "type": "Point",
        "coordinates": [
          24.135886,
          41.9690925
        ]
      },
      "properties": {
        "id": 835811005,
        "osm_type": "way",
        "name": "Къщи за Гости Колори",
        "tourism": "hotel",
        "website": "http://www.houses-colori.com"
      }
    },
    {
      "type": "Feature",
      "geometry": {
        "type": "Point",
        "coordinates": [
          24.1356104,
          41.9690119
        ]
      },
      "properties": {
        "id": 835811006,
        "osm_type": "way",
        "name": "Къщи за Гости Колори",
        "tourism": "hotel",
        "website": "http://www.houses-colori.com"
      }
    },
    {
      "type": "Feature",
      "geometry": {
        "type": "Point",
        "coordinates": [
          24.1358294,
          41.9689333
        ]
      },
      "properties": {
        "id": 835811007,
        "osm_type": "way",
        "name": "Къщи за Гости Колори",
        "tourism": "hotel",
        "website": "http://www.houses-colori.com"
      }
    },
    {
      "type": "Feature",
      "geometry": {
        "type": "Point",
        "coordinates": [
          24.1756672,
          42.5017983
        ]
      },
      "properties": {
        "id": 844409718,
        "osm_type": "way",
        "name": "Court Inn",
        "tourism": "hotel"
      }
    },
    {
      "type": "Feature",
      "geometry": {
        "type": "Point",
        "coordinates": [
          23.9254484,
          42.0759731
        ]
      },
      "properties": {
        "id": 850446244,
        "osm_type": "way",
        "tourism": "alpine_hut"
      }
    },
    {
      "type": "Feature",
      "geometry": {
        "type": "Point",
        "coordinates": [
          23.9873049,
          42.0365293
        ]
      },
      "properties": {
        "id": 851189489,
        "osm_type": "way",
        "name": "Гергевана",
        "tourism": "guest_house"
      }
    },
    {
      "type": "Feature",
      "geometry": {
        "type": "Point",
        "coordinates": [
          24.1881549,
          42.5041518
        ]
      },
      "properties": {
        "id": 874667244,
        "osm_type": "way",
        "name": "Хотел Виктория",
        "tourism": "hotel",
        "check_date": "2023-05-24"
      }
    },
    {
      "type": "Feature",
      "geometry": {
        "type": "Point",
        "coordinates": [
          24.3199306,
          42.5079404
        ]
      },
      "properties": {
        "id": 979697990,
        "osm_type": "way",
        "name": "Хотел и механа XIX век",
        "tourism": "hotel",
        "phone": "+359 88 842 1827",
        "website": "https://hotel19vek.com/"
      }
    },
    {
      "type": "Feature",
      "geometry": {
        "type": "Point",
        "coordinates": [
          24.3270996,
          42.5045892
        ]
      },
      "properties": {
        "id": 979697996,
        "osm_type": "way",
        "name": "Хотел Средна Гора 2",
        "tourism": "hotel",
        "phone": "+359 89 780 1024",
        "website": "https://sredna-gora.net/"
      }
    },
    {
      "type": "Feature",
      "geometry": {
        "type": "Point",
        "coordinates": [
          24.0527676,
          42.1307154
        ]
      },
      "properties": {
        "id": 1072990222,
        "osm_type": "way",
        "name": "Хижа \"Здравец\"",
        "tourism": "chalet"
      }
    },
    {
      "type": "Feature",
      "geometry": {
        "type": "Point",
        "coordinates": [
          24.0326629,
          41.7197746
        ]
      },
      "properties": {
        "id": 1083087955,
        "osm_type": "way",
        "name": "вила Бор",
        "tourism": "chalet"
      }
    },
    {
      "type": "Feature",
      "geometry": {
        "type": "Point",
        "coordinates": [
          24.0325587,
          41.7198584
        ]
      },
      "properties": {
        "id": 1083087956,
        "osm_type": "way",
        "name": "вила Смърч",
        "tourism": "chalet"
      }
    },
    {
      "type": "Feature",
      "geometry": {
        "type": "Point",
        "coordinates": [
          24.0325018,
          41.7196175
        ]
      },
      "properties": {
        "id": 1083087957,
        "osm_type": "way",
        "name": "вила Ела",
        "tourism": "chalet"
      }
    },
    {
      "type": "Feature",
      "geometry": {
        "type": "Point",
        "coordinates": [
          24.0324196,
          41.7196878
        ]
      },
      "properties": {
        "id": 1083087958,
        "osm_type": "way",
        "name": "вила Бук",
        "tourism": "chalet"
      }
    },
    {
      "type": "Feature",
      "geometry": {
        "type": "Point",
        "coordinates": [
          24.0323414,
          41.7194499
        ]
      },
      "properties": {
        "id": 1083087959,
        "osm_type": "way",
        "name": "вила Дъб",
        "tourism": "chalet"
      }
    },
    {
      "type": "Feature",
      "geometry": {
        "type": "Point",
        "coordinates": [
          24.0322652,
          41.7195232
        ]
      },
      "properties": {
        "id": 1083087960,
        "osm_type": "way",
        "name": "вила Явор",
        "tourism": "chalet"
      }
    },
    {
      "type": "Feature",
      "geometry": {
        "type": "Point",
        "coordinates": [
          24.0340911,
          41.7161764
        ]
      },
      "properties": {
        "id": 1083483371,
        "osm_type": "way",
        "name": "Вила #1",
        "tourism": "chalet"
      }
    },
    {
      "type": "Feature",
      "geometry": {
        "type": "Point",
        "coordinates": [
          24.0339161,
          41.7159871
        ]
      },
      "properties": {
        "id": 1083483372,
        "osm_type": "way",
        "name": "Вила #2",
        "tourism": "chalet"
      }
    },
    {
      "type": "Feature",
      "geometry": {
        "type": "Point",
        "coordinates": [
          24.0340044,
          41.7160614
        ]
      },
      "properties": {
        "id": 1083483373,
        "osm_type": "way",
        "name": "Вили Ахмед",
        "tourism": "guest_house",
        "phone": "+359 89 329 4449;+359 89 786 9510"
      }
    },
    {
      "type": "Feature",
      "geometry": {
        "type": "Point",
        "coordinates": [
          23.9371642,
          41.845146
        ]
      },
      "properties": {
        "id": 1109101025,
        "osm_type": "way",
        "name": "Къща за гости Меандрите",
        "tourism": "guest_house",
        "phone": "+359878663097"
      }
    },
    {
      "type": "Feature",
      "geometry": {
        "type": "Point",
        "coordinates": [
          23.9906077,
          42.0333043
        ]
      },
      "properties": {
        "id": 1162985313,
        "osm_type": "way",
        "name": "Аква Вива спа",
        "tourism": "hotel",
        "website": "https://aquavivaspa-bg.com/"
      }
    },
    {
      "type": "Feature",
      "geometry": {
        "type": "Point",
        "coordinates": [
          23.9796515,
          42.0297865
        ]
      },
      "properties": {
        "id": 1239440957,
        "osm_type": "way",
        "tourism": "hotel",
        "phone": "+359878616150;+359 878 11 18 19';+359 878 55 05 85",
        "website": "https://hotelinfinity.bg/"
      }
    },
    {
      "type": "Feature",
      "geometry": {
        "type": "Point",
        "coordinates": [
          23.9800312,
          42.0297868
        ]
      },
      "properties": {
        "id": 1239440958,
        "osm_type": "way",
        "name": "Bendida Park",
        "tourism": "hotel",
        "phone": "+359879530088",
        "website": "https://bendidapark.hotelonia.com/"
      }
    },
    {
      "type": "Feature",
      "geometry": {
        "type": "Point",
        "coordinates": [
          24.1417256,
          42.1549234
        ]
      },
      "properties": {
        "id": 1246048671,
        "osm_type": "way",
        "name": "Минерален Плаж Варвара",
        "tourism": "hotel",
        "website": "https://www.aquapark-varvara.com/"
      }
    },
    {
      "type": "Feature",
      "geometry": {
        "type": "Point",
        "coordinates": [
          24.122638,
          42.0842064
        ]
      },
      "properties": {
        "id": 1303465392,
        "osm_type": "way",
        "tourism": "alpine_hut"
      }
    },
    {
      "type": "Feature",
      "geometry": {
        "type": "Point",
        "coordinates": [
          23.9774115,
          42.0032708
        ]
      },
      "properties": {
        "id": 1304221227,
        "osm_type": "way",
        "name": "Вела Хилс",
        "tourism": "hotel",
        "website": "https://www.vellahills.bg"
      }
    },
    {
      "type": "Feature",
      "geometry": {
        "type": "Point",
        "coordinates": [
          23.9771539,
          42.0026723
        ]
      },
      "properties": {
        "id": 1304222237,
        "osm_type": "way",
        "name": "Ардо Вел Парк",
        "tourism": "hotel"
      }
    },
    {
      "type": "Feature",
      "geometry": {
        "type": "Point",
        "coordinates": [
          23.9878716,
          42.0320694
        ]
      },
      "properties": {
        "id": 1304795391,
        "osm_type": "way",
        "name": "\"Двореца\"",
        "tourism": "hotel"
      }
    },
    {
      "type": "Feature",
      "geometry": {
        "type": "Point",
        "coordinates": [
          24.168386,
          42.0504813
        ]
      },
      "properties": {
        "id": 1304985200,
        "osm_type": "way",
        "tourism": "chalet"
      }
    },
    {
      "type": "Feature",
      "geometry": {
        "type": "Point",
        "coordinates": [
          24.1256522,
          42.069574
        ]
      },
      "properties": {
        "id": 1304995561,
        "osm_type": "way",
        "tourism": "chalet"
      }
    },
    {
      "type": "Feature",
      "geometry": {
        "type": "Point",
        "coordinates": [
          24.0708973,
          42.0352615
        ]
      },
      "properties": {
        "id": 1305012716,
        "osm_type": "way",
        "tourism": "chalet"
      }
    },
    {
      "type": "Feature",
      "geometry": {
        "type": "Point",
        "coordinates": [
          24.0708355,
          42.0351413
        ]
      },
      "properties": {
        "id": 1305012717,
        "osm_type": "way",
        "tourism": "chalet"
      }
    },
    {
      "type": "Feature",
      "geometry": {
        "type": "Point",
        "coordinates": [
          24.0723628,
          42.0350045
        ]
      },
      "properties": {
        "id": 1305012718,
        "osm_type": "way",
        "tourism": "chalet"
      }
    },
    {
      "type": "Feature",
      "geometry": {
        "type": "Point",
        "coordinates": [
          24.0728005,
          42.0354092
        ]
      },
      "properties": {
        "id": 1305012860,
        "osm_type": "way",
        "tourism": "chalet"
      }
    },
    {
      "type": "Feature",
      "geometry": {
        "type": "Point",
        "coordinates": [
          24.0723979,
          42.03524
        ]
      },
      "properties": {
        "id": 1305012861,
        "osm_type": "way",
        "tourism": "chalet"
      }
    },
    {
      "type": "Feature",
      "geometry": {
        "type": "Point",
        "coordinates": [
          24.0733723,
          42.0360606
        ]
      },
      "properties": {
        "id": 1305012862,
        "osm_type": "way",
        "tourism": "chalet"
      }
    },
    {
      "type": "Feature",
      "geometry": {
        "type": "Point",
        "coordinates": [
          24.0732987,
          42.0359274
        ]
      },
      "properties": {
        "id": 1305012863,
        "osm_type": "way",
        "tourism": "chalet"
      }
    },
    {
      "type": "Feature",
      "geometry": {
        "type": "Point",
        "coordinates": [
          24.0734734,
          42.036307
        ]
      },
      "properties": {
        "id": 1305012864,
        "osm_type": "way",
        "tourism": "chalet"
      }
    },
    {
      "type": "Feature",
      "geometry": {
        "type": "Point",
        "coordinates": [
          24.0717399,
          42.0362066
        ]
      },
      "properties": {
        "id": 1305013026,
        "osm_type": "way",
        "tourism": "chalet"
      }
    },
    {
      "type": "Feature",
      "geometry": {
        "type": "Point",
        "coordinates": [
          24.0721601,
          42.0366134
        ]
      },
      "properties": {
        "id": 1305013027,
        "osm_type": "way",
        "tourism": "chalet"
      }
    },
    {
      "type": "Feature",
      "geometry": {
        "type": "Point",
        "coordinates": [
          24.0726718,
          42.0367174
        ]
      },
      "properties": {
        "id": 1305013028,
        "osm_type": "way",
        "tourism": "chalet"
      }
    },
    {
      "type": "Feature",
      "geometry": {
        "type": "Point",
        "coordinates": [
          24.0725392,
          42.0372706
        ]
      },
      "properties": {
        "id": 1305013029,
        "osm_type": "way",
        "tourism": "chalet"
      }
    },
    {
      "type": "Feature",
      "geometry": {
        "type": "Point",
        "coordinates": [
          24.1851125,
          41.7506884
        ]
      },
      "properties": {
        "id": 1339393504,
        "osm_type": "way",
        "name": "комплекс бунгала Романтика",
        "tourism": "hotel"
      }
    },
    {
      "type": "Feature",
      "geometry": {
        "type": "Point",
        "coordinates": [
          24.1455438,
          41.7651934
        ]
      },
      "properties": {
        "id": 1339395019,
        "osm_type": "way",
        "tourism": "chalet"
      }
    },
    {
      "type": "Feature",
      "geometry": {
        "type": "Point",
        "coordinates": [
          24.1455946,
          41.7675366
        ]
      },
      "properties": {
        "id": 1339395551,
        "osm_type": "way",
        "tourism": "chalet"
      }
    },
    {
      "type": "Feature",
      "geometry": {
        "type": "Point",
        "coordinates": [
          24.146471,
          41.7682221
        ]
      },
      "properties": {
        "id": 1339395553,
        "osm_type": "way",
        "tourism": "chalet"
      }
    },
    {
      "type": "Feature",
      "geometry": {
        "type": "Point",
        "coordinates": [
          24.1469321,
          41.7681199
        ]
      },
      "properties": {
        "id": 1339395554,
        "osm_type": "way",
        "tourism": "chalet"
      }
    },
    {
      "type": "Feature",
      "geometry": {
        "type": "Point",
        "coordinates": [
          24.1450434,
          41.7665464
        ]
      },
      "properties": {
        "id": 1339395555,
        "osm_type": "way",
        "tourism": "chalet"
      }
    },
    {
      "type": "Feature",
      "geometry": {
        "type": "Point",
        "coordinates": [
          24.1453087,
          41.7667006
        ]
      },
      "properties": {
        "id": 1339395556,
        "osm_type": "way",
        "tourism": "chalet"
      }
    },
    {
      "type": "Feature",
      "geometry": {
        "type": "Point",
        "coordinates": [
          24.1456132,
          41.7667996
        ]
      },
      "properties": {
        "id": 1339395557,
        "osm_type": "way",
        "tourism": "chalet"
      }
    },
    {
      "type": "Feature",
      "geometry": {
        "type": "Point",
        "coordinates": [
          24.1616251,
          41.8779815
        ]
      },
      "properties": {
        "id": 1412458677,
        "osm_type": "way",
        "tourism": "hotel"
      }
    },
    {
      "type": "Feature",
      "geometry": {
        "type": "Point",
        "coordinates": [
          24.1186035,
          41.8497172
        ]
      },
      "properties": {
        "id": 1412463809,
        "osm_type": "way",
        "name": "villa Flora Diva",
        "tourism": "chalet",
        "phone": "+359884899771"
      }
    },
    {
      "type": "Feature",
      "geometry": {
        "type": "Point",
        "coordinates": [
          24.1180733,
          41.8491697
        ]
      },
      "properties": {
        "id": 1412463818,
        "osm_type": "way",
        "name": "Villa Victory",
        "tourism": "chalet",
        "phone": "+359889501035"
      }
    },
    {
      "type": "Feature",
      "geometry": {
        "type": "Point",
        "coordinates": [
          24.2197337,
          41.9442118
        ]
      },
      "properties": {
        "id": 1469690191,
        "osm_type": "way",
        "name": "Guesthouse Batak",
        "tourism": "guest_house"
      }
    },
    {
      "type": "Feature",
      "geometry": {
        "type": "Point",
        "coordinates": [
          24.1534891,
          41.9454421
        ]
      },
      "properties": {
        "id": 1469691327,
        "osm_type": "way",
        "name": "Hotel Paradise",
        "tourism": "hotel",
        "website": "https://hotelparadise.bg/"
      }
    },
    {
      "type": "Feature",
      "geometry": {
        "type": "Point",
        "coordinates": [
          24.1858078,
          41.7506966
        ]
      },
      "properties": {
        "id": 1499256364,
        "osm_type": "way",
        "tourism": "chalet"
      }
    },
    {
      "type": "Feature",
      "geometry": {
        "type": "Point",
        "coordinates": [
          24.1857363,
          41.7506202
        ]
      },
      "properties": {
        "id": 1499256365,
        "osm_type": "way",
        "tourism": "chalet"
      }
    },
    {
      "type": "Feature",
      "geometry": {
        "type": "Point",
        "coordinates": [
          24.1856528,
          41.7505416
        ]
      },
      "properties": {
        "id": 1499256366,
        "osm_type": "way",
        "tourism": "chalet"
      }
    },
    {
      "type": "Feature",
      "geometry": {
        "type": "Point",
        "coordinates": [
          24.1860466,
          41.7507167
        ]
      },
      "properties": {
        "id": 1499256367,
        "osm_type": "way",
        "tourism": "chalet"
      }
    },
    {
      "type": "Feature",
      "geometry": {
        "type": "Point",
        "coordinates": [
          24.1860924,
          41.7508311
        ]
      },
      "properties": {
        "id": 1499256368,
        "osm_type": "way",
        "tourism": "chalet"
      }
    },
    {
      "type": "Feature",
      "geometry": {
        "type": "Point",
        "coordinates": [
          24.1862618,
          41.751007
        ]
      },
      "properties": {
        "id": 1499256369,
        "osm_type": "way",
        "tourism": "chalet"
      }
    },
    {
      "type": "Feature",
      "geometry": {
        "type": "Point",
        "coordinates": [
          24.1863751,
          41.7510915
        ]
      },
      "properties": {
        "id": 1499256370,
        "osm_type": "way",
        "tourism": "chalet"
      }
    },
    {
      "type": "Feature",
      "geometry": {
        "type": "Point",
        "coordinates": [
          24.1865137,
          41.751118
        ]
      },
      "properties": {
        "id": 1499256371,
        "osm_type": "way",
        "tourism": "chalet"
      }
    },
    {
      "type": "Feature",
      "geometry": {
        "type": "Point",
        "coordinates": [
          24.1862183,
          41.7511933
        ]
      },
      "properties": {
        "id": 1499256372,
        "osm_type": "way",
        "tourism": "chalet"
      }
    },
    {
      "type": "Feature",
      "geometry": {
        "type": "Point",
        "coordinates": [
          24.1860809,
          41.7511301
        ]
      },
      "properties": {
        "id": 1499256373,
        "osm_type": "way",
        "tourism": "chalet"
      }
    },
    {
      "type": "Feature",
      "geometry": {
        "type": "Point",
        "coordinates": [
          24.185979,
          41.7510412
        ]
      },
      "properties": {
        "id": 1499256374,
        "osm_type": "way",
        "tourism": "chalet"
      }
    },
    {
      "type": "Feature",
      "geometry": {
        "type": "Point",
        "coordinates": [
          24.1856642,
          41.7509268
        ]
      },
      "properties": {
        "id": 1499256375,
        "osm_type": "way",
        "tourism": "chalet"
      }
    },
    {
      "type": "Feature",
      "geometry": {
        "type": "Point",
        "coordinates": [
          24.1858028,
          41.7509362
        ]
      },
      "properties": {
        "id": 1499256376,
        "osm_type": "way",
        "tourism": "chalet"
      }
    }
  ]
}