{
  "type": "FeatureCollection",
  "features": [
    {
      "type": "Feature",
      "geometry": {
        "type": "Point",
        "coordinates": [
          27.6765646,
          41.0030811
        ]
      },
      "properties": {
        "id": 798530020,
        "osm_type": "node",
        "name": "Barış Camping",
        "tourism": "camp_site"
      }
    },
    {
      "type": "Feature",
      "geometry": {
        "type": "Point",
        "coordinates": [
          28.1090363,
          41.4300143
        ]
      },
      "properties": {
        "id": 1775163213,
        "osm_type": "node",
        "name": "Campsite Safaalan",
        "tourism": "camp_site"
      }
    },
    {
      "type": "Feature",
      "geometry": {
        "type": "Point",
        "coordinates": [
          27.9196507,
          41.4399075
        ]
      },
      "properties": {
        "id": 2315905933,
        "osm_type": "node",
        "name": "Sezen otel",
        "tourism": "hotel"
      }
    },
    {
      "type": "Feature",
      "geometry": {
        "type": "Point",
        "coordinates": [
          27.9185468,
          41.4420624
        ]
      },
      "properties": {
        "id": 2315907588,
        "osm_type": "node",
        "name": "saray",
        "tourism": "hotel"
      }
    },
    {
      "type": "Feature",
      "geometry": {
        "type": "Point",
        "coordinates": [
          27.5154867,
          40.9765544
        ]
      },
      "properties": {
        "id": 2526502633,
        "osm_type": "node",
        "name": "Rodosto",
        "tourism": "hotel",
        "phone": "0282 2633701",
        "website": "https://rodostohotel.com.tr/"
      }
    },
    {
      "type": "Feature",
      "geometry": {
        "type": "Point",
        "coordinates": [
          27.5149443,
          40.9763509
        ]
      },
      "properties": {
        "id": 2526502647,
        "osm_type": "node",
        "name": "Tekirdağ Yat Otel",
        "tourism": "hotel",
        "phone": "+90 (282) 261 10 54",
        "website": "https://www.yathotel.com"
      }
    },
    {
      "type": "Feature",
      "geometry": {
        "type": "Point",
        "coordinates": [
          27.9579399,
          40.9692733
        ]
      },
      "properties": {
        "id": 3504406774,
        "osm_type": "node",
        "name": "Hotel Sihan",
        "tourism": "hotel"
      }
    },
    {
      "type": "Feature",
      "geometry": {
        "type": "Point",
        "coordinates": [
          27.8396209,
          41.1511376
        ]
      },
      "properties": {
        "id": 3763615824,
        "osm_type": "node",
        "name": "Hilton Garden Inn Corlu",
        "tourism": "hotel",
        "opening_hours": "24/7",
        "phone": "+90-282-6848484",
        "website": "https://www.hilton.com/en/hotels/teqcogi-hilton-garden-inn-corlu/"
      }
    },
    {
      "type": "Feature",
      "geometry": {
        "type": "Point",
        "coordinates": [
          27.9978878,
          41.2921941
        ]
      },
      "properties": {
        "id": 4231223594,
        "osm_type": "node",
        "name": "Beylice Apart",
        "tourism": "hotel"
      }
    },
    {
      "type": "Feature",
      "geometry": {
        "type": "Point",
        "coordinates": [
          27.1112846,
          41.2212001
        ]
      },
      "properties": {
        "id": 4255691474,
        "osm_type": "node",
        "name": "Sadi Kıyak Öğretmenevi",
        "tourism": "guest_house"
      }
    },
    {
      "type": "Feature",
      "geometry": {
        "type": "Point",
        "coordinates": [
          27.9550986,
          40.9718403
        ]
      },
      "properties": {
        "id": 4384435389,
        "osm_type": "node",
        "name": "Dirik Pansiyon",
        "tourism": "hostel",
        "opening_hours": "24/7",
        "phone": "+902826131446",
        "website": "http://www.facebook.com/dirikpansiyon"
      }
    },
    {
      "type": "Feature",
      "geometry": {
        "type": "Point",
        "coordinates": [
          27.8159953,
          41.0000073
        ]
      },
      "properties": {
        "id": 4426846275,
        "osm_type": "node",
        "tourism": "camp_site"
      }
    },
    {
      "type": "Feature",
      "geometry": {
        "type": "Point",
        "coordinates": [
          27.7814955,
          41.2898126
        ]
      },
      "properties": {
        "id": 4892478583,
        "osm_type": "node",
        "tourism": "motel"
      }
    },
    {
      "type": "Feature",
      "geometry": {
        "type": "Point",
        "coordinates": [
          27.578465,
          40.988061
        ]
      },
      "properties": {
        "id": 4942051588,
        "osm_type": "node",
        "name": "Seçkin Pansiyon",
        "tourism": "hotel",
        "phone": "+905452051035",
        "website": "http://www.seckinpansyon.com"
      }
    },
    {
      "type": "Feature",
      "geometry": {
        "type": "Point",
        "coordinates": [
          27.9247838,
          41.4433788
        ]
      },
      "properties": {
        "id": 5495165123,
        "osm_type": "node",
        "name": "Gülten Yılmaz Apartmanı",
        "tourism": "apartment"
      }
    },
    {
      "type": "Feature",
      "geometry": {
        "type": "Point",
        "coordinates": [
          27.9183626,
          41.4390327
        ]
      },
      "properties": {
        "id": 5495165158,
        "osm_type": "node",
        "name": "Sezen Otel",
        "tourism": "hotel"
      }
    },
    {
      "type": "Feature",
      "geometry": {
        "type": "Point",
        "coordinates": [
          27.9212182,
          41.4409459
        ]
      },
      "properties": {
        "id": 5495165195,
        "osm_type": "node",
        "name": "Çınar Otel",
        "tourism": "hotel"
      }
    },
    {
      "type": "Feature",
      "geometry": {
        "type": "Point",
        "coordinates": [
          28.0091546,
          41.2789921
        ]
      },
      "properties": {
        "id": 5523590919,
        "osm_type": "node",
        "name": "Özdemir Pansiyon",
        "tourism": "hotel",
        "phone": "+905333580447"
      }
    },
    {
      "type": "Feature",
      "geometry": {
        "type": "Point",
        "coordinates": [
          27.9710841,
          41.4753266
        ]
      },
      "properties": {
        "id": 5571404085,
        "osm_type": "node",
        "name": "Güngörmez Kanara Kanyonu Kamp Alanı",
        "tourism": "camp_site"
      }
    },
    {
      "type": "Feature",
      "geometry": {
        "type": "Point",
        "coordinates": [
          27.5026661,
          40.9775204
        ]
      },
      "properties": {
        "id": 5762051554,
        "osm_type": "node",
        "name": "Kumburgaz",
        "tourism": "guest_house"
      }
    },
    {
      "type": "Feature",
      "geometry": {
        "type": "Point",
        "coordinates": [
          27.7818167,
          41.010177
        ]
      },
      "properties": {
        "id": 5870513041,
        "osm_type": "node",
        "name": "Ünal Camping",
        "tourism": "camp_site"
      }
    },
    {
      "type": "Feature",
      "geometry": {
        "type": "Point",
        "coordinates": [
          27.9979073,
          41.2919847
        ]
      },
      "properties": {
        "id": 5967861303,
        "osm_type": "node",
        "name": "Beylice Otel",
        "tourism": "hotel"
      }
    },
    {
      "type": "Feature",
      "geometry": {
        "type": "Point",
        "coordinates": [
          27.9166221,
          41.4391075
        ]
      },
      "properties": {
        "id": 6001706851,
        "osm_type": "node",
        "name": "Elit Hotel",
        "tourism": "hotel"
      }
    },
    {
      "type": "Feature",
      "geometry": {
        "type": "Point",
        "coordinates": [
          27.6807779,
          41.238744
        ]
      },
      "properties": {
        "id": 6430309303,
        "osm_type": "node",
        "name": "İzci Kampı",
        "tourism": "camp_site"
      }
    },
    {
      "type": "Feature",
      "geometry": {
        "type": "Point",
        "coordinates": [
          27.9181085,
          41.4371818
        ]
      },
      "properties": {
        "id": 6440023898,
        "osm_type": "node",
        "name": "Yasin Residence - Öğrencilere Apart Odalar",
        "tourism": "apartment"
      }
    },
    {
      "type": "Feature",
      "geometry": {
        "type": "Point",
        "coordinates": [
          27.974524,
          41.4914759
        ]
      },
      "properties": {
        "id": 6480423738,
        "osm_type": "node",
        "name": "Sıla Hotel",
        "tourism": "hotel"
      }
    },
    {
      "type": "Feature",
      "geometry": {
        "type": "Point",
        "coordinates": [
          27.5578753,
          40.9860958
        ]
      },
      "properties": {
        "id": 6807300189,
        "osm_type": "node",
        "name": "Aka Kız Öğrenci Yurdu",
        "tourism": "hotel"
      }
    },
    {
      "type": "Feature",
      "geometry": {
        "type": "Point",
        "coordinates": [
          27.9229546,
          40.9710041
        ]
      },
      "properties": {
        "id": 7487461083,
        "osm_type": "node",
        "name": "İstanbul Yıldız Hotel",
        "tourism": "hotel",
        "phone": "+902826130349"
      }
    },
    {
      "type": "Feature",
      "geometry": {
        "type": "Point",
        "coordinates": [
          27.9232952,
          40.9710122
        ]
      },
      "properties": {
        "id": 7487562487,
        "osm_type": "node",
        "name": "Poyraz Butik Hotel Plaj Cafe Bar",
        "tourism": "hotel",
        "phone": "+905301751559"
      }
    },
    {
      "type": "Feature",
      "geometry": {
        "type": "Point",
        "coordinates": [
          27.9008827,
          40.9691429
        ]
      },
      "properties": {
        "id": 7487610541,
        "osm_type": "node",
        "name": "Saklı Koy Camping",
        "tourism": "camp_site"
      }
    },
    {
      "type": "Feature",
      "geometry": {
        "type": "Point",
        "coordinates": [
          27.1151486,
          40.6110342
        ]
      },
      "properties": {
        "id": 7813977840,
        "osm_type": "node",
        "name": "Sedef Motel",
        "tourism": "motel",
        "phone": "+90 282 518 1094"
      }
    },
    {
      "type": "Feature",
      "geometry": {
        "type": "Point",
        "coordinates": [
          27.1130108,
          40.6115971
        ]
      },
      "properties": {
        "id": 7813977843,
        "osm_type": "node",
        "name": "Coşkun Otel",
        "tourism": "hotel"
      }
    },
    {
      "type": "Feature",
      "geometry": {
        "type": "Point",
        "coordinates": [
          27.1129371,
          40.6117353
        ]
      },
      "properties": {
        "id": 7813977844,
        "osm_type": "node",
        "name": "Zenn Inn Butik Otel",
        "tourism": "hotel"
      }
    },
    {
      "type": "Feature",
      "geometry": {
        "type": "Point",
        "coordinates": [
          27.9809541,
          41.3175449
        ]
      },
      "properties": {
        "id": 8058641696,
        "osm_type": "node",
        "name": "Business Express Hotel",
        "tourism": "hotel"
      }
    },
    {
      "type": "Feature",
      "geometry": {
        "type": "Point",
        "coordinates": [
          27.7320356,
          41.0123199
        ]
      },
      "properties": {
        "id": 8790589267,
        "osm_type": "node",
        "name": "Ateş Camping",
        "tourism": "camp_site"
      }
    },
    {
      "type": "Feature",
      "geometry": {
        "type": "Point",
        "coordinates": [
          27.7452309,
          41.3208063
        ]
      },
      "properties": {
        "id": 8903731818,
        "osm_type": "node",
        "tourism": "hotel"
      }
    },
    {
      "type": "Feature",
      "geometry": {
        "type": "Point",
        "coordinates": [
          27.1210244,
          40.6118677
        ]
      },
      "properties": {
        "id": 9010519457,
        "osm_type": "node",
        "name": "Kaan Pansiyon",
        "tourism": "hostel",
        "phone": "+90 505 961 62 76",
        "website": "http://www.kaanpansiyon.com/index.html"
      }
    },
    {
      "type": "Feature",
      "geometry": {
        "type": "Point",
        "coordinates": [
          27.1089159,
          40.610618
        ]
      },
      "properties": {
        "id": 9014099736,
        "osm_type": "node",
        "name": "Sohbet Motel",
        "tourism": "motel",
        "phone": "+90 282 518 1400"
      }
    },
    {
      "type": "Feature",
      "geometry": {
        "type": "Point",
        "coordinates": [
          27.1495461,
          40.6178291
        ]
      },
      "properties": {
        "id": 9281778114,
        "osm_type": "node",
        "name": "Beyaz Balina Otel",
        "tourism": "hotel"
      }
    },
    {
      "type": "Feature",
      "geometry": {
        "type": "Point",
        "coordinates": [
          27.9901951,
          41.3357119
        ]
      },
      "properties": {
        "id": 9369351798,
        "osm_type": "node",
        "name": "Kapaklı Apart Hotel",
        "tourism": "hotel",
        "phone": "+905457145955"
      }
    },
    {
      "type": "Feature",
      "geometry": {
        "type": "Point",
        "coordinates": [
          27.9266642,
          41.4499979
        ]
      },
      "properties": {
        "id": 9871592806,
        "osm_type": "node",
        "name": "Halil Malkoç Apartmanı",
        "tourism": "apartment"
      }
    },
    {
      "type": "Feature",
      "geometry": {
        "type": "Point",
        "coordinates": [
          27.920562,
          41.4436755
        ]
      },
      "properties": {
        "id": 9871606161,
        "osm_type": "node",
        "name": "Mustafa & Ümmühan Kayrak Öğrenci Yurdu",
        "tourism": "motel"
      }
    },
    {
      "type": "Feature",
      "geometry": {
        "type": "Point",
        "coordinates": [
          28.0194993,
          41.2703908
        ]
      },
      "properties": {
        "id": 9950190767,
        "osm_type": "node",
        "name": "Sunvalley Apartman",
        "tourism": "apartment"
      }
    },
    {
      "type": "Feature",
      "geometry": {
        "type": "Point",
        "coordinates": [
          28.0139161,
          41.2706475
        ]
      },
      "properties": {
        "id": 9950198687,
        "osm_type": "node",
        "name": "Koru Park",
        "tourism": "apartment"
      }
    },
    {
      "type": "Feature",
      "geometry": {
        "type": "Point",
        "coordinates": [
          27.8290452,
          41.153247
        ]
      },
      "properties": {
        "id": 9968810377,
        "osm_type": "node",
        "name": "Hotel Sefa",
        "tourism": "hotel"
      }
    },
    {
      "type": "Feature",
      "geometry": {
        "type": "Point",
        "coordinates": [
          27.5229255,
          40.980133
        ]
      },
      "properties": {
        "id": 10000679691,
        "osm_type": "node",
        "name": "Rumeli Konak Otel & Cafe",
        "tourism": "hotel"
      }
    },
    {
      "type": "Feature",
      "geometry": {
        "type": "Point",
        "coordinates": [
          27.5100479,
          40.9764424
        ]
      },
      "properties": {
        "id": 10000753829,
        "osm_type": "node",
        "name": "Evim Otel",
        "tourism": "hotel",
        "phone": "+905532888075"
      }
    },
    {
      "type": "Feature",
      "geometry": {
        "type": "Point",
        "coordinates": [
          26.8740089,
          41.0714175
        ]
      },
      "properties": {
        "id": 10065460717,
        "osm_type": "node",
        "name": "The Laila Hotel",
        "tourism": "hotel",
        "phone": "+90 212 516 16 26"
      }
    },
    {
      "type": "Feature",
      "geometry": {
        "type": "Point",
        "coordinates": [
          27.9968397,
          41.2825341
        ]
      },
      "properties": {
        "id": 10127187419,
        "osm_type": "node",
        "name": "Hüser Apartmanı A/3 Blok",
        "tourism": "apartment"
      }
    },
    {
      "type": "Feature",
      "geometry": {
        "type": "Point",
        "coordinates": [
          27.998249,
          41.2826889
        ]
      },
      "properties": {
        "id": 10127188808,
        "osm_type": "node",
        "name": "Elit Butik Otel",
        "tourism": "hotel"
      }
    },
    {
      "type": "Feature",
      "geometry": {
        "type": "Point",
        "coordinates": [
          27.2321383,
          40.6599357
        ]
      },
      "properties": {
        "id": 10143341560,
        "osm_type": "node",
        "name": "Mürefte Camping",
        "tourism": "camp_site"
      }
    },
    {
      "type": "Feature",
      "geometry": {
        "type": "Point",
        "coordinates": [
          27.826063,
          40.9996397
        ]
      },
      "properties": {
        "id": 10151603002,
        "osm_type": "node",
        "name": "Yelken Apart Otel",
        "tourism": "hotel"
      }
    },
    {
      "type": "Feature",
      "geometry": {
        "type": "Point",
        "coordinates": [
          28.0590208,
          41.2841703
        ]
      },
      "properties": {
        "id": 10778373010,
        "osm_type": "node",
        "name": "Ambardere Öğrenci Yurdu",
        "tourism": "hostel"
      }
    },
    {
      "type": "Feature",
      "geometry": {
        "type": "Point",
        "coordinates": [
          27.994158,
          41.2922453
        ]
      },
      "properties": {
        "id": 10941230348,
        "osm_type": "node",
        "name": "Arsu Hotel",
        "tourism": "hotel"
      }
    },
    {
      "type": "Feature",
      "geometry": {
        "type": "Point",
        "coordinates": [
          27.9758781,
          41.3267037
        ]
      },
      "properties": {
        "id": 11070218477,
        "osm_type": "node",
        "name": "Hotel Vem & Spa",
        "tourism": "hotel"
      }
    },
    {
      "type": "Feature",
      "geometry": {
        "type": "Point",
        "coordinates": [
          27.5792684,
          40.9860363
        ]
      },
      "properties": {
        "id": 11093044625,
        "osm_type": "node",
        "name": "Consept House Butik Otel",
        "tourism": "hotel"
      }
    },
    {
      "type": "Feature",
      "geometry": {
        "type": "Point",
        "coordinates": [
          28.0111493,
          41.279015
        ]
      },
      "properties": {
        "id": 11148975294,
        "osm_type": "node",
        "name": "Er Otel Lokanta",
        "tourism": "hotel"
      }
    },
    {
      "type": "Feature",
      "geometry": {
        "type": "Point",
        "coordinates": [
          27.9997509,
          41.2844825
        ]
      },
      "properties": {
        "id": 11688740168,
        "osm_type": "node",
        "name": "Akay Otel",
        "tourism": "hotel"
      }
    },
    {
      "type": "Feature",
      "geometry": {
        "type": "Point",
        "coordinates": [
          27.7973449,
          41.1629167
        ]
      },
      "properties": {
        "id": 11831471396,
        "osm_type": "node",
        "name": "Çorlu Dem Hotel",
        "tourism": "hotel",
        "phone": "+902826540654"
      }
    },
    {
      "type": "Feature",
      "geometry": {
        "type": "Point",
        "coordinates": [
          27.799675,
          41.1631015
        ]
      },
      "properties": {
        "id": 11831475849,
        "osm_type": "node",
        "name": "Park Otel",
        "tourism": "hotel"
      }
    },
    {
      "type": "Feature",
      "geometry": {
        "type": "Point",
        "coordinates": [
          27.9911274,
          41.281502
        ]
      },
      "properties": {
        "id": 11887862369,
        "osm_type": "node",
        "name": "Öztürk Apartmanı No 38",
        "tourism": "apartment"
      }
    },
    {
      "type": "Feature",
      "geometry": {
        "type": "Point",
        "coordinates": [
          27.3073202,
          40.7025223
        ]
      },
      "properties": {
        "id": 12022418269,
        "osm_type": "node",
        "name": "Choras Butik Hotel Cafe & Restaurant",
        "tourism": "hotel",
        "phone": "+90 549 784 66 67",
        "website": "https://chorasbutikotel.com/",
        "check_date": "2024-06-30"
      }
    },
    {
      "type": "Feature",
      "geometry": {
        "type": "Point",
        "coordinates": [
          26.9511279,
          40.7857351
        ]
      },
      "properties": {
        "id": 12074840656,
        "osm_type": "node",
        "name": "Almalı Doğal Yaşam Çiftliği (Adoyaçi Kamping)",
        "tourism": "camp_site",
        "opening_hours": "24/7",
        "tents": "yes"
      }
    },
    {
      "type": "Feature",
      "geometry": {
        "type": "Point",
        "coordinates": [
          27.0864358,
          40.6743896
        ]
      },
      "properties": {
        "id": 12204605096,
        "osm_type": "node",
        "tourism": "camp_site"
      }
    },
    {
      "type": "Feature",
      "geometry": {
        "type": "Point",
        "coordinates": [
          27.8218629,
          40.9997076
        ]
      },
      "properties": {
        "id": 12244965301,
        "osm_type": "node",
        "name": "Eos Hotel",
        "tourism": "hotel"
      }
    },
    {
      "type": "Feature",
      "geometry": {
        "type": "Point",
        "coordinates": [
          27.9432034,
          41.5062897
        ]
      },
      "properties": {
        "id": 12327913557,
        "osm_type": "node",
        "name": "Otel Villa Fors",
        "tourism": "hotel"
      }
    },
    {
      "type": "Feature",
      "geometry": {
        "type": "Point",
        "coordinates": [
          27.9836873,
          41.3233844
        ]
      },
      "properties": {
        "id": 12670904507,
        "osm_type": "node",
        "name": "Özel Kapaklı Ferah Ortaöğretim Öğrenci Yurdu",
        "tourism": "guest_house"
      }
    },
    {
      "type": "Feature",
      "geometry": {
        "type": "Point",
        "coordinates": [
          28.0000156,
          41.2908618
        ]
      },
      "properties": {
        "id": 12832802023,
        "osm_type": "node",
        "name": "Özel Çelebi Ortaokul Erkek Öğrenci Yurdu",
        "tourism": "hotel"
      }
    },
    {
      "type": "Feature",
      "geometry": {
        "type": "Point",
        "coordinates": [
          27.5181289,
          40.9827882
        ]
      },
      "properties": {
        "id": 13306904969,
        "osm_type": "node",
        "name": "Grandhan hotel",
        "tourism": "hotel"
      }
    },
    {
      "type": "Feature",
      "geometry": {
        "type": "Point",
        "coordinates": [
          27.5182603,
          40.9829221
        ]
      },
      "properties": {
        "id": 13306925705,
        "osm_type": "node",
        "name": "Goldhan hotel",
        "tourism": "hotel"
      }
    },
    {
      "type": "Feature",
      "geometry": {
        "type": "Point",
        "coordinates": [
          27.8203379,
          41.1543284
        ]
      },
      "properties": {
        "id": 217141324,
        "osm_type": "way",
        "name": "Sefa Hotel",
        "tourism": "hotel"
      }
    },
    {
      "type": "Feature",
      "geometry": {
        "type": "Point",
        "coordinates": [
          27.8297937,
          41.1532826
        ]
      },
      "properties": {
        "id": 217158430,
        "osm_type": "way",
        "name": "Çorlu Divan Hotel",
        "tourism": "hotel"
      }
    },
    {
      "type": "Feature",
      "geometry": {
        "type": "Point",
        "coordinates": [
          27.8542392,
          41.1445445
        ]
      },
      "properties": {
        "id": 217516732,
        "osm_type": "way",
        "name": "Çorlu Meslek Yüksekokulu Yurdu",
        "tourism": "hostel"
      }
    },
    {
      "type": "Feature",
      "geometry": {
        "type": "Point",
        "coordinates": [
          27.8520882,
          41.1443789
        ]
      },
      "properties": {
        "id": 217516836,
        "osm_type": "way",
        "name": "Mehmet Rüştü Uzel Öğrenci Pansiyonu",
        "tourism": "hostel"
      }
    },
    {
      "type": "Feature",
      "geometry": {
        "type": "Point",
        "coordinates": [
          27.3678493,
          40.7847911
        ]
      },
      "properties": {
        "id": 232427686,
        "osm_type": "way",
        "name": "Mocamp - Çınar Kamping",
        "tourism": "camp_site"
      }
    },
    {
      "type": "Feature",
      "geometry": {
        "type": "Point",
        "coordinates": [
          27.9970743,
          41.2954246
        ]
      },
      "properties": {
        "id": 263603466,
        "osm_type": "way",
        "name": "Golden Palas Hotel (****)",
        "tourism": "hotel",
        "website": "http://www.goldenpalascerkezkoy.com/"
      }
    },
    {
      "type": "Feature",
      "geometry": {
        "type": "Point",
        "coordinates": [
          27.9976105,
          41.2930729
        ]
      },
      "properties": {
        "id": 263608571,
        "osm_type": "way",
        "name": "City Hotel (***)",
        "tourism": "hotel",
        "website": "http://www.cityhotel.com.tr/"
      }
    },
    {
      "type": "Feature",
      "geometry": {
        "type": "Point",
        "coordinates": [
          27.979151,
          41.3183626
        ]
      },
      "properties": {
        "id": 263648191,
        "osm_type": "way",
        "name": "Business Otel",
        "tourism": "hotel",
        "phone": "+90 282 717 86 86",
        "website": "https://www.cerkezkoybusinesshotel.com/"
      }
    },
    {
      "type": "Feature",
      "geometry": {
        "type": "Point",
        "coordinates": [
          27.8913302,
          41.2497343
        ]
      },
      "properties": {
        "id": 265414664,
        "osm_type": "way",
        "name": "SHILLA HOTEL (***)",
        "tourism": "hotel",
        "website": "http://www.shillaotel.com/"
      }
    },
    {
      "type": "Feature",
      "geometry": {
        "type": "Point",
        "coordinates": [
          28.0020084,
          41.2822668
        ]
      },
      "properties": {
        "id": 270197530,
        "osm_type": "way",
        "name": "Polis Evi",
        "tourism": "guest_house",
        "website": "https://www.polisevi.com/tekirdag-polisevi/"
      }
    },
    {
      "type": "Feature",
      "geometry": {
        "type": "Point",
        "coordinates": [
          27.9746583,
          41.2961445
        ]
      },
      "properties": {
        "id": 309949627,
        "osm_type": "way",
        "name": "HEMA Club",
        "tourism": "hotel"
      }
    },
    {
      "type": "Feature",
      "geometry": {
        "type": "Point",
        "coordinates": [
          27.5002966,
          41.1692461
        ]
      },
      "properties": {
        "id": 437475071,
        "osm_type": "way",
        "name": "Hotel Özdemir",
        "tourism": "hotel"
      }
    },
    {
      "type": "Feature",
      "geometry": {
        "type": "Point",
        "coordinates": [
          27.9759968,
          41.3265677
        ]
      },
      "properties": {
        "id": 446804844,
        "osm_type": "way",
        "name": "Grand Aka Hotel",
        "tourism": "hotel"
      }
    },
    {
      "type": "Feature",
      "geometry": {
        "type": "Point",
        "coordinates": [
          27.9760183,
          41.3260169
        ]
      },
      "properties": {
        "id": 446805987,
        "osm_type": "way",
        "name": "Hotel Begonya",
        "tourism": "hotel",
        "website": "https://begonyahotel.com/"
      }
    },
    {
      "type": "Feature",
      "geometry": {
        "type": "Point",
        "coordinates": [
          27.4435388,
          40.9469836
        ]
      },
      "properties": {
        "id": 449150869,
        "osm_type": "way",
        "name": "Yayoba Hotel",
        "tourism": "hotel"
      }
    },
    {
      "type": "Feature",
      "geometry": {
        "type": "Point",
        "coordinates": [
          27.9988625,
          41.2873792
        ]
      },
      "properties": {
        "id": 450510614,
        "osm_type": "way",
        "name": "Güneşler Hotel",
        "tourism": "hotel"
      }
    },
    {
      "type": "Feature",
      "geometry": {
        "type": "Point",
        "coordinates": [
          27.9929706,
          41.2882835
        ]
      },
      "properties": {
        "id": 452346729,
        "osm_type": "way",
        "name": "Çetinkaya Konaklama",
        "tourism": "apartment"
      }
    },
    {
      "type": "Feature",
      "geometry": {
        "type": "Point",
        "coordinates": [
          27.9537404,
          41.3564488
        ]
      },
      "properties": {
        "id": 492694415,
        "osm_type": "way",
        "name": "Özkanlar",
        "tourism": "apartment"
      }
    },
    {
      "type": "Feature",
      "geometry": {
        "type": "Point",
        "coordinates": [
          27.7677617,
          41.1873743
        ]
      },
      "properties": {
        "id": 500725293,
        "osm_type": "way",
        "name": "Hotel Eren",
        "tourism": "hotel"
      }
    },
    {
      "type": "Feature",
      "geometry": {
        "type": "Point",
        "coordinates": [
          27.559334,
          40.9814929
        ]
      },
      "properties": {
        "id": 546857342,
        "osm_type": "way",
        "name": "No Problem Pansiyon & Alkaya",
        "tourism": "hotel",
        "phone": "+90 282 2931220",
        "website": "https://tekirdagpansiyon.com/"
      }
    },
    {
      "type": "Feature",
      "geometry": {
        "type": "Point",
        "coordinates": [
          27.9419862,
          41.3655459
        ]
      },
      "properties": {
        "id": 593552410,
        "osm_type": "way",
        "name": "Gözel Apartmanı",
        "tourism": "apartment"
      }
    },
    {
      "type": "Feature",
      "geometry": {
        "type": "Point",
        "coordinates": [
          27.4658733,
          40.9458831
        ]
      },
      "properties": {
        "id": 610581635,
        "osm_type": "way",
        "name": "Ramada Tekirdağ",
        "tourism": "hotel",
        "phone": "+90 282 229 2929",
        "website": "https://www.ramadatekirdag.com/"
      }
    },
    {
      "type": "Feature",
      "geometry": {
        "type": "Point",
        "coordinates": [
          27.9478735,
          41.2620791
        ]
      },
      "properties": {
        "id": 624058871,
        "osm_type": "way",
        "name": "Wyndham Cerkezkoy",
        "tourism": "hotel"
      }
    },
    {
      "type": "Feature",
      "geometry": {
        "type": "Point",
        "coordinates": [
          27.4583956,
          40.8903346
        ]
      },
      "properties": {
        "id": 626381132,
        "osm_type": "way",
        "name": "Biltur Otel",
        "tourism": "hotel"
      }
    },
    {
      "type": "Feature",
      "geometry": {
        "type": "Point",
        "coordinates": [
          27.9446027,
          41.3608762
        ]
      },
      "properties": {
        "id": 655282201,
        "osm_type": "way",
        "name": "Yıldız Apartmanı",
        "tourism": "apartment"
      }
    },
    {
      "type": "Feature",
      "geometry": {
        "type": "Point",
        "coordinates": [
          27.9112789,
          41.1132377
        ]
      },
      "properties": {
        "id": 700568458,
        "osm_type": "way",
        "name": "Hotel Silverside Çorlu",
        "tourism": "hotel"
      }
    },
    {
      "type": "Feature",
      "geometry": {
        "type": "Point",
        "coordinates": [
          27.1029143,
          41.2048573
        ]
      },
      "properties": {
        "id": 840711649,
        "osm_type": "way",
        "name": "Başol Hotel",
        "tourism": "hotel"
      }
    },
    {
      "type": "Feature",
      "geometry": {
        "type": "Point",
        "coordinates": [
          27.1089407,
          41.2114133
        ]
      },
      "properties": {
        "id": 840711673,
        "osm_type": "way",
        "tourism": "apartment"
      }
    },
    {
      "type": "Feature",
      "geometry": {
        "type": "Point",
        "coordinates": [
          27.1085738,
          41.2114852
        ]
      },
      "properties": {
        "id": 840711674,
        "osm_type": "way",
        "tourism": "apartment"
      }
    },
    {
      "type": "Feature",
      "geometry": {
        "type": "Point",
        "coordinates": [
          27.9214838,
          41.4740773
        ]
      },
      "properties": {
        "id": 851962923,
        "osm_type": "way",
        "name": "Güneşkaya Piknik ve Kamp Alanı",
        "tourism": "camp_site"
      }
    },
    {
      "type": "Feature",
      "geometry": {
        "type": "Point",
        "coordinates": [
          27.4587404,
          40.8840804
        ]
      },
      "properties": {
        "id": 877754232,
        "osm_type": "way",
        "name": "Hotel Marmara",
        "tourism": "hotel"
      }
    },
    {
      "type": "Feature",
      "geometry": {
        "type": "Point",
        "coordinates": [
          27.8208503,
          41.1538752
        ]
      },
      "properties": {
        "id": 987547697,
        "osm_type": "way",
        "name": "END Glory Hotel",
        "tourism": "hotel",
        "phone": "+902826511500",
        "website": "http://www.endglory.com/"
      }
    },
    {
      "type": "Feature",
      "geometry": {
        "type": "Point",
        "coordinates": [
          28.0228686,
          41.2689032
        ]
      },
      "properties": {
        "id": 1085918485,
        "osm_type": "way",
        "name": "Hampton by Hilton Çerkezköy",
        "tourism": "hotel",
        "phone": "+90 282 999 13 53",
        "website": "https://www.hilton.com/en/hotels/teqtthx-hampton-cerkezkoy/"
      }
    },
    {
      "type": "Feature",
      "geometry": {
        "type": "Point",
        "coordinates": [
          27.5020731,
          40.9728547
        ]
      },
      "properties": {
        "id": 1095047479,
        "osm_type": "way",
        "name": "Des Otel",
        "tourism": "hotel",
        "phone": "+90 282 262 2000",
        "website": "https://www.desotel.com.tr/"
      }
    },
    {
      "type": "Feature",
      "geometry": {
        "type": "Point",
        "coordinates": [
          27.9762449,
          41.3242584
        ]
      },
      "properties": {
        "id": 1159088156,
        "osm_type": "way",
        "name": "Kent Room Hotel",
        "tourism": "hotel",
        "phone": "+90 282 502 56 76",
        "website": "https://kentroom.com/tr/"
      }
    },
    {
      "type": "Feature",
      "geometry": {
        "type": "Point",
        "coordinates": [
          27.8164447,
          41.0910738
        ]
      },
      "properties": {
        "id": 1181102169,
        "osm_type": "way",
        "name": "Royal Park Hotel",
        "tourism": "hotel",
        "phone": "+90 282 7583646",
        "website": "https://corluroyalparkhotel.com"
      }
    },
    {
      "type": "Feature",
      "geometry": {
        "type": "Point",
        "coordinates": [
          26.9054496,
          40.8913564
        ]
      },
      "properties": {
        "id": 1188504309,
        "osm_type": "way",
        "name": "Hotel Tokay",
        "tourism": "hotel"
      }
    },
    {
      "type": "Feature",
      "geometry": {
        "type": "Point",
        "coordinates": [
          27.6092967,
          40.9933798
        ]
      },
      "properties": {
        "id": 1254795204,
        "osm_type": "way",
        "name": "Çağdaş Öğrenci Evleri",
        "tourism": "hostel"
      }
    },
    {
      "type": "Feature",
      "geometry": {
        "type": "Point",
        "coordinates": [
          27.6091937,
          40.9928642
        ]
      },
      "properties": {
        "id": 1254795205,
        "osm_type": "way",
        "name": "Çağdaş Öğrenci Evleri",
        "tourism": "hostel"
      }
    },
    {
      "type": "Feature",
      "geometry": {
        "type": "Point",
        "coordinates": [
          27.9222074,
          41.4359853
        ]
      },
      "properties": {
        "id": 1275881431,
        "osm_type": "way",
        "name": "Hattuşa Termal Hotel Saray",
        "tourism": "hotel"
      }
    },
    {
      "type": "Feature",
      "geometry": {
        "type": "Point",
        "coordinates": [
          27.9978268,
          41.2864262
        ]
      },
      "properties": {
        "id": 1433666807,
        "osm_type": "way",
        "name": "Merkez Otel",
        "tourism": "hotel"
      }
    },
    {
      "type": "Feature",
      "geometry": {
        "type": "Point",
        "coordinates": [
          27.948654,
          41.2825862
        ]
      },
      "properties": {
        "id": 1472135678,
        "osm_type": "way",
        "name": "Çerkezköy KYK Yurdu",
        "tourism": "apartment",
        "phone": "+902827582280"
      }
    },
    {
      "type": "Feature",
      "geometry": {
        "type": "Point",
        "coordinates": [
          27.9369067,
          41.4710264
        ]
      },
      "properties": {
        "id": 1484290752,
        "osm_type": "way",
        "name": "The Life Nest Otel & Restoran",
        "tourism": "hotel",
        "website": "https://thelifenesthotel.com"
      }
    }
  ]
}