{
  "type": "FeatureCollection",
  "features": [
    {
      "type": "Feature",
      "geometry": {
        "type": "Point",
        "coordinates": [
          32.6923763,
          41.2470389
        ]
      },
      "properties": {
        "id": 2512529487,
        "osm_type": "node",
        "name": "Mehves Hanim Konagi",
        "tourism": "guest_house",
        "phone": "+90 370 712 87 87",
        "website": "http://www.mehveshanimkonagi.com.tr"
      }
    },
    {
      "type": "Feature",
      "geometry": {
        "type": "Point",
        "coordinates": [
          32.6933378,
          41.2445973
        ]
      },
      "properties": {
        "id": 2846566284,
        "osm_type": "node",
        "tourism": "hotel"
      }
    },
    {
      "type": "Feature",
      "geometry": {
        "type": "Point",
        "coordinates": [
          32.6925417,
          41.2451935
        ]
      },
      "properties": {
        "id": 2846566643,
        "osm_type": "node",
        "tourism": "hotel"
      }
    },
    {
      "type": "Feature",
      "geometry": {
        "type": "Point",
        "coordinates": [
          32.6910691,
          41.2450366
        ]
      },
      "properties": {
        "id": 3762781820,
        "osm_type": "node",
        "tourism": "hotel"
      }
    },
    {
      "type": "Feature",
      "geometry": {
        "type": "Point",
        "coordinates": [
          32.6924763,
          41.2462774
        ]
      },
      "properties": {
        "id": 4248934497,
        "osm_type": "node",
        "name": "일디즈 사리 코낙 호텔",
        "tourism": "hotel"
      }
    },
    {
      "type": "Feature",
      "geometry": {
        "type": "Point",
        "coordinates": [
          32.6841688,
          41.2497554
        ]
      },
      "properties": {
        "id": 4338044392,
        "osm_type": "node",
        "name": "Safran Otel",
        "tourism": "motel",
        "phone": "7121726"
      }
    },
    {
      "type": "Feature",
      "geometry": {
        "type": "Point",
        "coordinates": [
          32.4289427,
          41.0837729
        ]
      },
      "properties": {
        "id": 4405765390,
        "osm_type": "node",
        "name": "Eğriova Göleti Kamp Alanı",
        "tourism": "camp_site"
      }
    },
    {
      "type": "Feature",
      "geometry": {
        "type": "Point",
        "coordinates": [
          32.6744915,
          41.2583853
        ]
      },
      "properties": {
        "id": 4605438780,
        "osm_type": "node",
        "name": "Hilton Garden Inn Safranbolu",
        "tourism": "hotel",
        "phone": "+90 370 419 1130",
        "website": "https://www.hilton.com/en/hotels/kfskagi-hilton-garden-inn-safranbolu/"
      }
    },
    {
      "type": "Feature",
      "geometry": {
        "type": "Point",
        "coordinates": [
          32.6923248,
          41.246703
        ]
      },
      "properties": {
        "id": 5102376524,
        "osm_type": "node",
        "tourism": "hotel"
      }
    },
    {
      "type": "Feature",
      "geometry": {
        "type": "Point",
        "coordinates": [
          32.6933347,
          41.2464508
        ]
      },
      "properties": {
        "id": 5252992821,
        "osm_type": "node",
        "tourism": "hotel"
      }
    },
    {
      "type": "Feature",
      "geometry": {
        "type": "Point",
        "coordinates": [
          32.6975204,
          41.2453527
        ]
      },
      "properties": {
        "id": 5326118721,
        "osm_type": "node",
        "tourism": "hotel"
      }
    },
    {
      "type": "Feature",
      "geometry": {
        "type": "Point",
        "coordinates": [
          32.7510895,
          41.2135552
        ]
      },
      "properties": {
        "id": 5683685826,
        "osm_type": "node",
        "tourism": "hotel"
      }
    },
    {
      "type": "Feature",
      "geometry": {
        "type": "Point",
        "coordinates": [
          32.6745372,
          41.2497516
        ]
      },
      "properties": {
        "id": 5732650421,
        "osm_type": "node",
        "tourism": "hostel"
      }
    },
    {
      "type": "Feature",
      "geometry": {
        "type": "Point",
        "coordinates": [
          32.9548254,
          41.4231246
        ]
      },
      "properties": {
        "id": 6104174685,
        "osm_type": "node",
        "tourism": "hostel"
      }
    },
    {
      "type": "Feature",
      "geometry": {
        "type": "Point",
        "coordinates": [
          32.6937545,
          41.2443647
        ]
      },
      "properties": {
        "id": 6612800798,
        "osm_type": "node",
        "name": "Huseyin Bey Konagi",
        "tourism": "hotel"
      }
    },
    {
      "type": "Feature",
      "geometry": {
        "type": "Point",
        "coordinates": [
          32.69607,
          41.2437471
        ]
      },
      "properties": {
        "id": 6621897486,
        "osm_type": "node",
        "name": "Hıdırlık konakları",
        "tourism": "hotel",
        "opening_hours": "24/7"
      }
    },
    {
      "type": "Feature",
      "geometry": {
        "type": "Point",
        "coordinates": [
          32.6249793,
          41.1973557
        ]
      },
      "properties": {
        "id": 7764903589,
        "osm_type": "node",
        "name": "Karabük Polis Evi",
        "tourism": "guest_house",
        "website": "https://www.polisevi.com/karabuk-polisevi/"
      }
    },
    {
      "type": "Feature",
      "geometry": {
        "type": "Point",
        "coordinates": [
          32.6187548,
          41.3124827
        ]
      },
      "properties": {
        "id": 7904371485,
        "osm_type": "node",
        "name": "Sarıçiçek Yaylası ve Göleti Kamp Alanı",
        "tourism": "camp_site",
        "opening_hours": "24/7"
      }
    },
    {
      "type": "Feature",
      "geometry": {
        "type": "Point",
        "coordinates": [
          32.4888009,
          41.0154717
        ]
      },
      "properties": {
        "id": 8037730885,
        "osm_type": "node",
        "name": "Çetiören",
        "tourism": "camp_site"
      }
    },
    {
      "type": "Feature",
      "geometry": {
        "type": "Point",
        "coordinates": [
          32.6706638,
          41.264668
        ]
      },
      "properties": {
        "id": 8329465937,
        "osm_type": "node",
        "name": "Şadiye Hanım Konağı - Restaurant & Hôtel",
        "tourism": "guest_house"
      }
    },
    {
      "type": "Feature",
      "geometry": {
        "type": "Point",
        "coordinates": [
          32.662966,
          41.2173562
        ]
      },
      "properties": {
        "id": 8725113117,
        "osm_type": "node",
        "name": "Şehzade Erkek Öğrenci Yurdu",
        "tourism": "hostel"
      }
    },
    {
      "type": "Feature",
      "geometry": {
        "type": "Point",
        "coordinates": [
          32.6643062,
          41.2247629
        ]
      },
      "properties": {
        "id": 8941668017,
        "osm_type": "node",
        "name": "karabuk 2nd house",
        "tourism": "apartment"
      }
    },
    {
      "type": "Feature",
      "geometry": {
        "type": "Point",
        "coordinates": [
          32.6685405,
          41.2631847
        ]
      },
      "properties": {
        "id": 9663302798,
        "osm_type": "node",
        "name": "Safir Konağı",
        "tourism": "hotel"
      }
    },
    {
      "type": "Feature",
      "geometry": {
        "type": "Point",
        "coordinates": [
          32.6688394,
          41.263893
        ]
      },
      "properties": {
        "id": 9663318971,
        "osm_type": "node",
        "name": "Safran Konak",
        "tourism": "hotel"
      }
    },
    {
      "type": "Feature",
      "geometry": {
        "type": "Point",
        "coordinates": [
          32.6713541,
          41.2606245
        ]
      },
      "properties": {
        "id": 9702558863,
        "osm_type": "node",
        "name": "Park Otel",
        "tourism": "hotel"
      }
    },
    {
      "type": "Feature",
      "geometry": {
        "type": "Point",
        "coordinates": [
          32.6750981,
          41.2563958
        ]
      },
      "properties": {
        "id": 9702660403,
        "osm_type": "node",
        "name": "Bağlar Saray",
        "tourism": "hotel"
      }
    },
    {
      "type": "Feature",
      "geometry": {
        "type": "Point",
        "coordinates": [
          32.6859191,
          41.2479999
        ]
      },
      "properties": {
        "id": 9735303011,
        "osm_type": "node",
        "name": "Yorgancioglu Konak",
        "tourism": "hotel"
      }
    },
    {
      "type": "Feature",
      "geometry": {
        "type": "Point",
        "coordinates": [
          32.6831797,
          41.248808
        ]
      },
      "properties": {
        "id": 9736361643,
        "osm_type": "node",
        "name": "Çelik Palas Otel",
        "tourism": "hotel"
      }
    },
    {
      "type": "Feature",
      "geometry": {
        "type": "Point",
        "coordinates": [
          32.685619,
          41.2482099
        ]
      },
      "properties": {
        "id": 9736361901,
        "osm_type": "node",
        "name": "Erciyes Konak Otel",
        "tourism": "hotel"
      }
    },
    {
      "type": "Feature",
      "geometry": {
        "type": "Point",
        "coordinates": [
          32.685091,
          41.2485996
        ]
      },
      "properties": {
        "id": 9736382457,
        "osm_type": "node",
        "name": "Nazar Pansiyon",
        "tourism": "guest_house"
      }
    },
    {
      "type": "Feature",
      "geometry": {
        "type": "Point",
        "coordinates": [
          32.6828174,
          41.2483545
        ]
      },
      "properties": {
        "id": 9736387481,
        "osm_type": "node",
        "name": "SULTAN SARAY OTEL",
        "tourism": "hotel",
        "phone": "+90 545 725 24 32"
      }
    },
    {
      "type": "Feature",
      "geometry": {
        "type": "Point",
        "coordinates": [
          32.6847369,
          41.2479576
        ]
      },
      "properties": {
        "id": 9755003954,
        "osm_type": "node",
        "name": "Paflagonya Konak",
        "tourism": "hostel"
      }
    },
    {
      "type": "Feature",
      "geometry": {
        "type": "Point",
        "coordinates": [
          32.6860914,
          41.2464619
        ]
      },
      "properties": {
        "id": 9756848843,
        "osm_type": "node",
        "name": "Degirmenci Konak",
        "tourism": "hotel"
      }
    },
    {
      "type": "Feature",
      "geometry": {
        "type": "Point",
        "coordinates": [
          32.6829179,
          41.2507313
        ]
      },
      "properties": {
        "id": 9756854349,
        "osm_type": "node",
        "name": "Inci Otel",
        "tourism": "hotel"
      }
    },
    {
      "type": "Feature",
      "geometry": {
        "type": "Point",
        "coordinates": [
          32.7017952,
          41.2723108
        ]
      },
      "properties": {
        "id": 10013083917,
        "osm_type": "node",
        "tourism": "hotel"
      }
    },
    {
      "type": "Feature",
      "geometry": {
        "type": "Point",
        "coordinates": [
          32.7158285,
          41.2250442
        ]
      },
      "properties": {
        "id": 10286113009,
        "osm_type": "node",
        "tourism": "guest_house"
      }
    },
    {
      "type": "Feature",
      "geometry": {
        "type": "Point",
        "coordinates": [
          32.685725,
          41.2494224
        ]
      },
      "properties": {
        "id": 10720956105,
        "osm_type": "node",
        "name": "Güney Konak & Otel",
        "tourism": "hotel"
      }
    },
    {
      "type": "Feature",
      "geometry": {
        "type": "Point",
        "coordinates": [
          32.8071256,
          41.537202
        ]
      },
      "properties": {
        "id": 10803831182,
        "osm_type": "node",
        "name": "GÖKÇELER YAYLASI",
        "tourism": "camp_site"
      }
    },
    {
      "type": "Feature",
      "geometry": {
        "type": "Point",
        "coordinates": [
          32.6704053,
          41.2196194
        ]
      },
      "properties": {
        "id": 13042499002,
        "osm_type": "node",
        "name": "Safran Germia Palas",
        "tourism": "hotel",
        "phone": "+90 370 433 52 52",
        "website": "https://www.safrangermia.com/"
      }
    },
    {
      "type": "Feature",
      "geometry": {
        "type": "Point",
        "coordinates": [
          32.6944435,
          41.2452695
        ]
      },
      "properties": {
        "id": 13753285401,
        "osm_type": "node",
        "name": "Ruya Konak Otel",
        "tourism": "guest_house"
      }
    },
    {
      "type": "Feature",
      "geometry": {
        "type": "Point",
        "coordinates": [
          32.694544,
          41.2452974
        ]
      },
      "properties": {
        "id": 13765586501,
        "osm_type": "node",
        "tourism": "guest_house"
      }
    },
    {
      "type": "Feature",
      "geometry": {
        "type": "Point",
        "coordinates": [
          32.6828886,
          41.2477259
        ]
      },
      "properties": {
        "id": 169164104,
        "osm_type": "way",
        "name": "Zalifre",
        "tourism": "hotel",
        "website": "http://www.zalifreotel.com/"
      }
    },
    {
      "type": "Feature",
      "geometry": {
        "type": "Point",
        "coordinates": [
          32.693886,
          41.2481364
        ]
      },
      "properties": {
        "id": 319025398,
        "osm_type": "way",
        "name": "Kadioglu Hotel",
        "tourism": "hotel"
      }
    },
    {
      "type": "Feature",
      "geometry": {
        "type": "Point",
        "coordinates": [
          32.6271103,
          41.2032157
        ]
      },
      "properties": {
        "id": 334788570,
        "osm_type": "way",
        "name": "Karabük Öğretmenevi",
        "tourism": "hotel",
        "phone": "+90 370 415 2411",
        "website": "https://karabukogretmenevi.com.tr/"
      }
    },
    {
      "type": "Feature",
      "geometry": {
        "type": "Point",
        "coordinates": [
          32.6929497,
          41.2478877
        ]
      },
      "properties": {
        "id": 339201663,
        "osm_type": "way",
        "name": "Kadioglu Hotel & Gamping",
        "tourism": "camp_site",
        "tents": "yes"
      }
    }
  ]
}