{
  "type": "FeatureCollection",
  "features": [
    {
      "type": "Feature",
      "geometry": {
        "type": "Point",
        "coordinates": [
          21.72858,
          42.3720486
        ]
      },
      "properties": {
        "id": 1013596781,
        "osm_type": "node",
        "name": "Ibro Raj",
        "tourism": "hotel"
      }
    },
    {
      "type": "Feature",
      "geometry": {
        "type": "Point",
        "coordinates": [
          21.7276098,
          42.3525619
        ]
      },
      "properties": {
        "id": 1027223921,
        "osm_type": "node",
        "name": "Milenium",
        "tourism": "motel"
      }
    },
    {
      "type": "Feature",
      "geometry": {
        "type": "Point",
        "coordinates": [
          21.6969655,
          42.3109382
        ]
      },
      "properties": {
        "id": 1027227204,
        "osm_type": "node",
        "name": "Non Trouvé",
        "tourism": "hotel"
      }
    },
    {
      "type": "Feature",
      "geometry": {
        "type": "Point",
        "coordinates": [
          21.6497436,
          42.3066903
        ]
      },
      "properties": {
        "id": 1853381486,
        "osm_type": "node",
        "name": "Arnold",
        "tourism": "hotel"
      }
    },
    {
      "type": "Feature",
      "geometry": {
        "type": "Point",
        "coordinates": [
          21.8993912,
          42.5512532
        ]
      },
      "properties": {
        "id": 2800582470,
        "osm_type": "node",
        "name": "B&B Rose",
        "tourism": "apartment"
      }
    },
    {
      "type": "Feature",
      "geometry": {
        "type": "Point",
        "coordinates": [
          21.8973667,
          42.5692596
        ]
      },
      "properties": {
        "id": 3474125257,
        "osm_type": "node",
        "name": "Pržar, hotel",
        "tourism": "hotel"
      }
    },
    {
      "type": "Feature",
      "geometry": {
        "type": "Point",
        "coordinates": [
          21.8970446,
          42.5549298
        ]
      },
      "properties": {
        "id": 4034079301,
        "osm_type": "node",
        "name": "Hotel Vranje",
        "tourism": "hotel"
      }
    },
    {
      "type": "Feature",
      "geometry": {
        "type": "Point",
        "coordinates": [
          21.9046807,
          42.5073574
        ]
      },
      "properties": {
        "id": 4385143889,
        "osm_type": "node",
        "name": "Enigma camping",
        "tourism": "camp_site",
        "tents": "yes",
        "website": "https://www.enigmacamping.com/"
      }
    },
    {
      "type": "Feature",
      "geometry": {
        "type": "Point",
        "coordinates": [
          21.6490024,
          42.3642047
        ]
      },
      "properties": {
        "id": 4490197189,
        "osm_type": "node",
        "tourism": "alpine_hut",
        "opening_hours": "24/7",
        "phone": "+38163460514"
      }
    },
    {
      "type": "Feature",
      "geometry": {
        "type": "Point",
        "coordinates": [
          21.6497692,
          42.3082001
        ]
      },
      "properties": {
        "id": 4547991701,
        "osm_type": "node",
        "tourism": "hotel"
      }
    },
    {
      "type": "Feature",
      "geometry": {
        "type": "Point",
        "coordinates": [
          21.6582775,
          42.2805316
        ]
      },
      "properties": {
        "id": 4755795721,
        "osm_type": "node",
        "tourism": "guest_house"
      }
    },
    {
      "type": "Feature",
      "geometry": {
        "type": "Point",
        "coordinates": [
          21.6469064,
          42.3051531
        ]
      },
      "properties": {
        "id": 5660549053,
        "osm_type": "node",
        "tourism": "apartment"
      }
    },
    {
      "type": "Feature",
      "geometry": {
        "type": "Point",
        "coordinates": [
          21.6598736,
          42.3052019
        ]
      },
      "properties": {
        "id": 6111423385,
        "osm_type": "node",
        "name": "Golden Palace",
        "tourism": "apartment"
      }
    },
    {
      "type": "Feature",
      "geometry": {
        "type": "Point",
        "coordinates": [
          22.3251433,
          42.7125179
        ]
      },
      "properties": {
        "id": 6326452537,
        "osm_type": "node",
        "name": "Vila Best",
        "tourism": "hotel",
        "phone": "+38163401121",
        "website": "https://www.vilabest.rs/"
      }
    },
    {
      "type": "Feature",
      "geometry": {
        "type": "Point",
        "coordinates": [
          21.6499621,
          42.3102932
        ]
      },
      "properties": {
        "id": 6680881987,
        "osm_type": "node",
        "tourism": "apartment"
      }
    },
    {
      "type": "Feature",
      "geometry": {
        "type": "Point",
        "coordinates": [
          21.9112913,
          42.5410553
        ]
      },
      "properties": {
        "id": 11280080469,
        "osm_type": "node",
        "tourism": "apartment"
      }
    },
    {
      "type": "Feature",
      "geometry": {
        "type": "Point",
        "coordinates": [
          21.7218222,
          42.3492322
        ]
      },
      "properties": {
        "id": 11982492126,
        "osm_type": "node",
        "name": "V-Hotel",
        "tourism": "hotel",
        "check_date": "2024-06-15"
      }
    },
    {
      "type": "Feature",
      "geometry": {
        "type": "Point",
        "coordinates": [
          22.0591394,
          42.707491
        ]
      },
      "properties": {
        "id": 13356228302,
        "osm_type": "node",
        "name": "Turist",
        "tourism": "hotel"
      }
    },
    {
      "type": "Feature",
      "geometry": {
        "type": "Point",
        "coordinates": [
          21.9041242,
          42.5523337
        ]
      },
      "properties": {
        "id": 13748550385,
        "osm_type": "node",
        "name": "Apartman Vranje",
        "tourism": "apartment",
        "phone": "+38169709091",
        "website": "https://www.booking.com/hotel/rs/apartman-vranje-vranje.sr.html?aid=356980&label=gog235jc-10CAsowQFCFmFwYXJ0bWFuLXZyYW5qZS12cmFuamVIJFgDaMEBiAEBmAEzuAEXyAEM2AED6AEB-AEBiAIBqAIBuAKpzp3PBsACAdICJGIwOTk3ZjY1LTAxNTktNGQxYy1hNDllLTBkMDI2NGZmN2M1NdgCAeACAQ&sid="
      }
    },
    {
      "type": "Feature",
      "geometry": {
        "type": "Point",
        "coordinates": [
          21.7275853,
          42.3524077
        ]
      },
      "properties": {
        "id": 99411380,
        "osm_type": "way",
        "name": "Camping Plac",
        "tourism": "camp_site"
      }
    },
    {
      "type": "Feature",
      "geometry": {
        "type": "Point",
        "coordinates": [
          22.3282266,
          42.7394503
        ]
      },
      "properties": {
        "id": 207063652,
        "osm_type": "way",
        "name": "Хотел Власина",
        "tourism": "hotel"
      }
    },
    {
      "type": "Feature",
      "geometry": {
        "type": "Point",
        "coordinates": [
          22.0091806,
          42.5465242
        ]
      },
      "properties": {
        "id": 256656501,
        "osm_type": "way",
        "name": "Железничар",
        "tourism": "hotel"
      }
    },
    {
      "type": "Feature",
      "geometry": {
        "type": "Point",
        "coordinates": [
          22.1939851,
          42.5407713
        ]
      },
      "properties": {
        "id": 259276716,
        "osm_type": "way",
        "name": "Планинарски дом Бесна кобила",
        "tourism": "alpine_hut",
        "website": "http://www.besnakobila.rs"
      }
    },
    {
      "type": "Feature",
      "geometry": {
        "type": "Point",
        "coordinates": [
          21.9140702,
          42.5324161
        ]
      },
      "properties": {
        "id": 265802172,
        "osm_type": "way",
        "name": "Врање",
        "tourism": "motel"
      }
    },
    {
      "type": "Feature",
      "geometry": {
        "type": "Point",
        "coordinates": [
          22.1777948,
          42.6885835
        ]
      },
      "properties": {
        "id": 344130032,
        "osm_type": "way",
        "tourism": "hotel"
      }
    },
    {
      "type": "Feature",
      "geometry": {
        "type": "Point",
        "coordinates": [
          21.896957,
          42.5555006
        ]
      },
      "properties": {
        "id": 397765629,
        "osm_type": "way",
        "name": "Hotel Vranje",
        "tourism": "hotel"
      }
    },
    {
      "type": "Feature",
      "geometry": {
        "type": "Point",
        "coordinates": [
          21.9515424,
          42.785042
        ]
      },
      "properties": {
        "id": 690352191,
        "osm_type": "way",
        "name": "Планинарски дом „Прека вода”",
        "tourism": "alpine_hut"
      }
    },
    {
      "type": "Feature",
      "geometry": {
        "type": "Point",
        "coordinates": [
          22.0862553,
          42.3618733
        ]
      },
      "properties": {
        "id": 693551470,
        "osm_type": "way",
        "name": "Филип II",
        "tourism": "hotel"
      }
    },
    {
      "type": "Feature",
      "geometry": {
        "type": "Point",
        "coordinates": [
          22.3288539,
          42.7427809
        ]
      },
      "properties": {
        "id": 962892041,
        "osm_type": "way",
        "name": "Власински вртови",
        "tourism": "apartment",
        "contact:phone": "+38117409640",
        "contact:website": "https://vlasinskivrtovi.com/"
      }
    },
    {
      "type": "Feature",
      "geometry": {
        "type": "Point",
        "coordinates": [
          21.9020661,
          42.5449314
        ]
      },
      "properties": {
        "id": 1094586370,
        "osm_type": "way",
        "name": "Royal Putnik",
        "tourism": "hotel",
        "phone": "+381 17 7400777",
        "website": "http://royalputnik.com"
      }
    },
    {
      "type": "Feature",
      "geometry": {
        "type": "Point",
        "coordinates": [
          22.3271068,
          42.7438767
        ]
      },
      "properties": {
        "id": 1301177718,
        "osm_type": "way",
        "name": "MM Narcis",
        "tourism": "hotel",
        "contact:phone": "+38163410995"
      }
    },
    {
      "type": "Feature",
      "geometry": {
        "type": "Point",
        "coordinates": [
          22.3355169,
          42.7335756
        ]
      },
      "properties": {
        "id": 1412326255,
        "osm_type": "way",
        "name": "Auto-kamp",
        "tourism": "caravan_site"
      }
    }
  ]
}