{
  "type": "FeatureCollection",
  "features": [
    {
      "type": "Feature",
      "geometry": {
        "type": "Point",
        "coordinates": [
          21.8409312,
          43.1340202
        ]
      },
      "properties": {
        "id": 4648894890,
        "osm_type": "node",
        "name": "Caja sarlince",
        "tourism": "hotel"
      }
    },
    {
      "type": "Feature",
      "geometry": {
        "type": "Point",
        "coordinates": [
          21.9417788,
          42.9972692
        ]
      },
      "properties": {
        "id": 5057260620,
        "osm_type": "node",
        "tourism": "hostel"
      }
    },
    {
      "type": "Feature",
      "geometry": {
        "type": "Point",
        "coordinates": [
          21.9432344,
          42.9929212
        ]
      },
      "properties": {
        "id": 5726418723,
        "osm_type": "node",
        "name": "Apartmani Asterix",
        "tourism": "hotel",
        "phone": "+381 62 8959447"
      }
    },
    {
      "type": "Feature",
      "geometry": {
        "type": "Point",
        "coordinates": [
          21.604388,
          42.7745136
        ]
      },
      "properties": {
        "id": 12714164817,
        "osm_type": "node",
        "name": "Onyx",
        "tourism": "hotel",
        "phone": "+381 69 2005005",
        "website": "https://hotelonyx.rs/"
      }
    },
    {
      "type": "Feature",
      "geometry": {
        "type": "Point",
        "coordinates": [
          21.9667823,
          42.9888809
        ]
      },
      "properties": {
        "id": 13256624779,
        "osm_type": "node",
        "name": "Kompleks Apostolović",
        "tourism": "hostel",
        "opening_hours": "Mo-Fr 08:00-24:00; Sa-Su 08:00-1:00",
        "phone": "+381 16 258122",
        "website": "https://kompleksapostolovic.rs/"
      }
    },
    {
      "type": "Feature",
      "geometry": {
        "type": "Point",
        "coordinates": [
          21.9686566,
          42.9979605
        ]
      },
      "properties": {
        "id": 13609292557,
        "osm_type": "node",
        "name": "Park",
        "tourism": "hotel"
      }
    },
    {
      "type": "Feature",
      "geometry": {
        "type": "Point",
        "coordinates": [
          21.9456305,
          42.995701
        ]
      },
      "properties": {
        "id": 13656633462,
        "osm_type": "node",
        "name": "ABC",
        "tourism": "hotel",
        "opening_hours": "Mo-Su 10:00-20:00",
        "phone": "+381 65 4150600",
        "website": "https://abcleskovac.com"
      }
    },
    {
      "type": "Feature",
      "geometry": {
        "type": "Point",
        "coordinates": [
          21.9456377,
          42.9955788
        ]
      },
      "properties": {
        "id": 13656633463,
        "osm_type": "node",
        "name": "Zyra",
        "tourism": "hotel",
        "phone": "+381 16 3150390",
        "website": "https://hotelzyra.com"
      }
    },
    {
      "type": "Feature",
      "geometry": {
        "type": "Point",
        "coordinates": [
          22.1322206,
          42.8327412
        ]
      },
      "properties": {
        "id": 127072061,
        "osm_type": "way",
        "name": "Мотел Предејане",
        "tourism": "motel"
      }
    },
    {
      "type": "Feature",
      "geometry": {
        "type": "Point",
        "coordinates": [
          21.5467752,
          43.0000255
        ]
      },
      "properties": {
        "id": 209645856,
        "osm_type": "way",
        "name": "Мотел Радан",
        "tourism": "motel"
      }
    },
    {
      "type": "Feature",
      "geometry": {
        "type": "Point",
        "coordinates": [
          21.922914,
          42.8301493
        ]
      },
      "properties": {
        "id": 209734968,
        "osm_type": "way",
        "name": "Хотел Влаина",
        "tourism": "hotel"
      }
    },
    {
      "type": "Feature",
      "geometry": {
        "type": "Point",
        "coordinates": [
          21.9366332,
          43.0032167
        ]
      },
      "properties": {
        "id": 278910314,
        "osm_type": "way",
        "name": "Hajat",
        "tourism": "hotel",
        "website": "http://www.hotelhajats.com"
      }
    },
    {
      "type": "Feature",
      "geometry": {
        "type": "Point",
        "coordinates": [
          21.932317,
          43.0045954
        ]
      },
      "properties": {
        "id": 278910315,
        "osm_type": "way",
        "name": "Etno Brvnara Groš",
        "tourism": "hotel"
      }
    },
    {
      "type": "Feature",
      "geometry": {
        "type": "Point",
        "coordinates": [
          21.7384239,
          42.9164036
        ]
      },
      "properties": {
        "id": 344243364,
        "osm_type": "way",
        "name": "Хотел Јустинијана- Царичин град",
        "tourism": "hotel"
      }
    },
    {
      "type": "Feature",
      "geometry": {
        "type": "Point",
        "coordinates": [
          21.9449897,
          42.9960291
        ]
      },
      "properties": {
        "id": 427020477,
        "osm_type": "way",
        "name": "Лесковац",
        "tourism": "hotel",
        "phone": "+381 16 3150600",
        "website": "https://hotelleskovac.com/"
      }
    },
    {
      "type": "Feature",
      "geometry": {
        "type": "Point",
        "coordinates": [
          21.9959904,
          42.975023
        ]
      },
      "properties": {
        "id": 620199394,
        "osm_type": "way",
        "tourism": "hotel"
      }
    },
    {
      "type": "Feature",
      "geometry": {
        "type": "Point",
        "coordinates": [
          22.1348247,
          42.9639413
        ]
      },
      "properties": {
        "id": 877672695,
        "osm_type": "way",
        "name": "хотел Грозд",
        "tourism": "hotel"
      }
    },
    {
      "type": "Feature",
      "geometry": {
        "type": "Point",
        "coordinates": [
          21.9690948,
          42.9896822
        ]
      },
      "properties": {
        "id": 881124083,
        "osm_type": "way",
        "name": "Central Inn",
        "tourism": "hotel"
      }
    },
    {
      "type": "Feature",
      "geometry": {
        "type": "Point",
        "coordinates": [
          21.978746,
          43.0027009
        ]
      },
      "properties": {
        "id": 1388607262,
        "osm_type": "way",
        "name": "Bella Nella",
        "tourism": "hotel",
        "opening_hours": "24/7",
        "phone": "+381 66 406606",
        "website": "https://www.bellanella.rs/"
      }
    }
  ]
}