{
  "type": "FeatureCollection",
  "features": [
    {
      "type": "Feature",
      "geometry": {
        "type": "Point",
        "coordinates": [
          22.3943549,
          44.7254291
        ]
      },
      "properties": {
        "id": 259183923,
        "osm_type": "node",
        "name": "Hotel Meridian",
        "tourism": "hotel"
      }
    },
    {
      "type": "Feature",
      "geometry": {
        "type": "Point",
        "coordinates": [
          22.3315725,
          44.6789502
        ]
      },
      "properties": {
        "id": 885841758,
        "osm_type": "node",
        "name": "Pensiunea Danubia",
        "tourism": "guest_house"
      }
    },
    {
      "type": "Feature",
      "geometry": {
        "type": "Point",
        "coordinates": [
          22.3207471,
          44.6746794
        ]
      },
      "properties": {
        "id": 885841759,
        "osm_type": "node",
        "name": "Steaua Dunării",
        "tourism": "guest_house"
      }
    },
    {
      "type": "Feature",
      "geometry": {
        "type": "Point",
        "coordinates": [
          22.3480623,
          44.6820844
        ]
      },
      "properties": {
        "id": 885841760,
        "osm_type": "node",
        "name": "Pensiunea Doina",
        "tourism": "guest_house"
      }
    },
    {
      "type": "Feature",
      "geometry": {
        "type": "Point",
        "coordinates": [
          22.3203932,
          44.6746624
        ]
      },
      "properties": {
        "id": 885841761,
        "osm_type": "node",
        "name": "La Ponton",
        "tourism": "guest_house"
      }
    },
    {
      "type": "Feature",
      "geometry": {
        "type": "Point",
        "coordinates": [
          22.3601451,
          44.6839546
        ]
      },
      "properties": {
        "id": 885841762,
        "osm_type": "node",
        "name": "Pensiunea Yuppi Du",
        "tourism": "guest_house"
      }
    },
    {
      "type": "Feature",
      "geometry": {
        "type": "Point",
        "coordinates": [
          22.3064172,
          44.6686953
        ]
      },
      "properties": {
        "id": 886296943,
        "osm_type": "node",
        "name": "Pensiunea Miraj",
        "tourism": "guest_house"
      }
    },
    {
      "type": "Feature",
      "geometry": {
        "type": "Point",
        "coordinates": [
          22.6256562,
          44.6249339
        ]
      },
      "properties": {
        "id": 954585558,
        "osm_type": "node",
        "name": "Hotel Flora",
        "tourism": "hotel",
        "phone": "+40 252 333116",
        "website": "https://hotel-flora.ro/"
      }
    },
    {
      "type": "Feature",
      "geometry": {
        "type": "Point",
        "coordinates": [
          22.3966936,
          44.7244968
        ]
      },
      "properties": {
        "id": 2294972795,
        "osm_type": "node",
        "name": "Hostel Manea",
        "tourism": "hostel"
      }
    },
    {
      "type": "Feature",
      "geometry": {
        "type": "Point",
        "coordinates": [
          22.0639562,
          44.5399194
        ]
      },
      "properties": {
        "id": 2294989979,
        "osm_type": "node",
        "tourism": "motel"
      }
    },
    {
      "type": "Feature",
      "geometry": {
        "type": "Point",
        "coordinates": [
          22.3320352,
          44.6788175
        ]
      },
      "properties": {
        "id": 2362601883,
        "osm_type": "node",
        "name": "Danubia",
        "tourism": "caravan_site"
      }
    },
    {
      "type": "Feature",
      "geometry": {
        "type": "Point",
        "coordinates": [
          22.7505855,
          44.5302341
        ]
      },
      "properties": {
        "id": 2427893694,
        "osm_type": "node",
        "name": "Pensiunea San & Gino",
        "tourism": "guest_house"
      }
    },
    {
      "type": "Feature",
      "geometry": {
        "type": "Point",
        "coordinates": [
          22.7140709,
          44.5168782
        ]
      },
      "properties": {
        "id": 2427893695,
        "osm_type": "node",
        "name": "Popas",
        "tourism": "guest_house"
      }
    },
    {
      "type": "Feature",
      "geometry": {
        "type": "Point",
        "coordinates": [
          22.7478117,
          44.6040836
        ]
      },
      "properties": {
        "id": 2562714456,
        "osm_type": "node",
        "name": "Hotel Eden",
        "tourism": "hotel",
        "opening_hours": "24/7",
        "phone": "+40 774 052 094",
        "website": "https://www.hotel-eden-severin.ro/"
      }
    },
    {
      "type": "Feature",
      "geometry": {
        "type": "Point",
        "coordinates": [
          22.5204568,
          44.8118384
        ]
      },
      "properties": {
        "id": 2796391609,
        "osm_type": "node",
        "name": "Baza Salvamont Mehedinți",
        "tourism": "chalet"
      }
    },
    {
      "type": "Feature",
      "geometry": {
        "type": "Point",
        "coordinates": [
          22.2217525,
          44.5594889
        ]
      },
      "properties": {
        "id": 2999696059,
        "osm_type": "node",
        "name": "Cabana Turistica Delfinul",
        "tourism": "hotel"
      }
    },
    {
      "type": "Feature",
      "geometry": {
        "type": "Point",
        "coordinates": [
          22.259913,
          44.6197102
        ]
      },
      "properties": {
        "id": 2999939548,
        "osm_type": "node",
        "name": "Pensiunea Dubova",
        "tourism": "hotel"
      }
    },
    {
      "type": "Feature",
      "geometry": {
        "type": "Point",
        "coordinates": [
          22.2629077,
          44.6302618
        ]
      },
      "properties": {
        "id": 2999939549,
        "osm_type": "node",
        "name": "Pensiunea Melba",
        "tourism": "hotel"
      }
    },
    {
      "type": "Feature",
      "geometry": {
        "type": "Point",
        "coordinates": [
          22.2970462,
          44.6576316
        ]
      },
      "properties": {
        "id": 2999939550,
        "osm_type": "node",
        "name": "Pensiunea Adrian",
        "tourism": "hotel"
      }
    },
    {
      "type": "Feature",
      "geometry": {
        "type": "Point",
        "coordinates": [
          22.2974263,
          44.6595957
        ]
      },
      "properties": {
        "id": 2999939551,
        "osm_type": "node",
        "name": "Pensiunea Aprilie",
        "tourism": "hotel"
      }
    },
    {
      "type": "Feature",
      "geometry": {
        "type": "Point",
        "coordinates": [
          22.3032092,
          44.6650884
        ]
      },
      "properties": {
        "id": 2999939552,
        "osm_type": "node",
        "name": "Czare Memtoaica",
        "tourism": "hotel"
      }
    },
    {
      "type": "Feature",
      "geometry": {
        "type": "Point",
        "coordinates": [
          22.3091798,
          44.6702274
        ]
      },
      "properties": {
        "id": 2999939553,
        "osm_type": "node",
        "name": "Pensiunea Julia",
        "tourism": "hotel"
      }
    },
    {
      "type": "Feature",
      "geometry": {
        "type": "Point",
        "coordinates": [
          22.361043,
          44.6846424
        ]
      },
      "properties": {
        "id": 2999939554,
        "osm_type": "node",
        "name": "Pensiunea Maria Teodora",
        "tourism": "hotel"
      }
    },
    {
      "type": "Feature",
      "geometry": {
        "type": "Point",
        "coordinates": [
          22.3994442,
          44.7255783
        ]
      },
      "properties": {
        "id": 2999939555,
        "osm_type": "node",
        "name": "Pensiunea Oliver",
        "tourism": "hotel"
      }
    },
    {
      "type": "Feature",
      "geometry": {
        "type": "Point",
        "coordinates": [
          22.4164386,
          44.729742
        ]
      },
      "properties": {
        "id": 2999939556,
        "osm_type": "node",
        "name": "Pensiunea Taka",
        "tourism": "guest_house",
        "phone": "+40 252 360 335",
        "website": "http://pensiune-orsova.ro"
      }
    },
    {
      "type": "Feature",
      "geometry": {
        "type": "Point",
        "coordinates": [
          22.6484977,
          44.6233759
        ]
      },
      "properties": {
        "id": 2999945113,
        "osm_type": "node",
        "name": "Irish Pub (Hostel)",
        "tourism": "hostel"
      }
    },
    {
      "type": "Feature",
      "geometry": {
        "type": "Point",
        "coordinates": [
          22.6692682,
          44.9698295
        ]
      },
      "properties": {
        "id": 4071745085,
        "osm_type": "node",
        "name": "Steaua Muntilor",
        "tourism": "guest_house"
      }
    },
    {
      "type": "Feature",
      "geometry": {
        "type": "Point",
        "coordinates": [
          22.6988877,
          44.6150029
        ]
      },
      "properties": {
        "id": 4183628030,
        "osm_type": "node",
        "name": "Pensiune Cambera",
        "tourism": "hostel"
      }
    },
    {
      "type": "Feature",
      "geometry": {
        "type": "Point",
        "coordinates": [
          22.2720954,
          44.6330266
        ]
      },
      "properties": {
        "id": 4418787933,
        "osm_type": "node",
        "name": "Pensiunea Cazanele Dunării",
        "tourism": "guest_house",
        "phone": "+40721 285 451"
      }
    },
    {
      "type": "Feature",
      "geometry": {
        "type": "Point",
        "coordinates": [
          22.258197,
          44.6230163
        ]
      },
      "properties": {
        "id": 4420038909,
        "osm_type": "node",
        "name": "Casa de oaspeți a Asociației Dunărea la Cazane",
        "tourism": "guest_house",
        "phone": "+40722975547"
      }
    },
    {
      "type": "Feature",
      "geometry": {
        "type": "Point",
        "coordinates": [
          22.260037,
          44.6271244
        ]
      },
      "properties": {
        "id": 4420038923,
        "osm_type": "node",
        "name": "Pensiunea Decebal",
        "tourism": "guest_house",
        "phone": "+40252368032"
      }
    },
    {
      "type": "Feature",
      "geometry": {
        "type": "Point",
        "coordinates": [
          22.2625464,
          44.6299863
        ]
      },
      "properties": {
        "id": 4420038943,
        "osm_type": "node",
        "name": "Pensiunea Alexia",
        "tourism": "guest_house",
        "phone": "+40754725698"
      }
    },
    {
      "type": "Feature",
      "geometry": {
        "type": "Point",
        "coordinates": [
          22.2655972,
          44.6319862
        ]
      },
      "properties": {
        "id": 4420038982,
        "osm_type": "node",
        "name": "Pensiunea Pui de Urs",
        "tourism": "guest_house",
        "phone": "+40767926677"
      }
    },
    {
      "type": "Feature",
      "geometry": {
        "type": "Point",
        "coordinates": [
          22.27366,
          44.6329711
        ]
      },
      "properties": {
        "id": 4420040505,
        "osm_type": "node",
        "name": "Vila Diana",
        "tourism": "guest_house"
      }
    },
    {
      "type": "Feature",
      "geometry": {
        "type": "Point",
        "coordinates": [
          22.6914431,
          44.2629588
        ]
      },
      "properties": {
        "id": 6470638184,
        "osm_type": "node",
        "name": "Pensiunea Gruia",
        "tourism": "hotel"
      }
    },
    {
      "type": "Feature",
      "geometry": {
        "type": "Point",
        "coordinates": [
          22.2590578,
          44.6226253
        ]
      },
      "properties": {
        "id": 6815380085,
        "osm_type": "node",
        "name": "Casa de vacanta “David”",
        "tourism": "guest_house"
      }
    },
    {
      "type": "Feature",
      "geometry": {
        "type": "Point",
        "coordinates": [
          22.2495343,
          44.6118188
        ]
      },
      "properties": {
        "id": 8281621117,
        "osm_type": "node",
        "name": "Telteu Florian",
        "tourism": "guest_house"
      }
    },
    {
      "type": "Feature",
      "geometry": {
        "type": "Point",
        "coordinates": [
          22.6254523,
          44.9809761
        ]
      },
      "properties": {
        "id": 8364147347,
        "osm_type": "node",
        "name": "Pensiunea La Mustață",
        "tourism": "guest_house"
      }
    },
    {
      "type": "Feature",
      "geometry": {
        "type": "Point",
        "coordinates": [
          22.6261952,
          44.7509583
        ]
      },
      "properties": {
        "id": 8364184370,
        "osm_type": "node",
        "name": "Pensiunea Happy",
        "tourism": "guest_house"
      }
    },
    {
      "type": "Feature",
      "geometry": {
        "type": "Point",
        "coordinates": [
          22.6556709,
          44.6260853
        ]
      },
      "properties": {
        "id": 8394518817,
        "osm_type": "node",
        "name": "Piața eliade",
        "tourism": "guest_house"
      }
    },
    {
      "type": "Feature",
      "geometry": {
        "type": "Point",
        "coordinates": [
          22.558012,
          44.6629754
        ]
      },
      "properties": {
        "id": 8557523318,
        "osm_type": "node",
        "tourism": "apartment"
      }
    },
    {
      "type": "Feature",
      "geometry": {
        "type": "Point",
        "coordinates": [
          22.646521,
          44.6309647
        ]
      },
      "properties": {
        "id": 8890713353,
        "osm_type": "node",
        "name": "Mon Cheri",
        "tourism": "guest_house"
      }
    },
    {
      "type": "Feature",
      "geometry": {
        "type": "Point",
        "coordinates": [
          22.4006683,
          44.743059
        ]
      },
      "properties": {
        "id": 9393947117,
        "osm_type": "node",
        "name": "Coramnic",
        "tourism": "apartment"
      }
    },
    {
      "type": "Feature",
      "geometry": {
        "type": "Point",
        "coordinates": [
          22.336019,
          44.6802404
        ]
      },
      "properties": {
        "id": 9669905417,
        "osm_type": "node",
        "name": "Ancora",
        "tourism": "guest_house",
        "website": "https://cazare-cazane.ro/"
      }
    },
    {
      "type": "Feature",
      "geometry": {
        "type": "Point",
        "coordinates": [
          22.1063145,
          44.4961864
        ]
      },
      "properties": {
        "id": 9770261518,
        "osm_type": "node",
        "name": "Casa Svinița",
        "tourism": "hotel"
      }
    },
    {
      "type": "Feature",
      "geometry": {
        "type": "Point",
        "coordinates": [
          22.2498585,
          44.6096203
        ]
      },
      "properties": {
        "id": 9798170313,
        "osm_type": "node",
        "name": "Căbănuțele „La Denisa”",
        "tourism": "chalet"
      }
    },
    {
      "type": "Feature",
      "geometry": {
        "type": "Point",
        "coordinates": [
          22.763004,
          44.9731798
        ]
      },
      "properties": {
        "id": 9815281968,
        "osm_type": "node",
        "name": "Perla Munților",
        "tourism": "guest_house"
      }
    },
    {
      "type": "Feature",
      "geometry": {
        "type": "Point",
        "coordinates": [
          22.3624207,
          44.7254876
        ]
      },
      "properties": {
        "id": 9905604130,
        "osm_type": "node",
        "name": "Pensiunea Casa Noastră",
        "tourism": "chalet"
      }
    },
    {
      "type": "Feature",
      "geometry": {
        "type": "Point",
        "coordinates": [
          22.4051532,
          44.7009049
        ]
      },
      "properties": {
        "id": 10264915129,
        "osm_type": "node",
        "name": "NOAH river house",
        "tourism": "guest_house"
      }
    },
    {
      "type": "Feature",
      "geometry": {
        "type": "Point",
        "coordinates": [
          22.3106575,
          44.671042
        ]
      },
      "properties": {
        "id": 10699179990,
        "osm_type": "node",
        "name": "Casa Ana Serena",
        "tourism": "chalet"
      }
    },
    {
      "type": "Feature",
      "geometry": {
        "type": "Point",
        "coordinates": [
          22.3238754,
          44.6756398
        ]
      },
      "properties": {
        "id": 10699200930,
        "osm_type": "node",
        "name": "Pensiunea Sunshine",
        "tourism": "guest_house"
      }
    },
    {
      "type": "Feature",
      "geometry": {
        "type": "Point",
        "coordinates": [
          22.6658117,
          44.6345022
        ]
      },
      "properties": {
        "id": 10877813205,
        "osm_type": "node",
        "tourism": "apartment"
      }
    },
    {
      "type": "Feature",
      "geometry": {
        "type": "Point",
        "coordinates": [
          22.6514892,
          44.6412218
        ]
      },
      "properties": {
        "id": 10877813206,
        "osm_type": "node",
        "tourism": "apartment"
      }
    },
    {
      "type": "Feature",
      "geometry": {
        "type": "Point",
        "coordinates": [
          22.6473521,
          44.6396746
        ]
      },
      "properties": {
        "id": 10914249805,
        "osm_type": "node",
        "tourism": "apartment"
      }
    },
    {
      "type": "Feature",
      "geometry": {
        "type": "Point",
        "coordinates": [
          22.6682511,
          44.633694
        ]
      },
      "properties": {
        "id": 11222937139,
        "osm_type": "node",
        "name": "nr 69 Bl 2",
        "tourism": "apartment"
      }
    },
    {
      "type": "Feature",
      "geometry": {
        "type": "Point",
        "coordinates": [
          22.6686138,
          44.6335851
        ]
      },
      "properties": {
        "id": 11222937140,
        "osm_type": "node",
        "name": "Nr 71 bl 1",
        "tourism": "apartment"
      }
    },
    {
      "type": "Feature",
      "geometry": {
        "type": "Point",
        "coordinates": [
          22.6470608,
          44.6403499
        ]
      },
      "properties": {
        "id": 11222937141,
        "osm_type": "node",
        "tourism": "apartment"
      }
    },
    {
      "type": "Feature",
      "geometry": {
        "type": "Point",
        "coordinates": [
          22.6477048,
          44.6407834
        ]
      },
      "properties": {
        "id": 11222945037,
        "osm_type": "node",
        "name": "z3",
        "tourism": "apartment"
      }
    },
    {
      "type": "Feature",
      "geometry": {
        "type": "Point",
        "coordinates": [
          22.6915674,
          44.6385301
        ]
      },
      "properties": {
        "id": 11223052037,
        "osm_type": "node",
        "tourism": "apartment"
      }
    },
    {
      "type": "Feature",
      "geometry": {
        "type": "Point",
        "coordinates": [
          22.6430551,
          44.6440228
        ]
      },
      "properties": {
        "id": 11223121737,
        "osm_type": "node",
        "tourism": "apartment"
      }
    },
    {
      "type": "Feature",
      "geometry": {
        "type": "Point",
        "coordinates": [
          22.6561444,
          44.626426
        ]
      },
      "properties": {
        "id": 11233395038,
        "osm_type": "node",
        "tourism": "apartment"
      }
    },
    {
      "type": "Feature",
      "geometry": {
        "type": "Point",
        "coordinates": [
          22.6724789,
          44.6283104
        ]
      },
      "properties": {
        "id": 11245513837,
        "osm_type": "node",
        "tourism": "apartment"
      }
    },
    {
      "type": "Feature",
      "geometry": {
        "type": "Point",
        "coordinates": [
          22.6727692,
          44.6278731
        ]
      },
      "properties": {
        "id": 11245515837,
        "osm_type": "node",
        "tourism": "apartment"
      }
    },
    {
      "type": "Feature",
      "geometry": {
        "type": "Point",
        "coordinates": [
          22.6720915,
          44.6314875
        ]
      },
      "properties": {
        "id": 11253690237,
        "osm_type": "node",
        "tourism": "apartment"
      }
    },
    {
      "type": "Feature",
      "geometry": {
        "type": "Point",
        "coordinates": [
          22.6491897,
          44.6442597
        ]
      },
      "properties": {
        "id": 11263067837,
        "osm_type": "node",
        "tourism": "apartment"
      }
    },
    {
      "type": "Feature",
      "geometry": {
        "type": "Point",
        "coordinates": [
          22.6522338,
          44.6262878
        ]
      },
      "properties": {
        "id": 11271517269,
        "osm_type": "node",
        "tourism": "apartment"
      }
    },
    {
      "type": "Feature",
      "geometry": {
        "type": "Point",
        "coordinates": [
          22.6696417,
          44.6346423
        ]
      },
      "properties": {
        "id": 11281827769,
        "osm_type": "node",
        "tourism": "apartment"
      }
    },
    {
      "type": "Feature",
      "geometry": {
        "type": "Point",
        "coordinates": [
          22.6528255,
          44.6273276
        ]
      },
      "properties": {
        "id": 11293019469,
        "osm_type": "node",
        "tourism": "apartment"
      }
    },
    {
      "type": "Feature",
      "geometry": {
        "type": "Point",
        "coordinates": [
          22.6514988,
          44.6264662
        ]
      },
      "properties": {
        "id": 11293019669,
        "osm_type": "node",
        "tourism": "apartment"
      }
    },
    {
      "type": "Feature",
      "geometry": {
        "type": "Point",
        "coordinates": [
          22.6626048,
          44.6378597
        ]
      },
      "properties": {
        "id": 11293422870,
        "osm_type": "node",
        "tourism": "apartment"
      }
    },
    {
      "type": "Feature",
      "geometry": {
        "type": "Point",
        "coordinates": [
          22.6710032,
          44.6318763
        ]
      },
      "properties": {
        "id": 11331478269,
        "osm_type": "node",
        "tourism": "apartment"
      }
    },
    {
      "type": "Feature",
      "geometry": {
        "type": "Point",
        "coordinates": [
          22.641623,
          44.629323
        ]
      },
      "properties": {
        "id": 11341477969,
        "osm_type": "node",
        "tourism": "apartment"
      }
    },
    {
      "type": "Feature",
      "geometry": {
        "type": "Point",
        "coordinates": [
          22.6620952,
          44.6374903
        ]
      },
      "properties": {
        "id": 11496992070,
        "osm_type": "node",
        "name": "Bl4 Sc2 Iuliu Maniu",
        "tourism": "apartment"
      }
    },
    {
      "type": "Feature",
      "geometry": {
        "type": "Point",
        "coordinates": [
          22.6692396,
          44.6343806
        ]
      },
      "properties": {
        "id": 11497550069,
        "osm_type": "node",
        "name": "scara 1 bl1 67 șisești",
        "tourism": "apartment"
      }
    },
    {
      "type": "Feature",
      "geometry": {
        "type": "Point",
        "coordinates": [
          22.6468147,
          44.6432722
        ]
      },
      "properties": {
        "id": 11513947469,
        "osm_type": "node",
        "name": "o5 Sc 4",
        "tourism": "apartment"
      }
    },
    {
      "type": "Feature",
      "geometry": {
        "type": "Point",
        "coordinates": [
          22.6468626,
          44.6431444
        ]
      },
      "properties": {
        "id": 11513947669,
        "osm_type": "node",
        "name": "o5 Sc 3",
        "tourism": "apartment"
      }
    },
    {
      "type": "Feature",
      "geometry": {
        "type": "Point",
        "coordinates": [
          22.6423252,
          44.6438343
        ]
      },
      "properties": {
        "id": 11513969269,
        "osm_type": "node",
        "name": "Xf 12 Sc1",
        "tourism": "apartment"
      }
    },
    {
      "type": "Feature",
      "geometry": {
        "type": "Point",
        "coordinates": [
          22.6421294,
          44.6440537
        ]
      },
      "properties": {
        "id": 11513969869,
        "osm_type": "node",
        "name": "Xf 12 Sc2",
        "tourism": "apartment"
      }
    },
    {
      "type": "Feature",
      "geometry": {
        "type": "Point",
        "coordinates": [
          22.6605905,
          44.6396623
        ]
      },
      "properties": {
        "id": 11517401769,
        "osm_type": "node",
        "name": "Bl 9 Sc4",
        "tourism": "apartment"
      }
    },
    {
      "type": "Feature",
      "geometry": {
        "type": "Point",
        "coordinates": [
          22.6603368,
          44.6397606
        ]
      },
      "properties": {
        "id": 11517402069,
        "osm_type": "node",
        "name": "Bl9 Sc3",
        "tourism": "apartment"
      }
    },
    {
      "type": "Feature",
      "geometry": {
        "type": "Point",
        "coordinates": [
          22.6462421,
          44.6415199
        ]
      },
      "properties": {
        "id": 11517423569,
        "osm_type": "node",
        "name": "Xe6 Sc3",
        "tourism": "apartment"
      }
    },
    {
      "type": "Feature",
      "geometry": {
        "type": "Point",
        "coordinates": [
          22.6489474,
          44.6420998
        ]
      },
      "properties": {
        "id": 11522471069,
        "osm_type": "node",
        "tourism": "apartment"
      }
    },
    {
      "type": "Feature",
      "geometry": {
        "type": "Point",
        "coordinates": [
          22.6447751,
          44.6404304
        ]
      },
      "properties": {
        "id": 11525151169,
        "osm_type": "node",
        "name": "B2B Sc1",
        "tourism": "apartment"
      }
    },
    {
      "type": "Feature",
      "geometry": {
        "type": "Point",
        "coordinates": [
          22.6732279,
          44.6283458
        ]
      },
      "properties": {
        "id": 11533768970,
        "osm_type": "node",
        "name": "B1 Nr8",
        "tourism": "apartment"
      }
    },
    {
      "type": "Feature",
      "geometry": {
        "type": "Point",
        "coordinates": [
          23.0678904,
          44.6978758
        ]
      },
      "properties": {
        "id": 11664910733,
        "osm_type": "node",
        "name": "Drumul Vinului ***",
        "tourism": "guest_house"
      }
    },
    {
      "type": "Feature",
      "geometry": {
        "type": "Point",
        "coordinates": [
          22.671156,
          44.6322025
        ]
      },
      "properties": {
        "id": 11693308769,
        "osm_type": "node",
        "tourism": "apartment"
      }
    },
    {
      "type": "Feature",
      "geometry": {
        "type": "Point",
        "coordinates": [
          22.6717329,
          44.6323661
        ]
      },
      "properties": {
        "id": 11693308869,
        "osm_type": "node",
        "tourism": "apartment"
      }
    },
    {
      "type": "Feature",
      "geometry": {
        "type": "Point",
        "coordinates": [
          22.6668546,
          44.633288
        ]
      },
      "properties": {
        "id": 11693308870,
        "osm_type": "node",
        "tourism": "apartment"
      }
    },
    {
      "type": "Feature",
      "geometry": {
        "type": "Point",
        "coordinates": [
          22.6675555,
          44.6332795
        ]
      },
      "properties": {
        "id": 11693308969,
        "osm_type": "node",
        "tourism": "apartment"
      }
    },
    {
      "type": "Feature",
      "geometry": {
        "type": "Point",
        "coordinates": [
          22.6732202,
          44.6282451
        ]
      },
      "properties": {
        "id": 11693308972,
        "osm_type": "node",
        "tourism": "apartment"
      }
    },
    {
      "type": "Feature",
      "geometry": {
        "type": "Point",
        "coordinates": [
          22.6737333,
          44.6298682
        ]
      },
      "properties": {
        "id": 11693317270,
        "osm_type": "node",
        "tourism": "apartment"
      }
    },
    {
      "type": "Feature",
      "geometry": {
        "type": "Point",
        "coordinates": [
          22.6736884,
          44.6282718
        ]
      },
      "properties": {
        "id": 11693317271,
        "osm_type": "node",
        "tourism": "apartment"
      }
    },
    {
      "type": "Feature",
      "geometry": {
        "type": "Point",
        "coordinates": [
          22.6727068,
          44.6277022
        ]
      },
      "properties": {
        "id": 11693317272,
        "osm_type": "node",
        "tourism": "apartment"
      }
    },
    {
      "type": "Feature",
      "geometry": {
        "type": "Point",
        "coordinates": [
          22.6741513,
          44.6302182
        ]
      },
      "properties": {
        "id": 11693345569,
        "osm_type": "node",
        "tourism": "apartment"
      }
    },
    {
      "type": "Feature",
      "geometry": {
        "type": "Point",
        "coordinates": [
          22.6741573,
          44.6298171
        ]
      },
      "properties": {
        "id": 11693345969,
        "osm_type": "node",
        "tourism": "apartment"
      }
    },
    {
      "type": "Feature",
      "geometry": {
        "type": "Point",
        "coordinates": [
          22.6731838,
          44.6285785
        ]
      },
      "properties": {
        "id": 11693350869,
        "osm_type": "node",
        "tourism": "apartment"
      }
    },
    {
      "type": "Feature",
      "geometry": {
        "type": "Point",
        "coordinates": [
          22.6737408,
          44.6272969
        ]
      },
      "properties": {
        "id": 11693356169,
        "osm_type": "node",
        "tourism": "apartment"
      }
    },
    {
      "type": "Feature",
      "geometry": {
        "type": "Point",
        "coordinates": [
          22.6726829,
          44.6285518
        ]
      },
      "properties": {
        "id": 11693362069,
        "osm_type": "node",
        "tourism": "apartment"
      }
    },
    {
      "type": "Feature",
      "geometry": {
        "type": "Point",
        "coordinates": [
          22.6719873,
          44.6290179
        ]
      },
      "properties": {
        "id": 11693362070,
        "osm_type": "node",
        "tourism": "apartment"
      }
    },
    {
      "type": "Feature",
      "geometry": {
        "type": "Point",
        "coordinates": [
          22.6722817,
          44.6285129
        ]
      },
      "properties": {
        "id": 11693372169,
        "osm_type": "node",
        "tourism": "apartment"
      }
    },
    {
      "type": "Feature",
      "geometry": {
        "type": "Point",
        "coordinates": [
          22.6724016,
          44.627966
        ]
      },
      "properties": {
        "id": 11693372669,
        "osm_type": "node",
        "tourism": "apartment"
      }
    },
    {
      "type": "Feature",
      "geometry": {
        "type": "Point",
        "coordinates": [
          22.6720074,
          44.6275127
        ]
      },
      "properties": {
        "id": 11693374169,
        "osm_type": "node",
        "tourism": "apartment"
      }
    },
    {
      "type": "Feature",
      "geometry": {
        "type": "Point",
        "coordinates": [
          22.6715225,
          44.6275166
        ]
      },
      "properties": {
        "id": 11693374369,
        "osm_type": "node",
        "tourism": "apartment"
      }
    },
    {
      "type": "Feature",
      "geometry": {
        "type": "Point",
        "coordinates": [
          22.6723322,
          44.62935
        ]
      },
      "properties": {
        "id": 11693375469,
        "osm_type": "node",
        "tourism": "apartment"
      }
    },
    {
      "type": "Feature",
      "geometry": {
        "type": "Point",
        "coordinates": [
          22.6723802,
          44.6301429
        ]
      },
      "properties": {
        "id": 11693375470,
        "osm_type": "node",
        "tourism": "apartment"
      }
    },
    {
      "type": "Feature",
      "geometry": {
        "type": "Point",
        "coordinates": [
          22.672281,
          44.631432
        ]
      },
      "properties": {
        "id": 11693376369,
        "osm_type": "node",
        "tourism": "apartment"
      }
    },
    {
      "type": "Feature",
      "geometry": {
        "type": "Point",
        "coordinates": [
          22.6687828,
          44.6328909
        ]
      },
      "properties": {
        "id": 11693376371,
        "osm_type": "node",
        "tourism": "apartment"
      }
    },
    {
      "type": "Feature",
      "geometry": {
        "type": "Point",
        "coordinates": [
          22.6683745,
          44.6317183
        ]
      },
      "properties": {
        "id": 11693377670,
        "osm_type": "node",
        "tourism": "apartment"
      }
    },
    {
      "type": "Feature",
      "geometry": {
        "type": "Point",
        "coordinates": [
          22.6714127,
          44.6318033
        ]
      },
      "properties": {
        "id": 11693377969,
        "osm_type": "node",
        "tourism": "apartment"
      }
    },
    {
      "type": "Feature",
      "geometry": {
        "type": "Point",
        "coordinates": [
          22.6706132,
          44.6318907
        ]
      },
      "properties": {
        "id": 11693378469,
        "osm_type": "node",
        "tourism": "apartment"
      }
    },
    {
      "type": "Feature",
      "geometry": {
        "type": "Point",
        "coordinates": [
          22.6705916,
          44.6322806
        ]
      },
      "properties": {
        "id": 11693379669,
        "osm_type": "node",
        "tourism": "apartment"
      }
    },
    {
      "type": "Feature",
      "geometry": {
        "type": "Point",
        "coordinates": [
          22.6693271,
          44.6314562
        ]
      },
      "properties": {
        "id": 11693379670,
        "osm_type": "node",
        "tourism": "apartment"
      }
    },
    {
      "type": "Feature",
      "geometry": {
        "type": "Point",
        "coordinates": [
          22.6687609,
          44.6316369
        ]
      },
      "properties": {
        "id": 11693385769,
        "osm_type": "node",
        "tourism": "apartment"
      }
    },
    {
      "type": "Feature",
      "geometry": {
        "type": "Point",
        "coordinates": [
          22.6672943,
          44.632385
        ]
      },
      "properties": {
        "id": 11693385770,
        "osm_type": "node",
        "tourism": "apartment"
      }
    },
    {
      "type": "Feature",
      "geometry": {
        "type": "Point",
        "coordinates": [
          22.6686457,
          44.6332482
        ]
      },
      "properties": {
        "id": 11693390269,
        "osm_type": "node",
        "tourism": "apartment"
      }
    },
    {
      "type": "Feature",
      "geometry": {
        "type": "Point",
        "coordinates": [
          22.6677544,
          44.6339655
        ]
      },
      "properties": {
        "id": 11693390270,
        "osm_type": "node",
        "tourism": "apartment"
      }
    },
    {
      "type": "Feature",
      "geometry": {
        "type": "Point",
        "coordinates": [
          22.665231,
          44.6387876
        ]
      },
      "properties": {
        "id": 11693390271,
        "osm_type": "node",
        "tourism": "apartment"
      }
    },
    {
      "type": "Feature",
      "geometry": {
        "type": "Point",
        "coordinates": [
          22.6659322,
          44.6372302
        ]
      },
      "properties": {
        "id": 11693394870,
        "osm_type": "node",
        "tourism": "apartment"
      }
    },
    {
      "type": "Feature",
      "geometry": {
        "type": "Point",
        "coordinates": [
          22.6640265,
          44.6362496
        ]
      },
      "properties": {
        "id": 11693394871,
        "osm_type": "node",
        "tourism": "apartment"
      }
    },
    {
      "type": "Feature",
      "geometry": {
        "type": "Point",
        "coordinates": [
          22.6616081,
          44.6356846
        ]
      },
      "properties": {
        "id": 11693394872,
        "osm_type": "node",
        "tourism": "apartment"
      }
    },
    {
      "type": "Feature",
      "geometry": {
        "type": "Point",
        "coordinates": [
          22.6618819,
          44.6353234
        ]
      },
      "properties": {
        "id": 11693394873,
        "osm_type": "node",
        "tourism": "apartment"
      }
    },
    {
      "type": "Feature",
      "geometry": {
        "type": "Point",
        "coordinates": [
          22.6650897,
          44.6392314
        ]
      },
      "properties": {
        "id": 11693395169,
        "osm_type": "node",
        "tourism": "apartment"
      }
    },
    {
      "type": "Feature",
      "geometry": {
        "type": "Point",
        "coordinates": [
          22.6660629,
          44.6385275
        ]
      },
      "properties": {
        "id": 11693399269,
        "osm_type": "node",
        "tourism": "apartment"
      }
    },
    {
      "type": "Feature",
      "geometry": {
        "type": "Point",
        "coordinates": [
          22.6644208,
          44.6365456
        ]
      },
      "properties": {
        "id": 11693399270,
        "osm_type": "node",
        "tourism": "apartment"
      }
    },
    {
      "type": "Feature",
      "geometry": {
        "type": "Point",
        "coordinates": [
          22.6652057,
          44.6369075
        ]
      },
      "properties": {
        "id": 11693402869,
        "osm_type": "node",
        "tourism": "apartment"
      }
    },
    {
      "type": "Feature",
      "geometry": {
        "type": "Point",
        "coordinates": [
          22.6645621,
          44.6368673
        ]
      },
      "properties": {
        "id": 11693403269,
        "osm_type": "node",
        "tourism": "apartment"
      }
    },
    {
      "type": "Feature",
      "geometry": {
        "type": "Point",
        "coordinates": [
          22.6639716,
          44.6356005
        ]
      },
      "properties": {
        "id": 11693406469,
        "osm_type": "node",
        "tourism": "apartment"
      }
    },
    {
      "type": "Feature",
      "geometry": {
        "type": "Point",
        "coordinates": [
          22.6635878,
          44.6363183
        ]
      },
      "properties": {
        "id": 11693407269,
        "osm_type": "node",
        "tourism": "apartment"
      }
    },
    {
      "type": "Feature",
      "geometry": {
        "type": "Point",
        "coordinates": [
          22.6404628,
          44.6286831
        ]
      },
      "properties": {
        "id": 11693407270,
        "osm_type": "node",
        "tourism": "apartment"
      }
    },
    {
      "type": "Feature",
      "geometry": {
        "type": "Point",
        "coordinates": [
          22.6411194,
          44.6297349
        ]
      },
      "properties": {
        "id": 11693407272,
        "osm_type": "node",
        "tourism": "apartment"
      }
    },
    {
      "type": "Feature",
      "geometry": {
        "type": "Point",
        "coordinates": [
          22.6623836,
          44.636529
        ]
      },
      "properties": {
        "id": 11693407669,
        "osm_type": "node",
        "tourism": "apartment"
      }
    },
    {
      "type": "Feature",
      "geometry": {
        "type": "Point",
        "coordinates": [
          22.6601692,
          44.6332762
        ]
      },
      "properties": {
        "id": 11693411069,
        "osm_type": "node",
        "tourism": "apartment"
      }
    },
    {
      "type": "Feature",
      "geometry": {
        "type": "Point",
        "coordinates": [
          22.6413423,
          44.6293254
        ]
      },
      "properties": {
        "id": 11693411070,
        "osm_type": "node",
        "tourism": "apartment"
      }
    },
    {
      "type": "Feature",
      "geometry": {
        "type": "Point",
        "coordinates": [
          22.6724621,
          44.6350357
        ]
      },
      "properties": {
        "id": 11693418669,
        "osm_type": "node",
        "tourism": "apartment"
      }
    },
    {
      "type": "Feature",
      "geometry": {
        "type": "Point",
        "coordinates": [
          22.672507,
          44.6345053
        ]
      },
      "properties": {
        "id": 11693420169,
        "osm_type": "node",
        "tourism": "apartment"
      }
    },
    {
      "type": "Feature",
      "geometry": {
        "type": "Point",
        "coordinates": [
          22.6725095,
          44.6342612
        ]
      },
      "properties": {
        "id": 11693421169,
        "osm_type": "node",
        "tourism": "apartment"
      }
    },
    {
      "type": "Feature",
      "geometry": {
        "type": "Point",
        "coordinates": [
          22.6721374,
          44.6337046
        ]
      },
      "properties": {
        "id": 11693424269,
        "osm_type": "node",
        "tourism": "apartment"
      }
    },
    {
      "type": "Feature",
      "geometry": {
        "type": "Point",
        "coordinates": [
          22.6486111,
          44.6446262
        ]
      },
      "properties": {
        "id": 11733779269,
        "osm_type": "node",
        "tourism": "apartment"
      }
    },
    {
      "type": "Feature",
      "geometry": {
        "type": "Point",
        "coordinates": [
          22.651246,
          44.6397784
        ]
      },
      "properties": {
        "id": 11758650969,
        "osm_type": "node",
        "tourism": "apartment"
      }
    },
    {
      "type": "Feature",
      "geometry": {
        "type": "Point",
        "coordinates": [
          22.6428283,
          44.630023
        ]
      },
      "properties": {
        "id": 11775132869,
        "osm_type": "node",
        "tourism": "apartment"
      }
    },
    {
      "type": "Feature",
      "geometry": {
        "type": "Point",
        "coordinates": [
          22.6713956,
          44.6338665
        ]
      },
      "properties": {
        "id": 11775255269,
        "osm_type": "node",
        "tourism": "apartment"
      }
    },
    {
      "type": "Feature",
      "geometry": {
        "type": "Point",
        "coordinates": [
          22.6676487,
          44.6345697
        ]
      },
      "properties": {
        "id": 11787193169,
        "osm_type": "node",
        "tourism": "apartment"
      }
    },
    {
      "type": "Feature",
      "geometry": {
        "type": "Point",
        "coordinates": [
          22.6679424,
          44.6317542
        ]
      },
      "properties": {
        "id": 11850166769,
        "osm_type": "node",
        "tourism": "apartment"
      }
    },
    {
      "type": "Feature",
      "geometry": {
        "type": "Point",
        "coordinates": [
          22.6182758,
          44.6259436
        ]
      },
      "properties": {
        "id": 12014816280,
        "osm_type": "node",
        "tourism": "apartment"
      }
    },
    {
      "type": "Feature",
      "geometry": {
        "type": "Point",
        "coordinates": [
          22.6181688,
          44.6259834
        ]
      },
      "properties": {
        "id": 12014835776,
        "osm_type": "node",
        "tourism": "apartment"
      }
    },
    {
      "type": "Feature",
      "geometry": {
        "type": "Point",
        "coordinates": [
          22.6182648,
          44.6258324
        ]
      },
      "properties": {
        "id": 12014854169,
        "osm_type": "node",
        "tourism": "apartment"
      }
    },
    {
      "type": "Feature",
      "geometry": {
        "type": "Point",
        "coordinates": [
          22.7033114,
          44.2323452
        ]
      },
      "properties": {
        "id": 12091339254,
        "osm_type": "node",
        "name": "Family House",
        "tourism": "guest_house"
      }
    },
    {
      "type": "Feature",
      "geometry": {
        "type": "Point",
        "coordinates": [
          22.6852293,
          44.5132654
        ]
      },
      "properties": {
        "id": 12091750371,
        "osm_type": "node",
        "name": "La Milo",
        "tourism": "guest_house"
      }
    },
    {
      "type": "Feature",
      "geometry": {
        "type": "Point",
        "coordinates": [
          22.3967094,
          44.7263914
        ]
      },
      "properties": {
        "id": 12178564129,
        "osm_type": "node",
        "name": "Hotel Dunavis",
        "tourism": "hotel",
        "phone": "0772 035 819",
        "website": "https://www.dunavis-turism.ro/hotel-dunavis/"
      }
    },
    {
      "type": "Feature",
      "geometry": {
        "type": "Point",
        "coordinates": [
          22.6727234,
          44.6281539
        ]
      },
      "properties": {
        "id": 12199566703,
        "osm_type": "node",
        "name": "F99 SC5",
        "tourism": "apartment"
      }
    },
    {
      "type": "Feature",
      "geometry": {
        "type": "Point",
        "coordinates": [
          22.6513497,
          44.626524
        ]
      },
      "properties": {
        "id": 12206478401,
        "osm_type": "node",
        "tourism": "apartment"
      }
    },
    {
      "type": "Feature",
      "geometry": {
        "type": "Point",
        "coordinates": [
          22.6721732,
          44.6319888
        ]
      },
      "properties": {
        "id": 12206478402,
        "osm_type": "node",
        "tourism": "apartment"
      }
    },
    {
      "type": "Feature",
      "geometry": {
        "type": "Point",
        "coordinates": [
          22.6720938,
          44.6313944
        ]
      },
      "properties": {
        "id": 12206478403,
        "osm_type": "node",
        "tourism": "apartment"
      }
    },
    {
      "type": "Feature",
      "geometry": {
        "type": "Point",
        "coordinates": [
          22.6718851,
          44.6322655
        ]
      },
      "properties": {
        "id": 12206478404,
        "osm_type": "node",
        "tourism": "apartment"
      }
    },
    {
      "type": "Feature",
      "geometry": {
        "type": "Point",
        "coordinates": [
          22.6713867,
          44.6338385
        ]
      },
      "properties": {
        "id": 12206478405,
        "osm_type": "node",
        "tourism": "apartment"
      }
    },
    {
      "type": "Feature",
      "geometry": {
        "type": "Point",
        "coordinates": [
          22.6513975,
          44.6263253
        ]
      },
      "properties": {
        "id": 12206478406,
        "osm_type": "node",
        "tourism": "apartment"
      }
    },
    {
      "type": "Feature",
      "geometry": {
        "type": "Point",
        "coordinates": [
          22.6514073,
          44.6263199
        ]
      },
      "properties": {
        "id": 12206478407,
        "osm_type": "node",
        "tourism": "apartment"
      }
    },
    {
      "type": "Feature",
      "geometry": {
        "type": "Point",
        "coordinates": [
          22.6513741,
          44.6263736
        ]
      },
      "properties": {
        "id": 12206478408,
        "osm_type": "node",
        "tourism": "apartment"
      }
    },
    {
      "type": "Feature",
      "geometry": {
        "type": "Point",
        "coordinates": [
          22.6626957,
          44.6379517
        ]
      },
      "properties": {
        "id": 12206478409,
        "osm_type": "node",
        "tourism": "apartment"
      }
    },
    {
      "type": "Feature",
      "geometry": {
        "type": "Point",
        "coordinates": [
          22.6667951,
          44.6355188
        ]
      },
      "properties": {
        "id": 12206478410,
        "osm_type": "node",
        "tourism": "apartment"
      }
    },
    {
      "type": "Feature",
      "geometry": {
        "type": "Point",
        "coordinates": [
          22.6712059,
          44.6318078
        ]
      },
      "properties": {
        "id": 12206478411,
        "osm_type": "node",
        "tourism": "apartment"
      }
    },
    {
      "type": "Feature",
      "geometry": {
        "type": "Point",
        "coordinates": [
          22.6712528,
          44.6318962
        ]
      },
      "properties": {
        "id": 12206478412,
        "osm_type": "node",
        "tourism": "apartment"
      }
    },
    {
      "type": "Feature",
      "geometry": {
        "type": "Point",
        "coordinates": [
          22.6416603,
          44.6293683
        ]
      },
      "properties": {
        "id": 12206478413,
        "osm_type": "node",
        "tourism": "apartment"
      }
    },
    {
      "type": "Feature",
      "geometry": {
        "type": "Point",
        "coordinates": [
          22.6487652,
          44.6444852
        ]
      },
      "properties": {
        "id": 12206478501,
        "osm_type": "node",
        "tourism": "apartment"
      }
    },
    {
      "type": "Feature",
      "geometry": {
        "type": "Point",
        "coordinates": [
          22.6523578,
          44.62647
        ]
      },
      "properties": {
        "id": 12206478601,
        "osm_type": "node",
        "tourism": "apartment"
      }
    },
    {
      "type": "Feature",
      "geometry": {
        "type": "Point",
        "coordinates": [
          22.6720025,
          44.6316245
        ]
      },
      "properties": {
        "id": 12206478602,
        "osm_type": "node",
        "tourism": "apartment"
      }
    },
    {
      "type": "Feature",
      "geometry": {
        "type": "Point",
        "coordinates": [
          22.6731937,
          44.6283546
        ]
      },
      "properties": {
        "id": 12206478603,
        "osm_type": "node",
        "tourism": "apartment"
      }
    },
    {
      "type": "Feature",
      "geometry": {
        "type": "Point",
        "coordinates": [
          22.6693573,
          44.6345544
        ]
      },
      "properties": {
        "id": 12206478604,
        "osm_type": "node",
        "tourism": "apartment"
      }
    },
    {
      "type": "Feature",
      "geometry": {
        "type": "Point",
        "coordinates": [
          22.6562318,
          44.6264519
        ]
      },
      "properties": {
        "id": 12206478605,
        "osm_type": "node",
        "tourism": "apartment"
      }
    },
    {
      "type": "Feature",
      "geometry": {
        "type": "Point",
        "coordinates": [
          22.6547461,
          44.6256914
        ]
      },
      "properties": {
        "id": 12206478701,
        "osm_type": "node",
        "tourism": "apartment"
      }
    },
    {
      "type": "Feature",
      "geometry": {
        "type": "Point",
        "coordinates": [
          22.6683753,
          44.6328244
        ]
      },
      "properties": {
        "id": 12206478702,
        "osm_type": "node",
        "tourism": "apartment"
      }
    },
    {
      "type": "Feature",
      "geometry": {
        "type": "Point",
        "coordinates": [
          22.6451365,
          44.631214
        ]
      },
      "properties": {
        "id": 12206478801,
        "osm_type": "node",
        "tourism": "apartment"
      }
    },
    {
      "type": "Feature",
      "geometry": {
        "type": "Point",
        "coordinates": [
          22.6573392,
          44.6274217
        ]
      },
      "properties": {
        "id": 12206478901,
        "osm_type": "node",
        "tourism": "apartment"
      }
    },
    {
      "type": "Feature",
      "geometry": {
        "type": "Point",
        "coordinates": [
          22.6683865,
          44.6328414
        ]
      },
      "properties": {
        "id": 12206478902,
        "osm_type": "node",
        "tourism": "apartment"
      }
    },
    {
      "type": "Feature",
      "geometry": {
        "type": "Point",
        "coordinates": [
          22.6489981,
          44.6442291
        ]
      },
      "properties": {
        "id": 12206478903,
        "osm_type": "node",
        "tourism": "apartment"
      }
    },
    {
      "type": "Feature",
      "geometry": {
        "type": "Point",
        "coordinates": [
          22.6728168,
          44.6277537
        ]
      },
      "properties": {
        "id": 12206478904,
        "osm_type": "node",
        "tourism": "apartment"
      }
    },
    {
      "type": "Feature",
      "geometry": {
        "type": "Point",
        "coordinates": [
          22.6732314,
          44.6283181
        ]
      },
      "properties": {
        "id": 12206478905,
        "osm_type": "node",
        "tourism": "apartment"
      }
    },
    {
      "type": "Feature",
      "geometry": {
        "type": "Point",
        "coordinates": [
          22.6501792,
          44.6413799
        ]
      },
      "properties": {
        "id": 12206478906,
        "osm_type": "node",
        "tourism": "apartment"
      }
    },
    {
      "type": "Feature",
      "geometry": {
        "type": "Point",
        "coordinates": [
          22.7223897,
          44.6071752
        ]
      },
      "properties": {
        "id": 12206478907,
        "osm_type": "node",
        "tourism": "apartment"
      }
    },
    {
      "type": "Feature",
      "geometry": {
        "type": "Point",
        "coordinates": [
          22.6513816,
          44.6262999
        ]
      },
      "properties": {
        "id": 12206478908,
        "osm_type": "node",
        "tourism": "apartment"
      }
    },
    {
      "type": "Feature",
      "geometry": {
        "type": "Point",
        "coordinates": [
          22.6501913,
          44.6412266
        ]
      },
      "properties": {
        "id": 12206478909,
        "osm_type": "node",
        "tourism": "apartment"
      }
    },
    {
      "type": "Feature",
      "geometry": {
        "type": "Point",
        "coordinates": [
          22.6713614,
          44.6336956
        ]
      },
      "properties": {
        "id": 12206478910,
        "osm_type": "node",
        "tourism": "apartment"
      }
    },
    {
      "type": "Feature",
      "geometry": {
        "type": "Point",
        "coordinates": [
          22.6474153,
          44.6409208
        ]
      },
      "properties": {
        "id": 12206479001,
        "osm_type": "node",
        "tourism": "apartment"
      }
    },
    {
      "type": "Feature",
      "geometry": {
        "type": "Point",
        "coordinates": [
          22.6423916,
          44.629886
        ]
      },
      "properties": {
        "id": 12206479101,
        "osm_type": "node",
        "tourism": "apartment"
      }
    },
    {
      "type": "Feature",
      "geometry": {
        "type": "Point",
        "coordinates": [
          22.6706488,
          44.6334196
        ]
      },
      "properties": {
        "id": 12206479201,
        "osm_type": "node",
        "tourism": "apartment"
      }
    },
    {
      "type": "Feature",
      "geometry": {
        "type": "Point",
        "coordinates": [
          22.6852655,
          45.0367827
        ]
      },
      "properties": {
        "id": 13037662585,
        "osm_type": "node",
        "name": "La Furca Văii",
        "tourism": "guest_house"
      }
    },
    {
      "type": "Feature",
      "geometry": {
        "type": "Point",
        "coordinates": [
          22.5682461,
          44.5007143
        ]
      },
      "properties": {
        "id": 13042575627,
        "osm_type": "node",
        "name": "Laguna Verde",
        "tourism": "guest_house",
        "phone": "+40723892030"
      }
    },
    {
      "type": "Feature",
      "geometry": {
        "type": "Point",
        "coordinates": [
          22.2606591,
          44.6217204
        ]
      },
      "properties": {
        "id": 13571813884,
        "osm_type": "node",
        "name": "Harmony House Dubova",
        "tourism": "guest_house"
      }
    },
    {
      "type": "Feature",
      "geometry": {
        "type": "Point",
        "coordinates": [
          22.260795,
          44.6213342
        ]
      },
      "properties": {
        "id": 13571813885,
        "osm_type": "node",
        "name": "Pensiunea La Faleza Dubova",
        "tourism": "guest_house"
      }
    },
    {
      "type": "Feature",
      "geometry": {
        "type": "Point",
        "coordinates": [
          22.6530295,
          44.6234226
        ]
      },
      "properties": {
        "id": 128765415,
        "osm_type": "way",
        "name": "Continental",
        "tourism": "hotel",
        "phone": "+40-(0)372 528 828",
        "website": "https://continental-drobeta-turnu-severin.continentalhotels.ro"
      }
    },
    {
      "type": "Feature",
      "geometry": {
        "type": "Point",
        "coordinates": [
          22.6454158,
          44.6222695
        ]
      },
      "properties": {
        "id": 224198427,
        "osm_type": "way",
        "name": "Pensiunea La Conu Iancu",
        "tourism": "guest_house"
      }
    },
    {
      "type": "Feature",
      "geometry": {
        "type": "Point",
        "coordinates": [
          22.3966446,
          44.726612
        ]
      },
      "properties": {
        "id": 265680893,
        "osm_type": "way",
        "name": "Hotel Flora",
        "tourism": "hotel"
      }
    },
    {
      "type": "Feature",
      "geometry": {
        "type": "Point",
        "coordinates": [
          22.3965713,
          44.7244415
        ]
      },
      "properties": {
        "id": 265681609,
        "osm_type": "way",
        "tourism": "hotel"
      }
    },
    {
      "type": "Feature",
      "geometry": {
        "type": "Point",
        "coordinates": [
          22.4117324,
          44.7402438
        ]
      },
      "properties": {
        "id": 265681614,
        "osm_type": "way",
        "name": "Pensiune Șura Dacilor",
        "tourism": "guest_house",
        "phone": "+40 (0)720 533 076"
      }
    },
    {
      "type": "Feature",
      "geometry": {
        "type": "Point",
        "coordinates": [
          22.3983489,
          44.7238399
        ]
      },
      "properties": {
        "id": 265681673,
        "osm_type": "way",
        "tourism": "hotel"
      }
    },
    {
      "type": "Feature",
      "geometry": {
        "type": "Point",
        "coordinates": [
          22.4055395,
          44.7358097
        ]
      },
      "properties": {
        "id": 265683861,
        "osm_type": "way",
        "name": "Pensiunea Dunavis - Cazanele Dunarii",
        "tourism": "guest_house",
        "phone": "0764 351 314",
        "website": "https://www.dunavis-turism.ro"
      }
    },
    {
      "type": "Feature",
      "geometry": {
        "type": "Point",
        "coordinates": [
          22.4146079,
          44.7342405
        ]
      },
      "properties": {
        "id": 265684351,
        "osm_type": "way",
        "tourism": "guest_house"
      }
    },
    {
      "type": "Feature",
      "geometry": {
        "type": "Point",
        "coordinates": [
          22.2554143,
          44.6193694
        ]
      },
      "properties": {
        "id": 274070159,
        "osm_type": "way",
        "name": "Cazare Dubova",
        "tourism": "guest_house"
      }
    },
    {
      "type": "Feature",
      "geometry": {
        "type": "Point",
        "coordinates": [
          22.2506716,
          44.610474
        ]
      },
      "properties": {
        "id": 274078607,
        "osm_type": "way",
        "name": "Casa Duta-Cazanele Dunarii",
        "tourism": "guest_house",
        "phone": "+40 755 722 422"
      }
    },
    {
      "type": "Feature",
      "geometry": {
        "type": "Point",
        "coordinates": [
          22.4927763,
          44.972718
        ]
      },
      "properties": {
        "id": 282892436,
        "osm_type": "way",
        "name": "Motel Dumbrava",
        "tourism": "motel"
      }
    },
    {
      "type": "Feature",
      "geometry": {
        "type": "Point",
        "coordinates": [
          22.6559413,
          44.6319435
        ]
      },
      "properties": {
        "id": 284602838,
        "osm_type": "way",
        "name": "Hotel Traian",
        "tourism": "hotel"
      }
    },
    {
      "type": "Feature",
      "geometry": {
        "type": "Point",
        "coordinates": [
          22.6376307,
          44.6389549
        ]
      },
      "properties": {
        "id": 289547038,
        "osm_type": "way",
        "name": "Pensiunea Belvedere",
        "tourism": "hostel"
      }
    },
    {
      "type": "Feature",
      "geometry": {
        "type": "Point",
        "coordinates": [
          22.6625662,
          44.6241424
        ]
      },
      "properties": {
        "id": 289610267,
        "osm_type": "way",
        "name": "Casa Andra",
        "tourism": "hostel"
      }
    },
    {
      "type": "Feature",
      "geometry": {
        "type": "Point",
        "coordinates": [
          22.6605943,
          44.6251307
        ]
      },
      "properties": {
        "id": 289610270,
        "osm_type": "way",
        "name": "Hotel Severin",
        "tourism": "hotel"
      }
    },
    {
      "type": "Feature",
      "geometry": {
        "type": "Point",
        "coordinates": [
          22.6504548,
          44.6289223
        ]
      },
      "properties": {
        "id": 289911283,
        "osm_type": "way",
        "name": "Club G",
        "tourism": "hotel",
        "website": "http://www.clubg.ro/index.html"
      }
    },
    {
      "type": "Feature",
      "geometry": {
        "type": "Point",
        "coordinates": [
          22.6543486,
          44.6318787
        ]
      },
      "properties": {
        "id": 289911288,
        "osm_type": "way",
        "name": "Hotel Clipa",
        "tourism": "hotel"
      }
    },
    {
      "type": "Feature",
      "geometry": {
        "type": "Point",
        "coordinates": [
          22.6605347,
          44.6324546
        ]
      },
      "properties": {
        "id": 290030458,
        "osm_type": "way",
        "name": "Hotel Corona",
        "tourism": "hotel"
      }
    },
    {
      "type": "Feature",
      "geometry": {
        "type": "Point",
        "coordinates": [
          22.6548218,
          44.6311928
        ]
      },
      "properties": {
        "id": 290320488,
        "osm_type": "way",
        "name": "Pensiunea Yoji",
        "tourism": "hostel"
      }
    },
    {
      "type": "Feature",
      "geometry": {
        "type": "Point",
        "coordinates": [
          22.1639204,
          44.5443996
        ]
      },
      "properties": {
        "id": 378892354,
        "osm_type": "way",
        "name": "Ubytování u Jendy Jágra",
        "tourism": "guest_house",
        "phone": "+40756673428"
      }
    },
    {
      "type": "Feature",
      "geometry": {
        "type": "Point",
        "coordinates": [
          22.1582139,
          44.5444346
        ]
      },
      "properties": {
        "id": 379407136,
        "osm_type": "way",
        "name": "Ubytování U Medvěda",
        "tourism": "guest_house",
        "phone": "+ 40726580106",
        "website": "https://www.visitbanat.com/ubytovani"
      }
    },
    {
      "type": "Feature",
      "geometry": {
        "type": "Point",
        "coordinates": [
          22.1641725,
          44.544559
        ]
      },
      "properties": {
        "id": 379421569,
        "osm_type": "way",
        "name": "Ubytování u Ilonky Zrzavé",
        "tourism": "guest_house",
        "phone": "+40742628842"
      }
    },
    {
      "type": "Feature",
      "geometry": {
        "type": "Point",
        "coordinates": [
          22.1642186,
          44.5443473
        ]
      },
      "properties": {
        "id": 379421573,
        "osm_type": "way",
        "name": "Ubytování Jenda Jáger",
        "tourism": "guest_house",
        "phone": "+40756673428"
      }
    },
    {
      "type": "Feature",
      "geometry": {
        "type": "Point",
        "coordinates": [
          22.1634504,
          44.5444405
        ]
      },
      "properties": {
        "id": 379421575,
        "osm_type": "way",
        "name": "Ubytování Edgar Mleziva",
        "tourism": "guest_house",
        "phone": "+40747665080"
      }
    },
    {
      "type": "Feature",
      "geometry": {
        "type": "Point",
        "coordinates": [
          22.1623748,
          44.5446709
        ]
      },
      "properties": {
        "id": 379422639,
        "osm_type": "way",
        "name": "Ubytování u Gábiny Voňavkové",
        "tourism": "guest_house",
        "phone": "+40742673127"
      }
    },
    {
      "type": "Feature",
      "geometry": {
        "type": "Point",
        "coordinates": [
          22.1594916,
          44.5445287
        ]
      },
      "properties": {
        "id": 379425559,
        "osm_type": "way",
        "name": "Ubytování La Bambu",
        "tourism": "guest_house",
        "phone": "+40726580106"
      }
    },
    {
      "type": "Feature",
      "geometry": {
        "type": "Point",
        "coordinates": [
          22.1586895,
          44.5445423
        ]
      },
      "properties": {
        "id": 379425571,
        "osm_type": "way",
        "name": "Ubytování u dědy",
        "tourism": "guest_house",
        "phone": "+ 40726580106",
        "website": "https://www.visitbanat.com/ubytovani"
      }
    },
    {
      "type": "Feature",
      "geometry": {
        "type": "Point",
        "coordinates": [
          22.1580723,
          44.5451841
        ]
      },
      "properties": {
        "id": 385823073,
        "osm_type": "way",
        "name": "Camp U Medvěda",
        "tourism": "camp_site",
        "tents": "yes"
      }
    },
    {
      "type": "Feature",
      "geometry": {
        "type": "Point",
        "coordinates": [
          22.1577148,
          44.5442012
        ]
      },
      "properties": {
        "id": 385824921,
        "osm_type": "way",
        "name": "Ubytování Eduard Low",
        "tourism": "guest_house",
        "phone": "+40252368210"
      }
    },
    {
      "type": "Feature",
      "geometry": {
        "type": "Point",
        "coordinates": [
          22.1567065,
          44.5439373
        ]
      },
      "properties": {
        "id": 385833598,
        "osm_type": "way",
        "name": "Ubytování Irma Nedvědová",
        "tourism": "guest_house",
        "phone": "+40799365360"
      }
    },
    {
      "type": "Feature",
      "geometry": {
        "type": "Point",
        "coordinates": [
          22.1562575,
          44.5439123
        ]
      },
      "properties": {
        "id": 385833772,
        "osm_type": "way",
        "name": "Ubytování Emil Bradáč",
        "tourism": "guest_house",
        "phone": "+40756609097"
      }
    },
    {
      "type": "Feature",
      "geometry": {
        "type": "Point",
        "coordinates": [
          22.1536721,
          44.5442958
        ]
      },
      "properties": {
        "id": 385856106,
        "osm_type": "way",
        "name": "Ubytování Božena Pospíšilová",
        "tourism": "guest_house",
        "phone": "+40752607869"
      }
    },
    {
      "type": "Feature",
      "geometry": {
        "type": "Point",
        "coordinates": [
          22.1540449,
          44.5442835
        ]
      },
      "properties": {
        "id": 385856111,
        "osm_type": "way",
        "name": "Ubytování Gustýna Pospíšilová",
        "tourism": "guest_house",
        "phone": "+40754833777"
      }
    },
    {
      "type": "Feature",
      "geometry": {
        "type": "Point",
        "coordinates": [
          22.154777,
          44.544282
        ]
      },
      "properties": {
        "id": 385856114,
        "osm_type": "way",
        "name": "Apartmens Eibenthal",
        "tourism": "apartment",
        "phone": "+ 40726580106",
        "website": "https://www.visitbanat.com/ubytovani"
      }
    },
    {
      "type": "Feature",
      "geometry": {
        "type": "Point",
        "coordinates": [
          22.1531563,
          44.5439775
        ]
      },
      "properties": {
        "id": 385862876,
        "osm_type": "way",
        "name": "Ubytování u Flašky",
        "tourism": "guest_house",
        "phone": "+40726580106"
      }
    },
    {
      "type": "Feature",
      "geometry": {
        "type": "Point",
        "coordinates": [
          22.1526914,
          44.5441431
        ]
      },
      "properties": {
        "id": 385865735,
        "osm_type": "way",
        "name": "Ubytování Anna Kaftanová",
        "tourism": "guest_house",
        "phone": "+40252368162"
      }
    },
    {
      "type": "Feature",
      "geometry": {
        "type": "Point",
        "coordinates": [
          22.1511269,
          44.5447163
        ]
      },
      "properties": {
        "id": 385868967,
        "osm_type": "way",
        "name": "Ubytování Rozárka Urbanová",
        "tourism": "guest_house",
        "phone": "+40252368452"
      }
    },
    {
      "type": "Feature",
      "geometry": {
        "type": "Point",
        "coordinates": [
          22.1514209,
          44.5446491
        ]
      },
      "properties": {
        "id": 385868971,
        "osm_type": "way",
        "name": "Ubytování u Luci",
        "tourism": "guest_house",
        "phone": "+40770397866"
      }
    },
    {
      "type": "Feature",
      "geometry": {
        "type": "Point",
        "coordinates": [
          22.1469204,
          44.54506
        ]
      },
      "properties": {
        "id": 385905430,
        "osm_type": "way",
        "name": "Etuška Pešicová",
        "tourism": "guest_house",
        "phone": "+40770841662"
      }
    },
    {
      "type": "Feature",
      "geometry": {
        "type": "Point",
        "coordinates": [
          22.1475982,
          44.5444168
        ]
      },
      "properties": {
        "id": 385907314,
        "osm_type": "way",
        "name": "Ubytování u Kocmanů",
        "tourism": "guest_house",
        "phone": "+40252368166"
      }
    },
    {
      "type": "Feature",
      "geometry": {
        "type": "Point",
        "coordinates": [
          22.1457838,
          44.543952
        ]
      },
      "properties": {
        "id": 385907315,
        "osm_type": "way",
        "name": "Ubytování Robert Pospíšil",
        "tourism": "guest_house",
        "phone": "+40252368162"
      }
    },
    {
      "type": "Feature",
      "geometry": {
        "type": "Point",
        "coordinates": [
          22.132948,
          44.5519686
        ]
      },
      "properties": {
        "id": 385923500,
        "osm_type": "way",
        "name": "Ubytování Joži Pospíšil",
        "tourism": "guest_house",
        "phone": "+40741272739"
      }
    },
    {
      "type": "Feature",
      "geometry": {
        "type": "Point",
        "coordinates": [
          22.1609187,
          44.5450874
        ]
      },
      "properties": {
        "id": 469030682,
        "osm_type": "way",
        "name": "Ubytování Jan Kotešovec",
        "tourism": "guest_house",
        "phone": "+40758302834"
      }
    },
    {
      "type": "Feature",
      "geometry": {
        "type": "Point",
        "coordinates": [
          22.1672672,
          44.5427342
        ]
      },
      "properties": {
        "id": 539307859,
        "osm_type": "way",
        "name": "Ubytování Jan Pospíšil",
        "tourism": "guest_house",
        "phone": "+40743153105"
      }
    },
    {
      "type": "Feature",
      "geometry": {
        "type": "Point",
        "coordinates": [
          22.1669591,
          44.5445929
        ]
      },
      "properties": {
        "id": 539307875,
        "osm_type": "way",
        "name": "Ubytování Marie Pospíšilová",
        "tourism": "guest_house",
        "phone": "+40758302834"
      }
    },
    {
      "type": "Feature",
      "geometry": {
        "type": "Point",
        "coordinates": [
          22.6133608,
          44.6241787
        ]
      },
      "properties": {
        "id": 550398234,
        "osm_type": "way",
        "name": "Hotel Tudor",
        "tourism": "hotel"
      }
    },
    {
      "type": "Feature",
      "geometry": {
        "type": "Point",
        "coordinates": [
          22.6427969,
          44.6378892
        ]
      },
      "properties": {
        "id": 714465044,
        "osm_type": "way",
        "name": "Hostel Tropical Terasa",
        "tourism": "guest_house",
        "phone": "+40-(0)352 402 202"
      }
    },
    {
      "type": "Feature",
      "geometry": {
        "type": "Point",
        "coordinates": [
          22.6435015,
          44.6304403
        ]
      },
      "properties": {
        "id": 714465045,
        "osm_type": "way",
        "name": "Topaz",
        "tourism": "guest_house",
        "phone": "+40-(0)252 319 924"
      }
    },
    {
      "type": "Feature",
      "geometry": {
        "type": "Point",
        "coordinates": [
          22.6556218,
          44.976046
        ]
      },
      "properties": {
        "id": 778324782,
        "osm_type": "way",
        "tourism": "guest_house"
      }
    },
    {
      "type": "Feature",
      "geometry": {
        "type": "Point",
        "coordinates": [
          22.7635518,
          44.9743216
        ]
      },
      "properties": {
        "id": 1041951252,
        "osm_type": "way",
        "name": "Conacu' Boierului",
        "tourism": "guest_house"
      }
    },
    {
      "type": "Feature",
      "geometry": {
        "type": "Point",
        "coordinates": [
          22.2680767,
          44.6329059
        ]
      },
      "properties": {
        "id": 1126741681,
        "osm_type": "way",
        "name": "Vella 1",
        "tourism": "hotel",
        "phone": "+40 753 111 222",
        "website": "https://lavella.ro/"
      }
    },
    {
      "type": "Feature",
      "geometry": {
        "type": "Point",
        "coordinates": [
          22.2672606,
          44.632467
        ]
      },
      "properties": {
        "id": 1126741682,
        "osm_type": "way",
        "name": "Vella 2",
        "tourism": "hotel",
        "phone": "+40 753 111 222",
        "website": "https://lavella.ro/"
      }
    },
    {
      "type": "Feature",
      "geometry": {
        "type": "Point",
        "coordinates": [
          22.3452822,
          44.686274
        ]
      },
      "properties": {
        "id": 1205575652,
        "osm_type": "way",
        "name": "Camping Mala în Clisura Dunării",
        "tourism": "camp_site"
      }
    },
    {
      "type": "Feature",
      "geometry": {
        "type": "Point",
        "coordinates": [
          22.6534834,
          44.6319628
        ]
      },
      "properties": {
        "id": 1211105631,
        "osm_type": "way",
        "name": "Pensiunea Europa",
        "tourism": "hotel"
      }
    },
    {
      "type": "Feature",
      "geometry": {
        "type": "Point",
        "coordinates": [
          22.1550397,
          44.5442567
        ]
      },
      "properties": {
        "id": 1213008334,
        "osm_type": "way",
        "name": "Apartments Eibenthal",
        "tourism": "apartment",
        "phone": "+ 40726580106",
        "website": "https://www.visitbanat.com/ubytovani"
      }
    },
    {
      "type": "Feature",
      "geometry": {
        "type": "Point",
        "coordinates": [
          22.1554584,
          44.5439038
        ]
      },
      "properties": {
        "id": 1213008793,
        "osm_type": "way",
        "name": "Apartments Brewery",
        "tourism": "apartment",
        "phone": "+ 40726580106",
        "website": "https://www.visitbanat.com/ubytovani"
      }
    },
    {
      "type": "Feature",
      "geometry": {
        "type": "Point",
        "coordinates": [
          22.1591906,
          44.5444818
        ]
      },
      "properties": {
        "id": 1213017271,
        "osm_type": "way",
        "name": "Camp La Bambu",
        "tourism": "camp_site"
      }
    },
    {
      "type": "Feature",
      "geometry": {
        "type": "Point",
        "coordinates": [
          22.369314,
          44.6863692
        ]
      },
      "properties": {
        "id": 1214087061,
        "osm_type": "way",
        "name": "Cazanele Dunarii",
        "tourism": "camp_site",
        "tents": "yes"
      }
    },
    {
      "type": "Feature",
      "geometry": {
        "type": "Point",
        "coordinates": [
          22.8063226,
          44.9983062
        ]
      },
      "properties": {
        "id": 1253894238,
        "osm_type": "way",
        "tourism": "guest_house"
      }
    },
    {
      "type": "Feature",
      "geometry": {
        "type": "Point",
        "coordinates": [
          22.7630434,
          44.9730573
        ]
      },
      "properties": {
        "id": 1312178433,
        "osm_type": "way",
        "tourism": "guest_house"
      }
    },
    {
      "type": "Feature",
      "geometry": {
        "type": "Point",
        "coordinates": [
          22.2799689,
          44.6515936
        ]
      },
      "properties": {
        "id": 1344539471,
        "osm_type": "way",
        "name": "Zorra Chalet",
        "tourism": "chalet"
      }
    },
    {
      "type": "Feature",
      "geometry": {
        "type": "Point",
        "coordinates": [
          22.8265952,
          44.8940547
        ]
      },
      "properties": {
        "id": 1469545972,
        "osm_type": "way",
        "name": "Hotel Ceres",
        "tourism": "hotel"
      }
    },
    {
      "type": "Feature",
      "geometry": {
        "type": "Point",
        "coordinates": [
          22.4699921,
          44.7290004
        ]
      },
      "properties": {
        "id": 1473694661,
        "osm_type": "way",
        "name": "NAUTICA BAHNA",
        "tourism": "guest_house",
        "phone": "+40 799 425 653"
      }
    }
  ]
}