{
  "type": "FeatureCollection",
  "features": [
    {
      "type": "Feature",
      "geometry": {
        "type": "Point",
        "coordinates": [
          25.2393345,
          41.6871334
        ]
      },
      "properties": {
        "id": 1302910128,
        "osm_type": "node",
        "name": "Боровица",
        "tourism": "hotel"
      }
    },
    {
      "type": "Feature",
      "geometry": {
        "type": "Point",
        "coordinates": [
          25.6519364,
          41.4735106
        ]
      },
      "properties": {
        "id": 1305262263,
        "osm_type": "node",
        "name": "Hotel VIA",
        "tourism": "hotel"
      }
    },
    {
      "type": "Feature",
      "geometry": {
        "type": "Point",
        "coordinates": [
          25.3240258,
          41.64325
        ]
      },
      "properties": {
        "id": 1827435372,
        "osm_type": "node",
        "name": "Романтика",
        "tourism": "guest_house"
      }
    },
    {
      "type": "Feature",
      "geometry": {
        "type": "Point",
        "coordinates": [
          25.1533836,
          41.5776313
        ]
      },
      "properties": {
        "id": 2125770376,
        "osm_type": "node",
        "tourism": "hotel"
      }
    },
    {
      "type": "Feature",
      "geometry": {
        "type": "Point",
        "coordinates": [
          25.1586601,
          41.5789669
        ]
      },
      "properties": {
        "id": 2125770377,
        "osm_type": "node",
        "tourism": "hotel"
      }
    },
    {
      "type": "Feature",
      "geometry": {
        "type": "Point",
        "coordinates": [
          25.1389002,
          41.580182
        ]
      },
      "properties": {
        "id": 2125770378,
        "osm_type": "node",
        "tourism": "hotel"
      }
    },
    {
      "type": "Feature",
      "geometry": {
        "type": "Point",
        "coordinates": [
          25.1345239,
          41.5843359
        ]
      },
      "properties": {
        "id": 2125770382,
        "osm_type": "node",
        "name": "Ардино",
        "tourism": "hotel"
      }
    },
    {
      "type": "Feature",
      "geometry": {
        "type": "Point",
        "coordinates": [
          25.1895863,
          41.6012416
        ]
      },
      "properties": {
        "id": 2338285395,
        "osm_type": "node",
        "name": "Планински изглед",
        "tourism": "hotel"
      }
    },
    {
      "type": "Feature",
      "geometry": {
        "type": "Point",
        "coordinates": [
          25.564824,
          41.6376228
        ]
      },
      "properties": {
        "id": 2636788200,
        "osm_type": "node",
        "name": "Хижа Крояците",
        "tourism": "alpine_hut",
        "website": "http://newthraciangold.eu/acomo_details.php?id=83&lng=bg"
      }
    },
    {
      "type": "Feature",
      "geometry": {
        "type": "Point",
        "coordinates": [
          25.65355,
          41.4693328
        ]
      },
      "properties": {
        "id": 3840899566,
        "osm_type": "node",
        "name": "Семеен хотел Виа",
        "tourism": "hotel"
      }
    },
    {
      "type": "Feature",
      "geometry": {
        "type": "Point",
        "coordinates": [
          25.6526433,
          41.4709773
        ]
      },
      "properties": {
        "id": 3968159764,
        "osm_type": "node",
        "name": "Хотел Ахрида",
        "tourism": "hotel"
      }
    },
    {
      "type": "Feature",
      "geometry": {
        "type": "Point",
        "coordinates": [
          25.3697814,
          41.6386553
        ]
      },
      "properties": {
        "id": 4142375390,
        "osm_type": "node",
        "name": "България",
        "tourism": "hotel"
      }
    },
    {
      "type": "Feature",
      "geometry": {
        "type": "Point",
        "coordinates": [
          25.1892347,
          41.6812895
        ]
      },
      "properties": {
        "id": 4218303608,
        "osm_type": "node",
        "tourism": "hotel"
      }
    },
    {
      "type": "Feature",
      "geometry": {
        "type": "Point",
        "coordinates": [
          25.3560384,
          41.6355467
        ]
      },
      "properties": {
        "id": 4226990924,
        "osm_type": "node",
        "name": "Meatsa",
        "tourism": "hotel"
      }
    },
    {
      "type": "Feature",
      "geometry": {
        "type": "Point",
        "coordinates": [
          25.3722749,
          41.6397812
        ]
      },
      "properties": {
        "id": 4230458600,
        "osm_type": "node",
        "name": "Behi",
        "tourism": "hotel"
      }
    },
    {
      "type": "Feature",
      "geometry": {
        "type": "Point",
        "coordinates": [
          25.1626558,
          41.6468426
        ]
      },
      "properties": {
        "id": 4249860990,
        "osm_type": "node",
        "name": "plovdiv",
        "tourism": "hotel"
      }
    },
    {
      "type": "Feature",
      "geometry": {
        "type": "Point",
        "coordinates": [
          25.3496424,
          41.6327432
        ]
      },
      "properties": {
        "id": 4494301290,
        "osm_type": "node",
        "tourism": "guest_house"
      }
    },
    {
      "type": "Feature",
      "geometry": {
        "type": "Point",
        "coordinates": [
          25.2515216,
          41.2546748
        ]
      },
      "properties": {
        "id": 4633157957,
        "osm_type": "node",
        "name": "Хвойнова поляна",
        "tourism": "alpine_hut"
      }
    },
    {
      "type": "Feature",
      "geometry": {
        "type": "Point",
        "coordinates": [
          25.1349109,
          41.5845538
        ]
      },
      "properties": {
        "id": 4845440811,
        "osm_type": "node",
        "name": "Емона",
        "tourism": "hotel"
      }
    },
    {
      "type": "Feature",
      "geometry": {
        "type": "Point",
        "coordinates": [
          25.3742968,
          41.6503837
        ]
      },
      "properties": {
        "id": 6742091416,
        "osm_type": "node",
        "name": "Анелия",
        "tourism": "guest_house",
        "website": "http://www.anelia-house.com"
      }
    },
    {
      "type": "Feature",
      "geometry": {
        "type": "Point",
        "coordinates": [
          25.1334222,
          41.5846672
        ]
      },
      "properties": {
        "id": 7120005094,
        "osm_type": "node",
        "name": "Стаи за гости Панорама",
        "tourism": "hotel",
        "opening_hours": "Mo-Su 08:00-23:00",
        "phone": "+359 88 749 5948"
      }
    },
    {
      "type": "Feature",
      "geometry": {
        "type": "Point",
        "coordinates": [
          25.5724543,
          41.5438715
        ]
      },
      "properties": {
        "id": 7399278926,
        "osm_type": "node",
        "tourism": "camp_site"
      }
    },
    {
      "type": "Feature",
      "geometry": {
        "type": "Point",
        "coordinates": [
          25.1122421,
          41.7536587
        ]
      },
      "properties": {
        "id": 7469070233,
        "osm_type": "node",
        "name": "Wild camp",
        "tourism": "camp_site"
      }
    },
    {
      "type": "Feature",
      "geometry": {
        "type": "Point",
        "coordinates": [
          25.1876782,
          41.77359
        ]
      },
      "properties": {
        "id": 7469173905,
        "osm_type": "node",
        "name": "Wild camp",
        "tourism": "camp_site"
      }
    },
    {
      "type": "Feature",
      "geometry": {
        "type": "Point",
        "coordinates": [
          25.4092848,
          41.5340292
        ]
      },
      "properties": {
        "id": 8467755400,
        "osm_type": "node",
        "name": "Конака",
        "tourism": "hotel"
      }
    },
    {
      "type": "Feature",
      "geometry": {
        "type": "Point",
        "coordinates": [
          25.3015333,
          41.678989
        ]
      },
      "properties": {
        "id": 8946918518,
        "osm_type": "node",
        "tourism": "camp_site"
      }
    },
    {
      "type": "Feature",
      "geometry": {
        "type": "Point",
        "coordinates": [
          25.3567813,
          41.3412056
        ]
      },
      "properties": {
        "id": 9163197959,
        "osm_type": "node",
        "name": "Chinar",
        "tourism": "hotel"
      }
    },
    {
      "type": "Feature",
      "geometry": {
        "type": "Point",
        "coordinates": [
          25.368872,
          41.6176762
        ]
      },
      "properties": {
        "id": 9444891732,
        "osm_type": "node",
        "name": "Aqua Fantasy",
        "tourism": "hotel",
        "website": "https://aquafantasy.bg/reservations/"
      }
    },
    {
      "type": "Feature",
      "geometry": {
        "type": "Point",
        "coordinates": [
          25.3628657,
          41.3261826
        ]
      },
      "properties": {
        "id": 9991490028,
        "osm_type": "node",
        "name": "Enchevi",
        "tourism": "hotel",
        "phone": "+359 87 719 0190",
        "website": "https://facebook.com/hotelenchevi"
      }
    },
    {
      "type": "Feature",
      "geometry": {
        "type": "Point",
        "coordinates": [
          25.3647627,
          41.3320615
        ]
      },
      "properties": {
        "id": 9991873049,
        "osm_type": "node",
        "name": "Kirkowo",
        "tourism": "hotel"
      }
    },
    {
      "type": "Feature",
      "geometry": {
        "type": "Point",
        "coordinates": [
          25.651393,
          41.4695163
        ]
      },
      "properties": {
        "id": 10013994802,
        "osm_type": "node",
        "name": "Hotel Divna",
        "tourism": "hotel"
      }
    },
    {
      "type": "Feature",
      "geometry": {
        "type": "Point",
        "coordinates": [
          25.3112313,
          41.6464895
        ]
      },
      "properties": {
        "id": 10204018014,
        "osm_type": "node",
        "name": "Сезони",
        "tourism": "hotel"
      }
    },
    {
      "type": "Feature",
      "geometry": {
        "type": "Point",
        "coordinates": [
          25.3120065,
          41.6472902
        ]
      },
      "properties": {
        "id": 10204063973,
        "osm_type": "node",
        "name": "Главатарски хан",
        "tourism": "hotel"
      }
    },
    {
      "type": "Feature",
      "geometry": {
        "type": "Point",
        "coordinates": [
          25.3737631,
          41.6614046
        ]
      },
      "properties": {
        "id": 10786715775,
        "osm_type": "node",
        "name": "Резиденцията",
        "tourism": "hotel"
      }
    },
    {
      "type": "Feature",
      "geometry": {
        "type": "Point",
        "coordinates": [
          25.3106552,
          41.6459087
        ]
      },
      "properties": {
        "id": 10968621759,
        "osm_type": "node",
        "name": "Оренда",
        "tourism": "hotel",
        "website": "https://orenda-bg.com/"
      }
    },
    {
      "type": "Feature",
      "geometry": {
        "type": "Point",
        "coordinates": [
          25.4324838,
          41.6411407
        ]
      },
      "properties": {
        "id": 11835828775,
        "osm_type": "node",
        "tourism": "chalet"
      }
    },
    {
      "type": "Feature",
      "geometry": {
        "type": "Point",
        "coordinates": [
          25.3741365,
          41.6452178
        ]
      },
      "properties": {
        "id": 11862381870,
        "osm_type": "node",
        "tourism": "apartment"
      }
    },
    {
      "type": "Feature",
      "geometry": {
        "type": "Point",
        "coordinates": [
          25.3663625,
          41.6437763
        ]
      },
      "properties": {
        "id": 11862403569,
        "osm_type": "node",
        "tourism": "apartment"
      }
    },
    {
      "type": "Feature",
      "geometry": {
        "type": "Point",
        "coordinates": [
          25.3751135,
          41.6067429
        ]
      },
      "properties": {
        "id": 12151160599,
        "osm_type": "node",
        "name": "Ида",
        "tourism": "hotel",
        "contact:phone": "+359 89 553 6838;+359 87 666 1216",
        "website": "http://complexida.com/"
      }
    },
    {
      "type": "Feature",
      "geometry": {
        "type": "Point",
        "coordinates": [
          25.7756479,
          41.6527419
        ]
      },
      "properties": {
        "id": 13608767001,
        "osm_type": "node",
        "name": "Къмпинг Арда",
        "tourism": "camp_site",
        "phone": "+359 88 310 1101"
      }
    },
    {
      "type": "Feature",
      "geometry": {
        "type": "Point",
        "coordinates": [
          25.3675359,
          41.6368475
        ]
      },
      "properties": {
        "id": 28643638,
        "osm_type": "way",
        "name": "Arpezos",
        "tourism": "hotel"
      }
    },
    {
      "type": "Feature",
      "geometry": {
        "type": "Point",
        "coordinates": [
          25.37841,
          41.6328724
        ]
      },
      "properties": {
        "id": 28643945,
        "osm_type": "way",
        "name": "Kardzhali",
        "tourism": "hotel"
      }
    },
    {
      "type": "Feature",
      "geometry": {
        "type": "Point",
        "coordinates": [
          25.5151668,
          41.6394487
        ]
      },
      "properties": {
        "id": 235162591,
        "osm_type": "way",
        "name": "х. Средна Арда",
        "tourism": "chalet"
      }
    },
    {
      "type": "Feature",
      "geometry": {
        "type": "Point",
        "coordinates": [
          25.4987495,
          41.6901497
        ]
      },
      "properties": {
        "id": 255442332,
        "osm_type": "way",
        "tourism": "camp_site"
      }
    },
    {
      "type": "Feature",
      "geometry": {
        "type": "Point",
        "coordinates": [
          25.2182212,
          41.6601448
        ]
      },
      "properties": {
        "id": 262135576,
        "osm_type": "way",
        "name": "Kompleks \"Chamdere\"",
        "tourism": "hotel"
      }
    },
    {
      "type": "Feature",
      "geometry": {
        "type": "Point",
        "coordinates": [
          25.3878456,
          41.5654028
        ]
      },
      "properties": {
        "id": 306348441,
        "osm_type": "way",
        "name": "Маказа",
        "tourism": "hotel",
        "website": "http://complex-makaza.com/"
      }
    },
    {
      "type": "Feature",
      "geometry": {
        "type": "Point",
        "coordinates": [
          25.3692769,
          41.6372537
        ]
      },
      "properties": {
        "id": 423957707,
        "osm_type": "way",
        "name": "Perperikon",
        "tourism": "hotel"
      }
    },
    {
      "type": "Feature",
      "geometry": {
        "type": "Point",
        "coordinates": [
          25.3736228,
          41.6613912
        ]
      },
      "properties": {
        "id": 424996939,
        "osm_type": "way",
        "name": "Rezidentsia",
        "tourism": "hotel"
      }
    },
    {
      "type": "Feature",
      "geometry": {
        "type": "Point",
        "coordinates": [
          25.5181671,
          41.693931
        ]
      },
      "properties": {
        "id": 452402771,
        "osm_type": "way",
        "name": "Къща за гости Мъдрец",
        "tourism": "guest_house",
        "phone": "+359 89 961 8901"
      }
    },
    {
      "type": "Feature",
      "geometry": {
        "type": "Point",
        "coordinates": [
          25.5494742,
          41.6554184
        ]
      },
      "properties": {
        "id": 452403915,
        "osm_type": "way",
        "name": "Бягство при езерото",
        "tourism": "guest_house",
        "phone": "+359 88 783 1026"
      }
    },
    {
      "type": "Feature",
      "geometry": {
        "type": "Point",
        "coordinates": [
          25.1177492,
          41.6662661
        ]
      },
      "properties": {
        "id": 452416136,
        "osm_type": "way",
        "name": "Melanya Mountain Retreat",
        "tourism": "guest_house",
        "phone": "+359 88 462 1780"
      }
    },
    {
      "type": "Feature",
      "geometry": {
        "type": "Point",
        "coordinates": [
          25.2220011,
          41.4671809
        ]
      },
      "properties": {
        "id": 478788471,
        "osm_type": "way",
        "name": "хижа Устра",
        "tourism": "chalet"
      }
    },
    {
      "type": "Feature",
      "geometry": {
        "type": "Point",
        "coordinates": [
          25.6555302,
          41.4725915
        ]
      },
      "properties": {
        "id": 496754547,
        "osm_type": "way",
        "name": "Ученическо общежитие",
        "tourism": "hostel"
      }
    },
    {
      "type": "Feature",
      "geometry": {
        "type": "Point",
        "coordinates": [
          25.3654518,
          41.3294282
        ]
      },
      "properties": {
        "id": 497077611,
        "osm_type": "way",
        "name": "Хотел Елит",
        "tourism": "hotel"
      }
    },
    {
      "type": "Feature",
      "geometry": {
        "type": "Point",
        "coordinates": [
          25.2577826,
          41.2740347
        ]
      },
      "properties": {
        "id": 536171206,
        "osm_type": "way",
        "name": "Гюмюрджински Снежник",
        "tourism": "guest_house"
      }
    },
    {
      "type": "Feature",
      "geometry": {
        "type": "Point",
        "coordinates": [
          25.0720893,
          41.5462051
        ]
      },
      "properties": {
        "id": 559730670,
        "osm_type": "way",
        "tourism": "guest_house"
      }
    },
    {
      "type": "Feature",
      "geometry": {
        "type": "Point",
        "coordinates": [
          25.36969,
          41.6370866
        ]
      },
      "properties": {
        "id": 704168890,
        "osm_type": "way",
        "name": "Garden Hotel",
        "tourism": "hotel"
      }
    },
    {
      "type": "Feature",
      "geometry": {
        "type": "Point",
        "coordinates": [
          25.4141155,
          41.5382829
        ]
      },
      "properties": {
        "id": 1134075352,
        "osm_type": "way",
        "tourism": "hotel"
      }
    },
    {
      "type": "Feature",
      "geometry": {
        "type": "Point",
        "coordinates": [
          25.4132562,
          41.5384946
        ]
      },
      "properties": {
        "id": 1134075353,
        "osm_type": "way",
        "tourism": "hotel"
      }
    },
    {
      "type": "Feature",
      "geometry": {
        "type": "Point",
        "coordinates": [
          25.3588309,
          41.3587302
        ]
      },
      "properties": {
        "id": 1152976288,
        "osm_type": "way",
        "tourism": "hotel"
      }
    },
    {
      "type": "Feature",
      "geometry": {
        "type": "Point",
        "coordinates": [
          25.4200236,
          41.7362418
        ]
      },
      "properties": {
        "id": 1318995325,
        "osm_type": "way",
        "name": "Villas \"Perpereshka River\" Вили \"Перперешка река\"",
        "tourism": "guest_house"
      }
    }
  ]
}