{
  "type": "FeatureCollection",
  "features": [
    {
      "type": "Feature",
      "geometry": {
        "type": "Point",
        "coordinates": [
          20.5889401,
          47.4800513
        ]
      },
      "properties": {
        "id": 26861251,
        "osm_type": "node",
        "name": "Füzes",
        "tourism": "camp_site"
      }
    },
    {
      "type": "Feature",
      "geometry": {
        "type": "Point",
        "coordinates": [
          20.2008513,
          46.864879
        ]
      },
      "properties": {
        "id": 26861288,
        "osm_type": "node",
        "name": "Thermalcamping",
        "tourism": "camp_site"
      }
    },
    {
      "type": "Feature",
      "geometry": {
        "type": "Point",
        "coordinates": [
          20.2038336,
          46.8641912
        ]
      },
      "properties": {
        "id": 833251300,
        "osm_type": "node",
        "name": "Aqua-Lux*** Wellness Hotel",
        "tourism": "hotel",
        "phone": "+36 20 340 5279",
        "website": "https://aqua-lux.hu/"
      }
    },
    {
      "type": "Feature",
      "geometry": {
        "type": "Point",
        "coordinates": [
          20.2749377,
          47.019264
        ]
      },
      "properties": {
        "id": 1086330448,
        "osm_type": "node",
        "name": "Termálhotel Martfű",
        "tourism": "hotel",
        "phone": "+36 56 452 416",
        "website": "https://martfuspa.hu/"
      }
    },
    {
      "type": "Feature",
      "geometry": {
        "type": "Point",
        "coordinates": [
          20.1937095,
          47.1686437
        ]
      },
      "properties": {
        "id": 1288255832,
        "osm_type": "node",
        "name": "Trojka Hotel & Panzió",
        "tourism": "hotel",
        "phone": "+36 56 514 600",
        "website": "http://www.trojka.hu"
      }
    },
    {
      "type": "Feature",
      "geometry": {
        "type": "Point",
        "coordinates": [
          20.7383823,
          47.2192488
        ]
      },
      "properties": {
        "id": 1457573591,
        "osm_type": "node",
        "tourism": "hostel"
      }
    },
    {
      "type": "Feature",
      "geometry": {
        "type": "Point",
        "coordinates": [
          20.7553695,
          47.2206724
        ]
      },
      "properties": {
        "id": 1764304452,
        "osm_type": "node",
        "name": "Hotel Kumánia",
        "tourism": "hotel"
      }
    },
    {
      "type": "Feature",
      "geometry": {
        "type": "Point",
        "coordinates": [
          20.1895552,
          47.166461
        ]
      },
      "properties": {
        "id": 1805175531,
        "osm_type": "node",
        "name": "Tiszaliget Motel",
        "tourism": "motel",
        "phone": "+36 56 424 403",
        "website": "http://tiszaligetimotel.hupont.hu/"
      }
    },
    {
      "type": "Feature",
      "geometry": {
        "type": "Point",
        "coordinates": [
          20.7320616,
          47.6243869
        ]
      },
      "properties": {
        "id": 1853492280,
        "osm_type": "node",
        "name": "Albatrosz kemping",
        "tourism": "camp_site"
      }
    },
    {
      "type": "Feature",
      "geometry": {
        "type": "Point",
        "coordinates": [
          20.7436742,
          47.6239052
        ]
      },
      "properties": {
        "id": 1853492290,
        "osm_type": "node",
        "name": "Tóparti Camping",
        "tourism": "camp_site"
      }
    },
    {
      "type": "Feature",
      "geometry": {
        "type": "Point",
        "coordinates": [
          20.7401888,
          47.6222591
        ]
      },
      "properties": {
        "id": 1853492291,
        "osm_type": "node",
        "name": "Horgász és Családi Kemping",
        "tourism": "motel"
      }
    },
    {
      "type": "Feature",
      "geometry": {
        "type": "Point",
        "coordinates": [
          20.7322625,
          47.6243681
        ]
      },
      "properties": {
        "id": 1853492300,
        "osm_type": "node",
        "tourism": "motel"
      }
    },
    {
      "type": "Feature",
      "geometry": {
        "type": "Point",
        "coordinates": [
          20.2571095,
          46.9860243
        ]
      },
      "properties": {
        "id": 1868517605,
        "osm_type": "node",
        "name": "Gyógyvizű strandfürdő és kemping",
        "tourism": "camp_site"
      }
    },
    {
      "type": "Feature",
      "geometry": {
        "type": "Point",
        "coordinates": [
          20.286659,
          47.1443204
        ]
      },
      "properties": {
        "id": 1906013973,
        "osm_type": "node",
        "name": "Nairam Klubhotel és Szabadidőközpont",
        "tourism": "hotel",
        "website": "https://www.nairam.hu/"
      }
    },
    {
      "type": "Feature",
      "geometry": {
        "type": "Point",
        "coordinates": [
          20.8524088,
          47.5913306
        ]
      },
      "properties": {
        "id": 2362995455,
        "osm_type": "node",
        "name": "Patkós Motel",
        "tourism": "motel"
      }
    },
    {
      "type": "Feature",
      "geometry": {
        "type": "Point",
        "coordinates": [
          20.7108375,
          47.6044478
        ]
      },
      "properties": {
        "id": 2364086475,
        "osm_type": "node",
        "name": "Szabics kemping",
        "tourism": "camp_site"
      }
    },
    {
      "type": "Feature",
      "geometry": {
        "type": "Point",
        "coordinates": [
          20.7520066,
          47.6185806
        ]
      },
      "properties": {
        "id": 2398092494,
        "osm_type": "node",
        "name": "Ámor vendégház",
        "tourism": "guest_house"
      }
    },
    {
      "type": "Feature",
      "geometry": {
        "type": "Point",
        "coordinates": [
          20.7178405,
          47.6058127
        ]
      },
      "properties": {
        "id": 2454273987,
        "osm_type": "node",
        "name": "Hotel Hableány",
        "tourism": "hotel"
      }
    },
    {
      "type": "Feature",
      "geometry": {
        "type": "Point",
        "coordinates": [
          20.5975839,
          47.4777053
        ]
      },
      "properties": {
        "id": 2887748524,
        "osm_type": "node",
        "name": "Kontra - Madarasi lakás",
        "tourism": "guest_house",
        "website": "https://www.abad.hu/Kontra-Madarasi"
      }
    },
    {
      "type": "Feature",
      "geometry": {
        "type": "Point",
        "coordinates": [
          20.6029497,
          47.4753859
        ]
      },
      "properties": {
        "id": 2887756533,
        "osm_type": "node",
        "name": "Aranyhal Vendégház",
        "tourism": "guest_house",
        "website": "http://www.abad.hu/Aranyhal-Vendégház"
      }
    },
    {
      "type": "Feature",
      "geometry": {
        "type": "Point",
        "coordinates": [
          20.3046362,
          47.1752514
        ]
      },
      "properties": {
        "id": 2964021233,
        "osm_type": "node",
        "name": "Convoy City",
        "tourism": "motel",
        "opening_hours": "24/7"
      }
    },
    {
      "type": "Feature",
      "geometry": {
        "type": "Point",
        "coordinates": [
          20.7436401,
          47.6236206
        ]
      },
      "properties": {
        "id": 3273524748,
        "osm_type": "node",
        "tourism": "apartment"
      }
    },
    {
      "type": "Feature",
      "geometry": {
        "type": "Point",
        "coordinates": [
          20.7439036,
          47.6238421
        ]
      },
      "properties": {
        "id": 3273524749,
        "osm_type": "node",
        "tourism": "apartment"
      }
    },
    {
      "type": "Feature",
      "geometry": {
        "type": "Point",
        "coordinates": [
          20.0082476,
          47.4623773
        ]
      },
      "properties": {
        "id": 3400248324,
        "osm_type": "node",
        "name": "Mizse Motel fürdő",
        "tourism": "motel",
        "website": "https://www.mizsemotel.hu/"
      }
    },
    {
      "type": "Feature",
      "geometry": {
        "type": "Point",
        "coordinates": [
          20.0085495,
          47.4625662
        ]
      },
      "properties": {
        "id": 3400248325,
        "osm_type": "node",
        "name": "Mizse Motel",
        "tourism": "motel"
      }
    },
    {
      "type": "Feature",
      "geometry": {
        "type": "Point",
        "coordinates": [
          20.20493,
          46.868678
        ]
      },
      "properties": {
        "id": 3485146749,
        "osm_type": "node",
        "name": "Pihenőház",
        "tourism": "guest_house",
        "phone": "+36 70 375 6301"
      }
    },
    {
      "type": "Feature",
      "geometry": {
        "type": "Point",
        "coordinates": [
          20.641517,
          47.513767
        ]
      },
      "properties": {
        "id": 3487710195,
        "osm_type": "node",
        "name": "Hubertus vendégház",
        "tourism": "guest_house",
        "phone": "+36 20 523 6618",
        "website": "https://www.szallasinfo.hu/hubertus_vendeghaz_tiszaderzs/index.php"
      }
    },
    {
      "type": "Feature",
      "geometry": {
        "type": "Point",
        "coordinates": [
          20.7205316,
          47.560435
        ]
      },
      "properties": {
        "id": 3487710196,
        "osm_type": "node",
        "name": "Vasmacska vendégház (volt Hársfa Söröző)",
        "tourism": "guest_house"
      }
    },
    {
      "type": "Feature",
      "geometry": {
        "type": "Point",
        "coordinates": [
          20.75545,
          47.62105
        ]
      },
      "properties": {
        "id": 3487710198,
        "osm_type": "node",
        "name": "Ifjúsági szálló",
        "tourism": "hostel",
        "phone": "+36 30 236 7895"
      }
    },
    {
      "type": "Feature",
      "geometry": {
        "type": "Point",
        "coordinates": [
          20.749617,
          47.62185
        ]
      },
      "properties": {
        "id": 3487710199,
        "osm_type": "node",
        "name": "Jánosi Ház",
        "tourism": "guest_house",
        "website": "http://www.utikonyv.hu/0-release-2/objektumok/8419/index-1.html"
      }
    },
    {
      "type": "Feature",
      "geometry": {
        "type": "Point",
        "coordinates": [
          20.826011,
          47.5181
        ]
      },
      "properties": {
        "id": 3487710205,
        "osm_type": "node",
        "name": "Lovasudvar turistaszálló",
        "tourism": "guest_house",
        "phone": "+36 30 670 0468",
        "website": "http://www.tourist-farm.hu/"
      }
    },
    {
      "type": "Feature",
      "geometry": {
        "type": "Point",
        "coordinates": [
          20.7493,
          47.626683
        ]
      },
      "properties": {
        "id": 3487710210,
        "osm_type": "node",
        "tourism": "camp_site",
        "phone": "+36 59 353 339;+36 30 448 2880"
      }
    },
    {
      "type": "Feature",
      "geometry": {
        "type": "Point",
        "coordinates": [
          20.719883,
          47.601333
        ]
      },
      "properties": {
        "id": 3487710215,
        "osm_type": "node",
        "name": "Szabó Imre vendégházai",
        "tourism": "guest_house",
        "contact:phone": "+36 59 353 641;+36 30 621 5978"
      }
    },
    {
      "type": "Feature",
      "geometry": {
        "type": "Point",
        "coordinates": [
          20.9257986,
          47.3186966
        ]
      },
      "properties": {
        "id": 3488434683,
        "osm_type": "node",
        "name": "Kaiser Panzió és étterem",
        "tourism": "guest_house",
        "phone": "+36 59 313 791"
      }
    },
    {
      "type": "Feature",
      "geometry": {
        "type": "Point",
        "coordinates": [
          20.73547,
          47.10231
        ]
      },
      "properties": {
        "id": 3489668115,
        "osm_type": "node",
        "name": "GT Mama Vendégháza",
        "tourism": "guest_house",
        "phone": "+36 20 328 5772"
      }
    },
    {
      "type": "Feature",
      "geometry": {
        "type": "Point",
        "coordinates": [
          20.7512288,
          47.0961264
        ]
      },
      "properties": {
        "id": 3489668132,
        "osm_type": "node",
        "name": "Túrkeve Termál Apartman",
        "tourism": "guest_house",
        "phone": "+36 56 554 305"
      }
    },
    {
      "type": "Feature",
      "geometry": {
        "type": "Point",
        "coordinates": [
          20.1846473,
          47.1643274
        ]
      },
      "properties": {
        "id": 3490657438,
        "osm_type": "node",
        "name": "Turisztikai és Szabadidő Központ",
        "tourism": "guest_house",
        "phone": "+36 56 424 335"
      }
    },
    {
      "type": "Feature",
      "geometry": {
        "type": "Point",
        "coordinates": [
          19.997512,
          47.633652
        ]
      },
      "properties": {
        "id": 3490658503,
        "osm_type": "node",
        "name": "Palóc Üdülő Camping",
        "tourism": "camp_site",
        "phone": "+36 57 431 128"
      }
    },
    {
      "type": "Feature",
      "geometry": {
        "type": "Point",
        "coordinates": [
          20.1711112,
          47.5806135
        ]
      },
      "properties": {
        "id": 3490663519,
        "osm_type": "node",
        "name": "Termálfürdő és Kemping",
        "tourism": "camp_site",
        "contact:phone": "+36 57 446 025",
        "contact:website": "http://www.jaszszentandras-strand.hu/"
      }
    },
    {
      "type": "Feature",
      "geometry": {
        "type": "Point",
        "coordinates": [
          20.140282,
          47.504889
        ]
      },
      "properties": {
        "id": 3490663526,
        "osm_type": "node",
        "name": "Termál Szálló és Étterem",
        "tourism": "hotel"
      }
    },
    {
      "type": "Feature",
      "geometry": {
        "type": "Point",
        "coordinates": [
          20.440867,
          47.394183
        ]
      },
      "properties": {
        "id": 3490698964,
        "osm_type": "node",
        "name": "Kastélyhotel",
        "tourism": "hotel",
        "website": "http://www.kastelyhoteltiszaroff.hu"
      }
    },
    {
      "type": "Feature",
      "geometry": {
        "type": "Point",
        "coordinates": [
          20.5882,
          47.477783
        ]
      },
      "properties": {
        "id": 3490698978,
        "osm_type": "node",
        "name": "Baráthy kemping",
        "tourism": "camp_site",
        "phone": "+36 53 552 306;+36 30 480 6184"
      }
    },
    {
      "type": "Feature",
      "geometry": {
        "type": "Point",
        "coordinates": [
          20.5939074,
          47.4799784
        ]
      },
      "properties": {
        "id": 3622385218,
        "osm_type": "node",
        "name": "Unicum Vendégház",
        "tourism": "guest_house",
        "website": "https://www.unicumvendeghaz.com/"
      }
    },
    {
      "type": "Feature",
      "geometry": {
        "type": "Point",
        "coordinates": [
          20.0770991,
          47.280981
        ]
      },
      "properties": {
        "id": 3649311548,
        "osm_type": "node",
        "name": "Gerendás Ökotanya és Vendégház",
        "tourism": "guest_house"
      }
    },
    {
      "type": "Feature",
      "geometry": {
        "type": "Point",
        "coordinates": [
          20.6292327,
          47.4907323
        ]
      },
      "properties": {
        "id": 3662323880,
        "osm_type": "node",
        "name": "Abádszalóki kemping",
        "tourism": "camp_site"
      }
    },
    {
      "type": "Feature",
      "geometry": {
        "type": "Point",
        "coordinates": [
          20.7568058,
          47.2222415
        ]
      },
      "properties": {
        "id": 3802088207,
        "osm_type": "node",
        "name": "Kumánia Ifjúsági Szálláshely",
        "tourism": "hostel",
        "phone": "+36 59 321 215"
      }
    },
    {
      "type": "Feature",
      "geometry": {
        "type": "Point",
        "coordinates": [
          20.92528,
          47.3171498
        ]
      },
      "properties": {
        "id": 3841842729,
        "osm_type": "node",
        "name": "Nimród Hotel",
        "tourism": "hotel"
      }
    },
    {
      "type": "Feature",
      "geometry": {
        "type": "Point",
        "coordinates": [
          20.7496274,
          47.0965276
        ]
      },
      "properties": {
        "id": 4020211963,
        "osm_type": "node",
        "name": "Termál Kemping (gyógy- és strandfürdő)",
        "tourism": "camp_site",
        "phone": "+36 56 362 608",
        "website": "http://www.turkevetermal.hu"
      }
    },
    {
      "type": "Feature",
      "geometry": {
        "type": "Point",
        "coordinates": [
          20.751633,
          47.096567
        ]
      },
      "properties": {
        "id": 4020211964,
        "osm_type": "node",
        "name": "Thermália Apartman",
        "tourism": "apartment",
        "phone": "+36 56 363 998"
      }
    },
    {
      "type": "Feature",
      "geometry": {
        "type": "Point",
        "coordinates": [
          20.7470273,
          47.5900144
        ]
      },
      "properties": {
        "id": 4109457593,
        "osm_type": "node",
        "name": "Homok-bérc Vendégház",
        "tourism": "guest_house",
        "contact:phone": "+36 20 505 1133"
      }
    },
    {
      "type": "Feature",
      "geometry": {
        "type": "Point",
        "coordinates": [
          20.1889028,
          47.061127
        ]
      },
      "properties": {
        "id": 4150911521,
        "osm_type": "node",
        "name": "Endre Király Vendégház",
        "tourism": "guest_house"
      }
    },
    {
      "type": "Feature",
      "geometry": {
        "type": "Point",
        "coordinates": [
          20.2100905,
          46.8641261
        ]
      },
      "properties": {
        "id": 4165090387,
        "osm_type": "node",
        "name": "Csipkeház Apartman",
        "tourism": "hotel",
        "phone": "+36 20 360 8562"
      }
    },
    {
      "type": "Feature",
      "geometry": {
        "type": "Point",
        "coordinates": [
          20.1902452,
          47.1737937
        ]
      },
      "properties": {
        "id": 4195803598,
        "osm_type": "node",
        "name": "Hozam Hotel",
        "tourism": "hotel",
        "website": "http://www.hozamhotel.hu"
      }
    },
    {
      "type": "Feature",
      "geometry": {
        "type": "Point",
        "coordinates": [
          19.8587835,
          47.4296861
        ]
      },
      "properties": {
        "id": 4351445085,
        "osm_type": "node",
        "name": "Jászberényi TE kulcsosháza",
        "tourism": "hostel"
      }
    },
    {
      "type": "Feature",
      "geometry": {
        "type": "Point",
        "coordinates": [
          20.307084,
          47.1821025
        ]
      },
      "properties": {
        "id": 4479448888,
        "osm_type": "node",
        "name": "Godó Panzió",
        "tourism": "guest_house"
      }
    },
    {
      "type": "Feature",
      "geometry": {
        "type": "Point",
        "coordinates": [
          20.1946623,
          47.1727013
        ]
      },
      "properties": {
        "id": 4529341585,
        "osm_type": "node",
        "name": "Semiramis Business Hotel",
        "tourism": "hotel"
      }
    },
    {
      "type": "Feature",
      "geometry": {
        "type": "Point",
        "coordinates": [
          20.2539412,
          46.9869863
        ]
      },
      "properties": {
        "id": 4624237990,
        "osm_type": "node",
        "tourism": "chalet",
        "website": "http://www.vadviragudulo.hupont.hu"
      }
    },
    {
      "type": "Feature",
      "geometry": {
        "type": "Point",
        "coordinates": [
          20.2012483,
          46.8623101
        ]
      },
      "properties": {
        "id": 4933471420,
        "osm_type": "node",
        "name": "Aqua-Spa**** - Konferencia és Wellness Hotel",
        "tourism": "hotel",
        "phone": "+36 20 338 1224;+36 56 318 209",
        "website": "https://aqua-spa-hotel.hu/"
      }
    },
    {
      "type": "Feature",
      "geometry": {
        "type": "Point",
        "coordinates": [
          19.7241359,
          47.5758711
        ]
      },
      "properties": {
        "id": 5590281824,
        "osm_type": "node",
        "name": "pap Kastély Business center",
        "tourism": "guest_house"
      }
    },
    {
      "type": "Feature",
      "geometry": {
        "type": "Point",
        "coordinates": [
          20.4096019,
          47.1764952
        ]
      },
      "properties": {
        "id": 5606801199,
        "osm_type": "node",
        "name": "Almásy Vendégház",
        "tourism": "guest_house"
      }
    },
    {
      "type": "Feature",
      "geometry": {
        "type": "Point",
        "coordinates": [
          20.7242966,
          47.5551044
        ]
      },
      "properties": {
        "id": 5640531294,
        "osm_type": "node",
        "name": "Tisza-Tavirózsa Vendégház",
        "tourism": "guest_house",
        "phone": "+36 30 689 3080"
      }
    },
    {
      "type": "Feature",
      "geometry": {
        "type": "Point",
        "coordinates": [
          20.1936848,
          47.1718794
        ]
      },
      "properties": {
        "id": 5677933643,
        "osm_type": "node",
        "name": "Sóház Panzió és Apartmanház",
        "tourism": "hotel",
        "phone": "+36 56 516 560",
        "website": "https://www.sohazhotel.hu/"
      }
    },
    {
      "type": "Feature",
      "geometry": {
        "type": "Point",
        "coordinates": [
          19.9134875,
          47.5031975
        ]
      },
      "properties": {
        "id": 6499483112,
        "osm_type": "node",
        "name": "River Apartmanház",
        "tourism": "apartment"
      }
    },
    {
      "type": "Feature",
      "geometry": {
        "type": "Point",
        "coordinates": [
          20.1431698,
          47.5857241
        ]
      },
      "properties": {
        "id": 6551084873,
        "osm_type": "node",
        "name": "Rigó Major Vendégház",
        "tourism": "guest_house"
      }
    },
    {
      "type": "Feature",
      "geometry": {
        "type": "Point",
        "coordinates": [
          20.4110132,
          47.1783413
        ]
      },
      "properties": {
        "id": 6559981873,
        "osm_type": "node",
        "name": "Fenyőszálló Magánszálláshely",
        "tourism": "guest_house"
      }
    },
    {
      "type": "Feature",
      "geometry": {
        "type": "Point",
        "coordinates": [
          20.7499371,
          47.626108
        ]
      },
      "properties": {
        "id": 6699998285,
        "osm_type": "node",
        "name": "Dieters Camping",
        "tourism": "camp_site"
      }
    },
    {
      "type": "Feature",
      "geometry": {
        "type": "Point",
        "coordinates": [
          19.8514071,
          47.44293
        ]
      },
      "properties": {
        "id": 7107855781,
        "osm_type": "node",
        "name": "Erdei Vendégház",
        "tourism": "guest_house",
        "contact:phone": "+36 70 227 8771"
      }
    },
    {
      "type": "Feature",
      "geometry": {
        "type": "Point",
        "coordinates": [
          20.1930857,
          46.8655278
        ]
      },
      "properties": {
        "id": 8787608155,
        "osm_type": "node",
        "tourism": "guest_house"
      }
    },
    {
      "type": "Feature",
      "geometry": {
        "type": "Point",
        "coordinates": [
          20.1993607,
          46.8671728
        ]
      },
      "properties": {
        "id": 8787608168,
        "osm_type": "node",
        "tourism": "guest_house"
      }
    },
    {
      "type": "Feature",
      "geometry": {
        "type": "Point",
        "coordinates": [
          20.2029231,
          47.1464614
        ]
      },
      "properties": {
        "id": 8847957497,
        "osm_type": "node",
        "name": "Tiszavirág apartman",
        "tourism": "guest_house",
        "contact:phone": "+36 30 494 0291"
      }
    },
    {
      "type": "Feature",
      "geometry": {
        "type": "Point",
        "coordinates": [
          20.8387499,
          47.3866745
        ]
      },
      "properties": {
        "id": 8895202336,
        "osm_type": "node",
        "name": "Bódi Apartman",
        "tourism": "hostel",
        "contact:website": "http://bodiapartman.hu/"
      }
    },
    {
      "type": "Feature",
      "geometry": {
        "type": "Point",
        "coordinates": [
          20.8360864,
          47.383131
        ]
      },
      "properties": {
        "id": 8895820446,
        "osm_type": "node",
        "name": "Rózsa Apartman",
        "tourism": "hostel",
        "contact:phone": "+36 30 434 2698"
      }
    },
    {
      "type": "Feature",
      "geometry": {
        "type": "Point",
        "coordinates": [
          20.8355557,
          47.3855288
        ]
      },
      "properties": {
        "id": 8897534256,
        "osm_type": "node",
        "name": "MINARDI Vendégházak",
        "tourism": "guest_house"
      }
    },
    {
      "type": "Feature",
      "geometry": {
        "type": "Point",
        "coordinates": [
          20.8397326,
          47.3843188
        ]
      },
      "properties": {
        "id": 8897643834,
        "osm_type": "node",
        "name": "Fenyő Vendégház",
        "tourism": "guest_house"
      }
    },
    {
      "type": "Feature",
      "geometry": {
        "type": "Point",
        "coordinates": [
          20.8439605,
          47.3854494
        ]
      },
      "properties": {
        "id": 8897797465,
        "osm_type": "node",
        "name": "Retró szállás",
        "tourism": "chalet"
      }
    },
    {
      "type": "Feature",
      "geometry": {
        "type": "Point",
        "coordinates": [
          20.8405037,
          47.3848492
        ]
      },
      "properties": {
        "id": 8897797473,
        "osm_type": "node",
        "tourism": "guest_house"
      }
    },
    {
      "type": "Feature",
      "geometry": {
        "type": "Point",
        "coordinates": [
          20.844549,
          47.38801
        ]
      },
      "properties": {
        "id": 8902020114,
        "osm_type": "node",
        "tourism": "guest_house",
        "contact:phone": "+36 59 319 056"
      }
    },
    {
      "type": "Feature",
      "geometry": {
        "type": "Point",
        "coordinates": [
          20.8469064,
          47.3898752
        ]
      },
      "properties": {
        "id": 8902041217,
        "osm_type": "node",
        "name": "Virág Liget Apartman",
        "tourism": "guest_house"
      }
    },
    {
      "type": "Feature",
      "geometry": {
        "type": "Point",
        "coordinates": [
          20.8436501,
          47.3867536
        ]
      },
      "properties": {
        "id": 8905239117,
        "osm_type": "node",
        "name": "Szent László Lelkigyakorlatos Ház és Gyógyüdülő",
        "tourism": "hotel",
        "contact:phone": "+36 59 319 017"
      }
    },
    {
      "type": "Feature",
      "geometry": {
        "type": "Point",
        "coordinates": [
          20.8454499,
          47.3866755
        ]
      },
      "properties": {
        "id": 8905239123,
        "osm_type": "node",
        "name": "Viktória Üdülőház",
        "tourism": "guest_house"
      }
    },
    {
      "type": "Feature",
      "geometry": {
        "type": "Point",
        "coordinates": [
          20.839555,
          47.3846702
        ]
      },
      "properties": {
        "id": 9038817489,
        "osm_type": "node",
        "name": "Nóra Vendégház",
        "tourism": "guest_house"
      }
    },
    {
      "type": "Feature",
      "geometry": {
        "type": "Point",
        "coordinates": [
          20.8374808,
          47.3875337
        ]
      },
      "properties": {
        "id": 9038993809,
        "osm_type": "node",
        "tourism": "guest_house"
      }
    },
    {
      "type": "Feature",
      "geometry": {
        "type": "Point",
        "coordinates": [
          20.7206026,
          47.5627049
        ]
      },
      "properties": {
        "id": 11939897869,
        "osm_type": "node",
        "name": "Tisza White House",
        "tourism": "camp_site",
        "website": "https://tiszawhitehouse.com/"
      }
    },
    {
      "type": "Feature",
      "geometry": {
        "type": "Point",
        "coordinates": [
          20.1837234,
          47.180607
        ]
      },
      "properties": {
        "id": 12373718820,
        "osm_type": "node",
        "name": "Habos Isler apartman",
        "tourism": "apartment"
      }
    },
    {
      "type": "Feature",
      "geometry": {
        "type": "Point",
        "coordinates": [
          20.1923028,
          47.1765588
        ]
      },
      "properties": {
        "id": 168719545,
        "osm_type": "way",
        "name": "Pelikán szálló",
        "tourism": "hostel"
      }
    },
    {
      "type": "Feature",
      "geometry": {
        "type": "Point",
        "coordinates": [
          20.1999893,
          47.1695837
        ]
      },
      "properties": {
        "id": 169346684,
        "osm_type": "way",
        "name": "Liget Hotel",
        "tourism": "hotel",
        "contact:phone": "+36 56 515 043",
        "contact:website": "https://szolnokhotel.hu/"
      }
    },
    {
      "type": "Feature",
      "geometry": {
        "type": "Point",
        "coordinates": [
          20.196601,
          47.1680601
        ]
      },
      "properties": {
        "id": 169346957,
        "osm_type": "way",
        "name": "Garden Hotel",
        "tourism": "hotel",
        "phone": "+36 56 520 530",
        "check_date": "2024-06-02"
      }
    },
    {
      "type": "Feature",
      "geometry": {
        "type": "Point",
        "coordinates": [
          20.1970167,
          47.1718122
        ]
      },
      "properties": {
        "id": 169348241,
        "osm_type": "way",
        "name": "Tisza Szálló",
        "tourism": "hotel",
        "check_date": "2024-06-02"
      }
    },
    {
      "type": "Feature",
      "geometry": {
        "type": "Point",
        "coordinates": [
          20.8429114,
          47.386621
        ]
      },
      "properties": {
        "id": 198082239,
        "osm_type": "way",
        "name": "Touring Hotel",
        "tourism": "hotel",
        "contact:phone": "+36 59 319 221; +36 59 319 226",
        "contact:website": "http://www.touringhotel-berekfurdo.hu"
      }
    },
    {
      "type": "Feature",
      "geometry": {
        "type": "Point",
        "coordinates": [
          20.745702,
          47.6287573
        ]
      },
      "properties": {
        "id": 221525561,
        "osm_type": "way",
        "name": "Tisza Balneum Thermal Hotel",
        "tourism": "hotel",
        "website": "https://balneum.hu/"
      }
    },
    {
      "type": "Feature",
      "geometry": {
        "type": "Point",
        "coordinates": [
          20.7470988,
          47.6218277
        ]
      },
      "properties": {
        "id": 221525562,
        "osm_type": "way",
        "name": "Füzes Panzio",
        "tourism": "guest_house"
      }
    },
    {
      "type": "Feature",
      "geometry": {
        "type": "Point",
        "coordinates": [
          20.735644,
          47.6214078
        ]
      },
      "properties": {
        "id": 221525566,
        "osm_type": "way",
        "name": "Park7 Hotel",
        "tourism": "hotel",
        "contact:phone": "+36 30 294 4868",
        "contact:website": "https://park7.hu/"
      }
    },
    {
      "type": "Feature",
      "geometry": {
        "type": "Point",
        "coordinates": [
          20.7370697,
          47.6223487
        ]
      },
      "properties": {
        "id": 221525568,
        "osm_type": "way",
        "name": "Morotva Kemping",
        "tourism": "guest_house"
      }
    },
    {
      "type": "Feature",
      "geometry": {
        "type": "Point",
        "coordinates": [
          20.7462378,
          47.6284624
        ]
      },
      "properties": {
        "id": 221525573,
        "osm_type": "way",
        "name": "7-8. appartman",
        "tourism": "chalet",
        "website": "https://balneum.hu/"
      }
    },
    {
      "type": "Feature",
      "geometry": {
        "type": "Point",
        "coordinates": [
          20.7462325,
          47.6279406
        ]
      },
      "properties": {
        "id": 221525574,
        "osm_type": "way",
        "name": "15-16. appartman",
        "tourism": "chalet",
        "website": "https://balneum.hu/"
      }
    },
    {
      "type": "Feature",
      "geometry": {
        "type": "Point",
        "coordinates": [
          20.7459857,
          47.6284148
        ]
      },
      "properties": {
        "id": 221525578,
        "osm_type": "way",
        "name": "5-6. appartman",
        "tourism": "chalet",
        "website": "https://balneum.hu/"
      }
    },
    {
      "type": "Feature",
      "geometry": {
        "type": "Point",
        "coordinates": [
          20.7463778,
          47.6280442
        ]
      },
      "properties": {
        "id": 221525579,
        "osm_type": "way",
        "name": "13-14. appartman",
        "tourism": "chalet",
        "website": "https://balneum.hu/"
      }
    },
    {
      "type": "Feature",
      "geometry": {
        "type": "Point",
        "coordinates": [
          20.7457917,
          47.6283576
        ]
      },
      "properties": {
        "id": 221525581,
        "osm_type": "way",
        "name": "3-4. appartman",
        "tourism": "chalet",
        "website": "https://balneum.hu/"
      }
    },
    {
      "type": "Feature",
      "geometry": {
        "type": "Point",
        "coordinates": [
          20.7465202,
          47.6281881
        ]
      },
      "properties": {
        "id": 221525584,
        "osm_type": "way",
        "name": "11-12. appartman",
        "tourism": "chalet",
        "website": "https://balneum.hu/"
      }
    },
    {
      "type": "Feature",
      "geometry": {
        "type": "Point",
        "coordinates": [
          20.7456102,
          47.6282901
        ]
      },
      "properties": {
        "id": 221525587,
        "osm_type": "way",
        "name": "1-2. appartman",
        "tourism": "chalet",
        "website": "https://balneum.hu/"
      }
    },
    {
      "type": "Feature",
      "geometry": {
        "type": "Point",
        "coordinates": [
          20.7464858,
          47.6283737
        ]
      },
      "properties": {
        "id": 221525590,
        "osm_type": "way",
        "name": "9-10. appartman",
        "tourism": "chalet",
        "website": "https://balneum.hu/"
      }
    },
    {
      "type": "Feature",
      "geometry": {
        "type": "Point",
        "coordinates": [
          20.7460836,
          47.6278427
        ]
      },
      "properties": {
        "id": 221525592,
        "osm_type": "way",
        "name": "17-18. appartman",
        "tourism": "chalet",
        "website": "https://balneum.hu/"
      }
    },
    {
      "type": "Feature",
      "geometry": {
        "type": "Point",
        "coordinates": [
          20.750112,
          47.6260392
        ]
      },
      "properties": {
        "id": 223462687,
        "osm_type": "way",
        "tourism": "hotel"
      }
    },
    {
      "type": "Feature",
      "geometry": {
        "type": "Point",
        "coordinates": [
          20.7430917,
          47.6192638
        ]
      },
      "properties": {
        "id": 223936673,
        "osm_type": "way",
        "tourism": "hotel"
      }
    },
    {
      "type": "Feature",
      "geometry": {
        "type": "Point",
        "coordinates": [
          20.7496605,
          47.6235296
        ]
      },
      "properties": {
        "id": 223946600,
        "osm_type": "way",
        "name": "Thermal Kemping",
        "tourism": "camp_site"
      }
    },
    {
      "type": "Feature",
      "geometry": {
        "type": "Point",
        "coordinates": [
          20.7397003,
          47.6230327
        ]
      },
      "properties": {
        "id": 224092141,
        "osm_type": "way",
        "name": "Horgász és Családi Kemping",
        "tourism": "camp_site",
        "phone": "+36 30 943 4768",
        "website": "http://www.hotels.hu/horgcamp"
      }
    },
    {
      "type": "Feature",
      "geometry": {
        "type": "Point",
        "coordinates": [
          20.7499012,
          47.6251806
        ]
      },
      "properties": {
        "id": 224196628,
        "osm_type": "way",
        "tourism": "apartment"
      }
    },
    {
      "type": "Feature",
      "geometry": {
        "type": "Point",
        "coordinates": [
          20.7563459,
          47.6230549
        ]
      },
      "properties": {
        "id": 228329032,
        "osm_type": "way",
        "tourism": "hotel"
      }
    },
    {
      "type": "Feature",
      "geometry": {
        "type": "Point",
        "coordinates": [
          20.7340279,
          47.6224737
        ]
      },
      "properties": {
        "id": 235642778,
        "osm_type": "way",
        "name": "Albatrosz Kemping",
        "tourism": "camp_site",
        "opening_hours": "Mo-Su 08:00-18:00",
        "website": "https://albatroszkemping.hu/"
      }
    },
    {
      "type": "Feature",
      "geometry": {
        "type": "Point",
        "coordinates": [
          20.1415579,
          47.5041849
        ]
      },
      "properties": {
        "id": 237043145,
        "osm_type": "way",
        "name": "Tölgyes Kemping",
        "tourism": "camp_site",
        "website": "https://www.tolgyesstrand.hu/"
      }
    },
    {
      "type": "Feature",
      "geometry": {
        "type": "Point",
        "coordinates": [
          20.216248,
          47.1623252
        ]
      },
      "properties": {
        "id": 265606376,
        "osm_type": "way",
        "name": "Holt-Tiszai Vízisport Telep sátrazós része",
        "tourism": "camp_site"
      }
    },
    {
      "type": "Feature",
      "geometry": {
        "type": "Point",
        "coordinates": [
          20.6293256,
          47.0002773
        ]
      },
      "properties": {
        "id": 292037429,
        "osm_type": "way",
        "name": "Nemzeti Szálloda",
        "tourism": "hotel"
      }
    },
    {
      "type": "Feature",
      "geometry": {
        "type": "Point",
        "coordinates": [
          20.0601822,
          47.3894643
        ]
      },
      "properties": {
        "id": 313235825,
        "osm_type": "way",
        "tourism": "guest_house"
      }
    },
    {
      "type": "Feature",
      "geometry": {
        "type": "Point",
        "coordinates": [
          20.2748976,
          47.0193299
        ]
      },
      "properties": {
        "id": 325680377,
        "osm_type": "way",
        "tourism": "hotel"
      }
    },
    {
      "type": "Feature",
      "geometry": {
        "type": "Point",
        "coordinates": [
          20.7495781,
          47.0963692
        ]
      },
      "properties": {
        "id": 360536582,
        "osm_type": "way",
        "name": "Túrkeve Termál Kemping",
        "tourism": "camp_site",
        "opening_hours": "Apr 01-Oct 31 00:00-24:00",
        "website": "http://www.turkevetermal.hu"
      }
    },
    {
      "type": "Feature",
      "geometry": {
        "type": "Point",
        "coordinates": [
          20.8426514,
          47.3879407
        ]
      },
      "properties": {
        "id": 366869011,
        "osm_type": "way",
        "name": "Termál Kemping és Vendégház",
        "tourism": "camp_site",
        "tents": "yes"
      }
    },
    {
      "type": "Feature",
      "geometry": {
        "type": "Point",
        "coordinates": [
          20.8428119,
          47.3921483
        ]
      },
      "properties": {
        "id": 366944279,
        "osm_type": "way",
        "name": "Florianus Apartman",
        "tourism": "guest_house"
      }
    },
    {
      "type": "Feature",
      "geometry": {
        "type": "Point",
        "coordinates": [
          20.8423241,
          47.3910433
        ]
      },
      "properties": {
        "id": 477669784,
        "osm_type": "way",
        "name": "Gyöngy Apartman",
        "tourism": "guest_house"
      }
    },
    {
      "type": "Feature",
      "geometry": {
        "type": "Point",
        "coordinates": [
          20.8413236,
          47.3909291
        ]
      },
      "properties": {
        "id": 477669792,
        "osm_type": "way",
        "name": "Hétvégi ház",
        "tourism": "guest_house"
      }
    },
    {
      "type": "Feature",
      "geometry": {
        "type": "Point",
        "coordinates": [
          20.8411816,
          47.3905642
        ]
      },
      "properties": {
        "id": 477669802,
        "osm_type": "way",
        "name": "Erzsébet Vendégház",
        "tourism": "guest_house"
      }
    },
    {
      "type": "Feature",
      "geometry": {
        "type": "Point",
        "coordinates": [
          20.8421163,
          47.389822
        ]
      },
      "properties": {
        "id": 477669812,
        "osm_type": "way",
        "name": "OÉÁ Gyöngyösoroszi Nyugdíjas Alapszevezet Pihenőháza",
        "tourism": "guest_house"
      }
    },
    {
      "type": "Feature",
      "geometry": {
        "type": "Point",
        "coordinates": [
          20.8449152,
          47.3909369
        ]
      },
      "properties": {
        "id": 477669853,
        "osm_type": "way",
        "name": "Vacsacsi Vendégház",
        "tourism": "guest_house",
        "website": "https://vacsacsi-vendeghaz6.webnode.hu/"
      }
    },
    {
      "type": "Feature",
      "geometry": {
        "type": "Point",
        "coordinates": [
          20.8445732,
          47.3885655
        ]
      },
      "properties": {
        "id": 477669879,
        "osm_type": "way",
        "name": "Termál Hotel Pávai",
        "tourism": "hotel",
        "phone": "+36 59 519 111",
        "website": "https://www.termalhotelpavai.hu/"
      }
    },
    {
      "type": "Feature",
      "geometry": {
        "type": "Point",
        "coordinates": [
          20.8464649,
          47.3889477
        ]
      },
      "properties": {
        "id": 477669896,
        "osm_type": "way",
        "name": "CO-OP STAR Zrt. Üdülő",
        "tourism": "guest_house"
      }
    },
    {
      "type": "Feature",
      "geometry": {
        "type": "Point",
        "coordinates": [
          20.848191,
          47.3901408
        ]
      },
      "properties": {
        "id": 477669905,
        "osm_type": "way",
        "name": "Illaberek Apartman",
        "tourism": "guest_house"
      }
    },
    {
      "type": "Feature",
      "geometry": {
        "type": "Point",
        "coordinates": [
          20.8396292,
          47.385908
        ]
      },
      "properties": {
        "id": 477669932,
        "osm_type": "way",
        "name": "Aranyhaj-lak (magánszálláshely)",
        "tourism": "guest_house"
      }
    },
    {
      "type": "Feature",
      "geometry": {
        "type": "Point",
        "coordinates": [
          20.8390591,
          47.3863922
        ]
      },
      "properties": {
        "id": 477669936,
        "osm_type": "way",
        "name": "Apartman \"Hortobágy\"",
        "tourism": "guest_house",
        "contact:phone": "+36 59 519 000"
      }
    },
    {
      "type": "Feature",
      "geometry": {
        "type": "Point",
        "coordinates": [
          20.8379895,
          47.3871758
        ]
      },
      "properties": {
        "id": 477669941,
        "osm_type": "way",
        "name": "OPUS TITÁSZ Áramhálózati Zrt. Berekfürdő üdülő",
        "tourism": "guest_house"
      }
    },
    {
      "type": "Feature",
      "geometry": {
        "type": "Point",
        "coordinates": [
          20.8367368,
          47.3880785
        ]
      },
      "properties": {
        "id": 477669953,
        "osm_type": "way",
        "name": "Horgásztó Motel",
        "tourism": "guest_house"
      }
    },
    {
      "type": "Feature",
      "geometry": {
        "type": "Point",
        "coordinates": [
          20.8386697,
          47.3853036
        ]
      },
      "properties": {
        "id": 477669964,
        "osm_type": "way",
        "name": "Apartman Merops Berekfürdő",
        "tourism": "guest_house"
      }
    },
    {
      "type": "Feature",
      "geometry": {
        "type": "Point",
        "coordinates": [
          20.8446113,
          47.3867083
        ]
      },
      "properties": {
        "id": 477669989,
        "osm_type": "way",
        "name": "Abád-Apartman Berek-Berény",
        "tourism": "guest_house",
        "contact:website": "https://www.aabb-berekfurdo.hu/"
      }
    },
    {
      "type": "Feature",
      "geometry": {
        "type": "Point",
        "coordinates": [
          20.8445246,
          47.3863756
        ]
      },
      "properties": {
        "id": 477669992,
        "osm_type": "way",
        "name": "Thermal Hotel Szivek",
        "tourism": "hotel"
      }
    },
    {
      "type": "Feature",
      "geometry": {
        "type": "Point",
        "coordinates": [
          20.8430841,
          47.3846164
        ]
      },
      "properties": {
        "id": 477669998,
        "osm_type": "way",
        "name": "Relax Vendégház",
        "tourism": "guest_house"
      }
    },
    {
      "type": "Feature",
      "geometry": {
        "type": "Point",
        "coordinates": [
          20.8437495,
          47.384068
        ]
      },
      "properties": {
        "id": 477670015,
        "osm_type": "way",
        "name": "Kiss-apartman",
        "tourism": "guest_house",
        "contact:phone": "+36 59 886 690"
      }
    },
    {
      "type": "Feature",
      "geometry": {
        "type": "Point",
        "coordinates": [
          20.8461452,
          47.3857455
        ]
      },
      "properties": {
        "id": 477670038,
        "osm_type": "way",
        "tourism": "guest_house"
      }
    },
    {
      "type": "Feature",
      "geometry": {
        "type": "Point",
        "coordinates": [
          20.8429246,
          47.3843308
        ]
      },
      "properties": {
        "id": 477670124,
        "osm_type": "way",
        "name": "Ifjúsági szálló és kápolna",
        "tourism": "hostel"
      }
    },
    {
      "type": "Feature",
      "geometry": {
        "type": "Point",
        "coordinates": [
          20.8417889,
          47.3844502
        ]
      },
      "properties": {
        "id": 477670125,
        "osm_type": "way",
        "name": "Megbékélés Háza Református Konferenciaközpont",
        "tourism": "hotel"
      }
    },
    {
      "type": "Feature",
      "geometry": {
        "type": "Point",
        "coordinates": [
          20.8433798,
          47.3838737
        ]
      },
      "properties": {
        "id": 477670127,
        "osm_type": "way",
        "name": "Nyaraló (magánszállás)",
        "tourism": "guest_house"
      }
    },
    {
      "type": "Feature",
      "geometry": {
        "type": "Point",
        "coordinates": [
          20.8479791,
          47.3820824
        ]
      },
      "properties": {
        "id": 477670143,
        "osm_type": "way",
        "name": "Gerle Apartman",
        "tourism": "guest_house",
        "contact:website": "http://www.berek-gerleapartman.hu"
      }
    },
    {
      "type": "Feature",
      "geometry": {
        "type": "Point",
        "coordinates": [
          20.843495,
          47.3822098
        ]
      },
      "properties": {
        "id": 477670175,
        "osm_type": "way",
        "name": "Feri Apartman",
        "tourism": "guest_house"
      }
    },
    {
      "type": "Feature",
      "geometry": {
        "type": "Point",
        "coordinates": [
          20.8433586,
          47.3823149
        ]
      },
      "properties": {
        "id": 477670176,
        "osm_type": "way",
        "name": "Flóra Apartman",
        "tourism": "guest_house"
      }
    },
    {
      "type": "Feature",
      "geometry": {
        "type": "Point",
        "coordinates": [
          20.8435163,
          47.3814821
        ]
      },
      "properties": {
        "id": 477670182,
        "osm_type": "way",
        "name": "Puszta Hotel",
        "tourism": "hotel"
      }
    },
    {
      "type": "Feature",
      "geometry": {
        "type": "Point",
        "coordinates": [
          20.8430251,
          47.3821027
        ]
      },
      "properties": {
        "id": 477670188,
        "osm_type": "way",
        "name": "Kata Apartmanház",
        "tourism": "guest_house"
      }
    },
    {
      "type": "Feature",
      "geometry": {
        "type": "Point",
        "coordinates": [
          20.8424107,
          47.3821275
        ]
      },
      "properties": {
        "id": 477670196,
        "osm_type": "way",
        "name": "Árvácska Apartman",
        "tourism": "guest_house",
        "contact:website": "https://www.arvacskaapartman.hu/"
      }
    },
    {
      "type": "Feature",
      "geometry": {
        "type": "Point",
        "coordinates": [
          20.8426906,
          47.3810987
        ]
      },
      "properties": {
        "id": 477670199,
        "osm_type": "way",
        "name": "Vadgalamb Üdülőház",
        "tourism": "guest_house",
        "contact:phone": "+36 70 227 0771"
      }
    },
    {
      "type": "Feature",
      "geometry": {
        "type": "Point",
        "coordinates": [
          20.8414965,
          47.3819373
        ]
      },
      "properties": {
        "id": 477670208,
        "osm_type": "way",
        "name": "Széll Apartman",
        "tourism": "guest_house",
        "contact:website": "http://www.szellapartman.hu"
      }
    },
    {
      "type": "Feature",
      "geometry": {
        "type": "Point",
        "coordinates": [
          20.8418638,
          47.3806786
        ]
      },
      "properties": {
        "id": 477670216,
        "osm_type": "way",
        "name": "Eszter Vendégház",
        "tourism": "guest_house"
      }
    },
    {
      "type": "Feature",
      "geometry": {
        "type": "Point",
        "coordinates": [
          20.8410342,
          47.3813332
        ]
      },
      "properties": {
        "id": 477670230,
        "osm_type": "way",
        "name": "Haraszt Nyaraló",
        "tourism": "guest_house"
      }
    },
    {
      "type": "Feature",
      "geometry": {
        "type": "Point",
        "coordinates": [
          20.8397182,
          47.3828711
        ]
      },
      "properties": {
        "id": 477670297,
        "osm_type": "way",
        "name": "Fecske Apartmanház",
        "tourism": "guest_house"
      }
    },
    {
      "type": "Feature",
      "geometry": {
        "type": "Point",
        "coordinates": [
          20.8367013,
          47.3810692
        ]
      },
      "properties": {
        "id": 477670319,
        "osm_type": "way",
        "name": "Várlak vendégház",
        "tourism": "guest_house",
        "contact:phone": "+36 70 670 6152"
      }
    },
    {
      "type": "Feature",
      "geometry": {
        "type": "Point",
        "coordinates": [
          20.8388253,
          47.3861207
        ]
      },
      "properties": {
        "id": 477670327,
        "osm_type": "way",
        "tourism": "guest_house",
        "phone": "+36 59 319 353"
      }
    },
    {
      "type": "Feature",
      "geometry": {
        "type": "Point",
        "coordinates": [
          20.8383112,
          47.3864746
        ]
      },
      "properties": {
        "id": 477670329,
        "osm_type": "way",
        "name": "Mária Zsófia Lak",
        "tourism": "guest_house",
        "contact:phone": "+36 30 850 4868"
      }
    },
    {
      "type": "Feature",
      "geometry": {
        "type": "Point",
        "coordinates": [
          20.83746,
          47.3866387
        ]
      },
      "properties": {
        "id": 477670332,
        "osm_type": "way",
        "name": "1. sz. Áros Vendégház",
        "tourism": "guest_house"
      }
    },
    {
      "type": "Feature",
      "geometry": {
        "type": "Point",
        "coordinates": [
          20.8371439,
          47.3871217
        ]
      },
      "properties": {
        "id": 477670345,
        "osm_type": "way",
        "name": "Olajos Apartman",
        "tourism": "guest_house"
      }
    },
    {
      "type": "Feature",
      "geometry": {
        "type": "Point",
        "coordinates": [
          20.8378611,
          47.385965
        ]
      },
      "properties": {
        "id": 477670364,
        "osm_type": "way",
        "name": "Dániel-farm Vendégház",
        "tourism": "guest_house"
      }
    },
    {
      "type": "Feature",
      "geometry": {
        "type": "Point",
        "coordinates": [
          20.8376681,
          47.3853613
        ]
      },
      "properties": {
        "id": 477670369,
        "osm_type": "way",
        "name": "Napsugár Vendégház",
        "tourism": "guest_house"
      }
    },
    {
      "type": "Feature",
      "geometry": {
        "type": "Point",
        "coordinates": [
          20.8373032,
          47.3856095
        ]
      },
      "properties": {
        "id": 477670371,
        "osm_type": "way",
        "name": "Riverside Vendégház",
        "tourism": "guest_house"
      }
    },
    {
      "type": "Feature",
      "geometry": {
        "type": "Point",
        "coordinates": [
          20.8360496,
          47.3866179
        ]
      },
      "properties": {
        "id": 477670379,
        "osm_type": "way",
        "name": "Kisfenyő üdülőház",
        "tourism": "guest_house"
      }
    },
    {
      "type": "Feature",
      "geometry": {
        "type": "Point",
        "coordinates": [
          20.8369425,
          47.3865931
        ]
      },
      "properties": {
        "id": 477670381,
        "osm_type": "way",
        "name": "Madarak Éneke Vendégház",
        "tourism": "guest_house"
      }
    },
    {
      "type": "Feature",
      "geometry": {
        "type": "Point",
        "coordinates": [
          20.8349992,
          47.3881771
        ]
      },
      "properties": {
        "id": 477670397,
        "osm_type": "way",
        "name": "Cseresznyés Apartman",
        "tourism": "guest_house"
      }
    },
    {
      "type": "Feature",
      "geometry": {
        "type": "Point",
        "coordinates": [
          20.8345689,
          47.3880878
        ]
      },
      "properties": {
        "id": 477670399,
        "osm_type": "way",
        "tourism": "guest_house"
      }
    },
    {
      "type": "Feature",
      "geometry": {
        "type": "Point",
        "coordinates": [
          20.8367569,
          47.3826527
        ]
      },
      "properties": {
        "id": 477670457,
        "osm_type": "way",
        "name": "Motel California",
        "tourism": "motel",
        "opening_hours": "Jan-May off; Oct-Dec off",
        "contact:phone": "+36 59 319 154; +36 20 428 3639",
        "contact:website": "https://motel-california.webnode.hu/"
      }
    },
    {
      "type": "Feature",
      "geometry": {
        "type": "Point",
        "coordinates": [
          20.83325,
          47.3853823
        ]
      },
      "properties": {
        "id": 477670479,
        "osm_type": "way",
        "name": "Zsuzsavendégház",
        "tourism": "guest_house",
        "contact:phone": "+36 59 319 151",
        "contact:website": "https://zsuzsavendeghaz.webnode.hu/"
      }
    },
    {
      "type": "Feature",
      "geometry": {
        "type": "Point",
        "coordinates": [
          20.8305992,
          47.3873704
        ]
      },
      "properties": {
        "id": 477670576,
        "osm_type": "way",
        "tourism": "guest_house"
      }
    },
    {
      "type": "Feature",
      "geometry": {
        "type": "Point",
        "coordinates": [
          20.829594,
          47.387378
        ]
      },
      "properties": {
        "id": 477670590,
        "osm_type": "way",
        "name": "Berek Vendégház",
        "tourism": "guest_house"
      }
    },
    {
      "type": "Feature",
      "geometry": {
        "type": "Point",
        "coordinates": [
          20.8289478,
          47.3870765
        ]
      },
      "properties": {
        "id": 477670602,
        "osm_type": "way",
        "name": "Kovács Vendégház",
        "tourism": "guest_house",
        "contact:website": "http://users.atw.hu/kovacsvendeghaz/"
      }
    },
    {
      "type": "Feature",
      "geometry": {
        "type": "Point",
        "coordinates": [
          20.8365803,
          47.3814169
        ]
      },
      "properties": {
        "id": 477670714,
        "osm_type": "way",
        "name": "Búzavirág Apartman",
        "tourism": "guest_house"
      }
    },
    {
      "type": "Feature",
      "geometry": {
        "type": "Point",
        "coordinates": [
          20.8307394,
          47.3856925
        ]
      },
      "properties": {
        "id": 477670801,
        "osm_type": "way",
        "name": "Barbara Apartmanház",
        "tourism": "guest_house",
        "contact:phone": "+36 30 977 5358"
      }
    },
    {
      "type": "Feature",
      "geometry": {
        "type": "Point",
        "coordinates": [
          20.827148,
          47.3858527
        ]
      },
      "properties": {
        "id": 477670848,
        "osm_type": "way",
        "name": "Virág Vendégház",
        "tourism": "guest_house"
      }
    },
    {
      "type": "Feature",
      "geometry": {
        "type": "Point",
        "coordinates": [
          20.9422993,
          47.5716739
        ]
      },
      "properties": {
        "id": 492026588,
        "osm_type": "way",
        "name": "Góréstanya",
        "tourism": "chalet"
      }
    },
    {
      "type": "Feature",
      "geometry": {
        "type": "Point",
        "coordinates": [
          20.4608002,
          47.2700781
        ]
      },
      "properties": {
        "id": 551459709,
        "osm_type": "way",
        "name": "Tisza-part Kemping",
        "tourism": "camp_site",
        "website": "http://aktiv.itthon.hu/kempingek/-/netaview/63340/tisza-part-kemping"
      }
    },
    {
      "type": "Feature",
      "geometry": {
        "type": "Point",
        "coordinates": [
          20.4555239,
          47.2704904
        ]
      },
      "properties": {
        "id": 551510630,
        "osm_type": "way",
        "name": "Nagy Vendégház",
        "tourism": "guest_house"
      }
    },
    {
      "type": "Feature",
      "geometry": {
        "type": "Point",
        "coordinates": [
          20.8436098,
          47.383755
        ]
      },
      "properties": {
        "id": 586668291,
        "osm_type": "way",
        "name": "Berek Thermal",
        "tourism": "guest_house"
      }
    },
    {
      "type": "Feature",
      "geometry": {
        "type": "Point",
        "coordinates": [
          20.8372093,
          47.3864902
        ]
      },
      "properties": {
        "id": 586976856,
        "osm_type": "way",
        "name": "Szilvi & Panna Vendégház",
        "tourism": "guest_house"
      }
    },
    {
      "type": "Feature",
      "geometry": {
        "type": "Point",
        "coordinates": [
          20.4153696,
          47.188926
        ]
      },
      "properties": {
        "id": 588155323,
        "osm_type": "way",
        "tourism": "camp_site"
      }
    },
    {
      "type": "Feature",
      "geometry": {
        "type": "Point",
        "coordinates": [
          20.7193829,
          47.5526414
        ]
      },
      "properties": {
        "id": 591066337,
        "osm_type": "way",
        "tourism": "guest_house"
      }
    },
    {
      "type": "Feature",
      "geometry": {
        "type": "Point",
        "coordinates": [
          20.6419308,
          47.5136952
        ]
      },
      "properties": {
        "id": 628002291,
        "osm_type": "way",
        "tourism": "guest_house"
      }
    },
    {
      "type": "Feature",
      "geometry": {
        "type": "Point",
        "coordinates": [
          20.7544344,
          47.6337868
        ]
      },
      "properties": {
        "id": 722018653,
        "osm_type": "way",
        "tourism": "chalet"
      }
    },
    {
      "type": "Feature",
      "geometry": {
        "type": "Point",
        "coordinates": [
          20.7546374,
          47.6336389
        ]
      },
      "properties": {
        "id": 722018654,
        "osm_type": "way",
        "tourism": "chalet"
      }
    },
    {
      "type": "Feature",
      "geometry": {
        "type": "Point",
        "coordinates": [
          20.7547328,
          47.6338223
        ]
      },
      "properties": {
        "id": 722018655,
        "osm_type": "way",
        "tourism": "chalet"
      }
    },
    {
      "type": "Feature",
      "geometry": {
        "type": "Point",
        "coordinates": [
          20.8460634,
          47.3911889
        ]
      },
      "properties": {
        "id": 824240074,
        "osm_type": "way",
        "name": "Tópart Apartman",
        "tourism": "guest_house"
      }
    },
    {
      "type": "Feature",
      "geometry": {
        "type": "Point",
        "coordinates": [
          20.8422188,
          47.392032
        ]
      },
      "properties": {
        "id": 824240079,
        "osm_type": "way",
        "name": "Silver Apartman",
        "tourism": "guest_house"
      }
    },
    {
      "type": "Feature",
      "geometry": {
        "type": "Point",
        "coordinates": [
          20.8387893,
          47.385632
        ]
      },
      "properties": {
        "id": 824240089,
        "osm_type": "way",
        "tourism": "guest_house"
      }
    },
    {
      "type": "Feature",
      "geometry": {
        "type": "Point",
        "coordinates": [
          20.8363711,
          47.3871441
        ]
      },
      "properties": {
        "id": 824240092,
        "osm_type": "way",
        "name": "2. sz. Áros vendégház",
        "tourism": "guest_house"
      }
    },
    {
      "type": "Feature",
      "geometry": {
        "type": "Point",
        "coordinates": [
          20.8437601,
          47.3843515
        ]
      },
      "properties": {
        "id": 824801152,
        "osm_type": "way",
        "name": "Puszta Apartman",
        "tourism": "guest_house"
      }
    },
    {
      "type": "Feature",
      "geometry": {
        "type": "Point",
        "coordinates": [
          20.844788,
          47.3848173
        ]
      },
      "properties": {
        "id": 824801156,
        "osm_type": "way",
        "tourism": "guest_house",
        "contact:phone": "+36 59 321 454"
      }
    },
    {
      "type": "Feature",
      "geometry": {
        "type": "Point",
        "coordinates": [
          20.8449744,
          47.3919444
        ]
      },
      "properties": {
        "id": 825203325,
        "osm_type": "way",
        "name": "Vivien Vendégház 2.",
        "tourism": "guest_house"
      }
    },
    {
      "type": "Feature",
      "geometry": {
        "type": "Point",
        "coordinates": [
          20.8450982,
          47.3918245
        ]
      },
      "properties": {
        "id": 825203326,
        "osm_type": "way",
        "name": "Vivien Vendégház",
        "tourism": "guest_house"
      }
    },
    {
      "type": "Feature",
      "geometry": {
        "type": "Point",
        "coordinates": [
          20.8383423,
          47.386252
        ]
      },
      "properties": {
        "id": 825213881,
        "osm_type": "way",
        "name": "Holiday House",
        "tourism": "guest_house"
      }
    },
    {
      "type": "Feature",
      "geometry": {
        "type": "Point",
        "coordinates": [
          20.8377995,
          47.3801685
        ]
      },
      "properties": {
        "id": 829390732,
        "osm_type": "way",
        "name": "Abacus Vendégház",
        "tourism": "guest_house"
      }
    },
    {
      "type": "Feature",
      "geometry": {
        "type": "Point",
        "coordinates": [
          20.8465744,
          47.3839052
        ]
      },
      "properties": {
        "id": 830437184,
        "osm_type": "way",
        "tourism": "guest_house"
      }
    },
    {
      "type": "Feature",
      "geometry": {
        "type": "Point",
        "coordinates": [
          20.8450489,
          47.3823524
        ]
      },
      "properties": {
        "id": 830437245,
        "osm_type": "way",
        "name": "Viki Vendégház",
        "tourism": "guest_house"
      }
    },
    {
      "type": "Feature",
      "geometry": {
        "type": "Point",
        "coordinates": [
          20.8436164,
          47.3817004
        ]
      },
      "properties": {
        "id": 962704763,
        "osm_type": "way",
        "name": "Maxilux Apartman",
        "tourism": "guest_house"
      }
    },
    {
      "type": "Feature",
      "geometry": {
        "type": "Point",
        "coordinates": [
          20.270266,
          47.0188943
        ]
      },
      "properties": {
        "id": 1091102318,
        "osm_type": "way",
        "name": "Termál Kemping Martfű",
        "tourism": "camp_site"
      }
    },
    {
      "type": "Feature",
      "geometry": {
        "type": "Point",
        "coordinates": [
          20.7429396,
          47.6239723
        ]
      },
      "properties": {
        "id": 1097409540,
        "osm_type": "way",
        "tourism": "camp_site"
      }
    },
    {
      "type": "Feature",
      "geometry": {
        "type": "Point",
        "coordinates": [
          20.1671755,
          47.5783183
        ]
      },
      "properties": {
        "id": 1101450668,
        "osm_type": "way",
        "name": "Napsugár Kemping",
        "tourism": "camp_site"
      }
    },
    {
      "type": "Feature",
      "geometry": {
        "type": "Point",
        "coordinates": [
          20.1881635,
          47.5889458
        ]
      },
      "properties": {
        "id": 1108356570,
        "osm_type": "way",
        "name": "Ronatik Park Kemping",
        "tourism": "camp_site"
      }
    },
    {
      "type": "Feature",
      "geometry": {
        "type": "Point",
        "coordinates": [
          20.8429217,
          47.38381
        ]
      },
      "properties": {
        "id": 1197737075,
        "osm_type": "way",
        "name": "Viki Vendégház",
        "tourism": "guest_house"
      }
    },
    {
      "type": "Feature",
      "geometry": {
        "type": "Point",
        "coordinates": [
          19.9203336,
          47.504615
        ]
      },
      "properties": {
        "id": 1237101471,
        "osm_type": "way",
        "name": "Hotel Sólyom",
        "tourism": "hotel",
        "contact:phone": "+36 57 401 267;+36 57 401 699",
        "contact:website": "http://solyomhotel.hu/"
      }
    },
    {
      "type": "Feature",
      "geometry": {
        "type": "Point",
        "coordinates": [
          19.9143358,
          47.5002207
        ]
      },
      "properties": {
        "id": 1237226125,
        "osm_type": "way",
        "name": "Szatmári Hotel",
        "tourism": "hotel",
        "contact:phone": "+36 57 814 560",
        "contact:website": "https://hotelszatmari.hu"
      }
    },
    {
      "type": "Feature",
      "geometry": {
        "type": "Point",
        "coordinates": [
          20.7489012,
          47.1001459
        ]
      },
      "properties": {
        "id": 1254198332,
        "osm_type": "way",
        "name": "Kamilla Vendégház",
        "tourism": "hostel",
        "contact:website": "https://kamillavendeghazturkeve.hu/"
      }
    },
    {
      "type": "Feature",
      "geometry": {
        "type": "Point",
        "coordinates": [
          20.7494784,
          47.625523
        ]
      },
      "properties": {
        "id": 1309127240,
        "osm_type": "way",
        "name": "CITY kemping",
        "tourism": "camp_site",
        "website": "https://kokenyapartman.webnode.hu/"
      }
    }
  ]
}