{
  "type": "FeatureCollection",
  "features": [
    {
      "type": "Feature",
      "geometry": {
        "type": "Point",
        "coordinates": [
          -60.8827816,
          14.4293125
        ]
      },
      "properties": {
        "id": 1248100376,
        "osm_type": "node",
        "name": "Résidence Mélody",
        "tourism": "hotel"
      }
    },
    {
      "type": "Feature",
      "geometry": {
        "type": "Point",
        "coordinates": [
          -60.8849013,
          14.4277876
        ]
      },
      "properties": {
        "id": 1248100675,
        "osm_type": "node",
        "name": "Le Domaine de l'Anse Caritan",
        "tourism": "hotel"
      }
    },
    {
      "type": "Feature",
      "geometry": {
        "type": "Point",
        "coordinates": [
          -61.0137534,
          14.4776913
        ]
      },
      "properties": {
        "id": 1624928891,
        "osm_type": "node",
        "name": "Marina Hôtel",
        "tourism": "hotel"
      }
    },
    {
      "type": "Feature",
      "geometry": {
        "type": "Point",
        "coordinates": [
          -60.9120872,
          14.7607737
        ]
      },
      "properties": {
        "id": 2296111670,
        "osm_type": "node",
        "tourism": "guest_house"
      }
    },
    {
      "type": "Feature",
      "geometry": {
        "type": "Point",
        "coordinates": [
          -60.9124168,
          14.7598156
        ]
      },
      "properties": {
        "id": 2296111769,
        "osm_type": "node",
        "name": "Résidence La Goélette",
        "tourism": "hotel"
      }
    },
    {
      "type": "Feature",
      "geometry": {
        "type": "Point",
        "coordinates": [
          -60.8251807,
          14.5134167
        ]
      },
      "properties": {
        "id": 2302375597,
        "osm_type": "node",
        "name": "Hôtel Macabou",
        "tourism": "hotel"
      }
    },
    {
      "type": "Feature",
      "geometry": {
        "type": "Point",
        "coordinates": [
          -61.1692149,
          14.7060831
        ]
      },
      "properties": {
        "id": 2446076099,
        "osm_type": "node",
        "tourism": "guest_house"
      }
    },
    {
      "type": "Feature",
      "geometry": {
        "type": "Point",
        "coordinates": [
          -61.0186887,
          14.4814739
        ]
      },
      "properties": {
        "id": 2590552314,
        "osm_type": "node",
        "name": "Diamant Beach Club",
        "tourism": "hotel",
        "check_date": "2025-05-18"
      }
    },
    {
      "type": "Feature",
      "geometry": {
        "type": "Point",
        "coordinates": [
          -60.9561423,
          14.4663761
        ]
      },
      "properties": {
        "id": 2590673344,
        "osm_type": "node",
        "tourism": "hotel"
      }
    },
    {
      "type": "Feature",
      "geometry": {
        "type": "Point",
        "coordinates": [
          -60.8800302,
          14.4429444
        ]
      },
      "properties": {
        "id": 2764053509,
        "osm_type": "node",
        "name": "Airstream Paradise",
        "tourism": "camp_site",
        "phone": "+596 596 58 45 19;+596 696 19 86 76",
        "website": "http://www.airstreamparadise.fr/"
      }
    },
    {
      "type": "Feature",
      "geometry": {
        "type": "Point",
        "coordinates": [
          -60.9052274,
          14.7635336
        ]
      },
      "properties": {
        "id": 3602967158,
        "osm_type": "node",
        "name": "Au citron vert",
        "tourism": "hotel"
      }
    },
    {
      "type": "Feature",
      "geometry": {
        "type": "Point",
        "coordinates": [
          -61.0698371,
          14.5345431
        ]
      },
      "properties": {
        "id": 4008070631,
        "osm_type": "node",
        "name": "Domaine de l'Anse Ramier",
        "tourism": "chalet",
        "phone": "+596 596 68 77 47"
      }
    },
    {
      "type": "Feature",
      "geometry": {
        "type": "Point",
        "coordinates": [
          -61.0767564,
          14.475692
        ]
      },
      "properties": {
        "id": 4008079878,
        "osm_type": "node",
        "name": "Résidence La Palombiere",
        "tourism": "hotel"
      }
    },
    {
      "type": "Feature",
      "geometry": {
        "type": "Point",
        "coordinates": [
          -61.0685183,
          14.6038213
        ]
      },
      "properties": {
        "id": 4020584842,
        "osm_type": "node",
        "name": "L'Imperatrice",
        "tourism": "hotel",
        "check_date": "2025-05-10"
      }
    },
    {
      "type": "Feature",
      "geometry": {
        "type": "Point",
        "coordinates": [
          -61.0043636,
          14.7971938
        ]
      },
      "properties": {
        "id": 4064508900,
        "osm_type": "node",
        "name": "Ecolodge Maison d'Ô",
        "tourism": "chalet"
      }
    },
    {
      "type": "Feature",
      "geometry": {
        "type": "Point",
        "coordinates": [
          -60.9724769,
          14.5893988
        ]
      },
      "properties": {
        "id": 4159236193,
        "osm_type": "node",
        "name": "maison",
        "tourism": "motel"
      }
    },
    {
      "type": "Feature",
      "geometry": {
        "type": "Point",
        "coordinates": [
          -61.0003586,
          14.6198404
        ]
      },
      "properties": {
        "id": 4481359894,
        "osm_type": "node",
        "tourism": "chalet"
      }
    },
    {
      "type": "Feature",
      "geometry": {
        "type": "Point",
        "coordinates": [
          -61.0697629,
          14.5379626
        ]
      },
      "properties": {
        "id": 4560799672,
        "osm_type": "node",
        "name": "Résidence Les Ramiers",
        "tourism": "apartment"
      }
    },
    {
      "type": "Feature",
      "geometry": {
        "type": "Point",
        "coordinates": [
          -60.8567438,
          14.4945224
        ]
      },
      "properties": {
        "id": 4664690690,
        "osm_type": "node",
        "name": "Villa Kay Kumaru",
        "tourism": "guest_house",
        "website": "https://www.homelidays.com/hebergement/p1931932"
      }
    },
    {
      "type": "Feature",
      "geometry": {
        "type": "Point",
        "coordinates": [
          -60.9665854,
          14.5053746
        ]
      },
      "properties": {
        "id": 4669559803,
        "osm_type": "node",
        "tourism": "guest_house"
      }
    },
    {
      "type": "Feature",
      "geometry": {
        "type": "Point",
        "coordinates": [
          -61.0071162,
          14.475748
        ]
      },
      "properties": {
        "id": 4714173989,
        "osm_type": "node",
        "tourism": "guest_house"
      }
    },
    {
      "type": "Feature",
      "geometry": {
        "type": "Point",
        "coordinates": [
          -60.9004969,
          14.7686353
        ]
      },
      "properties": {
        "id": 4731348622,
        "osm_type": "node",
        "name": "Hôtel Résidence Océane",
        "tourism": "hotel"
      }
    },
    {
      "type": "Feature",
      "geometry": {
        "type": "Point",
        "coordinates": [
          -60.9817445,
          14.5719607
        ]
      },
      "properties": {
        "id": 4731349022,
        "osm_type": "node",
        "name": "Airport Hotel",
        "tourism": "motel",
        "opening_hours": "24/7"
      }
    },
    {
      "type": "Feature",
      "geometry": {
        "type": "Point",
        "coordinates": [
          -60.9364789,
          14.4938463
        ]
      },
      "properties": {
        "id": 4742941221,
        "osm_type": "node",
        "name": "KAIL GUTBERTO",
        "tourism": "chalet"
      }
    },
    {
      "type": "Feature",
      "geometry": {
        "type": "Point",
        "coordinates": [
          -61.1339359,
          14.6438578
        ]
      },
      "properties": {
        "id": 5140234521,
        "osm_type": "node",
        "tourism": "guest_house"
      }
    },
    {
      "type": "Feature",
      "geometry": {
        "type": "Point",
        "coordinates": [
          -60.8380893,
          14.4466272
        ]
      },
      "properties": {
        "id": 5145109521,
        "osm_type": "node",
        "tourism": "chalet"
      }
    },
    {
      "type": "Feature",
      "geometry": {
        "type": "Point",
        "coordinates": [
          -60.9622681,
          14.6692062
        ]
      },
      "properties": {
        "id": 5230085921,
        "osm_type": "node",
        "tourism": "guest_house"
      }
    },
    {
      "type": "Feature",
      "geometry": {
        "type": "Point",
        "coordinates": [
          -61.0232435,
          14.4828424
        ]
      },
      "properties": {
        "id": 5235331821,
        "osm_type": "node",
        "name": "maison Rnb",
        "tourism": "apartment"
      }
    },
    {
      "type": "Feature",
      "geometry": {
        "type": "Point",
        "coordinates": [
          -60.8837573,
          14.4285176
        ]
      },
      "properties": {
        "id": 5235435721,
        "osm_type": "node",
        "name": "La Perle Bleue",
        "tourism": "apartment"
      }
    },
    {
      "type": "Feature",
      "geometry": {
        "type": "Point",
        "coordinates": [
          -61.2148519,
          14.7897214
        ]
      },
      "properties": {
        "id": 5356063621,
        "osm_type": "node",
        "tourism": "guest_house"
      }
    },
    {
      "type": "Feature",
      "geometry": {
        "type": "Point",
        "coordinates": [
          -60.8784983,
          14.4440454
        ]
      },
      "properties": {
        "id": 5462418723,
        "osm_type": "node",
        "name": "Villa F3 Privilège",
        "tourism": "apartment"
      }
    },
    {
      "type": "Feature",
      "geometry": {
        "type": "Point",
        "coordinates": [
          -60.8783937,
          14.4441962
        ]
      },
      "properties": {
        "id": 5462421238,
        "osm_type": "node",
        "name": "Villa F4 Privilège",
        "tourism": "apartment"
      }
    },
    {
      "type": "Feature",
      "geometry": {
        "type": "Point",
        "coordinates": [
          -60.8661194,
          14.4714075
        ]
      },
      "properties": {
        "id": 5532246421,
        "osm_type": "node",
        "tourism": "apartment"
      }
    },
    {
      "type": "Feature",
      "geometry": {
        "type": "Point",
        "coordinates": [
          -61.137286,
          14.6411667
        ]
      },
      "properties": {
        "id": 5754921954,
        "osm_type": "node",
        "tourism": "guest_house"
      }
    },
    {
      "type": "Feature",
      "geometry": {
        "type": "Point",
        "coordinates": [
          -60.830803,
          14.5403106
        ]
      },
      "properties": {
        "id": 5825873153,
        "osm_type": "node",
        "tourism": "hostel",
        "website": "http://Casemabouya.com"
      }
    },
    {
      "type": "Feature",
      "geometry": {
        "type": "Point",
        "coordinates": [
          -61.0399265,
          14.5378379
        ]
      },
      "properties": {
        "id": 5916069386,
        "osm_type": "node",
        "name": "Ti' Oliv",
        "tourism": "guest_house"
      }
    },
    {
      "type": "Feature",
      "geometry": {
        "type": "Point",
        "coordinates": [
          -61.062866,
          14.54176
        ]
      },
      "properties": {
        "id": 6150051124,
        "osm_type": "node",
        "name": "Le Tulipier",
        "tourism": "chalet"
      }
    },
    {
      "type": "Feature",
      "geometry": {
        "type": "Point",
        "coordinates": [
          -61.089672,
          14.5248731
        ]
      },
      "properties": {
        "id": 6157246936,
        "osm_type": "node",
        "name": "Les Bougainvilliers",
        "tourism": "apartment"
      }
    },
    {
      "type": "Feature",
      "geometry": {
        "type": "Point",
        "coordinates": [
          -61.1168144,
          14.7216198
        ]
      },
      "properties": {
        "id": 6177291500,
        "osm_type": "node",
        "tourism": "apartment"
      }
    },
    {
      "type": "Feature",
      "geometry": {
        "type": "Point",
        "coordinates": [
          -60.8632749,
          14.4936514
        ]
      },
      "properties": {
        "id": 6177291790,
        "osm_type": "node",
        "tourism": "apartment"
      }
    },
    {
      "type": "Feature",
      "geometry": {
        "type": "Point",
        "coordinates": [
          -60.9494528,
          14.4682431
        ]
      },
      "properties": {
        "id": 6188853097,
        "osm_type": "node",
        "name": "Karibéa",
        "tourism": "hotel",
        "phone": "+596 596 62 12 00",
        "website": "https://www.karibea.com/hotels/karibea-sainte-luce-hotel/"
      }
    },
    {
      "type": "Feature",
      "geometry": {
        "type": "Point",
        "coordinates": [
          -60.9493348,
          14.4697208
        ]
      },
      "properties": {
        "id": 6188853190,
        "osm_type": "node",
        "name": "Karibéa",
        "tourism": "hotel"
      }
    },
    {
      "type": "Feature",
      "geometry": {
        "type": "Point",
        "coordinates": [
          -60.8875416,
          14.4252429
        ]
      },
      "properties": {
        "id": 6217663404,
        "osm_type": "node",
        "name": "Club Résidence Igesa",
        "tourism": "hotel"
      }
    },
    {
      "type": "Feature",
      "geometry": {
        "type": "Point",
        "coordinates": [
          -60.8838869,
          14.4288915
        ]
      },
      "properties": {
        "id": 6217663417,
        "osm_type": "node",
        "name": "Résidence Mahogany",
        "tourism": "apartment"
      }
    },
    {
      "type": "Feature",
      "geometry": {
        "type": "Point",
        "coordinates": [
          -61.0869589,
          14.5277409
        ]
      },
      "properties": {
        "id": 6222202700,
        "osm_type": "node",
        "name": "Domaine de Robinson",
        "tourism": "chalet",
        "phone": "+596 596 68 62 82",
        "website": "http://www.domainederobinson.com/"
      }
    },
    {
      "type": "Feature",
      "geometry": {
        "type": "Point",
        "coordinates": [
          -61.0800524,
          14.4904875
        ]
      },
      "properties": {
        "id": 6232919990,
        "osm_type": "node",
        "name": "Madinakay'",
        "tourism": "chalet",
        "check_date": "2026-02-02"
      }
    },
    {
      "type": "Feature",
      "geometry": {
        "type": "Point",
        "coordinates": [
          -61.0840079,
          14.5022242
        ]
      },
      "properties": {
        "id": 6233002240,
        "osm_type": "node",
        "name": "Les Arcades",
        "tourism": "chalet"
      }
    },
    {
      "type": "Feature",
      "geometry": {
        "type": "Point",
        "coordinates": [
          -61.0842359,
          14.5033979
        ]
      },
      "properties": {
        "id": 6233002243,
        "osm_type": "node",
        "name": "Konlambi",
        "tourism": "chalet"
      }
    },
    {
      "type": "Feature",
      "geometry": {
        "type": "Point",
        "coordinates": [
          -61.0842249,
          14.5035617
        ]
      },
      "properties": {
        "id": 6233002244,
        "osm_type": "node",
        "name": "Kaylaini",
        "tourism": "chalet"
      }
    },
    {
      "type": "Feature",
      "geometry": {
        "type": "Point",
        "coordinates": [
          -61.0841958,
          14.5036608
        ]
      },
      "properties": {
        "id": 6233002245,
        "osm_type": "node",
        "name": "Kay Guito",
        "tourism": "chalet"
      }
    },
    {
      "type": "Feature",
      "geometry": {
        "type": "Point",
        "coordinates": [
          -61.0846107,
          14.5043937
        ]
      },
      "properties": {
        "id": 6235171646,
        "osm_type": "node",
        "name": "Grand case Oukae",
        "tourism": "chalet"
      }
    },
    {
      "type": "Feature",
      "geometry": {
        "type": "Point",
        "coordinates": [
          -61.0888391,
          14.5252037
        ]
      },
      "properties": {
        "id": 6268432086,
        "osm_type": "node",
        "name": "Case",
        "tourism": "guest_house"
      }
    },
    {
      "type": "Feature",
      "geometry": {
        "type": "Point",
        "coordinates": [
          -61.1810317,
          14.6994335
        ]
      },
      "properties": {
        "id": 6268446585,
        "osm_type": "node",
        "name": "Petit Trésor Cabanon",
        "tourism": "guest_house"
      }
    },
    {
      "type": "Feature",
      "geometry": {
        "type": "Point",
        "coordinates": [
          -61.0729418,
          14.4703692
        ]
      },
      "properties": {
        "id": 6268928585,
        "osm_type": "node",
        "tourism": "guest_house"
      }
    },
    {
      "type": "Feature",
      "geometry": {
        "type": "Point",
        "coordinates": [
          -60.8520377,
          14.5631614
        ]
      },
      "properties": {
        "id": 6408729765,
        "osm_type": "node",
        "name": "Domaine des Bulles",
        "tourism": "guest_house"
      }
    },
    {
      "type": "Feature",
      "geometry": {
        "type": "Point",
        "coordinates": [
          -60.9443419,
          14.5671755
        ]
      },
      "properties": {
        "id": 6471281188,
        "osm_type": "node",
        "name": "Au Coeur De Madinina",
        "tourism": "hotel",
        "opening_hours": "24/7",
        "phone": "+596 696710303",
        "website": "https://www.aucoeurdemadinina.com"
      }
    },
    {
      "type": "Feature",
      "geometry": {
        "type": "Point",
        "coordinates": [
          -60.8600269,
          14.4724565
        ]
      },
      "properties": {
        "id": 6549573586,
        "osm_type": "node",
        "tourism": "camp_site"
      }
    },
    {
      "type": "Feature",
      "geometry": {
        "type": "Point",
        "coordinates": [
          -60.9904484,
          14.6802094
        ]
      },
      "properties": {
        "id": 6789430291,
        "osm_type": "node",
        "tourism": "apartment"
      }
    },
    {
      "type": "Feature",
      "geometry": {
        "type": "Point",
        "coordinates": [
          -61.0051353,
          14.6831515
        ]
      },
      "properties": {
        "id": 6790562786,
        "osm_type": "node",
        "tourism": "apartment"
      }
    },
    {
      "type": "Feature",
      "geometry": {
        "type": "Point",
        "coordinates": [
          -61.0417576,
          14.7368074
        ]
      },
      "properties": {
        "id": 6802800190,
        "osm_type": "node",
        "tourism": "chalet"
      }
    },
    {
      "type": "Feature",
      "geometry": {
        "type": "Point",
        "coordinates": [
          -60.8816133,
          14.4345435
        ]
      },
      "properties": {
        "id": 6875123596,
        "osm_type": "node",
        "name": "La Dunette",
        "tourism": "hotel"
      }
    },
    {
      "type": "Feature",
      "geometry": {
        "type": "Point",
        "coordinates": [
          -61.0859245,
          14.6088178
        ]
      },
      "properties": {
        "id": 7010052787,
        "osm_type": "node",
        "tourism": "hostel",
        "opening_hours": "Mo-Su 07:00-20:00",
        "phone": "+596596613511"
      }
    },
    {
      "type": "Feature",
      "geometry": {
        "type": "Point",
        "coordinates": [
          -60.8866914,
          14.6925074
        ]
      },
      "properties": {
        "id": 7018343887,
        "osm_type": "node",
        "tourism": "chalet"
      }
    },
    {
      "type": "Feature",
      "geometry": {
        "type": "Point",
        "coordinates": [
          -61.0554825,
          14.8189219
        ]
      },
      "properties": {
        "id": 7074585387,
        "osm_type": "node",
        "tourism": "apartment"
      }
    },
    {
      "type": "Feature",
      "geometry": {
        "type": "Point",
        "coordinates": [
          -60.920522,
          14.7568164
        ]
      },
      "properties": {
        "id": 7146544691,
        "osm_type": "node",
        "name": "Hôtel Le Manguier",
        "tourism": "hotel",
        "phone": "+596 596 58 48 95",
        "website": "www.hotellemanguier.com"
      }
    },
    {
      "type": "Feature",
      "geometry": {
        "type": "Point",
        "coordinates": [
          -60.8791905,
          14.4331441
        ]
      },
      "properties": {
        "id": 7146547593,
        "osm_type": "node",
        "name": "Irena Séjour",
        "tourism": "hotel",
        "phone": "+596 596 76 88 16"
      }
    },
    {
      "type": "Feature",
      "geometry": {
        "type": "Point",
        "coordinates": [
          -60.9104897,
          14.4620994
        ]
      },
      "properties": {
        "id": 7164316674,
        "osm_type": "node",
        "name": "Hôtel le Paradis de l'Anse",
        "tourism": "hotel"
      }
    },
    {
      "type": "Feature",
      "geometry": {
        "type": "Point",
        "coordinates": [
          -60.9054313,
          14.6644323
        ]
      },
      "properties": {
        "id": 7520346386,
        "osm_type": "node",
        "tourism": "guest_house"
      }
    },
    {
      "type": "Feature",
      "geometry": {
        "type": "Point",
        "coordinates": [
          -61.0443463,
          14.4717845
        ]
      },
      "properties": {
        "id": 7878668487,
        "osm_type": "node",
        "name": "Village du Diamant",
        "tourism": "apartment"
      }
    },
    {
      "type": "Feature",
      "geometry": {
        "type": "Point",
        "coordinates": [
          -60.8382543,
          14.5419125
        ]
      },
      "properties": {
        "id": 8485624401,
        "osm_type": "node",
        "name": "Villa Fleurs des Îles",
        "tourism": "apartment",
        "phone": "+596 696 43 32 84",
        "website": "https://www.villafleursdesiles.com/"
      }
    },
    {
      "type": "Feature",
      "geometry": {
        "type": "Point",
        "coordinates": [
          -60.9540225,
          14.4675145
        ]
      },
      "properties": {
        "id": 8929683817,
        "osm_type": "node",
        "tourism": "guest_house",
        "website": "https://www.csecaf.fr/?page_id=192"
      }
    },
    {
      "type": "Feature",
      "geometry": {
        "type": "Point",
        "coordinates": [
          -60.8769131,
          14.444845
        ]
      },
      "properties": {
        "id": 9517842217,
        "osm_type": "node",
        "tourism": "guest_house",
        "phone": "+33610229592"
      }
    },
    {
      "type": "Feature",
      "geometry": {
        "type": "Point",
        "coordinates": [
          -60.886681,
          14.4639536
        ]
      },
      "properties": {
        "id": 9668154816,
        "osm_type": "node",
        "name": "Studio transit sur la route des plages",
        "tourism": "chalet"
      }
    },
    {
      "type": "Feature",
      "geometry": {
        "type": "Point",
        "coordinates": [
          -60.9005002,
          14.4966536
        ]
      },
      "properties": {
        "id": 9770563617,
        "osm_type": "node",
        "tourism": "guest_house"
      }
    },
    {
      "type": "Feature",
      "geometry": {
        "type": "Point",
        "coordinates": [
          -60.9242698,
          14.4809309
        ]
      },
      "properties": {
        "id": 9846519618,
        "osm_type": "node",
        "tourism": "guest_house",
        "phone": "+596 696 30 35 29"
      }
    },
    {
      "type": "Feature",
      "geometry": {
        "type": "Point",
        "coordinates": [
          -61.1353473,
          14.6481345
        ]
      },
      "properties": {
        "id": 9920287317,
        "osm_type": "node",
        "name": "La Kaz à Jeanne",
        "tourism": "guest_house"
      }
    },
    {
      "type": "Feature",
      "geometry": {
        "type": "Point",
        "coordinates": [
          -61.1439779,
          14.7838682
        ]
      },
      "properties": {
        "id": 10892889764,
        "osm_type": "node",
        "tourism": "guest_house",
        "phone": "+596 596 52 51 81",
        "website": "https://www.martinique-domaine-vallee.com/"
      }
    },
    {
      "type": "Feature",
      "geometry": {
        "type": "Point",
        "coordinates": [
          -61.0689383,
          14.6056384
        ]
      },
      "properties": {
        "id": 11136358917,
        "osm_type": "node",
        "name": "Appart Akasya",
        "tourism": "apartment"
      }
    },
    {
      "type": "Feature",
      "geometry": {
        "type": "Point",
        "coordinates": [
          -61.0526285,
          14.5550315
        ]
      },
      "properties": {
        "id": 11578658469,
        "osm_type": "node",
        "name": "Résidence Kaouanne",
        "tourism": "hotel",
        "contact:phone": "+33 5 96 66 03 19",
        "website": "https://www.kaouanne.com/"
      }
    },
    {
      "type": "Feature",
      "geometry": {
        "type": "Point",
        "coordinates": [
          -61.0477555,
          14.6268112
        ]
      },
      "properties": {
        "id": 12847003601,
        "osm_type": "node",
        "name": "Havre De Paix à Fort De France",
        "tourism": "hotel",
        "opening_hours": "24/7",
        "website": "https://www.havre-de-paix-fort-de-france.fr/"
      }
    },
    {
      "type": "Feature",
      "geometry": {
        "type": "Point",
        "coordinates": [
          -61.074227,
          14.5274702
        ]
      },
      "properties": {
        "id": 13011981376,
        "osm_type": "node",
        "name": "Parcelle de Gallochat",
        "tourism": "camp_site"
      }
    },
    {
      "type": "Feature",
      "geometry": {
        "type": "Point",
        "coordinates": [
          -61.0176561,
          14.4820491
        ]
      },
      "properties": {
        "id": 13279864263,
        "osm_type": "node",
        "name": "Appartement Perle Bleue",
        "tourism": "apartment"
      }
    },
    {
      "type": "Feature",
      "geometry": {
        "type": "Point",
        "coordinates": [
          -61.0598025,
          14.6044613
        ]
      },
      "properties": {
        "id": 13325143414,
        "osm_type": "node",
        "name": "Sunshine Appartement 1 Chambre",
        "tourism": "apartment",
        "phone": "+33 7 49 28 27 01",
        "website": "https://www.booking.com/hotel/mq/sunshine-appartement-1-chambre.cs.html?aid="
      }
    },
    {
      "type": "Feature",
      "geometry": {
        "type": "Point",
        "coordinates": [
          -61.0692456,
          14.4684405
        ]
      },
      "properties": {
        "id": 13460575365,
        "osm_type": "node",
        "name": "Résid’Anses",
        "tourism": "chalet",
        "website": "https://residanses.com/"
      }
    },
    {
      "type": "Feature",
      "geometry": {
        "type": "Point",
        "coordinates": [
          -61.0431701,
          14.6025201
        ]
      },
      "properties": {
        "id": 13470888701,
        "osm_type": "node",
        "name": "Centre International de Séjour Martinique",
        "tourism": "hotel",
        "contact:phone": "+596 596 39 09 09"
      }
    },
    {
      "type": "Feature",
      "geometry": {
        "type": "Point",
        "coordinates": [
          -61.1301451,
          14.6355091
        ]
      },
      "properties": {
        "id": 13605977103,
        "osm_type": "node",
        "tourism": "hotel"
      }
    },
    {
      "type": "Feature",
      "geometry": {
        "type": "Point",
        "coordinates": [
          -61.1304944,
          14.634307
        ]
      },
      "properties": {
        "id": 13608337101,
        "osm_type": "node",
        "tourism": "chalet",
        "phone": "+596 596 78 81 42"
      }
    },
    {
      "type": "Feature",
      "geometry": {
        "type": "Point",
        "coordinates": [
          -61.1304568,
          14.6344542
        ]
      },
      "properties": {
        "id": 13608369101,
        "osm_type": "node",
        "tourism": "apartment",
        "phone": "+596 596 78 81 42"
      }
    },
    {
      "type": "Feature",
      "geometry": {
        "type": "Point",
        "coordinates": [
          -61.0689632,
          14.6029485
        ]
      },
      "properties": {
        "id": 94851844,
        "osm_type": "way",
        "name": "Bayfront Hotel Restaurant",
        "tourism": "hotel"
      }
    },
    {
      "type": "Feature",
      "geometry": {
        "type": "Point",
        "coordinates": [
          -61.0688152,
          14.6032444
        ]
      },
      "properties": {
        "id": 94883052,
        "osm_type": "way",
        "tourism": "hotel"
      }
    },
    {
      "type": "Feature",
      "geometry": {
        "type": "Point",
        "coordinates": [
          -61.0411146,
          14.6395097
        ]
      },
      "properties": {
        "id": 94896459,
        "osm_type": "way",
        "name": "Le Beauséjour Hôtel",
        "tourism": "hotel"
      }
    },
    {
      "type": "Feature",
      "geometry": {
        "type": "Point",
        "coordinates": [
          -61.0668115,
          14.6047409
        ]
      },
      "properties": {
        "id": 94908887,
        "osm_type": "way",
        "name": "Carib Hôtel",
        "tourism": "hotel",
        "phone": "+33 596 60 19 85"
      }
    },
    {
      "type": "Feature",
      "geometry": {
        "type": "Point",
        "coordinates": [
          -61.040731,
          14.6181611
        ]
      },
      "properties": {
        "id": 94936452,
        "osm_type": "way",
        "name": "Hotel La Valmeniere",
        "tourism": "hotel"
      }
    },
    {
      "type": "Feature",
      "geometry": {
        "type": "Point",
        "coordinates": [
          -60.8796478,
          14.442313
        ]
      },
      "properties": {
        "id": 99374589,
        "osm_type": "way",
        "name": "Camping Pointe-Marin",
        "tourism": "camp_site",
        "phone": "+596 5 96 76 72 79"
      }
    },
    {
      "type": "Feature",
      "geometry": {
        "type": "Point",
        "coordinates": [
          -60.9340981,
          14.464233
        ]
      },
      "properties": {
        "id": 99563610,
        "osm_type": "way",
        "name": "Pierre et Vacances Saint-Luce",
        "tourism": "hotel",
        "website": "https://www.pierreetvacances.com/fr-fr/fp_LUL_location-village-sainte-luce"
      }
    },
    {
      "type": "Feature",
      "geometry": {
        "type": "Point",
        "coordinates": [
          -61.1740896,
          14.7467481
        ]
      },
      "properties": {
        "id": 119901112,
        "osm_type": "way",
        "name": "The Kapokier",
        "tourism": "hotel",
        "website": "https://lekapokier.fr/"
      }
    },
    {
      "type": "Feature",
      "geometry": {
        "type": "Point",
        "coordinates": [
          -61.0480027,
          14.4628346
        ]
      },
      "properties": {
        "id": 125378275,
        "osm_type": "way",
        "name": "Résidence Les Océanides",
        "tourism": "hotel"
      }
    },
    {
      "type": "Feature",
      "geometry": {
        "type": "Point",
        "coordinates": [
          -61.0230179,
          14.4808275
        ]
      },
      "properties": {
        "id": 125378537,
        "osm_type": "way",
        "name": "Diamant Les Bains",
        "tourism": "hotel"
      }
    },
    {
      "type": "Feature",
      "geometry": {
        "type": "Point",
        "coordinates": [
          -61.0196471,
          14.4831622
        ]
      },
      "properties": {
        "id": 125380796,
        "osm_type": "way",
        "name": "Casa Flora",
        "tourism": "chalet"
      }
    },
    {
      "type": "Feature",
      "geometry": {
        "type": "Point",
        "coordinates": [
          -60.899965,
          14.6007475
        ]
      },
      "properties": {
        "id": 177728475,
        "osm_type": "way",
        "name": "Le Moringa",
        "tourism": "chalet"
      }
    },
    {
      "type": "Feature",
      "geometry": {
        "type": "Point",
        "coordinates": [
          -60.8506545,
          14.58839
        ]
      },
      "properties": {
        "id": 177728602,
        "osm_type": "way",
        "tourism": "hotel"
      }
    },
    {
      "type": "Feature",
      "geometry": {
        "type": "Point",
        "coordinates": [
          -60.8324182,
          14.5603796
        ]
      },
      "properties": {
        "id": 178048751,
        "osm_type": "way",
        "tourism": "chalet"
      }
    },
    {
      "type": "Feature",
      "geometry": {
        "type": "Point",
        "coordinates": [
          -60.8322304,
          14.5598066
        ]
      },
      "properties": {
        "id": 178050639,
        "osm_type": "way",
        "tourism": "chalet"
      }
    },
    {
      "type": "Feature",
      "geometry": {
        "type": "Point",
        "coordinates": [
          -60.8323171,
          14.5601131
        ]
      },
      "properties": {
        "id": 178050957,
        "osm_type": "way",
        "tourism": "chalet"
      }
    },
    {
      "type": "Feature",
      "geometry": {
        "type": "Point",
        "coordinates": [
          -60.8326914,
          14.5596576
        ]
      },
      "properties": {
        "id": 178051281,
        "osm_type": "way",
        "tourism": "chalet"
      }
    },
    {
      "type": "Feature",
      "geometry": {
        "type": "Point",
        "coordinates": [
          -60.8326472,
          14.5604591
        ]
      },
      "properties": {
        "id": 178051674,
        "osm_type": "way",
        "tourism": "chalet"
      }
    },
    {
      "type": "Feature",
      "geometry": {
        "type": "Point",
        "coordinates": [
          -60.8331084,
          14.5601446
        ]
      },
      "properties": {
        "id": 178052056,
        "osm_type": "way",
        "tourism": "chalet"
      }
    },
    {
      "type": "Feature",
      "geometry": {
        "type": "Point",
        "coordinates": [
          -60.8328089,
          14.5601051
        ]
      },
      "properties": {
        "id": 178052263,
        "osm_type": "way",
        "tourism": "chalet"
      }
    },
    {
      "type": "Feature",
      "geometry": {
        "type": "Point",
        "coordinates": [
          -60.8326894,
          14.5599183
        ]
      },
      "properties": {
        "id": 178052516,
        "osm_type": "way",
        "tourism": "chalet"
      }
    },
    {
      "type": "Feature",
      "geometry": {
        "type": "Point",
        "coordinates": [
          -61.1780965,
          14.7321715
        ]
      },
      "properties": {
        "id": 178863937,
        "osm_type": "way",
        "name": "Hôtel de l'Anse",
        "tourism": "hotel",
        "phone": "+596 596 783082",
        "website": "http://www.hoteldelanse.com/"
      }
    },
    {
      "type": "Feature",
      "geometry": {
        "type": "Point",
        "coordinates": [
          -60.9268901,
          14.4662135
        ]
      },
      "properties": {
        "id": 181164949,
        "osm_type": "way",
        "name": "Brise Marine",
        "tourism": "hotel"
      }
    },
    {
      "type": "Feature",
      "geometry": {
        "type": "Point",
        "coordinates": [
          -61.051501,
          14.5563412
        ]
      },
      "properties": {
        "id": 197056257,
        "osm_type": "way",
        "name": "Hôtel La Pagerie",
        "tourism": "hotel",
        "website": "https://www.hotel-lapagerie.com/"
      }
    },
    {
      "type": "Feature",
      "geometry": {
        "type": "Point",
        "coordinates": [
          -61.0561548,
          14.550168
        ]
      },
      "properties": {
        "id": 335131443,
        "osm_type": "way",
        "name": "Auberge de l'Anse Mitan",
        "tourism": "hotel"
      }
    },
    {
      "type": "Feature",
      "geometry": {
        "type": "Point",
        "coordinates": [
          -61.0549743,
          14.5494482
        ]
      },
      "properties": {
        "id": 335131549,
        "osm_type": "way",
        "name": "Ti Chato Mitan",
        "tourism": "chalet",
        "phone": "+596 596 78 99 03;+596 696 22 07 61"
      }
    },
    {
      "type": "Feature",
      "geometry": {
        "type": "Point",
        "coordinates": [
          -61.0527692,
          14.5508741
        ]
      },
      "properties": {
        "id": 335131583,
        "osm_type": "way",
        "name": "Hôtel Bambou",
        "tourism": "hotel"
      }
    },
    {
      "type": "Feature",
      "geometry": {
        "type": "Point",
        "coordinates": [
          -61.0507133,
          14.546947
        ]
      },
      "properties": {
        "id": 335131690,
        "osm_type": "way",
        "name": "Suite Villa",
        "tourism": "hotel"
      }
    },
    {
      "type": "Feature",
      "geometry": {
        "type": "Point",
        "coordinates": [
          -61.0769896,
          14.4765015
        ]
      },
      "properties": {
        "id": 398031492,
        "osm_type": "way",
        "name": "Résidence La Clément",
        "tourism": "hotel",
        "phone": "+596 696 21 25 96"
      }
    },
    {
      "type": "Feature",
      "geometry": {
        "type": "Point",
        "coordinates": [
          -61.1449456,
          14.8007479
        ]
      },
      "properties": {
        "id": 399284281,
        "osm_type": "way",
        "name": "L'Auberge de la Montagne Pelée",
        "tourism": "hotel",
        "phone": "+596 596 52 32 09",
        "website": "https://www.aubergedelamontagnepelee.com/"
      }
    },
    {
      "type": "Feature",
      "geometry": {
        "type": "Point",
        "coordinates": [
          -61.1790943,
          14.6969581
        ]
      },
      "properties": {
        "id": 399491517,
        "osm_type": "way",
        "name": "Hôtel club Marouba",
        "tourism": "hotel"
      }
    },
    {
      "type": "Feature",
      "geometry": {
        "type": "Point",
        "coordinates": [
          -60.9294698,
          14.4672422
        ]
      },
      "properties": {
        "id": 399747761,
        "osm_type": "way",
        "name": "Les Creolines",
        "tourism": "hotel"
      }
    },
    {
      "type": "Feature",
      "geometry": {
        "type": "Point",
        "coordinates": [
          -61.0529844,
          14.5569537
        ]
      },
      "properties": {
        "id": 404801905,
        "osm_type": "way",
        "name": "Le Bakoua",
        "tourism": "hotel"
      }
    },
    {
      "type": "Feature",
      "geometry": {
        "type": "Point",
        "coordinates": [
          -61.0731415,
          14.6022142
        ]
      },
      "properties": {
        "id": 436569260,
        "osm_type": "way",
        "name": "Simon Hôtel",
        "tourism": "hotel"
      }
    },
    {
      "type": "Feature",
      "geometry": {
        "type": "Point",
        "coordinates": [
          -61.0496349,
          14.558728
        ]
      },
      "properties": {
        "id": 536160462,
        "osm_type": "way",
        "name": "Hôtel Carayou",
        "tourism": "hotel"
      }
    },
    {
      "type": "Feature",
      "geometry": {
        "type": "Point",
        "coordinates": [
          -61.0661675,
          14.5398459
        ]
      },
      "properties": {
        "id": 656541018,
        "osm_type": "way",
        "name": "Les Bungalows de l'Anse",
        "tourism": "chalet"
      }
    },
    {
      "type": "Feature",
      "geometry": {
        "type": "Point",
        "coordinates": [
          -61.0537917,
          14.548283
        ]
      },
      "properties": {
        "id": 673202625,
        "osm_type": "way",
        "name": "Karibéa Résidence Camélia",
        "tourism": "chalet"
      }
    },
    {
      "type": "Feature",
      "geometry": {
        "type": "Point",
        "coordinates": [
          -61.1801212,
          14.8740394
        ]
      },
      "properties": {
        "id": 783761136,
        "osm_type": "way",
        "name": "Tante Arlette",
        "tourism": "hotel"
      }
    },
    {
      "type": "Feature",
      "geometry": {
        "type": "Point",
        "coordinates": [
          -61.1002125,
          14.6142435
        ]
      },
      "properties": {
        "id": 951194434,
        "osm_type": "way",
        "name": "Hôtel Pelican",
        "tourism": "hotel",
        "check_date": "2025-05-05"
      }
    },
    {
      "type": "Feature",
      "geometry": {
        "type": "Point",
        "coordinates": [
          -61.0796099,
          14.6039776
        ]
      },
      "properties": {
        "id": 1098062421,
        "osm_type": "way",
        "name": "Karibéa Squash Hôtel",
        "tourism": "hotel"
      }
    },
    {
      "type": "Feature",
      "geometry": {
        "type": "Point",
        "coordinates": [
          -61.068269,
          14.5387087
        ]
      },
      "properties": {
        "id": 1099413396,
        "osm_type": "way",
        "name": "Le Panoramic Hôtel",
        "tourism": "hotel",
        "phone": "+596 596 68 78 48",
        "website": "http://www.lepanoramic.fr/"
      }
    },
    {
      "type": "Feature",
      "geometry": {
        "type": "Point",
        "coordinates": [
          -61.2191731,
          14.8410298
        ]
      },
      "properties": {
        "id": 1103610489,
        "osm_type": "way",
        "name": "Habitation Anse Couleuvre",
        "tourism": "hotel"
      }
    },
    {
      "type": "Feature",
      "geometry": {
        "type": "Point",
        "coordinates": [
          -60.8317409,
          14.4409979
        ]
      },
      "properties": {
        "id": 1213668217,
        "osm_type": "way",
        "name": "L'Oeil dans le Bleu",
        "tourism": "hotel"
      }
    },
    {
      "type": "Feature",
      "geometry": {
        "type": "Point",
        "coordinates": [
          -61.0733112,
          14.4876804
        ]
      },
      "properties": {
        "id": 1267347500,
        "osm_type": "way",
        "name": "L´Odyssée Des Anses",
        "tourism": "chalet"
      }
    },
    {
      "type": "Feature",
      "geometry": {
        "type": "Point",
        "coordinates": [
          -60.9100143,
          14.7608595
        ]
      },
      "properties": {
        "id": 1298837711,
        "osm_type": "way",
        "name": "French Coco",
        "tourism": "hotel",
        "phone": "+59659638101",
        "website": "https://www.hotelfrenchcoco.com/"
      }
    },
    {
      "type": "Feature",
      "geometry": {
        "type": "Point",
        "coordinates": [
          -60.8724604,
          14.6053601
        ]
      },
      "properties": {
        "id": 1450686927,
        "osm_type": "way",
        "name": "Hôtel la Frégate Bleu",
        "tourism": "hotel"
      }
    },
    {
      "type": "Feature",
      "geometry": {
        "type": "Point",
        "coordinates": [
          -61.0432582,
          14.6024747
        ]
      },
      "properties": {
        "id": 6479798,
        "osm_type": "relation",
        "name": "Centre International de Séjour Martinique",
        "tourism": "hotel"
      }
    }
  ]
}