{
  "type": "FeatureCollection",
  "features": [
    {
      "type": "Feature",
      "geometry": {
        "type": "Point",
        "coordinates": [
          21.4153033,
          48.1215497
        ]
      },
      "properties": {
        "id": 26861291,
        "osm_type": "node",
        "name": "Tisza",
        "tourism": "camp_site"
      }
    },
    {
      "type": "Feature",
      "geometry": {
        "type": "Point",
        "coordinates": [
          21.4166183,
          48.1180466
        ]
      },
      "properties": {
        "id": 260809049,
        "osm_type": "node",
        "name": "Spori Sport",
        "tourism": "camp_site"
      }
    },
    {
      "type": "Feature",
      "geometry": {
        "type": "Point",
        "coordinates": [
          22.7462723,
          48.0516466
        ]
      },
      "properties": {
        "id": 1164723760,
        "osm_type": "node",
        "name": "Ombódi Vendégház",
        "tourism": "motel"
      }
    },
    {
      "type": "Feature",
      "geometry": {
        "type": "Point",
        "coordinates": [
          22.4189693,
          48.0162472
        ]
      },
      "properties": {
        "id": 1724033850,
        "osm_type": "node",
        "name": "Liget Tábor",
        "tourism": "hostel"
      }
    },
    {
      "type": "Feature",
      "geometry": {
        "type": "Point",
        "coordinates": [
          22.3205419,
          47.954213
        ]
      },
      "properties": {
        "id": 1750847915,
        "osm_type": "node",
        "name": "Európa Panzió",
        "tourism": "hotel"
      }
    },
    {
      "type": "Feature",
      "geometry": {
        "type": "Point",
        "coordinates": [
          21.7174229,
          47.9560375
        ]
      },
      "properties": {
        "id": 1946140345,
        "osm_type": "node",
        "name": "Korona Hotel",
        "tourism": "hotel",
        "phone": "+36 42 409 300",
        "website": "https://www.korona-hotel.hu/"
      }
    },
    {
      "type": "Feature",
      "geometry": {
        "type": "Point",
        "coordinates": [
          21.7149415,
          47.9719163
        ]
      },
      "properties": {
        "id": 2059100851,
        "osm_type": "node",
        "name": "Bessenyei Hotel",
        "tourism": "hotel"
      }
    },
    {
      "type": "Feature",
      "geometry": {
        "type": "Point",
        "coordinates": [
          22.0780171,
          48.2261926
        ]
      },
      "properties": {
        "id": 2262996485,
        "osm_type": "node",
        "name": "Bástya Panzió",
        "tourism": "hotel"
      }
    },
    {
      "type": "Feature",
      "geometry": {
        "type": "Point",
        "coordinates": [
          22.6548003,
          48.0528118
        ]
      },
      "properties": {
        "id": 2295895105,
        "osm_type": "node",
        "name": "Vízicsiga Kemping",
        "tourism": "camp_site",
        "tents": "yes",
        "phone": "+36 20 416 4142",
        "website": "http://www.vizicsiga.hu"
      }
    },
    {
      "type": "Feature",
      "geometry": {
        "type": "Point",
        "coordinates": [
          22.0881559,
          48.2077057
        ]
      },
      "properties": {
        "id": 2777470125,
        "osm_type": "node",
        "name": "Parish Bull",
        "tourism": "hotel",
        "check_date": "2024-04-13"
      }
    },
    {
      "type": "Feature",
      "geometry": {
        "type": "Point",
        "coordinates": [
          21.418372,
          48.1235685
        ]
      },
      "properties": {
        "id": 2860017359,
        "osm_type": "node",
        "name": "Tiszavirág Camping és Vendégház",
        "tourism": "camp_site",
        "tents": "yes",
        "website": "https://tiszavirag-camping-2.webnode.hu/"
      }
    },
    {
      "type": "Feature",
      "geometry": {
        "type": "Point",
        "coordinates": [
          21.3579333,
          47.9566691
        ]
      },
      "properties": {
        "id": 2945443436,
        "osm_type": "node",
        "name": "Amazon panzió",
        "tourism": "hotel"
      }
    },
    {
      "type": "Feature",
      "geometry": {
        "type": "Point",
        "coordinates": [
          22.5673559,
          47.9219223
        ]
      },
      "properties": {
        "id": 3007147372,
        "osm_type": "node",
        "name": "Ary vendégház",
        "tourism": "guest_house"
      }
    },
    {
      "type": "Feature",
      "geometry": {
        "type": "Point",
        "coordinates": [
          21.7137799,
          48.0038794
        ]
      },
      "properties": {
        "id": 3244881617,
        "osm_type": "node",
        "name": "Siesta panzió",
        "tourism": "motel"
      }
    },
    {
      "type": "Feature",
      "geometry": {
        "type": "Point",
        "coordinates": [
          22.1299446,
          47.8354984
        ]
      },
      "properties": {
        "id": 3265844831,
        "osm_type": "node",
        "name": "Napsugár panzió",
        "tourism": "motel"
      }
    },
    {
      "type": "Feature",
      "geometry": {
        "type": "Point",
        "coordinates": [
          22.1333371,
          47.8323568
        ]
      },
      "properties": {
        "id": 3273558205,
        "osm_type": "node",
        "name": "Bástya Wellness Hotel",
        "tourism": "hotel"
      }
    },
    {
      "type": "Feature",
      "geometry": {
        "type": "Point",
        "coordinates": [
          22.1352551,
          47.8326263
        ]
      },
      "properties": {
        "id": 3273558206,
        "osm_type": "node",
        "name": "Pálma Wellness Hotel",
        "tourism": "hotel"
      }
    },
    {
      "type": "Feature",
      "geometry": {
        "type": "Point",
        "coordinates": [
          22.312646,
          48.13101
        ]
      },
      "properties": {
        "id": 3465100634,
        "osm_type": "node",
        "name": "Babus Jolán Középiskolai Kollégium",
        "tourism": "guest_house"
      }
    },
    {
      "type": "Feature",
      "geometry": {
        "type": "Point",
        "coordinates": [
          22.347017,
          48.119583
        ]
      },
      "properties": {
        "id": 3465100663,
        "osm_type": "node",
        "name": "Diófa Kemping és Étterem",
        "tourism": "camp_site",
        "phone": "+36 45 712 298;+36 70 335 2757",
        "website": "http://www.namenynet.hu/~diofakemping/index1.html"
      }
    },
    {
      "type": "Feature",
      "geometry": {
        "type": "Point",
        "coordinates": [
          22.337819,
          48.11909
        ]
      },
      "properties": {
        "id": 3465100673,
        "osm_type": "node",
        "name": "Garabonciás kemping",
        "tourism": "camp_site"
      }
    },
    {
      "type": "Feature",
      "geometry": {
        "type": "Point",
        "coordinates": [
          22.524419,
          48.199403
        ]
      },
      "properties": {
        "id": 3465100682,
        "osm_type": "node",
        "name": "Hét Csillag Üdülőközpont",
        "tourism": "guest_house"
      }
    },
    {
      "type": "Feature",
      "geometry": {
        "type": "Point",
        "coordinates": [
          22.5283025,
          48.1038453
        ]
      },
      "properties": {
        "id": 3465100692,
        "osm_type": "node",
        "name": "Kuruc panzió",
        "tourism": "guest_house",
        "phone": "+36 45 488 121"
      }
    },
    {
      "type": "Feature",
      "geometry": {
        "type": "Point",
        "coordinates": [
          22.526317,
          48.101783
        ]
      },
      "properties": {
        "id": 3465101796,
        "osm_type": "node",
        "name": "Malom Panzió",
        "tourism": "guest_house",
        "contact:phone": "+36 45 488 122;+36 45 488 224"
      }
    },
    {
      "type": "Feature",
      "geometry": {
        "type": "Point",
        "coordinates": [
          22.3420175,
          48.1255818
        ]
      },
      "properties": {
        "id": 3465101798,
        "osm_type": "node",
        "name": "Meggyesi Panzió",
        "tourism": "guest_house"
      }
    },
    {
      "type": "Feature",
      "geometry": {
        "type": "Point",
        "coordinates": [
          22.444953,
          48.201024
        ]
      },
      "properties": {
        "id": 3465101801,
        "osm_type": "node",
        "name": "Mosolygós Vendégház Gelénes",
        "tourism": "guest_house",
        "phone": "+36 20 452 5015",
        "website": "http://www.mosolygosvendeghaz.hu"
      }
    },
    {
      "type": "Feature",
      "geometry": {
        "type": "Point",
        "coordinates": [
          22.525002,
          48.1175
        ]
      },
      "properties": {
        "id": 3465101805,
        "osm_type": "node",
        "name": "Nimród Lovas Panzió",
        "tourism": "guest_house"
      }
    },
    {
      "type": "Feature",
      "geometry": {
        "type": "Point",
        "coordinates": [
          22.461186,
          48.156123
        ]
      },
      "properties": {
        "id": 3465101835,
        "osm_type": "node",
        "name": "Székely Vendégház Csaroda",
        "tourism": "guest_house",
        "phone": "+36 30 261 9497",
        "website": "http://www.szekelyvendeghaz.info/"
      }
    },
    {
      "type": "Feature",
      "geometry": {
        "type": "Point",
        "coordinates": [
          22.31742,
          48.13118
        ]
      },
      "properties": {
        "id": 3465101862,
        "osm_type": "node",
        "name": "Turistaszálló",
        "tourism": "guest_house"
      }
    },
    {
      "type": "Feature",
      "geometry": {
        "type": "Point",
        "coordinates": [
          22.34293,
          48.123658
        ]
      },
      "properties": {
        "id": 3465101869,
        "osm_type": "node",
        "name": "Vendégház",
        "tourism": "guest_house"
      }
    },
    {
      "type": "Feature",
      "geometry": {
        "type": "Point",
        "coordinates": [
          22.31445,
          48.119517
        ]
      },
      "properties": {
        "id": 3465101883,
        "osm_type": "node",
        "name": "Zölddió vendégház",
        "tourism": "guest_house",
        "phone": "+36 30 525 1548",
        "website": "https://zolddio.hu/haz.html"
      }
    },
    {
      "type": "Feature",
      "geometry": {
        "type": "Point",
        "coordinates": [
          22.824505,
          48.106946
        ]
      },
      "properties": {
        "id": 3465156319,
        "osm_type": "node",
        "name": "Albatrosz Kemping",
        "tourism": "camp_site",
        "phone": "+36 44 310 822;+36 30 976 9981",
        "website": "http://www.csiposztura.hu"
      }
    },
    {
      "type": "Feature",
      "geometry": {
        "type": "Point",
        "coordinates": [
          22.825329,
          48.105701
        ]
      },
      "properties": {
        "id": 3465156333,
        "osm_type": "node",
        "name": "Dióliget Kemping",
        "tourism": "camp_site",
        "phone": "+36 44 378 282;+36 30 945 0194",
        "website": "http://www.gentlementours.hu"
      }
    },
    {
      "type": "Feature",
      "geometry": {
        "type": "Point",
        "coordinates": [
          22.644833,
          48.04875
        ]
      },
      "properties": {
        "id": 3465156335,
        "osm_type": "node",
        "name": "Erdőszéli vendégház",
        "tourism": "guest_house"
      }
    },
    {
      "type": "Feature",
      "geometry": {
        "type": "Point",
        "coordinates": [
          22.617825,
          47.900823
        ]
      },
      "properties": {
        "id": 3465156348,
        "osm_type": "node",
        "name": "Hermánszegi vendégház",
        "tourism": "guest_house"
      }
    },
    {
      "type": "Feature",
      "geometry": {
        "type": "Point",
        "coordinates": [
          22.51284,
          48.064568
        ]
      },
      "properties": {
        "id": 3465156351,
        "osm_type": "node",
        "name": "Ház az élő vízhez",
        "tourism": "guest_house"
      }
    },
    {
      "type": "Feature",
      "geometry": {
        "type": "Point",
        "coordinates": [
          22.640373,
          48.053767
        ]
      },
      "properties": {
        "id": 3465156365,
        "osm_type": "node",
        "name": "Király vendégház",
        "tourism": "guest_house"
      }
    },
    {
      "type": "Feature",
      "geometry": {
        "type": "Point",
        "coordinates": [
          22.62235,
          48.096333
        ]
      },
      "properties": {
        "id": 3465156715,
        "osm_type": "node",
        "name": "Tiszapart ifjúsági szálló és kemping",
        "tourism": "camp_site"
      }
    },
    {
      "type": "Feature",
      "geometry": {
        "type": "Point",
        "coordinates": [
          22.678917,
          48.091583
        ]
      },
      "properties": {
        "id": 3465156726,
        "osm_type": "node",
        "name": "Túr-Bukó Camping",
        "tourism": "camp_site"
      }
    },
    {
      "type": "Feature",
      "geometry": {
        "type": "Point",
        "coordinates": [
          22.8521864,
          47.9653001
        ]
      },
      "properties": {
        "id": 3465156727,
        "osm_type": "node",
        "name": "Túr-Túra Kemping és Ifjúsági Tábor",
        "tourism": "camp_site",
        "contact:website": "https://turturaszallas.hu/"
      }
    },
    {
      "type": "Feature",
      "geometry": {
        "type": "Point",
        "coordinates": [
          22.642917,
          48.049983
        ]
      },
      "properties": {
        "id": 3465156728,
        "osm_type": "node",
        "name": "Túr-Party Kemping",
        "tourism": "camp_site"
      }
    },
    {
      "type": "Feature",
      "geometry": {
        "type": "Point",
        "coordinates": [
          22.645367,
          48.049417
        ]
      },
      "properties": {
        "id": 3465156729,
        "osm_type": "node",
        "name": "Túr-Party vendégház",
        "tourism": "guest_house"
      }
    },
    {
      "type": "Feature",
      "geometry": {
        "type": "Point",
        "coordinates": [
          22.877159,
          47.958275
        ]
      },
      "properties": {
        "id": 3465156735,
        "osm_type": "node",
        "name": "Vadvízország tábor",
        "tourism": "camp_site"
      }
    },
    {
      "type": "Feature",
      "geometry": {
        "type": "Point",
        "coordinates": [
          22.640933,
          48.049133
        ]
      },
      "properties": {
        "id": 3465156958,
        "osm_type": "node",
        "name": "Öreg Túr vendégház",
        "tourism": "guest_house"
      }
    },
    {
      "type": "Feature",
      "geometry": {
        "type": "Point",
        "coordinates": [
          22.061867,
          47.776133
        ]
      },
      "properties": {
        "id": 3471734582,
        "osm_type": "node",
        "name": "Bogát Hubertus vadászház",
        "tourism": "guest_house"
      }
    },
    {
      "type": "Feature",
      "geometry": {
        "type": "Point",
        "coordinates": [
          22.024898,
          47.867002
        ]
      },
      "properties": {
        "id": 3471735297,
        "osm_type": "node",
        "name": "Hungaricum Panzió",
        "tourism": "guest_house"
      }
    },
    {
      "type": "Feature",
      "geometry": {
        "type": "Point",
        "coordinates": [
          22.024217,
          47.875367
        ]
      },
      "properties": {
        "id": 3471735328,
        "osm_type": "node",
        "name": "Pócsi Mária vendégház",
        "tourism": "guest_house",
        "phone": "+36 20 590 4461",
        "check_date": "2025-08-08"
      }
    },
    {
      "type": "Feature",
      "geometry": {
        "type": "Point",
        "coordinates": [
          22.109553,
          47.848856
        ]
      },
      "properties": {
        "id": 3471735407,
        "osm_type": "node",
        "tourism": "guest_house",
        "contact:phone": "+36 70 338 5456"
      }
    },
    {
      "type": "Feature",
      "geometry": {
        "type": "Point",
        "coordinates": [
          22.270759,
          47.758586
        ]
      },
      "properties": {
        "id": 3471735444,
        "osm_type": "node",
        "name": "Ökocentrum",
        "tourism": "guest_house"
      }
    },
    {
      "type": "Feature",
      "geometry": {
        "type": "Point",
        "coordinates": [
          22.167849,
          48.264628
        ]
      },
      "properties": {
        "id": 3471770297,
        "osm_type": "node",
        "name": "Csontos vendégház",
        "tourism": "guest_house",
        "phone": "+36 20 807 4794"
      }
    },
    {
      "type": "Feature",
      "geometry": {
        "type": "Point",
        "coordinates": [
          21.904318,
          48.24252
        ]
      },
      "properties": {
        "id": 3471770326,
        "osm_type": "node",
        "name": "Liget camping",
        "tourism": "camp_site"
      }
    },
    {
      "type": "Feature",
      "geometry": {
        "type": "Point",
        "coordinates": [
          21.900007,
          48.243808
        ]
      },
      "properties": {
        "id": 3471770358,
        "osm_type": "node",
        "name": "Turistaszálló",
        "tourism": "guest_house"
      }
    },
    {
      "type": "Feature",
      "geometry": {
        "type": "Point",
        "coordinates": [
          22.31015,
          47.94305
        ]
      },
      "properties": {
        "id": 3484823524,
        "osm_type": "node",
        "name": "Hubertusz Panzió",
        "tourism": "guest_house"
      }
    },
    {
      "type": "Feature",
      "geometry": {
        "type": "Point",
        "coordinates": [
          22.16736,
          47.997228
        ]
      },
      "properties": {
        "id": 3484823576,
        "osm_type": "node",
        "name": "Vajai Kiskastély és Alkotóház",
        "tourism": "guest_house",
        "phone": "+36 30 579 6622"
      }
    },
    {
      "type": "Feature",
      "geometry": {
        "type": "Point",
        "coordinates": [
          21.940232,
          47.957993
        ]
      },
      "properties": {
        "id": 3485121895,
        "osm_type": "node",
        "name": "Gála Panzió (Napközben zárva!)",
        "tourism": "guest_house"
      }
    },
    {
      "type": "Feature",
      "geometry": {
        "type": "Point",
        "coordinates": [
          21.668417,
          47.822583
        ]
      },
      "properties": {
        "id": 3485121903,
        "osm_type": "node",
        "name": "Kutatóintézet szállása",
        "tourism": "guest_house",
        "phone": "+36 30 978 9723",
        "website": "http://www.ujfehertokutato.hu"
      }
    },
    {
      "type": "Feature",
      "geometry": {
        "type": "Point",
        "coordinates": [
          21.877929,
          48.003013
        ]
      },
      "properties": {
        "id": 3485121905,
        "osm_type": "node",
        "name": "Kúria Vendégfogadó",
        "tourism": "guest_house"
      }
    },
    {
      "type": "Feature",
      "geometry": {
        "type": "Point",
        "coordinates": [
          21.419435,
          48.114604
        ]
      },
      "properties": {
        "id": 3485121935,
        "osm_type": "node",
        "name": "Tutajos kemping",
        "tourism": "camp_site",
        "opening_hours": "May-Aug: Mo-Th 08:00-01:00; May-Aug: Fr,Sa 08:00-04:00; May-Aug: Su 08:00-01:00",
        "tents": "yes",
        "website": "https://tutajosbeach.hu/"
      }
    },
    {
      "type": "Feature",
      "geometry": {
        "type": "Point",
        "coordinates": [
          21.4165,
          48.122667
        ]
      },
      "properties": {
        "id": 3485121941,
        "osm_type": "node",
        "name": "Hotel Csillag Tokaj",
        "tourism": "hotel",
        "website": "https://hotelcsillagtokaj.hu/"
      }
    },
    {
      "type": "Feature",
      "geometry": {
        "type": "Point",
        "coordinates": [
          21.6936764,
          48.0231157
        ]
      },
      "properties": {
        "id": 3488372774,
        "osm_type": "node",
        "name": "Buczkó Atanáz Közösségi- és Zarándokház",
        "tourism": "guest_house",
        "phone": "+36 30 776 4492",
        "website": "https://zarandokhazak.dnyem.hu/nyirszolos-rolunk/"
      }
    },
    {
      "type": "Feature",
      "geometry": {
        "type": "Point",
        "coordinates": [
          21.593967,
          48.161517
        ]
      },
      "properties": {
        "id": 3489654418,
        "osm_type": "node",
        "name": "István Király vendégház",
        "tourism": "guest_house",
        "contact:phone": "+36 42 206 047;+36 20 334 6933"
      }
    },
    {
      "type": "Feature",
      "geometry": {
        "type": "Point",
        "coordinates": [
          21.169823,
          48.013067
        ]
      },
      "properties": {
        "id": 3490651616,
        "osm_type": "node",
        "name": "Horgásztábor",
        "tourism": "camp_site",
        "phone": "+36 42 722 921"
      }
    },
    {
      "type": "Feature",
      "geometry": {
        "type": "Point",
        "coordinates": [
          22.117192,
          48.316309
        ]
      },
      "properties": {
        "id": 3490721348,
        "osm_type": "node",
        "name": "Motel",
        "tourism": "guest_house"
      }
    },
    {
      "type": "Feature",
      "geometry": {
        "type": "Point",
        "coordinates": [
          22.244385,
          48.316117
        ]
      },
      "properties": {
        "id": 3490721368,
        "osm_type": "node",
        "tourism": "camp_site"
      }
    },
    {
      "type": "Feature",
      "geometry": {
        "type": "Point",
        "coordinates": [
          21.9522188,
          47.9748694
        ]
      },
      "properties": {
        "id": 3490733199,
        "osm_type": "node",
        "name": "Vándor Üdülőház és Kemping",
        "tourism": "camp_site"
      }
    },
    {
      "type": "Feature",
      "geometry": {
        "type": "Point",
        "coordinates": [
          22.6203276,
          47.8672038
        ]
      },
      "properties": {
        "id": 3490733749,
        "osm_type": "node",
        "name": "Pátyodi fogadó",
        "tourism": "guest_house"
      }
    },
    {
      "type": "Feature",
      "geometry": {
        "type": "Point",
        "coordinates": [
          22.642933,
          48.047633
        ]
      },
      "properties": {
        "id": 3873394957,
        "osm_type": "node",
        "name": "Vízimalom Kemping és Panzió",
        "tourism": "apartment"
      }
    },
    {
      "type": "Feature",
      "geometry": {
        "type": "Point",
        "coordinates": [
          22.642352,
          48.047288
        ]
      },
      "properties": {
        "id": 3873394958,
        "osm_type": "node",
        "name": "Vízimalom Kemping",
        "tourism": "camp_site",
        "phone": "+36 44 434 075;+36 30 289 9808",
        "website": "https://www.turvizimalom.hu/"
      }
    },
    {
      "type": "Feature",
      "geometry": {
        "type": "Point",
        "coordinates": [
          21.3809513,
          48.0212418
        ]
      },
      "properties": {
        "id": 3902022067,
        "osm_type": "node",
        "name": "Tiszapart Panzió, Ifjúsági Centrum és Kemping",
        "tourism": "guest_house"
      }
    },
    {
      "type": "Feature",
      "geometry": {
        "type": "Point",
        "coordinates": [
          21.3690208,
          48.0187014
        ]
      },
      "properties": {
        "id": 3902024847,
        "osm_type": "node",
        "name": "Neva Vendégház",
        "tourism": "guest_house"
      }
    },
    {
      "type": "Feature",
      "geometry": {
        "type": "Point",
        "coordinates": [
          21.3128881,
          48.0236431
        ]
      },
      "properties": {
        "id": 3902056973,
        "osm_type": "node",
        "name": "Sportszálló és Sportcentrum",
        "tourism": "guest_house"
      }
    },
    {
      "type": "Feature",
      "geometry": {
        "type": "Point",
        "coordinates": [
          21.7374457,
          48.0077791
        ]
      },
      "properties": {
        "id": 4000574403,
        "osm_type": "node",
        "name": "Gabriel Apartman",
        "tourism": "motel"
      }
    },
    {
      "type": "Feature",
      "geometry": {
        "type": "Point",
        "coordinates": [
          21.7334732,
          48.009123
        ]
      },
      "properties": {
        "id": 4000839819,
        "osm_type": "node",
        "name": "Colorado Apartman",
        "tourism": "guest_house",
        "contact:phone": "+36 42 783 682;+36 20 511 1442",
        "contact:website": "https://www.coloradoapartman.hu/"
      }
    },
    {
      "type": "Feature",
      "geometry": {
        "type": "Point",
        "coordinates": [
          22.3431021,
          48.1233873
        ]
      },
      "properties": {
        "id": 4100001900,
        "osm_type": "node",
        "name": "Turiház",
        "tourism": "guest_house",
        "website": "http://turihaz.hu"
      }
    },
    {
      "type": "Feature",
      "geometry": {
        "type": "Point",
        "coordinates": [
          22.1703004,
          48.4074326
        ]
      },
      "properties": {
        "id": 4107802770,
        "osm_type": "node",
        "name": "Motel",
        "tourism": "hotel",
        "opening_hours": "24/7"
      }
    },
    {
      "type": "Feature",
      "geometry": {
        "type": "Point",
        "coordinates": [
          21.717628,
          47.9762822
        ]
      },
      "properties": {
        "id": 4259967744,
        "osm_type": "node",
        "name": "Hotel Continent",
        "tourism": "hotel",
        "phone": "+36 42 501 500",
        "website": "http://www.hotelcontinent.hu/"
      }
    },
    {
      "type": "Feature",
      "geometry": {
        "type": "Point",
        "coordinates": [
          21.9187453,
          48.2363099
        ]
      },
      "properties": {
        "id": 4407845189,
        "osm_type": "node",
        "name": "Tiszapart Strand Motel",
        "tourism": "motel"
      }
    },
    {
      "type": "Feature",
      "geometry": {
        "type": "Point",
        "coordinates": [
          22.3023821,
          47.9529486
        ]
      },
      "properties": {
        "id": 4513626193,
        "osm_type": "node",
        "name": "Nefelejcs Panzió",
        "tourism": "guest_house",
        "check_date": "2025-09-28"
      }
    },
    {
      "type": "Feature",
      "geometry": {
        "type": "Point",
        "coordinates": [
          22.1115519,
          48.1358539
        ]
      },
      "properties": {
        "id": 4535065583,
        "osm_type": "node",
        "name": "Millennium Önkormányzati Vendégház",
        "tourism": "guest_house"
      }
    },
    {
      "type": "Feature",
      "geometry": {
        "type": "Point",
        "coordinates": [
          22.3430249,
          48.1258943
        ]
      },
      "properties": {
        "id": 4580073182,
        "osm_type": "node",
        "name": "Kósa Vendégház",
        "tourism": "guest_house"
      }
    },
    {
      "type": "Feature",
      "geometry": {
        "type": "Point",
        "coordinates": [
          22.318514,
          48.1315508
        ]
      },
      "properties": {
        "id": 4623117889,
        "osm_type": "node",
        "name": "Hunor Hotel",
        "tourism": "hotel"
      }
    },
    {
      "type": "Feature",
      "geometry": {
        "type": "Point",
        "coordinates": [
          22.3448126,
          48.1257115
        ]
      },
      "properties": {
        "id": 4655318993,
        "osm_type": "node",
        "tourism": "chalet"
      }
    },
    {
      "type": "Feature",
      "geometry": {
        "type": "Point",
        "coordinates": [
          22.3444721,
          48.1219842
        ]
      },
      "properties": {
        "id": 4655318994,
        "osm_type": "node",
        "tourism": "chalet"
      }
    },
    {
      "type": "Feature",
      "geometry": {
        "type": "Point",
        "coordinates": [
          22.3471984,
          48.1194283
        ]
      },
      "properties": {
        "id": 4655326390,
        "osm_type": "node",
        "name": "Csapó Vendégház",
        "tourism": "chalet"
      }
    },
    {
      "type": "Feature",
      "geometry": {
        "type": "Point",
        "coordinates": [
          22.5162649,
          48.0641015
        ]
      },
      "properties": {
        "id": 4657172789,
        "osm_type": "node",
        "name": "Katica kemping",
        "tourism": "camp_site"
      }
    },
    {
      "type": "Feature",
      "geometry": {
        "type": "Point",
        "coordinates": [
          21.721127,
          48.0058415
        ]
      },
      "properties": {
        "id": 4833249099,
        "osm_type": "node",
        "name": "Dolce Vita Apartman",
        "tourism": "chalet",
        "website": "https://szallas.hu/dolce-vita-apartman-nyiregyhaza"
      }
    },
    {
      "type": "Feature",
      "geometry": {
        "type": "Point",
        "coordinates": [
          22.518558,
          48.0629338
        ]
      },
      "properties": {
        "id": 4952401713,
        "osm_type": "node",
        "name": "Diós Kemping",
        "tourism": "camp_site"
      }
    },
    {
      "type": "Feature",
      "geometry": {
        "type": "Point",
        "coordinates": [
          21.7868408,
          47.9603493
        ]
      },
      "properties": {
        "id": 4983741850,
        "osm_type": "node",
        "name": "Pihenj meg Vendégház",
        "tourism": "hostel"
      }
    },
    {
      "type": "Feature",
      "geometry": {
        "type": "Point",
        "coordinates": [
          22.017402,
          48.2495368
        ]
      },
      "properties": {
        "id": 4983777121,
        "osm_type": "node",
        "name": "Rétközi Panzió",
        "tourism": "hotel"
      }
    },
    {
      "type": "Feature",
      "geometry": {
        "type": "Point",
        "coordinates": [
          21.7086681,
          47.9587401
        ]
      },
      "properties": {
        "id": 5558806925,
        "osm_type": "node",
        "name": "Senator Panzió",
        "tourism": "apartment",
        "phone": "+36 42 311 796",
        "website": "http://www.hotelsenator.freeweb.hu"
      }
    },
    {
      "type": "Feature",
      "geometry": {
        "type": "Point",
        "coordinates": [
          21.9606413,
          48.2564762
        ]
      },
      "properties": {
        "id": 5633352050,
        "osm_type": "node",
        "name": "Menyecskeház",
        "tourism": "guest_house",
        "phone": "+36 30 977 8558"
      }
    },
    {
      "type": "Feature",
      "geometry": {
        "type": "Point",
        "coordinates": [
          22.1294365,
          47.8418925
        ]
      },
      "properties": {
        "id": 5638925578,
        "osm_type": "node",
        "name": "Abszolút Hotel és Panzió",
        "tourism": "hotel",
        "contact:phone": "+36 30 241 0328"
      }
    },
    {
      "type": "Feature",
      "geometry": {
        "type": "Point",
        "coordinates": [
          22.070461,
          48.230959
        ]
      },
      "properties": {
        "id": 5898656578,
        "osm_type": "node",
        "name": "Várda Sport Hotel",
        "tourism": "hotel",
        "phone": "+36 45 556 447",
        "website": "http://www.vardasporthotel.hu/"
      }
    },
    {
      "type": "Feature",
      "geometry": {
        "type": "Point",
        "coordinates": [
          21.7336246,
          48.0100272
        ]
      },
      "properties": {
        "id": 6434187796,
        "osm_type": "node",
        "name": "Renáta Vendégház és Apartman",
        "tourism": "apartment",
        "phone": "+36 30 853 3968",
        "website": "http://www.renatavendeghaz.hu"
      }
    },
    {
      "type": "Feature",
      "geometry": {
        "type": "Point",
        "coordinates": [
          21.7336309,
          48.010098
        ]
      },
      "properties": {
        "id": 6434209836,
        "osm_type": "node",
        "name": "Renáta Apartman 2.",
        "tourism": "apartment",
        "phone": "+36 30 853 3968"
      }
    },
    {
      "type": "Feature",
      "geometry": {
        "type": "Point",
        "coordinates": [
          21.7091346,
          48.0045226
        ]
      },
      "properties": {
        "id": 6549848241,
        "osm_type": "node",
        "name": "Levendula Apartman",
        "tourism": "apartment"
      }
    },
    {
      "type": "Feature",
      "geometry": {
        "type": "Point",
        "coordinates": [
          22.1059138,
          48.3436179
        ]
      },
      "properties": {
        "id": 6724079900,
        "osm_type": "node",
        "tourism": "camp_site",
        "tents": "yes"
      }
    },
    {
      "type": "Feature",
      "geometry": {
        "type": "Point",
        "coordinates": [
          21.7225027,
          48.0076434
        ]
      },
      "properties": {
        "id": 6843779857,
        "osm_type": "node",
        "name": "Park Hotel Sóstó",
        "tourism": "hotel",
        "phone": "+36 42 200 045",
        "website": "https://www.sostoparkhotel.hu/"
      }
    },
    {
      "type": "Feature",
      "geometry": {
        "type": "Point",
        "coordinates": [
          21.657371,
          47.9571626
        ]
      },
      "properties": {
        "id": 6957024790,
        "osm_type": "node",
        "tourism": "hotel",
        "phone": "+36 20 508 4149",
        "website": "https://m36.hu/m36/"
      }
    },
    {
      "type": "Feature",
      "geometry": {
        "type": "Point",
        "coordinates": [
          22.4304524,
          48.1518094
        ]
      },
      "properties": {
        "id": 7850279585,
        "osm_type": "node",
        "name": "Baráth Vendégház és Vendégasztal",
        "tourism": "guest_house"
      }
    },
    {
      "type": "Feature",
      "geometry": {
        "type": "Point",
        "coordinates": [
          22.0193282,
          48.2749935
        ]
      },
      "properties": {
        "id": 7916671594,
        "osm_type": "node",
        "name": "Bucka-Lak",
        "tourism": "apartment"
      }
    },
    {
      "type": "Feature",
      "geometry": {
        "type": "Point",
        "coordinates": [
          21.735606,
          48.1900625
        ]
      },
      "properties": {
        "id": 7995589671,
        "osm_type": "node",
        "tourism": "camp_site"
      }
    },
    {
      "type": "Feature",
      "geometry": {
        "type": "Point",
        "coordinates": [
          22.1450034,
          48.2119404
        ]
      },
      "properties": {
        "id": 9035688557,
        "osm_type": "node",
        "name": "Kéksilva Vendégház",
        "tourism": "guest_house",
        "phone": "+36302280887"
      }
    },
    {
      "type": "Feature",
      "geometry": {
        "type": "Point",
        "coordinates": [
          22.180925,
          48.4012648
        ]
      },
      "properties": {
        "id": 9657731299,
        "osm_type": "node",
        "name": "Európa",
        "tourism": "hotel",
        "phone": "+36209245101",
        "check_date": "2025-11-11"
      }
    },
    {
      "type": "Feature",
      "geometry": {
        "type": "Point",
        "coordinates": [
          22.1249965,
          47.6170238
        ]
      },
      "properties": {
        "id": 9933594972,
        "osm_type": "node",
        "name": "Ligetalja Termál Hotel, Dózer-tó",
        "tourism": "hotel"
      }
    },
    {
      "type": "Feature",
      "geometry": {
        "type": "Point",
        "coordinates": [
          21.2280924,
          48.0241407
        ]
      },
      "properties": {
        "id": 9972909945,
        "osm_type": "node",
        "name": "Camping Tiszadada",
        "tourism": "camp_site",
        "website": "https://tiszadadakemping.hu"
      }
    },
    {
      "type": "Feature",
      "geometry": {
        "type": "Point",
        "coordinates": [
          22.4556899,
          47.9697211
        ]
      },
      "properties": {
        "id": 10015950438,
        "osm_type": "node",
        "name": "Szamosparti-vendégház",
        "tourism": "guest_house"
      }
    },
    {
      "type": "Feature",
      "geometry": {
        "type": "Point",
        "coordinates": [
          22.0673693,
          47.9861874
        ]
      },
      "properties": {
        "id": 10559751238,
        "osm_type": "node",
        "name": "Fenyves Konferencia-Wellness Hotel",
        "tourism": "hotel",
        "contact:phone": "+36 42 550011",
        "contact:website": "http://www.businesshotelfenyves.hu/"
      }
    },
    {
      "type": "Feature",
      "geometry": {
        "type": "Point",
        "coordinates": [
          21.7335808,
          47.934473
        ]
      },
      "properties": {
        "id": 10763421648,
        "osm_type": "node",
        "name": "ABI Diákszálló",
        "tourism": "hostel"
      }
    },
    {
      "type": "Feature",
      "geometry": {
        "type": "Point",
        "coordinates": [
          21.1084177,
          48.0223174
        ]
      },
      "properties": {
        "id": 11074120905,
        "osm_type": "node",
        "name": "Tiszavirág Camping",
        "tourism": "camp_site",
        "contact:website": "http://tiszaviragkemping.hu"
      }
    },
    {
      "type": "Feature",
      "geometry": {
        "type": "Point",
        "coordinates": [
          22.7595654,
          48.0333537
        ]
      },
      "properties": {
        "id": 11501067736,
        "osm_type": "node",
        "name": "Kis-Túr Kemping",
        "tourism": "camp_site",
        "tents": "yes",
        "contact:phone": "+36 30 244 3531"
      }
    },
    {
      "type": "Feature",
      "geometry": {
        "type": "Point",
        "coordinates": [
          22.2666339,
          47.9201804
        ]
      },
      "properties": {
        "id": 12543829625,
        "osm_type": "node",
        "tourism": "guest_house"
      }
    },
    {
      "type": "Feature",
      "geometry": {
        "type": "Point",
        "coordinates": [
          21.7131321,
          47.9722136
        ]
      },
      "properties": {
        "id": 13016196216,
        "osm_type": "node",
        "name": "KK HKK Nyíregyházi vitéz Mikecz Kálmán Honvéd Kollégiuma",
        "tourism": "hotel"
      }
    },
    {
      "type": "Feature",
      "geometry": {
        "type": "Point",
        "coordinates": [
          22.0206524,
          47.8784947
        ]
      },
      "properties": {
        "id": 13057615026,
        "osm_type": "node",
        "name": "Anna Vendégház",
        "tourism": "guest_house",
        "check_date": "2025-08-08"
      }
    },
    {
      "type": "Feature",
      "geometry": {
        "type": "Point",
        "coordinates": [
          21.7404683,
          47.9988742
        ]
      },
      "properties": {
        "id": 229316507,
        "osm_type": "way",
        "name": "Hotel Bibic",
        "tourism": "hotel",
        "phone": "+36 42 475 898",
        "website": "http://www.tuske-var.hu"
      }
    },
    {
      "type": "Feature",
      "geometry": {
        "type": "Point",
        "coordinates": [
          21.3480589,
          47.9610814
        ]
      },
      "properties": {
        "id": 290167252,
        "osm_type": "way",
        "name": "Tókert Vendéglő és Panzió",
        "tourism": "hotel"
      }
    },
    {
      "type": "Feature",
      "geometry": {
        "type": "Point",
        "coordinates": [
          21.7418024,
          47.9742691
        ]
      },
      "properties": {
        "id": 297694610,
        "osm_type": "way",
        "name": "Hotel Pagony",
        "tourism": "hotel",
        "phone": "+36 42 501 210",
        "website": "https://hotelpagony.hu/"
      }
    },
    {
      "type": "Feature",
      "geometry": {
        "type": "Point",
        "coordinates": [
          21.7165781,
          47.9598505
        ]
      },
      "properties": {
        "id": 297772561,
        "osm_type": "way",
        "name": "Centrál Hotel",
        "tourism": "hotel",
        "phone": "+36 42 411 330",
        "website": "http://www.centralhotel.hu"
      }
    },
    {
      "type": "Feature",
      "geometry": {
        "type": "Point",
        "coordinates": [
          21.7206514,
          47.9573826
        ]
      },
      "properties": {
        "id": 297850630,
        "osm_type": "way",
        "name": "Európa Hotel",
        "tourism": "hotel",
        "phone": "+36 42 508 670",
        "website": "https://europahotel.hu/"
      }
    },
    {
      "type": "Feature",
      "geometry": {
        "type": "Point",
        "coordinates": [
          21.7166859,
          47.977929
        ]
      },
      "properties": {
        "id": 298872728,
        "osm_type": "way",
        "name": "Victoria Garden Hotel",
        "tourism": "hotel",
        "phone": "+36 42 727 023",
        "website": "http://www.victoriagardenhotel.hu"
      }
    },
    {
      "type": "Feature",
      "geometry": {
        "type": "Point",
        "coordinates": [
          21.7234189,
          48.0043069
        ]
      },
      "properties": {
        "id": 299300658,
        "osm_type": "way",
        "name": "Hotel Aventinus",
        "tourism": "hotel",
        "phone": "+36 42 506 500",
        "website": "http://www.aventinushotel.hu"
      }
    },
    {
      "type": "Feature",
      "geometry": {
        "type": "Point",
        "coordinates": [
          21.7253599,
          48.0063225
        ]
      },
      "properties": {
        "id": 299305698,
        "osm_type": "way",
        "name": "Svájci Lak Panzió és Étterem",
        "tourism": "hotel",
        "phone": "+36 42 414 444",
        "website": "http://www.svajcilak.com/"
      }
    },
    {
      "type": "Feature",
      "geometry": {
        "type": "Point",
        "coordinates": [
          21.7633943,
          47.9515459
        ]
      },
      "properties": {
        "id": 300357228,
        "osm_type": "way",
        "name": "Kemence Csárda és Szálloda",
        "tourism": "hotel",
        "phone": "+36 42 450 414",
        "website": "https://www.kemencecsarda.hu/"
      }
    },
    {
      "type": "Feature",
      "geometry": {
        "type": "Point",
        "coordinates": [
          21.7267092,
          48.0022596
        ]
      },
      "properties": {
        "id": 301769703,
        "osm_type": "way",
        "name": "Liget Panzió",
        "tourism": "hotel",
        "website": "http://ligetpanzio.uw.hu/"
      }
    },
    {
      "type": "Feature",
      "geometry": {
        "type": "Point",
        "coordinates": [
          21.7273948,
          48.0014135
        ]
      },
      "properties": {
        "id": 301769859,
        "osm_type": "way",
        "name": "Hotel Dzsungel",
        "tourism": "hotel",
        "phone": "+36 42 479 710",
        "website": "https://www.hoteldzsungel.hu/"
      }
    },
    {
      "type": "Feature",
      "geometry": {
        "type": "Point",
        "coordinates": [
          21.7233769,
          47.9616216
        ]
      },
      "properties": {
        "id": 303534177,
        "osm_type": "way",
        "name": "Jocó Panzió",
        "tourism": "guest_house",
        "website": "https://jocopanzio.hu/"
      }
    },
    {
      "type": "Feature",
      "geometry": {
        "type": "Point",
        "coordinates": [
          21.7194061,
          47.980279
        ]
      },
      "properties": {
        "id": 307179276,
        "osm_type": "way",
        "name": "Hotel Ózoon",
        "tourism": "hotel",
        "phone": "+36 42 402 001",
        "website": "https://www.ozoonhotel.hu/"
      }
    },
    {
      "type": "Feature",
      "geometry": {
        "type": "Point",
        "coordinates": [
          21.7264826,
          47.9534757
        ]
      },
      "properties": {
        "id": 310099364,
        "osm_type": "way",
        "name": "Bocskai Panzió",
        "tourism": "hotel",
        "phone": "+36 42 400 074",
        "website": "http://www.bocskaipanzio.hu"
      }
    },
    {
      "type": "Feature",
      "geometry": {
        "type": "Point",
        "coordinates": [
          21.7245032,
          48.0079747
        ]
      },
      "properties": {
        "id": 318588293,
        "osm_type": "way",
        "name": "Hotel Sóstó",
        "tourism": "hotel",
        "phone": "+36 42 500 692",
        "website": "http://www.hotelsosto.hu"
      }
    },
    {
      "type": "Feature",
      "geometry": {
        "type": "Point",
        "coordinates": [
          22.1088751,
          47.8480394
        ]
      },
      "properties": {
        "id": 318769895,
        "osm_type": "way",
        "name": "Kemping",
        "tourism": "camp_site"
      }
    },
    {
      "type": "Feature",
      "geometry": {
        "type": "Point",
        "coordinates": [
          21.7228691,
          48.00676
        ]
      },
      "properties": {
        "id": 320702889,
        "osm_type": "way",
        "name": "Erzsébet Hotel",
        "tourism": "hotel",
        "phone": "+36 42 501 360",
        "website": "http://www.erzsebetprogram.hu/erzsebet-szalloda-nyiregyhaza---sosto"
      }
    },
    {
      "type": "Feature",
      "geometry": {
        "type": "Point",
        "coordinates": [
          21.7307045,
          48.0075257
        ]
      },
      "properties": {
        "id": 320702891,
        "osm_type": "way",
        "name": "Hotel Barbizon",
        "tourism": "hotel",
        "phone": "+36 42 475 731",
        "website": "http://barbizon.hu"
      }
    },
    {
      "type": "Feature",
      "geometry": {
        "type": "Point",
        "coordinates": [
          21.73436,
          48.0068527
        ]
      },
      "properties": {
        "id": 320703560,
        "osm_type": "way",
        "name": "Nyilas Fogadó",
        "tourism": "hotel",
        "phone": "+36 30 482 5057",
        "website": "http://nyilasfogado.hu"
      }
    },
    {
      "type": "Feature",
      "geometry": {
        "type": "Point",
        "coordinates": [
          21.6932145,
          47.9529096
        ]
      },
      "properties": {
        "id": 322142461,
        "osm_type": "way",
        "name": "Lugas Szálloda",
        "tourism": "hotel",
        "phone": "+36 42 994 444",
        "website": "https://www.lugashotel.com/"
      }
    },
    {
      "type": "Feature",
      "geometry": {
        "type": "Point",
        "coordinates": [
          22.5148521,
          47.9896979
        ]
      },
      "properties": {
        "id": 332391128,
        "osm_type": "way",
        "name": "Szamos Hotel",
        "tourism": "hotel",
        "phone": "+36 44 362 211;+36 44 361 993"
      }
    },
    {
      "type": "Feature",
      "geometry": {
        "type": "Point",
        "coordinates": [
          22.6942826,
          47.842933
        ]
      },
      "properties": {
        "id": 342807983,
        "osm_type": "way",
        "name": "Farkas Tanya Kemping",
        "tourism": "camp_site"
      }
    },
    {
      "type": "Feature",
      "geometry": {
        "type": "Point",
        "coordinates": [
          22.8506339,
          47.9630783
        ]
      },
      "properties": {
        "id": 358512935,
        "osm_type": "way",
        "tourism": "guest_house"
      }
    },
    {
      "type": "Feature",
      "geometry": {
        "type": "Point",
        "coordinates": [
          21.8755774,
          47.9543239
        ]
      },
      "properties": {
        "id": 378664680,
        "osm_type": "way",
        "name": "Napkelte Panzió",
        "tourism": "motel"
      }
    },
    {
      "type": "Feature",
      "geometry": {
        "type": "Point",
        "coordinates": [
          21.7295259,
          48.0007246
        ]
      },
      "properties": {
        "id": 397341429,
        "osm_type": "way",
        "name": "Igrice Camping",
        "tourism": "camp_site"
      }
    },
    {
      "type": "Feature",
      "geometry": {
        "type": "Point",
        "coordinates": [
          22.022269,
          47.8782927
        ]
      },
      "properties": {
        "id": 404468661,
        "osm_type": "way",
        "name": "Máriapócsi lelkigyakorlatos és zarándokház",
        "tourism": "guest_house",
        "contact:website": "https://mariapocskegyhely.eu/"
      }
    },
    {
      "type": "Feature",
      "geometry": {
        "type": "Point",
        "coordinates": [
          22.022365,
          47.8777694
        ]
      },
      "properties": {
        "id": 404468667,
        "osm_type": "way",
        "name": "Családvár",
        "tourism": "guest_house",
        "contact:website": "https://mariapocskegyhely.eu/"
      }
    },
    {
      "type": "Feature",
      "geometry": {
        "type": "Point",
        "coordinates": [
          21.6885273,
          47.9794118
        ]
      },
      "properties": {
        "id": 408945222,
        "osm_type": "way",
        "tourism": "hotel"
      }
    },
    {
      "type": "Feature",
      "geometry": {
        "type": "Point",
        "coordinates": [
          22.1146793,
          47.8514623
        ]
      },
      "properties": {
        "id": 426500986,
        "osm_type": "way",
        "name": "TERMÁL APARTMAN HOTEL",
        "tourism": "hotel"
      }
    },
    {
      "type": "Feature",
      "geometry": {
        "type": "Point",
        "coordinates": [
          22.1148617,
          47.8513519
        ]
      },
      "properties": {
        "id": 427257846,
        "osm_type": "way",
        "name": "Termál Apartman Hotel",
        "tourism": "camp_site"
      }
    },
    {
      "type": "Feature",
      "geometry": {
        "type": "Point",
        "coordinates": [
          21.3456833,
          48.0222575
        ]
      },
      "properties": {
        "id": 493060179,
        "osm_type": "way",
        "name": "Kemping",
        "tourism": "camp_site"
      }
    },
    {
      "type": "Feature",
      "geometry": {
        "type": "Point",
        "coordinates": [
          22.1950737,
          48.315659
        ]
      },
      "properties": {
        "id": 503342538,
        "osm_type": "way",
        "name": "Faluvégi Vendégház",
        "tourism": "guest_house"
      }
    },
    {
      "type": "Feature",
      "geometry": {
        "type": "Point",
        "coordinates": [
          21.7218829,
          47.9432707
        ]
      },
      "properties": {
        "id": 505124782,
        "osm_type": "way",
        "name": "Váci Panzió",
        "tourism": "hotel",
        "phone": "+36 42 727 301",
        "website": "http://www.vacipanzio.hu"
      }
    },
    {
      "type": "Feature",
      "geometry": {
        "type": "Point",
        "coordinates": [
          22.5187836,
          48.0625127
        ]
      },
      "properties": {
        "id": 505263280,
        "osm_type": "way",
        "name": "Diós Kemping",
        "tourism": "camp_site"
      }
    },
    {
      "type": "Feature",
      "geometry": {
        "type": "Point",
        "coordinates": [
          21.7149765,
          47.9442796
        ]
      },
      "properties": {
        "id": 507962818,
        "osm_type": "way",
        "name": "Hotel Petra",
        "tourism": "hotel",
        "phone": "+36 20 514 8944",
        "website": "http://hotelpetra.hu/"
      }
    },
    {
      "type": "Feature",
      "geometry": {
        "type": "Point",
        "coordinates": [
          22.6800163,
          47.8361793
        ]
      },
      "properties": {
        "id": 545357192,
        "osm_type": "way",
        "name": "Hotel Schuster",
        "tourism": "hotel",
        "check_date": "2023-03-18"
      }
    },
    {
      "type": "Feature",
      "geometry": {
        "type": "Point",
        "coordinates": [
          21.7012659,
          47.9617731
        ]
      },
      "properties": {
        "id": 566395559,
        "osm_type": "way",
        "name": "Rákóczi Panzió",
        "tourism": "hotel"
      }
    },
    {
      "type": "Feature",
      "geometry": {
        "type": "Point",
        "coordinates": [
          21.1698011,
          48.0134621
        ]
      },
      "properties": {
        "id": 640089519,
        "osm_type": "way",
        "name": "Kolozsi Vendégház",
        "tourism": "guest_house"
      }
    },
    {
      "type": "Feature",
      "geometry": {
        "type": "Point",
        "coordinates": [
          22.1175321,
          48.3160222
        ]
      },
      "properties": {
        "id": 660608273,
        "osm_type": "way",
        "tourism": "motel"
      }
    },
    {
      "type": "Feature",
      "geometry": {
        "type": "Point",
        "coordinates": [
          21.7271496,
          48.0016179
        ]
      },
      "properties": {
        "id": 661100532,
        "osm_type": "way",
        "name": "Hotel Pangea",
        "tourism": "hotel",
        "phone": "+36 42 200 551",
        "website": "http://www.pangeahotel.hu"
      }
    },
    {
      "type": "Feature",
      "geometry": {
        "type": "Point",
        "coordinates": [
          21.733204,
          48.0085062
        ]
      },
      "properties": {
        "id": 661132296,
        "osm_type": "way",
        "name": "Hotel Tara",
        "tourism": "hotel",
        "phone": "+36 42 475 903",
        "website": "http://www.hoteltara.hu"
      }
    },
    {
      "type": "Feature",
      "geometry": {
        "type": "Point",
        "coordinates": [
          22.3146158,
          48.1305685
        ]
      },
      "properties": {
        "id": 712618751,
        "osm_type": "way",
        "name": "Hotel Kovács",
        "tourism": "hotel",
        "contact:phone": "+36 30 590 4023",
        "contact:website": "https://hotel-kovacs.hu/",
        "check_date": "2024-10-04"
      }
    },
    {
      "type": "Feature",
      "geometry": {
        "type": "Point",
        "coordinates": [
          22.6844427,
          47.8336487
        ]
      },
      "properties": {
        "id": 913790703,
        "osm_type": "way",
        "tourism": "hostel"
      }
    },
    {
      "type": "Feature",
      "geometry": {
        "type": "Point",
        "coordinates": [
          22.6323532,
          48.081183
        ]
      },
      "properties": {
        "id": 965617209,
        "osm_type": "way",
        "name": "Bede Fogadó",
        "tourism": "guest_house",
        "contact:phone": "+36 30 925 7905",
        "contact:website": "http://www.bedefogado.hupont.hu/"
      }
    },
    {
      "type": "Feature",
      "geometry": {
        "type": "Point",
        "coordinates": [
          21.6864035,
          47.8033382
        ]
      },
      "properties": {
        "id": 1132178708,
        "osm_type": "way",
        "tourism": "apartment"
      }
    },
    {
      "type": "Feature",
      "geometry": {
        "type": "Point",
        "coordinates": [
          22.0682881,
          48.2303271
        ]
      },
      "properties": {
        "id": 1318209504,
        "osm_type": "way",
        "name": "Still Panzió",
        "tourism": "motel"
      }
    },
    {
      "type": "Feature",
      "geometry": {
        "type": "Point",
        "coordinates": [
          22.8280421,
          48.1063368
        ]
      },
      "properties": {
        "id": 1350139091,
        "osm_type": "way",
        "name": "Vidám Delfin Camping",
        "tourism": "camp_site",
        "tents": "yes",
        "phone": "+36 44 378 530",
        "website": "https://www.vidamdelfin.hu/"
      }
    },
    {
      "type": "Feature",
      "geometry": {
        "type": "Point",
        "coordinates": [
          21.3491849,
          47.9497515
        ]
      },
      "properties": {
        "id": 1421395645,
        "osm_type": "way",
        "tourism": "chalet"
      }
    },
    {
      "type": "Feature",
      "geometry": {
        "type": "Point",
        "coordinates": [
          21.348942,
          47.9497827
        ]
      },
      "properties": {
        "id": 1421395646,
        "osm_type": "way",
        "tourism": "chalet"
      }
    },
    {
      "type": "Feature",
      "geometry": {
        "type": "Point",
        "coordinates": [
          21.348798,
          47.949675
        ]
      },
      "properties": {
        "id": 1421395647,
        "osm_type": "way",
        "tourism": "chalet"
      }
    },
    {
      "type": "Feature",
      "geometry": {
        "type": "Point",
        "coordinates": [
          21.348667,
          47.9497002
        ]
      },
      "properties": {
        "id": 1421395648,
        "osm_type": "way",
        "tourism": "chalet"
      }
    },
    {
      "type": "Feature",
      "geometry": {
        "type": "Point",
        "coordinates": [
          21.3484144,
          47.9499191
        ]
      },
      "properties": {
        "id": 1421395649,
        "osm_type": "way",
        "tourism": "chalet"
      }
    },
    {
      "type": "Feature",
      "geometry": {
        "type": "Point",
        "coordinates": [
          21.3489649,
          47.9500156
        ]
      },
      "properties": {
        "id": 1421395650,
        "osm_type": "way",
        "tourism": "chalet"
      }
    },
    {
      "type": "Feature",
      "geometry": {
        "type": "Point",
        "coordinates": [
          21.3484477,
          47.9501282
        ]
      },
      "properties": {
        "id": 1421395651,
        "osm_type": "way",
        "tourism": "chalet"
      }
    },
    {
      "type": "Feature",
      "geometry": {
        "type": "Point",
        "coordinates": [
          21.348282,
          47.9502017
        ]
      },
      "properties": {
        "id": 1421395652,
        "osm_type": "way",
        "tourism": "chalet"
      }
    },
    {
      "type": "Feature",
      "geometry": {
        "type": "Point",
        "coordinates": [
          21.3481526,
          47.9504075
        ]
      },
      "properties": {
        "id": 1421395653,
        "osm_type": "way",
        "tourism": "chalet"
      }
    },
    {
      "type": "Feature",
      "geometry": {
        "type": "Point",
        "coordinates": [
          21.3482908,
          47.9504258
        ]
      },
      "properties": {
        "id": 1421395654,
        "osm_type": "way",
        "tourism": "chalet"
      }
    },
    {
      "type": "Feature",
      "geometry": {
        "type": "Point",
        "coordinates": [
          21.3484119,
          47.9504924
        ]
      },
      "properties": {
        "id": 1421395655,
        "osm_type": "way",
        "tourism": "chalet"
      }
    },
    {
      "type": "Feature",
      "geometry": {
        "type": "Point",
        "coordinates": [
          21.3485766,
          47.9504573
        ]
      },
      "properties": {
        "id": 1421395656,
        "osm_type": "way",
        "tourism": "chalet"
      }
    },
    {
      "type": "Feature",
      "geometry": {
        "type": "Point",
        "coordinates": [
          21.3486673,
          47.9505583
        ]
      },
      "properties": {
        "id": 1421395657,
        "osm_type": "way",
        "tourism": "chalet"
      }
    },
    {
      "type": "Feature",
      "geometry": {
        "type": "Point",
        "coordinates": [
          21.3480361,
          47.950691
        ]
      },
      "properties": {
        "id": 1421395658,
        "osm_type": "way",
        "tourism": "chalet"
      }
    },
    {
      "type": "Feature",
      "geometry": {
        "type": "Point",
        "coordinates": [
          21.3482028,
          47.9506616
        ]
      },
      "properties": {
        "id": 1421395659,
        "osm_type": "way",
        "tourism": "chalet"
      }
    },
    {
      "type": "Feature",
      "geometry": {
        "type": "Point",
        "coordinates": [
          21.3482987,
          47.9507539
        ]
      },
      "properties": {
        "id": 1421395660,
        "osm_type": "way",
        "tourism": "chalet"
      }
    },
    {
      "type": "Feature",
      "geometry": {
        "type": "Point",
        "coordinates": [
          21.3484573,
          47.9507313
        ]
      },
      "properties": {
        "id": 1421395661,
        "osm_type": "way",
        "tourism": "chalet"
      }
    },
    {
      "type": "Feature",
      "geometry": {
        "type": "Point",
        "coordinates": [
          21.3485553,
          47.9508129
        ]
      },
      "properties": {
        "id": 1421395662,
        "osm_type": "way",
        "tourism": "chalet"
      }
    },
    {
      "type": "Feature",
      "geometry": {
        "type": "Point",
        "coordinates": [
          21.3487025,
          47.9507819
        ]
      },
      "properties": {
        "id": 1421395663,
        "osm_type": "way",
        "tourism": "chalet"
      }
    },
    {
      "type": "Feature",
      "geometry": {
        "type": "Point",
        "coordinates": [
          21.3488115,
          47.9508541
        ]
      },
      "properties": {
        "id": 1421395664,
        "osm_type": "way",
        "tourism": "chalet"
      }
    },
    {
      "type": "Feature",
      "geometry": {
        "type": "Point",
        "coordinates": [
          21.3489671,
          47.9508279
        ]
      },
      "properties": {
        "id": 1421395665,
        "osm_type": "way",
        "tourism": "chalet"
      }
    },
    {
      "type": "Feature",
      "geometry": {
        "type": "Point",
        "coordinates": [
          21.3490635,
          47.9509235
        ]
      },
      "properties": {
        "id": 1421395666,
        "osm_type": "way",
        "tourism": "chalet"
      }
    },
    {
      "type": "Feature",
      "geometry": {
        "type": "Point",
        "coordinates": [
          21.3477813,
          47.9512323
        ]
      },
      "properties": {
        "id": 1421395667,
        "osm_type": "way",
        "tourism": "chalet"
      }
    },
    {
      "type": "Feature",
      "geometry": {
        "type": "Point",
        "coordinates": [
          21.3485646,
          47.9510544
        ]
      },
      "properties": {
        "id": 1421395668,
        "osm_type": "way",
        "tourism": "chalet"
      }
    },
    {
      "type": "Feature",
      "geometry": {
        "type": "Point",
        "coordinates": [
          21.3483205,
          47.9510023
        ]
      },
      "properties": {
        "id": 1421395669,
        "osm_type": "way",
        "tourism": "chalet"
      }
    },
    {
      "type": "Feature",
      "geometry": {
        "type": "Point",
        "coordinates": [
          21.3479048,
          47.9509753
        ]
      },
      "properties": {
        "id": 1421395670,
        "osm_type": "way",
        "tourism": "chalet"
      }
    },
    {
      "type": "Feature",
      "geometry": {
        "type": "Point",
        "coordinates": [
          21.3479493,
          47.9511706
        ]
      },
      "properties": {
        "id": 1421395671,
        "osm_type": "way",
        "tourism": "chalet"
      }
    },
    {
      "type": "Feature",
      "geometry": {
        "type": "Point",
        "coordinates": [
          21.3489133,
          47.9512287
        ]
      },
      "properties": {
        "id": 1421395672,
        "osm_type": "way",
        "tourism": "chalet"
      }
    },
    {
      "type": "Feature",
      "geometry": {
        "type": "Point",
        "coordinates": [
          21.3489776,
          47.9513921
        ]
      },
      "properties": {
        "id": 1421395673,
        "osm_type": "way",
        "tourism": "chalet"
      }
    },
    {
      "type": "Feature",
      "geometry": {
        "type": "Point",
        "coordinates": [
          21.3491681,
          47.9512879
        ]
      },
      "properties": {
        "id": 1421395674,
        "osm_type": "way",
        "tourism": "chalet"
      }
    },
    {
      "type": "Feature",
      "geometry": {
        "type": "Point",
        "coordinates": [
          21.3490822,
          47.9511694
        ]
      },
      "properties": {
        "id": 1421395675,
        "osm_type": "way",
        "tourism": "chalet"
      }
    },
    {
      "type": "Feature",
      "geometry": {
        "type": "Point",
        "coordinates": [
          21.3488062,
          47.9511196
        ]
      },
      "properties": {
        "id": 1421395676,
        "osm_type": "way",
        "tourism": "chalet"
      }
    },
    {
      "type": "Feature",
      "geometry": {
        "type": "Point",
        "coordinates": [
          21.3486447,
          47.9511672
        ]
      },
      "properties": {
        "id": 1421395677,
        "osm_type": "way",
        "tourism": "chalet"
      }
    },
    {
      "type": "Feature",
      "geometry": {
        "type": "Point",
        "coordinates": [
          21.3481301,
          47.9510373
        ]
      },
      "properties": {
        "id": 1421395678,
        "osm_type": "way",
        "tourism": "chalet"
      }
    },
    {
      "type": "Feature",
      "geometry": {
        "type": "Point",
        "coordinates": [
          21.3480523,
          47.9509412
        ]
      },
      "properties": {
        "id": 1421395679,
        "osm_type": "way",
        "tourism": "chalet"
      }
    },
    {
      "type": "Feature",
      "geometry": {
        "type": "Point",
        "coordinates": [
          21.3481811,
          47.95127
        ]
      },
      "properties": {
        "id": 1421395680,
        "osm_type": "way",
        "tourism": "chalet"
      }
    },
    {
      "type": "Feature",
      "geometry": {
        "type": "Point",
        "coordinates": [
          21.3484171,
          47.9512825
        ]
      },
      "properties": {
        "id": 1421395681,
        "osm_type": "way",
        "tourism": "chalet"
      }
    },
    {
      "type": "Feature",
      "geometry": {
        "type": "Point",
        "coordinates": [
          21.3485442,
          47.9513918
        ]
      },
      "properties": {
        "id": 1421395682,
        "osm_type": "way",
        "tourism": "chalet"
      }
    },
    {
      "type": "Feature",
      "geometry": {
        "type": "Point",
        "coordinates": [
          21.3487014,
          47.9513724
        ]
      },
      "properties": {
        "id": 1421395683,
        "osm_type": "way",
        "tourism": "chalet"
      }
    },
    {
      "type": "Feature",
      "geometry": {
        "type": "Point",
        "coordinates": [
          21.3488033,
          47.9514514
        ]
      },
      "properties": {
        "id": 1421395684,
        "osm_type": "way",
        "tourism": "chalet"
      }
    },
    {
      "type": "Feature",
      "geometry": {
        "type": "Point",
        "coordinates": [
          21.3477193,
          47.9514322
        ]
      },
      "properties": {
        "id": 1421395685,
        "osm_type": "way",
        "tourism": "chalet"
      }
    },
    {
      "type": "Feature",
      "geometry": {
        "type": "Point",
        "coordinates": [
          21.3480596,
          47.9515148
        ]
      },
      "properties": {
        "id": 1421395686,
        "osm_type": "way",
        "tourism": "chalet"
      }
    },
    {
      "type": "Feature",
      "geometry": {
        "type": "Point",
        "coordinates": [
          21.3486666,
          47.9517406
        ]
      },
      "properties": {
        "id": 1421395687,
        "osm_type": "way",
        "tourism": "chalet"
      }
    },
    {
      "type": "Feature",
      "geometry": {
        "type": "Point",
        "coordinates": [
          21.3483957,
          47.9516454
        ]
      },
      "properties": {
        "id": 1421395688,
        "osm_type": "way",
        "tourism": "chalet"
      }
    },
    {
      "type": "Feature",
      "geometry": {
        "type": "Point",
        "coordinates": [
          21.3483151,
          47.9515556
        ]
      },
      "properties": {
        "id": 1421395689,
        "osm_type": "way",
        "tourism": "chalet"
      }
    },
    {
      "type": "Feature",
      "geometry": {
        "type": "Point",
        "coordinates": [
          21.3481543,
          47.9516185
        ]
      },
      "properties": {
        "id": 1421395690,
        "osm_type": "way",
        "tourism": "chalet"
      }
    },
    {
      "type": "Feature",
      "geometry": {
        "type": "Point",
        "coordinates": [
          21.3478029,
          47.9517891
        ]
      },
      "properties": {
        "id": 1421395691,
        "osm_type": "way",
        "tourism": "chalet"
      }
    },
    {
      "type": "Feature",
      "geometry": {
        "type": "Point",
        "coordinates": [
          21.3480549,
          47.9518269
        ]
      },
      "properties": {
        "id": 1421395692,
        "osm_type": "way",
        "tourism": "chalet"
      }
    },
    {
      "type": "Feature",
      "geometry": {
        "type": "Point",
        "coordinates": [
          21.3479637,
          47.9517209
        ]
      },
      "properties": {
        "id": 1421395693,
        "osm_type": "way",
        "tourism": "chalet"
      }
    },
    {
      "type": "Feature",
      "geometry": {
        "type": "Point",
        "coordinates": [
          21.3477063,
          47.9516688
        ]
      },
      "properties": {
        "id": 1421395694,
        "osm_type": "way",
        "tourism": "chalet"
      }
    },
    {
      "type": "Feature",
      "geometry": {
        "type": "Point",
        "coordinates": [
          21.3475593,
          47.9517252
        ]
      },
      "properties": {
        "id": 1421395695,
        "osm_type": "way",
        "tourism": "chalet"
      }
    },
    {
      "type": "Feature",
      "geometry": {
        "type": "Point",
        "coordinates": [
          21.3482186,
          47.9517891
        ]
      },
      "properties": {
        "id": 1421395696,
        "osm_type": "way",
        "tourism": "chalet"
      }
    },
    {
      "type": "Feature",
      "geometry": {
        "type": "Point",
        "coordinates": [
          21.3482937,
          47.9518969
        ]
      },
      "properties": {
        "id": 1421395697,
        "osm_type": "way",
        "tourism": "chalet"
      }
    },
    {
      "type": "Feature",
      "geometry": {
        "type": "Point",
        "coordinates": [
          21.3484761,
          47.9518179
        ]
      },
      "properties": {
        "id": 1421395698,
        "osm_type": "way",
        "tourism": "chalet"
      }
    },
    {
      "type": "Feature",
      "geometry": {
        "type": "Point",
        "coordinates": [
          21.3488328,
          47.9516616
        ]
      },
      "properties": {
        "id": 1421395699,
        "osm_type": "way",
        "tourism": "chalet"
      }
    },
    {
      "type": "Feature",
      "geometry": {
        "type": "Point",
        "coordinates": [
          21.348924,
          47.9517658
        ]
      },
      "properties": {
        "id": 1421395700,
        "osm_type": "way",
        "tourism": "chalet"
      }
    },
    {
      "type": "Feature",
      "geometry": {
        "type": "Point",
        "coordinates": [
          21.3488275,
          47.9520101
        ]
      },
      "properties": {
        "id": 1421395701,
        "osm_type": "way",
        "tourism": "chalet"
      }
    },
    {
      "type": "Feature",
      "geometry": {
        "type": "Point",
        "coordinates": [
          21.3485405,
          47.9519544
        ]
      },
      "properties": {
        "id": 1421395702,
        "osm_type": "way",
        "tourism": "chalet"
      }
    },
    {
      "type": "Feature",
      "geometry": {
        "type": "Point",
        "coordinates": [
          21.34927,
          47.9520927
        ]
      },
      "properties": {
        "id": 1421395703,
        "osm_type": "way",
        "tourism": "chalet"
      }
    },
    {
      "type": "Feature",
      "geometry": {
        "type": "Point",
        "coordinates": [
          21.3491815,
          47.9519832
        ]
      },
      "properties": {
        "id": 1421395704,
        "osm_type": "way",
        "tourism": "chalet"
      }
    },
    {
      "type": "Feature",
      "geometry": {
        "type": "Point",
        "coordinates": [
          21.349439,
          47.9520424
        ]
      },
      "properties": {
        "id": 1421395705,
        "osm_type": "way",
        "tourism": "chalet"
      }
    },
    {
      "type": "Feature",
      "geometry": {
        "type": "Point",
        "coordinates": [
          21.3495383,
          47.9521305
        ]
      },
      "properties": {
        "id": 1421395706,
        "osm_type": "way",
        "tourism": "chalet"
      }
    },
    {
      "type": "Feature",
      "geometry": {
        "type": "Point",
        "coordinates": [
          21.3497903,
          47.9522041
        ]
      },
      "properties": {
        "id": 1421395707,
        "osm_type": "way",
        "tourism": "chalet"
      }
    },
    {
      "type": "Feature",
      "geometry": {
        "type": "Point",
        "coordinates": [
          21.3500291,
          47.9522634
        ]
      },
      "properties": {
        "id": 1421395708,
        "osm_type": "way",
        "tourism": "chalet"
      }
    },
    {
      "type": "Feature",
      "geometry": {
        "type": "Point",
        "coordinates": [
          21.3496991,
          47.9520891
        ]
      },
      "properties": {
        "id": 1421395709,
        "osm_type": "way",
        "tourism": "chalet"
      }
    },
    {
      "type": "Feature",
      "geometry": {
        "type": "Point",
        "coordinates": [
          21.3489374,
          47.9523137
        ]
      },
      "properties": {
        "id": 1421395710,
        "osm_type": "way",
        "tourism": "chalet"
      }
    },
    {
      "type": "Feature",
      "geometry": {
        "type": "Point",
        "coordinates": [
          21.3497823,
          47.9524915
        ]
      },
      "properties": {
        "id": 1421395711,
        "osm_type": "way",
        "tourism": "chalet"
      }
    },
    {
      "type": "Feature",
      "geometry": {
        "type": "Point",
        "coordinates": [
          21.349211,
          47.9523622
        ]
      },
      "properties": {
        "id": 1421395712,
        "osm_type": "way",
        "tourism": "chalet"
      }
    },
    {
      "type": "Feature",
      "geometry": {
        "type": "Point",
        "coordinates": [
          21.3486917,
          47.9522468
        ]
      },
      "properties": {
        "id": 1421395713,
        "osm_type": "way",
        "tourism": "chalet"
      }
    },
    {
      "type": "Feature",
      "geometry": {
        "type": "Point",
        "coordinates": [
          21.3496214,
          47.952549
        ]
      },
      "properties": {
        "id": 1421395714,
        "osm_type": "way",
        "tourism": "chalet"
      }
    },
    {
      "type": "Feature",
      "geometry": {
        "type": "Point",
        "coordinates": [
          21.3490367,
          47.9524197
        ]
      },
      "properties": {
        "id": 1421395715,
        "osm_type": "way",
        "tourism": "chalet"
      }
    },
    {
      "type": "Feature",
      "geometry": {
        "type": "Point",
        "coordinates": [
          21.3487792,
          47.952364
        ]
      },
      "properties": {
        "id": 1421395716,
        "osm_type": "way",
        "tourism": "chalet"
      }
    },
    {
      "type": "Feature",
      "geometry": {
        "type": "Point",
        "coordinates": [
          21.3485324,
          47.9523029
        ]
      },
      "properties": {
        "id": 1421395717,
        "osm_type": "way",
        "tourism": "chalet"
      }
    },
    {
      "type": "Feature",
      "geometry": {
        "type": "Point",
        "coordinates": [
          21.3484198,
          47.9521901
        ]
      },
      "properties": {
        "id": 1421395718,
        "osm_type": "way",
        "tourism": "chalet"
      }
    },
    {
      "type": "Feature",
      "geometry": {
        "type": "Point",
        "coordinates": [
          21.3482562,
          47.9522602
        ]
      },
      "properties": {
        "id": 1421395719,
        "osm_type": "way",
        "tourism": "chalet"
      }
    },
    {
      "type": "Feature",
      "geometry": {
        "type": "Point",
        "coordinates": [
          21.3479264,
          47.9520823
        ]
      },
      "properties": {
        "id": 1421395720,
        "osm_type": "way",
        "tourism": "chalet"
      }
    },
    {
      "type": "Feature",
      "geometry": {
        "type": "Point",
        "coordinates": [
          21.3477466,
          47.9521542
        ]
      },
      "properties": {
        "id": 1421395721,
        "osm_type": "way",
        "tourism": "chalet"
      }
    },
    {
      "type": "Feature",
      "geometry": {
        "type": "Point",
        "coordinates": [
          21.3476688,
          47.9520392
        ]
      },
      "properties": {
        "id": 1421395722,
        "osm_type": "way",
        "tourism": "chalet"
      }
    },
    {
      "type": "Feature",
      "geometry": {
        "type": "Point",
        "coordinates": [
          21.3475535,
          47.952244
        ]
      },
      "properties": {
        "id": 1421395723,
        "osm_type": "way",
        "tourism": "chalet"
      }
    },
    {
      "type": "Feature",
      "geometry": {
        "type": "Point",
        "coordinates": [
          21.3476537,
          47.9523586
        ]
      },
      "properties": {
        "id": 1421395724,
        "osm_type": "way",
        "tourism": "chalet"
      }
    },
    {
      "type": "Feature",
      "geometry": {
        "type": "Point",
        "coordinates": [
          21.3481784,
          47.9521488
        ]
      },
      "properties": {
        "id": 1421395725,
        "osm_type": "way",
        "tourism": "chalet"
      }
    },
    {
      "type": "Feature",
      "geometry": {
        "type": "Point",
        "coordinates": [
          21.3479021,
          47.9524272
        ]
      },
      "properties": {
        "id": 1421395726,
        "osm_type": "way",
        "tourism": "chalet"
      }
    },
    {
      "type": "Feature",
      "geometry": {
        "type": "Point",
        "coordinates": [
          21.3478163,
          47.9523177
        ]
      },
      "properties": {
        "id": 1421395727,
        "osm_type": "way",
        "tourism": "chalet"
      }
    },
    {
      "type": "Feature",
      "geometry": {
        "type": "Point",
        "coordinates": [
          21.3481623,
          47.9524739
        ]
      },
      "properties": {
        "id": 1421395728,
        "osm_type": "way",
        "tourism": "chalet"
      }
    },
    {
      "type": "Feature",
      "geometry": {
        "type": "Point",
        "coordinates": [
          21.3480632,
          47.952368
        ]
      },
      "properties": {
        "id": 1421395729,
        "osm_type": "way",
        "tourism": "chalet"
      }
    },
    {
      "type": "Feature",
      "geometry": {
        "type": "Point",
        "coordinates": [
          21.3483226,
          47.9524118
        ]
      },
      "properties": {
        "id": 1421395730,
        "osm_type": "way",
        "tourism": "chalet"
      }
    },
    {
      "type": "Feature",
      "geometry": {
        "type": "Point",
        "coordinates": [
          21.3485781,
          47.9524865
        ]
      },
      "properties": {
        "id": 1421395731,
        "osm_type": "way",
        "tourism": "chalet"
      }
    },
    {
      "type": "Feature",
      "geometry": {
        "type": "Point",
        "coordinates": [
          21.3490931,
          47.9525835
        ]
      },
      "properties": {
        "id": 1421395732,
        "osm_type": "way",
        "tourism": "chalet"
      }
    },
    {
      "type": "Feature",
      "geometry": {
        "type": "Point",
        "coordinates": [
          21.3489371,
          47.952643
        ]
      },
      "properties": {
        "id": 1421395733,
        "osm_type": "way",
        "tourism": "chalet"
      }
    },
    {
      "type": "Feature",
      "geometry": {
        "type": "Point",
        "coordinates": [
          21.3492942,
          47.9524703
        ]
      },
      "properties": {
        "id": 1421395734,
        "osm_type": "way",
        "tourism": "chalet"
      }
    },
    {
      "type": "Feature",
      "geometry": {
        "type": "Point",
        "coordinates": [
          21.3491843,
          47.9527074
        ]
      },
      "properties": {
        "id": 1421395735,
        "osm_type": "way",
        "tourism": "chalet"
      }
    },
    {
      "type": "Feature",
      "geometry": {
        "type": "Point",
        "coordinates": [
          21.3484091,
          47.9525314
        ]
      },
      "properties": {
        "id": 1421395736,
        "osm_type": "way",
        "tourism": "chalet"
      }
    },
    {
      "type": "Feature",
      "geometry": {
        "type": "Point",
        "coordinates": [
          21.3473937,
          47.9523155
        ]
      },
      "properties": {
        "id": 1421395737,
        "osm_type": "way",
        "tourism": "chalet"
      }
    },
    {
      "type": "Feature",
      "geometry": {
        "type": "Point",
        "coordinates": [
          21.3473121,
          47.9521901
        ]
      },
      "properties": {
        "id": 1421395738,
        "osm_type": "way",
        "tourism": "chalet"
      }
    },
    {
      "type": "Feature",
      "geometry": {
        "type": "Point",
        "coordinates": [
          21.3474998,
          47.9520931
        ]
      },
      "properties": {
        "id": 1421395739,
        "osm_type": "way",
        "tourism": "chalet"
      }
    },
    {
      "type": "Feature",
      "geometry": {
        "type": "Point",
        "coordinates": [
          21.3474114,
          47.9519727
        ]
      },
      "properties": {
        "id": 1421395740,
        "osm_type": "way",
        "tourism": "chalet"
      }
    },
    {
      "type": "Feature",
      "geometry": {
        "type": "Point",
        "coordinates": [
          21.3496687,
          47.9527392
        ]
      },
      "properties": {
        "id": 1421395741,
        "osm_type": "way",
        "tourism": "chalet"
      }
    },
    {
      "type": "Feature",
      "geometry": {
        "type": "Point",
        "coordinates": [
          21.3487709,
          47.9525503
        ]
      },
      "properties": {
        "id": 1421395742,
        "osm_type": "way",
        "tourism": "chalet"
      }
    },
    {
      "type": "Feature",
      "geometry": {
        "type": "Point",
        "coordinates": [
          22.1961395,
          48.0784033
        ]
      },
      "properties": {
        "id": 1441835690,
        "osm_type": "way",
        "tourism": "guest_house"
      }
    },
    {
      "type": "Feature",
      "geometry": {
        "type": "Point",
        "coordinates": [
          21.416516,
          48.1210652
        ]
      },
      "properties": {
        "id": 1444003584,
        "osm_type": "way",
        "tourism": "camp_site"
      }
    },
    {
      "type": "Feature",
      "geometry": {
        "type": "Point",
        "coordinates": [
          21.4189284,
          48.123749
        ]
      },
      "properties": {
        "id": 1448062709,
        "osm_type": "way",
        "tourism": "camp_site"
      }
    },
    {
      "type": "Feature",
      "geometry": {
        "type": "Point",
        "coordinates": [
          22.0701046,
          48.2326174
        ]
      },
      "properties": {
        "id": 1452119121,
        "osm_type": "way",
        "tourism": "camp_site"
      }
    },
    {
      "type": "Feature",
      "geometry": {
        "type": "Point",
        "coordinates": [
          22.2137608,
          48.4112353
        ]
      },
      "properties": {
        "id": 1489201438,
        "osm_type": "way",
        "name": "Cserepi vendégház",
        "tourism": "guest_house"
      }
    },
    {
      "type": "Feature",
      "geometry": {
        "type": "Point",
        "coordinates": [
          22.3428771,
          48.1173895
        ]
      },
      "properties": {
        "id": 18014139,
        "osm_type": "relation",
        "name": "Garabonciás kemping",
        "tourism": "camp_site"
      }
    }
  ]
}