{
  "type": "FeatureCollection",
  "features": [
    {
      "type": "Feature",
      "geometry": {
        "type": "Point",
        "coordinates": [
          21.3477611,
          43.5653791
        ]
      },
      "properties": {
        "id": 449613479,
        "osm_type": "node",
        "name": "Голф",
        "tourism": "hotel"
      }
    },
    {
      "type": "Feature",
      "geometry": {
        "type": "Point",
        "coordinates": [
          20.8345842,
          43.3168179
        ]
      },
      "properties": {
        "id": 563239090,
        "osm_type": "node",
        "name": "Сребрнац",
        "tourism": "hotel"
      }
    },
    {
      "type": "Feature",
      "geometry": {
        "type": "Point",
        "coordinates": [
          20.8800265,
          43.2859845
        ]
      },
      "properties": {
        "id": 563239337,
        "osm_type": "node",
        "name": "Хотел Јуниор",
        "tourism": "hotel"
      }
    },
    {
      "type": "Feature",
      "geometry": {
        "type": "Point",
        "coordinates": [
          20.8761551,
          43.5065606
        ]
      },
      "properties": {
        "id": 1360205331,
        "osm_type": "node",
        "name": "Одмаралиште„Цветна долина”",
        "tourism": "hotel"
      }
    },
    {
      "type": "Feature",
      "geometry": {
        "type": "Point",
        "coordinates": [
          21.327744,
          43.5770575
        ]
      },
      "properties": {
        "id": 2639452378,
        "osm_type": "node",
        "name": "Дом ученика средњих школа „Пане Ђукић Лимар”",
        "tourism": "hostel",
        "phone": "+38137411700",
        "website": "www.internat-krusevac.org.rs"
      }
    },
    {
      "type": "Feature",
      "geometry": {
        "type": "Point",
        "coordinates": [
          21.5182,
          43.4262558
        ]
      },
      "properties": {
        "id": 4571019989,
        "osm_type": "node",
        "name": "Miloičić",
        "tourism": "guest_house",
        "phone": "0628025964"
      }
    },
    {
      "type": "Feature",
      "geometry": {
        "type": "Point",
        "coordinates": [
          20.8811176,
          43.2777304
        ]
      },
      "properties": {
        "id": 4678426689,
        "osm_type": "node",
        "tourism": "hotel"
      }
    },
    {
      "type": "Feature",
      "geometry": {
        "type": "Point",
        "coordinates": [
          21.4927897,
          43.4327931
        ]
      },
      "properties": {
        "id": 5131545026,
        "osm_type": "node",
        "name": "Brunara Trucko",
        "tourism": "guest_house",
        "phone": "+381 60 0475047"
      }
    },
    {
      "type": "Feature",
      "geometry": {
        "type": "Point",
        "coordinates": [
          21.5067179,
          43.4249052
        ]
      },
      "properties": {
        "id": 5741746524,
        "osm_type": "node",
        "tourism": "hotel"
      }
    },
    {
      "type": "Feature",
      "geometry": {
        "type": "Point",
        "coordinates": [
          21.4471901,
          43.7481946
        ]
      },
      "properties": {
        "id": 6725310004,
        "osm_type": "node",
        "name": "Buda",
        "tourism": "motel"
      }
    },
    {
      "type": "Feature",
      "geometry": {
        "type": "Point",
        "coordinates": [
          21.4921154,
          43.4335802
        ]
      },
      "properties": {
        "id": 9872664242,
        "osm_type": "node",
        "tourism": "chalet"
      }
    },
    {
      "type": "Feature",
      "geometry": {
        "type": "Point",
        "coordinates": [
          20.8271382,
          43.4683719
        ]
      },
      "properties": {
        "id": 9993687417,
        "osm_type": "node",
        "name": "Шумска кућа Жељин",
        "tourism": "alpine_hut"
      }
    },
    {
      "type": "Feature",
      "geometry": {
        "type": "Point",
        "coordinates": [
          20.8791007,
          43.2874066
        ]
      },
      "properties": {
        "id": 177430671,
        "osm_type": "way",
        "name": "Апартмани „Копаоник”",
        "tourism": "hotel",
        "website": "https://www.kopapartmani.co.rs/"
      }
    },
    {
      "type": "Feature",
      "geometry": {
        "type": "Point",
        "coordinates": [
          21.3330476,
          43.5716257
        ]
      },
      "properties": {
        "id": 344171831,
        "osm_type": "way",
        "name": "Хотел Даби",
        "tourism": "hotel"
      }
    },
    {
      "type": "Feature",
      "geometry": {
        "type": "Point",
        "coordinates": [
          21.3255697,
          43.5822733
        ]
      },
      "properties": {
        "id": 367988877,
        "osm_type": "way",
        "name": "Хотел Рубин",
        "tourism": "hotel"
      }
    },
    {
      "type": "Feature",
      "geometry": {
        "type": "Point",
        "coordinates": [
          20.8341356,
          43.3166146
        ]
      },
      "properties": {
        "id": 382676989,
        "osm_type": "way",
        "name": "Сребрнац",
        "tourism": "hotel"
      }
    },
    {
      "type": "Feature",
      "geometry": {
        "type": "Point",
        "coordinates": [
          21.3218922,
          43.5810568
        ]
      },
      "properties": {
        "id": 420211172,
        "osm_type": "way",
        "name": "Бисер",
        "tourism": "hotel"
      }
    },
    {
      "type": "Feature",
      "geometry": {
        "type": "Point",
        "coordinates": [
          21.4921272,
          43.4335592
        ]
      },
      "properties": {
        "id": 528080107,
        "osm_type": "way",
        "tourism": "guest_house"
      }
    },
    {
      "type": "Feature",
      "geometry": {
        "type": "Point",
        "coordinates": [
          21.5197837,
          43.4272953
        ]
      },
      "properties": {
        "id": 528929393,
        "osm_type": "way",
        "name": "Smilja",
        "tourism": "guest_house",
        "phone": "+381 641328981"
      }
    },
    {
      "type": "Feature",
      "geometry": {
        "type": "Point",
        "coordinates": [
          21.5073592,
          43.424298
        ]
      },
      "properties": {
        "id": 601538498,
        "osm_type": "way",
        "tourism": "hotel"
      }
    },
    {
      "type": "Feature",
      "geometry": {
        "type": "Point",
        "coordinates": [
          21.5064859,
          43.4249533
        ]
      },
      "properties": {
        "id": 601538499,
        "osm_type": "way",
        "tourism": "hotel"
      }
    },
    {
      "type": "Feature",
      "geometry": {
        "type": "Point",
        "coordinates": [
          21.5151017,
          43.4254465
        ]
      },
      "properties": {
        "id": 605314497,
        "osm_type": "way",
        "name": "Vila di Lusso",
        "tourism": "hotel"
      }
    },
    {
      "type": "Feature",
      "geometry": {
        "type": "Point",
        "coordinates": [
          21.5164466,
          43.425448
        ]
      },
      "properties": {
        "id": 605323050,
        "osm_type": "way",
        "name": "Privatni smeštai NENA",
        "tourism": "hotel"
      }
    },
    {
      "type": "Feature",
      "geometry": {
        "type": "Point",
        "coordinates": [
          21.5075601,
          43.4250377
        ]
      },
      "properties": {
        "id": 605341768,
        "osm_type": "way",
        "tourism": "hotel"
      }
    },
    {
      "type": "Feature",
      "geometry": {
        "type": "Point",
        "coordinates": [
          21.5069256,
          43.4259648
        ]
      },
      "properties": {
        "id": 605341771,
        "osm_type": "way",
        "tourism": "hotel"
      }
    },
    {
      "type": "Feature",
      "geometry": {
        "type": "Point",
        "coordinates": [
          21.5070485,
          43.4251205
        ]
      },
      "properties": {
        "id": 605341773,
        "osm_type": "way",
        "tourism": "hotel"
      }
    },
    {
      "type": "Feature",
      "geometry": {
        "type": "Point",
        "coordinates": [
          21.3746059,
          43.4274453
        ]
      },
      "properties": {
        "id": 643591378,
        "osm_type": "way",
        "name": "Планинарски дом „Жарко Жарић”",
        "tourism": "alpine_hut",
        "website": "http://www.psdjastrebac.org.rs/"
      }
    },
    {
      "type": "Feature",
      "geometry": {
        "type": "Point",
        "coordinates": [
          21.3692069,
          43.4325489
        ]
      },
      "properties": {
        "id": 698219415,
        "osm_type": "way",
        "name": "Idila",
        "tourism": "hotel",
        "phone": "+381 (0)37 31 02 077",
        "website": "https://www.jastrebaclakeresort.com/"
      }
    },
    {
      "type": "Feature",
      "geometry": {
        "type": "Point",
        "coordinates": [
          21.3688457,
          43.4333322
        ]
      },
      "properties": {
        "id": 698219416,
        "osm_type": "way",
        "name": "Trayal",
        "tourism": "hotel",
        "phone": "+381 (0)37 31 00 164",
        "website": "https://www.jastrebaclakeresort.com/"
      }
    },
    {
      "type": "Feature",
      "geometry": {
        "type": "Point",
        "coordinates": [
          21.3701078,
          43.4343168
        ]
      },
      "properties": {
        "id": 834653152,
        "osm_type": "way",
        "tourism": "hotel"
      }
    },
    {
      "type": "Feature",
      "geometry": {
        "type": "Point",
        "coordinates": [
          21.3669914,
          43.7301533
        ]
      },
      "properties": {
        "id": 979578193,
        "osm_type": "way",
        "name": "Prenociste Milojevic",
        "tourism": "hostel"
      }
    },
    {
      "type": "Feature",
      "geometry": {
        "type": "Point",
        "coordinates": [
          21.3675565,
          43.7270505
        ]
      },
      "properties": {
        "id": 979578196,
        "osm_type": "way",
        "name": "Konaciste",
        "tourism": "hostel"
      }
    },
    {
      "type": "Feature",
      "geometry": {
        "type": "Point",
        "coordinates": [
          20.9977678,
          43.6195851
        ]
      },
      "properties": {
        "id": 986924027,
        "osm_type": "way",
        "name": "Коначиште Трстеник - Кула",
        "tourism": "hotel",
        "phone": "+38137714127"
      }
    },
    {
      "type": "Feature",
      "geometry": {
        "type": "Point",
        "coordinates": [
          21.5150938,
          43.4258037
        ]
      },
      "properties": {
        "id": 1068275413,
        "osm_type": "way",
        "tourism": "chalet"
      }
    },
    {
      "type": "Feature",
      "geometry": {
        "type": "Point",
        "coordinates": [
          21.5164062,
          43.4259252
        ]
      },
      "properties": {
        "id": 1068275414,
        "osm_type": "way",
        "name": "Zeleni Dvor",
        "tourism": "guest_house"
      }
    },
    {
      "type": "Feature",
      "geometry": {
        "type": "Point",
        "coordinates": [
          21.5181853,
          43.4263276
        ]
      },
      "properties": {
        "id": 1068275422,
        "osm_type": "way",
        "name": "Apartmani Miloicic",
        "tourism": "guest_house"
      }
    }
  ]
}