{
  "type": "FeatureCollection",
  "features": [
    {
      "type": "Feature",
      "geometry": {
        "type": "Point",
        "coordinates": [
          18.1722235,
          46.4031503
        ]
      },
      "properties": {
        "id": 26861240,
        "osm_type": "node",
        "name": "Bad Gunaras",
        "tourism": "camp_site"
      }
    },
    {
      "type": "Feature",
      "geometry": {
        "type": "Point",
        "coordinates": [
          18.4617172,
          46.4069675
        ]
      },
      "properties": {
        "id": 323217401,
        "osm_type": "node",
        "name": "Landhotel Tevel",
        "tourism": "guest_house",
        "phone": "+36 74 404 883"
      }
    },
    {
      "type": "Feature",
      "geometry": {
        "type": "Point",
        "coordinates": [
          18.8683427,
          46.6274894
        ]
      },
      "properties": {
        "id": 1241174744,
        "osm_type": "node",
        "name": "Erzsébet Nagy Szálloda",
        "tourism": "hotel",
        "phone": "+36 75 501 600",
        "website": "https://www.erzsebethotelpaks.hu/"
      }
    },
    {
      "type": "Feature",
      "geometry": {
        "type": "Point",
        "coordinates": [
          18.9266895,
          46.8121418
        ]
      },
      "properties": {
        "id": 1310017252,
        "osm_type": "node",
        "name": "Kék Duna Kemping",
        "tourism": "camp_site",
        "contact:phone": "+36 75 541 107",
        "contact:website": "https://dunafoldvarfurdo.hu/"
      }
    },
    {
      "type": "Feature",
      "geometry": {
        "type": "Point",
        "coordinates": [
          18.6953975,
          46.6807936
        ]
      },
      "properties": {
        "id": 2284258929,
        "osm_type": "node",
        "name": "Zichy Park Hotel",
        "tourism": "hotel"
      }
    },
    {
      "type": "Feature",
      "geometry": {
        "type": "Point",
        "coordinates": [
          18.9110084,
          46.8500174
        ]
      },
      "properties": {
        "id": 3166430860,
        "osm_type": "node",
        "tourism": "motel"
      }
    },
    {
      "type": "Feature",
      "geometry": {
        "type": "Point",
        "coordinates": [
          18.6839887,
          46.2905238
        ]
      },
      "properties": {
        "id": 3339833682,
        "osm_type": "node",
        "name": "Decsi-hegyi apartman",
        "tourism": "motel"
      }
    },
    {
      "type": "Feature",
      "geometry": {
        "type": "Point",
        "coordinates": [
          18.627472,
          46.270263
        ]
      },
      "properties": {
        "id": 3414916351,
        "osm_type": "node",
        "name": "Kemping",
        "tourism": "camp_site"
      }
    },
    {
      "type": "Feature",
      "geometry": {
        "type": "Point",
        "coordinates": [
          18.6405,
          46.276439
        ]
      },
      "properties": {
        "id": 3414916355,
        "osm_type": "node",
        "tourism": "guest_house"
      }
    },
    {
      "type": "Feature",
      "geometry": {
        "type": "Point",
        "coordinates": [
          18.7023783,
          46.352375
        ]
      },
      "properties": {
        "id": 3417744939,
        "osm_type": "node",
        "name": "Nádasdi ház",
        "tourism": "guest_house",
        "website": "https://nadasdihaz.hu/"
      }
    },
    {
      "type": "Feature",
      "geometry": {
        "type": "Point",
        "coordinates": [
          18.787325,
          46.344138
        ]
      },
      "properties": {
        "id": 3417744965,
        "osm_type": "node",
        "tourism": "guest_house"
      }
    },
    {
      "type": "Feature",
      "geometry": {
        "type": "Point",
        "coordinates": [
          18.7038237,
          46.3510256
        ]
      },
      "properties": {
        "id": 3417744991,
        "osm_type": "node",
        "name": "Zarándokszállás",
        "tourism": "chalet",
        "phone": "+36 74 529 333"
      }
    },
    {
      "type": "Feature",
      "geometry": {
        "type": "Point",
        "coordinates": [
          18.8274692,
          46.2004004
        ]
      },
      "properties": {
        "id": 3420245660,
        "osm_type": "node",
        "tourism": "guest_house"
      }
    },
    {
      "type": "Feature",
      "geometry": {
        "type": "Point",
        "coordinates": [
          18.824142,
          46.201825
        ]
      },
      "properties": {
        "id": 3420245663,
        "osm_type": "node",
        "tourism": "guest_house"
      }
    },
    {
      "type": "Feature",
      "geometry": {
        "type": "Point",
        "coordinates": [
          18.40082,
          46.74812
        ]
      },
      "properties": {
        "id": 3446561037,
        "osm_type": "node",
        "tourism": "guest_house"
      }
    },
    {
      "type": "Feature",
      "geometry": {
        "type": "Point",
        "coordinates": [
          18.41747,
          46.4985024
        ]
      },
      "properties": {
        "id": 3446564352,
        "osm_type": "node",
        "name": "Gróf Apponyi Kastélyszálló",
        "tourism": "hotel"
      }
    },
    {
      "type": "Feature",
      "geometry": {
        "type": "Point",
        "coordinates": [
          18.285417,
          46.62865
        ]
      },
      "properties": {
        "id": 3446564362,
        "osm_type": "node",
        "name": "Hotel",
        "tourism": "hotel"
      }
    },
    {
      "type": "Feature",
      "geometry": {
        "type": "Point",
        "coordinates": [
          18.28365,
          46.62256
        ]
      },
      "properties": {
        "id": 3446564365,
        "osm_type": "node",
        "name": "Hársfa termál panzió",
        "tourism": "guest_house"
      }
    },
    {
      "type": "Feature",
      "geometry": {
        "type": "Point",
        "coordinates": [
          18.2814252,
          46.6230694
        ]
      },
      "properties": {
        "id": 3446566410,
        "osm_type": "node",
        "name": "Parti apartmanház",
        "tourism": "guest_house",
        "contact:phone": "+36 30 936 9305"
      }
    },
    {
      "type": "Feature",
      "geometry": {
        "type": "Point",
        "coordinates": [
          18.2822207,
          46.6223972
        ]
      },
      "properties": {
        "id": 3446566722,
        "osm_type": "node",
        "name": "Káma vendégház",
        "tourism": "guest_house"
      }
    },
    {
      "type": "Feature",
      "geometry": {
        "type": "Point",
        "coordinates": [
          18.42255,
          46.609133
        ]
      },
      "properties": {
        "id": 3446569463,
        "osm_type": "node",
        "tourism": "guest_house"
      }
    },
    {
      "type": "Feature",
      "geometry": {
        "type": "Point",
        "coordinates": [
          18.928683,
          46.807733
        ]
      },
      "properties": {
        "id": 3452835531,
        "osm_type": "node",
        "name": "Hídfő Panzió és Étterem",
        "tourism": "guest_house"
      }
    },
    {
      "type": "Feature",
      "geometry": {
        "type": "Point",
        "coordinates": [
          18.9595507,
          46.7439774
        ]
      },
      "properties": {
        "id": 3452835938,
        "osm_type": "node",
        "name": "Turul kastély fogadó",
        "tourism": "guest_house"
      }
    },
    {
      "type": "Feature",
      "geometry": {
        "type": "Point",
        "coordinates": [
          18.89875,
          46.796417
        ]
      },
      "properties": {
        "id": 3452835956,
        "osm_type": "node",
        "name": "Vendégház",
        "tourism": "guest_house"
      }
    },
    {
      "type": "Feature",
      "geometry": {
        "type": "Point",
        "coordinates": [
          18.724133,
          46.379983
        ]
      },
      "properties": {
        "id": 3462181544,
        "osm_type": "node",
        "name": "Zarándokszállás",
        "tourism": "guest_house"
      }
    },
    {
      "type": "Feature",
      "geometry": {
        "type": "Point",
        "coordinates": [
          18.72408,
          46.38057
        ]
      },
      "properties": {
        "id": 3462181545,
        "osm_type": "node",
        "name": "Zarándokszállás",
        "tourism": "guest_house"
      }
    },
    {
      "type": "Feature",
      "geometry": {
        "type": "Point",
        "coordinates": [
          18.6957322,
          46.3287519
        ]
      },
      "properties": {
        "id": 3462187055,
        "osm_type": "node",
        "name": "Gyógygödör Panzió",
        "tourism": "guest_house",
        "phone": "+36 74 319 018"
      }
    },
    {
      "type": "Feature",
      "geometry": {
        "type": "Point",
        "coordinates": [
          18.687703,
          46.476018
        ]
      },
      "properties": {
        "id": 3462187058,
        "osm_type": "node",
        "name": "Görög vendégház",
        "tourism": "guest_house",
        "contact:phone": "+36 74 434 096",
        "check_date": "2024-01-10"
      }
    },
    {
      "type": "Feature",
      "geometry": {
        "type": "Point",
        "coordinates": [
          18.8567744,
          46.3253452
        ]
      },
      "properties": {
        "id": 3462187074,
        "osm_type": "node",
        "name": "Keselyűsi vendégház",
        "tourism": "guest_house",
        "opening_hours": "Mar 15-Aug 15",
        "contact:phone": "+36 30 456 0220",
        "contact:website": "https://turizmus.gemenczrt.hu/erdei-szallasok-csp/keselyusi-vendeghaz/"
      }
    },
    {
      "type": "Feature",
      "geometry": {
        "type": "Point",
        "coordinates": [
          18.3722521,
          46.3885741
        ]
      },
      "properties": {
        "id": 3468035539,
        "osm_type": "node",
        "name": "Erdei iskola - kulcsosház",
        "tourism": "hostel",
        "website": "http://erdeiiskola.gyulajzrt.hu/erdei-iskola"
      }
    },
    {
      "type": "Feature",
      "geometry": {
        "type": "Point",
        "coordinates": [
          18.5386656,
          46.2974906
        ]
      },
      "properties": {
        "id": 3468035549,
        "osm_type": "node",
        "name": "Hotel Rittinger",
        "tourism": "hotel",
        "website": "http://rittinger.hu/"
      }
    },
    {
      "type": "Feature",
      "geometry": {
        "type": "Point",
        "coordinates": [
          18.474825,
          46.273341
        ]
      },
      "properties": {
        "id": 3468036613,
        "osm_type": "node",
        "name": "Vendégház",
        "tourism": "guest_house"
      }
    },
    {
      "type": "Feature",
      "geometry": {
        "type": "Point",
        "coordinates": [
          18.563167,
          46.2569
        ]
      },
      "properties": {
        "id": 3468036622,
        "osm_type": "node",
        "name": "Zarándokszállás",
        "tourism": "guest_house"
      }
    },
    {
      "type": "Feature",
      "geometry": {
        "type": "Point",
        "coordinates": [
          18.452817,
          46.263648
        ]
      },
      "properties": {
        "id": 3468036666,
        "osm_type": "node",
        "tourism": "chalet"
      }
    },
    {
      "type": "Feature",
      "geometry": {
        "type": "Point",
        "coordinates": [
          18.169283,
          46.404633
        ]
      },
      "properties": {
        "id": 3485110198,
        "osm_type": "node",
        "name": "Gunarasi Castrum Gyógykemping",
        "tourism": "camp_site",
        "phone": "+36 74 465 523",
        "website": "http://www.castrum-group.hu"
      }
    },
    {
      "type": "Feature",
      "geometry": {
        "type": "Point",
        "coordinates": [
          18.106133,
          46.548017
        ]
      },
      "properties": {
        "id": 3485110238,
        "osm_type": "node",
        "name": "Szent Flórián vendégház",
        "tourism": "guest_house",
        "contact:phone": "+36 30 350 5971"
      }
    },
    {
      "type": "Feature",
      "geometry": {
        "type": "Point",
        "coordinates": [
          18.170567,
          46.404114
        ]
      },
      "properties": {
        "id": 3485110246,
        "osm_type": "node",
        "name": "Vali vendégház",
        "tourism": "guest_house"
      }
    },
    {
      "type": "Feature",
      "geometry": {
        "type": "Point",
        "coordinates": [
          18.042624,
          46.530951
        ]
      },
      "properties": {
        "id": 3485110250,
        "osm_type": "node",
        "name": "Várong Panzió",
        "tourism": "guest_house"
      }
    },
    {
      "type": "Feature",
      "geometry": {
        "type": "Point",
        "coordinates": [
          18.83335,
          46.4728
        ]
      },
      "properties": {
        "id": 3488458727,
        "osm_type": "node",
        "name": "D&K Panzió",
        "tourism": "guest_house"
      }
    },
    {
      "type": "Feature",
      "geometry": {
        "type": "Point",
        "coordinates": [
          18.833267,
          46.473017
        ]
      },
      "properties": {
        "id": 3488458752,
        "osm_type": "node",
        "name": "Margaréta Motel",
        "tourism": "guest_house"
      }
    },
    {
      "type": "Feature",
      "geometry": {
        "type": "Point",
        "coordinates": [
          18.7811373,
          46.4319237
        ]
      },
      "properties": {
        "id": 3488458768,
        "osm_type": "node",
        "name": "Thelena Hotel",
        "tourism": "hotel",
        "contact:phone": "+36 74 442 049",
        "contact:website": "http://www.hotelthelena.hu/"
      }
    },
    {
      "type": "Feature",
      "geometry": {
        "type": "Point",
        "coordinates": [
          18.75327,
          46.40997
        ]
      },
      "properties": {
        "id": 3488458780,
        "osm_type": "node",
        "name": "Vendégház",
        "tourism": "guest_house",
        "contact:phone": "+36 20 910 9768;+36 74 440 592"
      }
    },
    {
      "type": "Feature",
      "geometry": {
        "type": "Point",
        "coordinates": [
          18.870667,
          46.436608
        ]
      },
      "properties": {
        "id": 3488458801,
        "osm_type": "node",
        "name": "Bungalows Kemping",
        "tourism": "camp_site"
      }
    },
    {
      "type": "Feature",
      "geometry": {
        "type": "Point",
        "coordinates": [
          18.521205,
          46.306111
        ]
      },
      "properties": {
        "id": 3601315811,
        "osm_type": "node",
        "name": "Koller Panzió",
        "tourism": "guest_house",
        "phone": "+36 74 451 482",
        "website": "https://kollerpanzio.hu/"
      }
    },
    {
      "type": "Feature",
      "geometry": {
        "type": "Point",
        "coordinates": [
          18.6461941,
          46.4683923
        ]
      },
      "properties": {
        "id": 3739032667,
        "osm_type": "node",
        "name": "Apponyi-kastélyszálló",
        "tourism": "motel"
      }
    },
    {
      "type": "Feature",
      "geometry": {
        "type": "Point",
        "coordinates": [
          18.1038102,
          46.5902887
        ]
      },
      "properties": {
        "id": 4002528403,
        "osm_type": "node",
        "name": "Koppany Pines Kemping",
        "tourism": "camp_site",
        "tents": "yes",
        "website": "https://www.hungariancountrycamping.com/"
      }
    },
    {
      "type": "Feature",
      "geometry": {
        "type": "Point",
        "coordinates": [
          18.5257363,
          46.6840477
        ]
      },
      "properties": {
        "id": 4158951280,
        "osm_type": "node",
        "name": "Teleki BioApartman",
        "tourism": "guest_house",
        "phone": "+36 30 452 5221"
      }
    },
    {
      "type": "Feature",
      "geometry": {
        "type": "Point",
        "coordinates": [
          18.6813469,
          46.3485049
        ]
      },
      "properties": {
        "id": 4450738623,
        "osm_type": "node",
        "name": "Vass-Villa",
        "tourism": "guest_house",
        "phone": "+36 30 339 0556",
        "website": "http://www.vassvilla.vdj.hu/"
      }
    },
    {
      "type": "Feature",
      "geometry": {
        "type": "Point",
        "coordinates": [
          18.6772577,
          46.3758625
        ]
      },
      "properties": {
        "id": 4932002417,
        "osm_type": "node",
        "name": "Diófa Étterem és Panzió",
        "tourism": "guest_house",
        "phone": "+36 20 267 1567",
        "website": "https://www.diofaetteremespanzio.hu/"
      }
    },
    {
      "type": "Feature",
      "geometry": {
        "type": "Point",
        "coordinates": [
          18.7591497,
          46.3113325
        ]
      },
      "properties": {
        "id": 4938175900,
        "osm_type": "node",
        "name": "Ete Panzió Életmódház",
        "tourism": "guest_house",
        "phone": "+36 70 203 3636",
        "website": "http://www.etepanzio.hu"
      }
    },
    {
      "type": "Feature",
      "geometry": {
        "type": "Point",
        "coordinates": [
          18.7021688,
          46.3532323
        ]
      },
      "properties": {
        "id": 4940558870,
        "osm_type": "node",
        "name": "Hotel Merops Mészáros",
        "tourism": "hotel",
        "phone": "+36 74 684 940;+36 30 231 9595",
        "contact:website": "https://hotelmerops.hu/hu/"
      }
    },
    {
      "type": "Feature",
      "geometry": {
        "type": "Point",
        "coordinates": [
          18.2376294,
          46.7442295
        ]
      },
      "properties": {
        "id": 5055278899,
        "osm_type": "node",
        "name": "A diófa",
        "tourism": "guest_house"
      }
    },
    {
      "type": "Feature",
      "geometry": {
        "type": "Point",
        "coordinates": [
          18.7646935,
          46.1249973
        ]
      },
      "properties": {
        "id": 5144711165,
        "osm_type": "node",
        "name": "Kápolnás Vendégház",
        "tourism": "guest_house"
      }
    },
    {
      "type": "Feature",
      "geometry": {
        "type": "Point",
        "coordinates": [
          18.5572025,
          46.7538255
        ]
      },
      "properties": {
        "id": 5144718483,
        "osm_type": "node",
        "name": "Gála Panzió",
        "tourism": "guest_house"
      }
    },
    {
      "type": "Feature",
      "geometry": {
        "type": "Point",
        "coordinates": [
          18.6454506,
          46.2837419
        ]
      },
      "properties": {
        "id": 5157523974,
        "osm_type": "node",
        "name": "Augustine's Vendégház",
        "tourism": "guest_house"
      }
    },
    {
      "type": "Feature",
      "geometry": {
        "type": "Point",
        "coordinates": [
          18.7933085,
          46.1239098
        ]
      },
      "properties": {
        "id": 5165956129,
        "osm_type": "node",
        "name": "Ispánkerti Vendégház",
        "tourism": "guest_house",
        "contact:phone": "+36 74 490 036",
        "contact:website": "http://www.bata.hu"
      }
    },
    {
      "type": "Feature",
      "geometry": {
        "type": "Point",
        "coordinates": [
          18.6882269,
          46.3410154
        ]
      },
      "properties": {
        "id": 7100831570,
        "osm_type": "node",
        "name": "Ég & Föld Borvendégház",
        "tourism": "guest_house",
        "phone": "+36 30 708 3188",
        "website": "https://egesfold.hu/"
      }
    },
    {
      "type": "Feature",
      "geometry": {
        "type": "Point",
        "coordinates": [
          18.6991214,
          46.3516302
        ]
      },
      "properties": {
        "id": 7544938512,
        "osm_type": "node",
        "name": "Hotel Zodiaco",
        "tourism": "hotel",
        "phone": "+36 74 511 150",
        "website": "https://www.hotelzodiaco.hu/?lang=hu"
      }
    },
    {
      "type": "Feature",
      "geometry": {
        "type": "Point",
        "coordinates": [
          18.7068817,
          46.3580466
        ]
      },
      "properties": {
        "id": 7577953798,
        "osm_type": "node",
        "name": "Horváth Vendégház",
        "tourism": "guest_house",
        "phone": "+36 20 524 6820"
      }
    },
    {
      "type": "Feature",
      "geometry": {
        "type": "Point",
        "coordinates": [
          18.699601,
          46.3488576
        ]
      },
      "properties": {
        "id": 7671076307,
        "osm_type": "node",
        "name": "Belvárosi vendégház",
        "tourism": "guest_house",
        "phone": "+36 74 317 002",
        "website": "https://www.belvarosivendeghaz.com/hu/"
      }
    },
    {
      "type": "Feature",
      "geometry": {
        "type": "Point",
        "coordinates": [
          18.3722466,
          46.3882042
        ]
      },
      "properties": {
        "id": 8273421085,
        "osm_type": "node",
        "name": "Annafürdői Vendégház",
        "tourism": "guest_house",
        "website": "http://erdeiiskola.gyulajzrt.hu/vendeghaz"
      }
    },
    {
      "type": "Feature",
      "geometry": {
        "type": "Point",
        "coordinates": [
          18.5980766,
          46.2198041
        ]
      },
      "properties": {
        "id": 8302634238,
        "osm_type": "node",
        "name": "Gróf Apponyi vendégház",
        "tourism": "guest_house",
        "phone": "+36306436367"
      }
    },
    {
      "type": "Feature",
      "geometry": {
        "type": "Point",
        "coordinates": [
          18.627263,
          46.286919
        ]
      },
      "properties": {
        "id": 8302634242,
        "osm_type": "node",
        "name": "Szálka glamping",
        "tourism": "hotel",
        "phone": "+36203142437"
      }
    },
    {
      "type": "Feature",
      "geometry": {
        "type": "Point",
        "coordinates": [
          18.597117,
          46.218136
        ]
      },
      "properties": {
        "id": 8407388861,
        "osm_type": "node",
        "name": "Rózácska Vendégház",
        "tourism": "guest_house",
        "phone": "+36204830080",
        "website": "https://rozacskavendeghaz.hu/"
      }
    },
    {
      "type": "Feature",
      "geometry": {
        "type": "Point",
        "coordinates": [
          18.6785576,
          46.3302597
        ]
      },
      "properties": {
        "id": 8735078773,
        "osm_type": "node",
        "name": "Gesztenyés vendégház",
        "tourism": "guest_house",
        "phone": "+36 70 408 1969"
      }
    },
    {
      "type": "Feature",
      "geometry": {
        "type": "Point",
        "coordinates": [
          18.7109484,
          46.3407846
        ]
      },
      "properties": {
        "id": 8789479879,
        "osm_type": "node",
        "name": "Megacentrum panzió",
        "tourism": "guest_house"
      }
    },
    {
      "type": "Feature",
      "geometry": {
        "type": "Point",
        "coordinates": [
          18.6787373,
          46.3510239
        ]
      },
      "properties": {
        "id": 8968330982,
        "osm_type": "node",
        "name": "Zsófi vendégház",
        "tourism": "guest_house",
        "contact:website": "https://zsofivendeghaz.business.site/"
      }
    },
    {
      "type": "Feature",
      "geometry": {
        "type": "Point",
        "coordinates": [
          18.6743673,
          46.3531685
        ]
      },
      "properties": {
        "id": 9269982760,
        "osm_type": "node",
        "name": "Kerékhegy Vendégház",
        "tourism": "guest_house",
        "contact:website": "http://kerekhegyvendeghaz.hu/"
      }
    },
    {
      "type": "Feature",
      "geometry": {
        "type": "Point",
        "coordinates": [
          18.1451972,
          46.3995813
        ]
      },
      "properties": {
        "id": 9332414328,
        "osm_type": "node",
        "name": "Becsali panzió",
        "tourism": "motel"
      }
    },
    {
      "type": "Feature",
      "geometry": {
        "type": "Point",
        "coordinates": [
          18.2858951,
          46.6164203
        ]
      },
      "properties": {
        "id": 10174260086,
        "osm_type": "node",
        "name": "TheCotageHU-Várhegy",
        "tourism": "guest_house",
        "phone": "+36207728166",
        "website": "https://thecottage.hu"
      }
    },
    {
      "type": "Feature",
      "geometry": {
        "type": "Point",
        "coordinates": [
          18.3077581,
          46.609241
        ]
      },
      "properties": {
        "id": 10174291170,
        "osm_type": "node",
        "name": "TheCottageHu-Tuskós",
        "tourism": "guest_house",
        "phone": "+36207728166",
        "website": "https://thecottage.hu"
      }
    },
    {
      "type": "Feature",
      "geometry": {
        "type": "Point",
        "coordinates": [
          18.5286772,
          46.6481778
        ]
      },
      "properties": {
        "id": 10796862003,
        "osm_type": "node",
        "tourism": "guest_house",
        "check_date": "2023-04-09"
      }
    },
    {
      "type": "Feature",
      "geometry": {
        "type": "Point",
        "coordinates": [
          18.893444,
          46.3427967
        ]
      },
      "properties": {
        "id": 10895694573,
        "osm_type": "node",
        "name": "Vasmacska vendégház",
        "tourism": "guest_house",
        "phone": "+36 30 461 64 03",
        "website": "http://www.vasmacskavendeghaz.hu/"
      }
    },
    {
      "type": "Feature",
      "geometry": {
        "type": "Point",
        "coordinates": [
          18.6635104,
          46.2547684
        ]
      },
      "properties": {
        "id": 10967443416,
        "osm_type": "node",
        "name": "Galagonya tábor",
        "tourism": "hostel",
        "contact:website": "https://www.galagonyatabor.hu/"
      }
    },
    {
      "type": "Feature",
      "geometry": {
        "type": "Point",
        "coordinates": [
          18.6592403,
          46.2501186
        ]
      },
      "properties": {
        "id": 11377780165,
        "osm_type": "node",
        "name": "Árpád-Ház",
        "tourism": "guest_house",
        "contact:website": "http://www.nemhaltunkki.hu/"
      }
    },
    {
      "type": "Feature",
      "geometry": {
        "type": "Point",
        "coordinates": [
          18.7245615,
          46.1908218
        ]
      },
      "properties": {
        "id": 11390245378,
        "osm_type": "node",
        "name": "Rókabajusz Vendégház",
        "tourism": "guest_house"
      }
    },
    {
      "type": "Feature",
      "geometry": {
        "type": "Point",
        "coordinates": [
          18.3351664,
          46.41235
        ]
      },
      "properties": {
        "id": 11874094786,
        "osm_type": "node",
        "name": "Szentkúti Kunyhó - Ökoház",
        "tourism": "guest_house",
        "contact:website": "https://gyulajzrt.hu/vendeghaz/szentkuti_kunyho_okohaz"
      }
    },
    {
      "type": "Feature",
      "geometry": {
        "type": "Point",
        "coordinates": [
          18.7747858,
          46.3425968
        ]
      },
      "properties": {
        "id": 12151584273,
        "osm_type": "node",
        "name": "Édes álom vendégház",
        "tourism": "guest_house"
      }
    },
    {
      "type": "Feature",
      "geometry": {
        "type": "Point",
        "coordinates": [
          18.7014516,
          46.3489355
        ]
      },
      "properties": {
        "id": 12177364223,
        "osm_type": "node",
        "name": "Szekszárd Szálló",
        "tourism": "hotel",
        "contact:website": "https://szekszardszallo.hu/"
      }
    },
    {
      "type": "Feature",
      "geometry": {
        "type": "Point",
        "coordinates": [
          18.7037769,
          46.3414482
        ]
      },
      "properties": {
        "id": 12303927136,
        "osm_type": "node",
        "name": "Cinti vendégház",
        "tourism": "guest_house"
      }
    },
    {
      "type": "Feature",
      "geometry": {
        "type": "Point",
        "coordinates": [
          18.7956895,
          46.424405
        ]
      },
      "properties": {
        "id": 12642937890,
        "osm_type": "node",
        "name": "Szilvia Panzió",
        "tourism": "guest_house",
        "website": "https://szilviapanzio.com/"
      }
    },
    {
      "type": "Feature",
      "geometry": {
        "type": "Point",
        "coordinates": [
          18.7911607,
          46.4200019
        ]
      },
      "properties": {
        "id": 12643140235,
        "osm_type": "node",
        "name": "Alta Ripa vendégház",
        "tourism": "guest_house"
      }
    },
    {
      "type": "Feature",
      "geometry": {
        "type": "Point",
        "coordinates": [
          18.7382179,
          46.2032274
        ]
      },
      "properties": {
        "id": 12643686850,
        "osm_type": "node",
        "name": "Vadászkürt Vendégfogadó",
        "tourism": "apartment",
        "contact:phone": "+36 74 736 783",
        "contact:website": "https://vadaszkurtfogado.my.canva.site/"
      }
    },
    {
      "type": "Feature",
      "geometry": {
        "type": "Point",
        "coordinates": [
          18.9267603,
          46.8084658
        ]
      },
      "properties": {
        "id": 13026910202,
        "osm_type": "node",
        "name": "Jancsó Apartman",
        "tourism": "guest_house",
        "phone": "+36 30 641 0539"
      }
    },
    {
      "type": "Feature",
      "geometry": {
        "type": "Point",
        "coordinates": [
          18.7084924,
          46.3728406
        ]
      },
      "properties": {
        "id": 13184147165,
        "osm_type": "node",
        "name": "Szatmári Apartman",
        "tourism": "apartment"
      }
    },
    {
      "type": "Feature",
      "geometry": {
        "type": "Point",
        "coordinates": [
          18.697789,
          46.3483856
        ]
      },
      "properties": {
        "id": 13420693560,
        "osm_type": "node",
        "name": "Intstud Apartman",
        "tourism": "apartment",
        "contact:phone": "+36 74 674 583"
      }
    },
    {
      "type": "Feature",
      "geometry": {
        "type": "Point",
        "coordinates": [
          18.6976987,
          46.3566416
        ]
      },
      "properties": {
        "id": 13420693572,
        "osm_type": "node",
        "name": "Klapka Vendégház",
        "tourism": "guest_house",
        "contact:website": "https://klapka-vendeghaz9.webnode.hu/"
      }
    },
    {
      "type": "Feature",
      "geometry": {
        "type": "Point",
        "coordinates": [
          18.5424217,
          46.7487918
        ]
      },
      "properties": {
        "id": 237456033,
        "osm_type": "way",
        "name": "Fried Kastélyszálloda és Étterem",
        "tourism": "hotel",
        "website": "https://www.friedhotel.hu/"
      }
    },
    {
      "type": "Feature",
      "geometry": {
        "type": "Point",
        "coordinates": [
          18.6064723,
          46.2269434
        ]
      },
      "properties": {
        "id": 264947106,
        "osm_type": "way",
        "name": "Naspolya Panzió és Étterem",
        "tourism": "hotel",
        "website": "https://www.naspolyapanzio.hu/"
      }
    },
    {
      "type": "Feature",
      "geometry": {
        "type": "Point",
        "coordinates": [
          18.1678389,
          46.402647
        ]
      },
      "properties": {
        "id": 301694631,
        "osm_type": "way",
        "name": "Gunaras Resort Spa Hotel****",
        "tourism": "hotel",
        "contact:website": "http://gunaras.hu/gunaras3/"
      }
    },
    {
      "type": "Feature",
      "geometry": {
        "type": "Point",
        "coordinates": [
          18.6273437,
          46.3419493
        ]
      },
      "properties": {
        "id": 303494654,
        "osm_type": "way",
        "name": "Sötétvölgyi gyermektábor",
        "tourism": "chalet"
      }
    },
    {
      "type": "Feature",
      "geometry": {
        "type": "Point",
        "coordinates": [
          18.1726849,
          46.4020524
        ]
      },
      "properties": {
        "id": 331796330,
        "osm_type": "way",
        "tourism": "chalet"
      }
    },
    {
      "type": "Feature",
      "geometry": {
        "type": "Point",
        "coordinates": [
          18.1726439,
          46.4022544
        ]
      },
      "properties": {
        "id": 331796331,
        "osm_type": "way",
        "tourism": "chalet"
      }
    },
    {
      "type": "Feature",
      "geometry": {
        "type": "Point",
        "coordinates": [
          18.1725207,
          46.4029216
        ]
      },
      "properties": {
        "id": 331796332,
        "osm_type": "way",
        "tourism": "chalet"
      }
    },
    {
      "type": "Feature",
      "geometry": {
        "type": "Point",
        "coordinates": [
          18.1727549,
          46.4029491
        ]
      },
      "properties": {
        "id": 331796333,
        "osm_type": "way",
        "tourism": "chalet"
      }
    },
    {
      "type": "Feature",
      "geometry": {
        "type": "Point",
        "coordinates": [
          18.1729951,
          46.4029683
        ]
      },
      "properties": {
        "id": 331796334,
        "osm_type": "way",
        "tourism": "chalet"
      }
    },
    {
      "type": "Feature",
      "geometry": {
        "type": "Point",
        "coordinates": [
          18.1732231,
          46.4029853
        ]
      },
      "properties": {
        "id": 331796335,
        "osm_type": "way",
        "tourism": "chalet"
      }
    },
    {
      "type": "Feature",
      "geometry": {
        "type": "Point",
        "coordinates": [
          18.1724775,
          46.4031978
        ]
      },
      "properties": {
        "id": 331796336,
        "osm_type": "way",
        "tourism": "chalet"
      }
    },
    {
      "type": "Feature",
      "geometry": {
        "type": "Point",
        "coordinates": [
          18.1727055,
          46.4032232
        ]
      },
      "properties": {
        "id": 331796337,
        "osm_type": "way",
        "tourism": "chalet"
      }
    },
    {
      "type": "Feature",
      "geometry": {
        "type": "Point",
        "coordinates": [
          18.1729397,
          46.4032402
        ]
      },
      "properties": {
        "id": 331796338,
        "osm_type": "way",
        "tourism": "chalet"
      }
    },
    {
      "type": "Feature",
      "geometry": {
        "type": "Point",
        "coordinates": [
          18.1731676,
          46.4032636
        ]
      },
      "properties": {
        "id": 331796339,
        "osm_type": "way",
        "tourism": "chalet"
      }
    },
    {
      "type": "Feature",
      "geometry": {
        "type": "Point",
        "coordinates": [
          18.6273698,
          46.3417305
        ]
      },
      "properties": {
        "id": 334576830,
        "osm_type": "way",
        "name": "Sötétvölgyi Gyermektábor",
        "tourism": "camp_site"
      }
    },
    {
      "type": "Feature",
      "geometry": {
        "type": "Point",
        "coordinates": [
          18.8708792,
          46.6293937
        ]
      },
      "properties": {
        "id": 338429876,
        "osm_type": "way",
        "name": "Paks Panzió",
        "tourism": "chalet"
      }
    },
    {
      "type": "Feature",
      "geometry": {
        "type": "Point",
        "coordinates": [
          18.8506798,
          46.6222976
        ]
      },
      "properties": {
        "id": 373597860,
        "osm_type": "way",
        "name": "Família Pizzéria Panzió",
        "tourism": "hotel",
        "opening_hours": "Mo-Th 11:30-20:30; Fr-Sa 11:30-21:30; Su off"
      }
    },
    {
      "type": "Feature",
      "geometry": {
        "type": "Point",
        "coordinates": [
          18.1464469,
          46.3945751
        ]
      },
      "properties": {
        "id": 375655583,
        "osm_type": "way",
        "tourism": "motel"
      }
    },
    {
      "type": "Feature",
      "geometry": {
        "type": "Point",
        "coordinates": [
          18.7061106,
          46.3779887
        ]
      },
      "properties": {
        "id": 402677836,
        "osm_type": "way",
        "name": "Sió Motel",
        "tourism": "motel",
        "contact:phone": "+36 74 510 482",
        "contact:website": "http://www.siomotel.hu/"
      }
    },
    {
      "type": "Feature",
      "geometry": {
        "type": "Point",
        "coordinates": [
          18.9790354,
          46.6726816
        ]
      },
      "properties": {
        "id": 427378715,
        "osm_type": "way",
        "name": "Viza Bisztró és Vendégház",
        "tourism": "guest_house",
        "opening_hours": "Mo-Su 11:00-20:00"
      }
    },
    {
      "type": "Feature",
      "geometry": {
        "type": "Point",
        "coordinates": [
          18.6440234,
          46.2845971
        ]
      },
      "properties": {
        "id": 448362083,
        "osm_type": "way",
        "name": "Júlia Vendégház",
        "tourism": "guest_house"
      }
    },
    {
      "type": "Feature",
      "geometry": {
        "type": "Point",
        "coordinates": [
          18.6440841,
          46.2844409
        ]
      },
      "properties": {
        "id": 448362555,
        "osm_type": "way",
        "tourism": "guest_house"
      }
    },
    {
      "type": "Feature",
      "geometry": {
        "type": "Point",
        "coordinates": [
          18.6475426,
          46.2864084
        ]
      },
      "properties": {
        "id": 448368010,
        "osm_type": "way",
        "name": "Matievics Vendégház",
        "tourism": "guest_house"
      }
    },
    {
      "type": "Feature",
      "geometry": {
        "type": "Point",
        "coordinates": [
          18.6399989,
          46.2765129
        ]
      },
      "properties": {
        "id": 448552825,
        "osm_type": "way",
        "name": "Noresa Panzió és étterem",
        "tourism": "guest_house",
        "opening_hours": "Tu-Sa 12:00-21:00; Su 12:00-17:00",
        "contact:website": "https://noresa.hu/"
      }
    },
    {
      "type": "Feature",
      "geometry": {
        "type": "Point",
        "coordinates": [
          18.6403235,
          46.2760045
        ]
      },
      "properties": {
        "id": 448553638,
        "osm_type": "way",
        "name": "Várfy Panzió",
        "tourism": "guest_house"
      }
    },
    {
      "type": "Feature",
      "geometry": {
        "type": "Point",
        "coordinates": [
          18.6348369,
          46.2762733
        ]
      },
      "properties": {
        "id": 448566346,
        "osm_type": "way",
        "name": "Fenyő Vendégház",
        "tourism": "guest_house"
      }
    },
    {
      "type": "Feature",
      "geometry": {
        "type": "Point",
        "coordinates": [
          18.6339006,
          46.2811705
        ]
      },
      "properties": {
        "id": 448576861,
        "osm_type": "way",
        "name": "Gemenc üdülőház",
        "tourism": "guest_house",
        "phone": "+36309166987"
      }
    },
    {
      "type": "Feature",
      "geometry": {
        "type": "Point",
        "coordinates": [
          18.6337295,
          46.2814267
        ]
      },
      "properties": {
        "id": 448577108,
        "osm_type": "way",
        "tourism": "guest_house"
      }
    },
    {
      "type": "Feature",
      "geometry": {
        "type": "Point",
        "coordinates": [
          18.6313482,
          46.2838128
        ]
      },
      "properties": {
        "id": 450607393,
        "osm_type": "way",
        "name": "Forrás Vendégház (eredeti)",
        "tourism": "guest_house"
      }
    },
    {
      "type": "Feature",
      "geometry": {
        "type": "Point",
        "coordinates": [
          18.6333283,
          46.2782885
        ]
      },
      "properties": {
        "id": 452767785,
        "osm_type": "way",
        "name": "Szintai Vendégház",
        "tourism": "guest_house"
      }
    },
    {
      "type": "Feature",
      "geometry": {
        "type": "Point",
        "coordinates": [
          18.6309483,
          46.2845988
        ]
      },
      "properties": {
        "id": 452772956,
        "osm_type": "way",
        "name": "Lizi Vendégház",
        "tourism": "guest_house"
      }
    },
    {
      "type": "Feature",
      "geometry": {
        "type": "Point",
        "coordinates": [
          18.6370081,
          46.2841085
        ]
      },
      "properties": {
        "id": 452853992,
        "osm_type": "way",
        "name": "Aranykulacs Vendégház",
        "tourism": "guest_house"
      }
    },
    {
      "type": "Feature",
      "geometry": {
        "type": "Point",
        "coordinates": [
          18.6753494,
          46.3536091
        ]
      },
      "properties": {
        "id": 454872573,
        "osm_type": "way",
        "name": "Lótuszvirág vendégház",
        "tourism": "guest_house",
        "phone": "+36 70 545 8216",
        "website": "https://lotuszviragvendeghaz.hu/"
      }
    },
    {
      "type": "Feature",
      "geometry": {
        "type": "Point",
        "coordinates": [
          18.695319,
          46.3289387
        ]
      },
      "properties": {
        "id": 454872710,
        "osm_type": "way",
        "name": "Csatári ház",
        "tourism": "apartment",
        "contact:website": "https://csatarihaz.hu/"
      }
    },
    {
      "type": "Feature",
      "geometry": {
        "type": "Point",
        "coordinates": [
          18.8548551,
          46.4472607
        ]
      },
      "properties": {
        "id": 530790807,
        "osm_type": "way",
        "name": "Donautica Étterem és Hotel",
        "tourism": "hotel",
        "opening_hours": "12:00-23:00",
        "contact:phone": "+36 74 447 637",
        "contact:website": "https://donautica.hu/"
      }
    },
    {
      "type": "Feature",
      "geometry": {
        "type": "Point",
        "coordinates": [
          18.6927941,
          46.4779354
        ]
      },
      "properties": {
        "id": 545495628,
        "osm_type": "way",
        "name": "Lovas Udvarház",
        "tourism": "hotel"
      }
    },
    {
      "type": "Feature",
      "geometry": {
        "type": "Point",
        "coordinates": [
          18.6189701,
          46.3733328
        ]
      },
      "properties": {
        "id": 551349048,
        "osm_type": "way",
        "name": "Szent Gaál Kastély Panzió",
        "tourism": "hotel"
      }
    },
    {
      "type": "Feature",
      "geometry": {
        "type": "Point",
        "coordinates": [
          18.6824199,
          46.2844189
        ]
      },
      "properties": {
        "id": 587347293,
        "osm_type": "way",
        "name": "Panzió a Fehér Tehénhez",
        "tourism": "guest_house",
        "phone": "+36 20 915 9671",
        "website": "http://fehertehenpanzio.hu/"
      }
    },
    {
      "type": "Feature",
      "geometry": {
        "type": "Point",
        "coordinates": [
          18.682947,
          46.2846131
        ]
      },
      "properties": {
        "id": 587347294,
        "osm_type": "way",
        "name": "Panzió a Fehér Tehénhez",
        "tourism": "guest_house",
        "phone": "+36 20 915 9671",
        "website": "http://fehertehenpanzio.hu/"
      }
    },
    {
      "type": "Feature",
      "geometry": {
        "type": "Point",
        "coordinates": [
          18.404536,
          46.7554834
        ]
      },
      "properties": {
        "id": 614039961,
        "osm_type": "way",
        "tourism": "caravan_site"
      }
    },
    {
      "type": "Feature",
      "geometry": {
        "type": "Point",
        "coordinates": [
          18.4097888,
          46.501155
        ]
      },
      "properties": {
        "id": 615711495,
        "osm_type": "way",
        "name": "Öregprés-vendégház",
        "tourism": "guest_house",
        "phone": "+36 30 378 3441",
        "website": "https://oregpreshaz.eu"
      }
    },
    {
      "type": "Feature",
      "geometry": {
        "type": "Point",
        "coordinates": [
          18.9270825,
          46.8081616
        ]
      },
      "properties": {
        "id": 618524725,
        "osm_type": "way",
        "name": "Rozmaringos Udvarház",
        "tourism": "guest_house",
        "contact:phone": "+36 30 234 6596"
      }
    },
    {
      "type": "Feature",
      "geometry": {
        "type": "Point",
        "coordinates": [
          18.4441525,
          46.2765601
        ]
      },
      "properties": {
        "id": 627710776,
        "osm_type": "way",
        "name": "Tókert Fogadó & Wellness",
        "tourism": "guest_house",
        "phone": "+36 74 458 433",
        "website": "https://www.tokertfogado.hu/"
      }
    },
    {
      "type": "Feature",
      "geometry": {
        "type": "Point",
        "coordinates": [
          18.7013728,
          46.3417777
        ]
      },
      "properties": {
        "id": 629278566,
        "osm_type": "way",
        "name": "Zoenik Panzió",
        "tourism": "guest_house"
      }
    },
    {
      "type": "Feature",
      "geometry": {
        "type": "Point",
        "coordinates": [
          18.4120731,
          46.2397791
        ]
      },
      "properties": {
        "id": 679293037,
        "osm_type": "way",
        "name": "Vörös-Cser vendégház",
        "tourism": "guest_house",
        "website": "http://www.voroscser-vendeghaz.hu/"
      }
    },
    {
      "type": "Feature",
      "geometry": {
        "type": "Point",
        "coordinates": [
          18.6968091,
          46.3470593
        ]
      },
      "properties": {
        "id": 703853448,
        "osm_type": "way",
        "name": "Lehel vendégház",
        "tourism": "guest_house",
        "contact:website": "http://www.lehelvendeghaz.hu/"
      }
    },
    {
      "type": "Feature",
      "geometry": {
        "type": "Point",
        "coordinates": [
          18.6970903,
          46.3447844
        ]
      },
      "properties": {
        "id": 703853477,
        "osm_type": "way",
        "name": "Belvárosi Nemes Apartmanház",
        "tourism": "apartment"
      }
    },
    {
      "type": "Feature",
      "geometry": {
        "type": "Point",
        "coordinates": [
          18.6969916,
          46.345062
        ]
      },
      "properties": {
        "id": 703853478,
        "osm_type": "way",
        "name": "Munkácsy Villa",
        "tourism": "guest_house",
        "contact:phone": "+36 20 393 5395",
        "contact:website": "https://munkacsyvilla.hu/"
      }
    },
    {
      "type": "Feature",
      "geometry": {
        "type": "Point",
        "coordinates": [
          18.690456,
          46.3280505
        ]
      },
      "properties": {
        "id": 707251488,
        "osm_type": "way",
        "name": "Gyűszű birtok vendégház",
        "tourism": "guest_house",
        "contact:phone": "+36 30 495 8328",
        "contact:website": "https://gyuszubirtok.hu/"
      }
    },
    {
      "type": "Feature",
      "geometry": {
        "type": "Point",
        "coordinates": [
          18.696815,
          46.3250853
        ]
      },
      "properties": {
        "id": 707251705,
        "osm_type": "way",
        "name": "Petra vendégház",
        "tourism": "guest_house"
      }
    },
    {
      "type": "Feature",
      "geometry": {
        "type": "Point",
        "coordinates": [
          18.6823292,
          46.348755
        ]
      },
      "properties": {
        "id": 715074220,
        "osm_type": "way",
        "name": "Fogadó a Patkolókovácshoz",
        "tourism": "guest_house",
        "phone": "+36 70 574 7447",
        "website": "http://ittaludnek.hu/"
      }
    },
    {
      "type": "Feature",
      "geometry": {
        "type": "Point",
        "coordinates": [
          18.7002077,
          46.357368
        ]
      },
      "properties": {
        "id": 760119277,
        "osm_type": "way",
        "name": "Kőrózsa vendégház",
        "tourism": "guest_house",
        "contact:phone": "+36 74 315 198",
        "check_date": "2025-09-25"
      }
    },
    {
      "type": "Feature",
      "geometry": {
        "type": "Point",
        "coordinates": [
          18.6669778,
          46.32867
        ]
      },
      "properties": {
        "id": 817208568,
        "osm_type": "way",
        "name": "Tó meletti vendégház",
        "tourism": "guest_house",
        "phone": "+36 74 676 700",
        "website": "https://bodribor.hu/szallas/"
      }
    },
    {
      "type": "Feature",
      "geometry": {
        "type": "Point",
        "coordinates": [
          18.6649898,
          46.3271486
        ]
      },
      "properties": {
        "id": 817208569,
        "osm_type": "way",
        "name": "Baranya vendégház",
        "tourism": "guest_house",
        "phone": "+36 74 676 700",
        "website": "https://bodribor.hu/szallas/"
      }
    },
    {
      "type": "Feature",
      "geometry": {
        "type": "Point",
        "coordinates": [
          18.6661579,
          46.3277235
        ]
      },
      "properties": {
        "id": 817208570,
        "osm_type": "way",
        "name": "Csötönyi vendégház",
        "tourism": "guest_house",
        "phone": "+36 74 676 700",
        "website": "https://bodribor.hu/szallas/"
      }
    },
    {
      "type": "Feature",
      "geometry": {
        "type": "Point",
        "coordinates": [
          18.6998654,
          46.3599264
        ]
      },
      "properties": {
        "id": 821522551,
        "osm_type": "way",
        "name": "Ezerjó vendégház",
        "tourism": "guest_house",
        "phone": "+36 30 6288 023",
        "website": "https://ezerjovendeghaz.hu/"
      }
    },
    {
      "type": "Feature",
      "geometry": {
        "type": "Point",
        "coordinates": [
          18.6188952,
          46.3387131
        ]
      },
      "properties": {
        "id": 823689858,
        "osm_type": "way",
        "name": "Sötétvölgyi erdészház",
        "tourism": "chalet"
      }
    },
    {
      "type": "Feature",
      "geometry": {
        "type": "Point",
        "coordinates": [
          18.6912812,
          46.3644549
        ]
      },
      "properties": {
        "id": 832329433,
        "osm_type": "way",
        "name": "LeVadászLak",
        "tourism": "guest_house"
      }
    },
    {
      "type": "Feature",
      "geometry": {
        "type": "Point",
        "coordinates": [
          18.692769,
          46.3157395
        ]
      },
      "properties": {
        "id": 858917501,
        "osm_type": "way",
        "name": "Tornácos a Cinkában vendégház",
        "tourism": "guest_house",
        "phone": "+36 30 600 8860",
        "website": "https://tornacosacinkaban.hu/"
      }
    },
    {
      "type": "Feature",
      "geometry": {
        "type": "Point",
        "coordinates": [
          18.7034746,
          46.3615793
        ]
      },
      "properties": {
        "id": 865642321,
        "osm_type": "way",
        "name": "Gárdi apartmanház",
        "tourism": "apartment",
        "phone": "+36 30 336 3111",
        "website": "https://gardiapartman.hu/"
      }
    },
    {
      "type": "Feature",
      "geometry": {
        "type": "Point",
        "coordinates": [
          18.6427362,
          46.210654
        ]
      },
      "properties": {
        "id": 935161549,
        "osm_type": "way",
        "name": "Gránit fogadó",
        "tourism": "hotel",
        "opening_hours": "Apr 01-Oct 31",
        "contact:phone": "+36 74 493 043"
      }
    },
    {
      "type": "Feature",
      "geometry": {
        "type": "Point",
        "coordinates": [
          18.7075625,
          46.3742855
        ]
      },
      "properties": {
        "id": 949084052,
        "osm_type": "way",
        "name": "Szépkert vendégház",
        "tourism": "guest_house",
        "contact:website": "https://www.szepkertvendeghaz.hu/"
      }
    },
    {
      "type": "Feature",
      "geometry": {
        "type": "Point",
        "coordinates": [
          18.4238454,
          46.773032
        ]
      },
      "properties": {
        "id": 971936797,
        "osm_type": "way",
        "name": "Ozora Fesztivál Camp",
        "tourism": "camp_site"
      }
    },
    {
      "type": "Feature",
      "geometry": {
        "type": "Point",
        "coordinates": [
          18.7599908,
          46.4164782
        ]
      },
      "properties": {
        "id": 1061428338,
        "osm_type": "way",
        "name": "Tolna vendégház",
        "tourism": "guest_house",
        "phone": "+36 30 935 6466"
      }
    },
    {
      "type": "Feature",
      "geometry": {
        "type": "Point",
        "coordinates": [
          18.7625476,
          46.716249
        ]
      },
      "properties": {
        "id": 1063050893,
        "osm_type": "way",
        "name": "Althaus vendégház",
        "tourism": "guest_house",
        "website": "http://althausnemetker.hu/",
        "check_date": "2024-07-03"
      }
    },
    {
      "type": "Feature",
      "geometry": {
        "type": "Point",
        "coordinates": [
          18.4725817,
          46.5000043
        ]
      },
      "properties": {
        "id": 1087564065,
        "osm_type": "way",
        "name": "Kulcsosház",
        "tourism": "chalet"
      }
    },
    {
      "type": "Feature",
      "geometry": {
        "type": "Point",
        "coordinates": [
          18.7658172,
          46.7176041
        ]
      },
      "properties": {
        "id": 1104406170,
        "osm_type": "way",
        "name": "Lavanda vendégház",
        "tourism": "guest_house",
        "phone": "+36 70 419 9714",
        "website": "https://www.lavandavendeghaz.hu/"
      }
    },
    {
      "type": "Feature",
      "geometry": {
        "type": "Point",
        "coordinates": [
          18.7457277,
          46.7345806
        ]
      },
      "properties": {
        "id": 1130686983,
        "osm_type": "way",
        "name": "Beanett Panzió",
        "tourism": "hotel",
        "contact:website": "http://beanettpanzio.hu/"
      }
    },
    {
      "type": "Feature",
      "geometry": {
        "type": "Point",
        "coordinates": [
          18.6764226,
          46.3114913
        ]
      },
      "properties": {
        "id": 1172837956,
        "osm_type": "way",
        "name": "Strázsa vendégház",
        "tourism": "guest_house",
        "contact:website": "https://www.strazsavendeghaz.hu/"
      }
    },
    {
      "type": "Feature",
      "geometry": {
        "type": "Point",
        "coordinates": [
          18.2352924,
          46.4279375
        ]
      },
      "properties": {
        "id": 1190591961,
        "osm_type": "way",
        "name": "Verona Panzió",
        "tourism": "guest_house",
        "opening_hours": "Mo-Su 07:00-22:00",
        "phone": "+3674670518",
        "website": "https://veronapanzio.hu"
      }
    },
    {
      "type": "Feature",
      "geometry": {
        "type": "Point",
        "coordinates": [
          18.6878927,
          46.2365838
        ]
      },
      "properties": {
        "id": 1194279386,
        "osm_type": "way",
        "name": "Körtefa vendégház",
        "tourism": "guest_house",
        "phone": "+36 30 216 7307",
        "website": "https://kortefavendeghaz.hu/"
      }
    },
    {
      "type": "Feature",
      "geometry": {
        "type": "Point",
        "coordinates": [
          18.7817712,
          46.4254358
        ]
      },
      "properties": {
        "id": 1356749861,
        "osm_type": "way",
        "name": "Thelena Apartman",
        "tourism": "apartment",
        "contact:phone": "+36 74 438 975",
        "contact:website": "https://thelena-apartman1.webnode.hu/"
      }
    },
    {
      "type": "Feature",
      "geometry": {
        "type": "Point",
        "coordinates": [
          18.1181355,
          46.5378772
        ]
      },
      "properties": {
        "id": 1387362845,
        "osm_type": "way",
        "name": "Janus Country Site",
        "tourism": "apartment",
        "contact:website": "https://januscountry.hu/"
      }
    },
    {
      "type": "Feature",
      "geometry": {
        "type": "Point",
        "coordinates": [
          18.8506646,
          46.3279501
        ]
      },
      "properties": {
        "id": 1390893551,
        "osm_type": "way",
        "name": "Feketególya fogadó",
        "tourism": "apartment",
        "contact:website": "https://feketegolyafogado.hu/"
      }
    },
    {
      "type": "Feature",
      "geometry": {
        "type": "Point",
        "coordinates": [
          18.6851089,
          46.3520713
        ]
      },
      "properties": {
        "id": 1434386050,
        "osm_type": "way",
        "name": "Elysium Estate",
        "tourism": "guest_house",
        "contact:website": "https://elysiumestate.hu/"
      }
    },
    {
      "type": "Feature",
      "geometry": {
        "type": "Point",
        "coordinates": [
          18.6816703,
          46.3421441
        ]
      },
      "properties": {
        "id": 1434386051,
        "osm_type": "way",
        "name": "SXRD",
        "tourism": "apartment",
        "contact:website": "https://www.sxrd.hu/"
      }
    },
    {
      "type": "Feature",
      "geometry": {
        "type": "Point",
        "coordinates": [
          18.1701682,
          46.4029462
        ]
      },
      "properties": {
        "id": 1458733580,
        "osm_type": "way",
        "name": "Hotel Európa***",
        "tourism": "hotel",
        "phone": "+36 30 348 4218",
        "website": "https://www.gunarashotel.hu/"
      }
    },
    {
      "type": "Feature",
      "geometry": {
        "type": "Point",
        "coordinates": [
          18.6547908,
          46.3365704
        ]
      },
      "properties": {
        "id": 1484113137,
        "osm_type": "way",
        "name": "Vadász apartman",
        "tourism": "guest_house",
        "contact:website": "https://attilabirtok.hu/fotoalbum/10/vadasz-apartman"
      }
    },
    {
      "type": "Feature",
      "geometry": {
        "type": "Point",
        "coordinates": [
          18.2862576,
          46.6255808
        ]
      },
      "properties": {
        "id": 5483010,
        "osm_type": "relation",
        "name": "Tamási Termál Motel és Kemping",
        "tourism": "motel",
        "phone": "+36 74 471 738",
        "website": "https://tamasikemping.hu/"
      }
    },
    {
      "type": "Feature",
      "geometry": {
        "type": "Point",
        "coordinates": [
          18.4011208,
          46.7527366
        ]
      },
      "properties": {
        "id": 8504083,
        "osm_type": "relation",
        "name": "Ozorai Várkastély",
        "tourism": "hotel",
        "website": "http://ozoraivarkastely.hu/"
      }
    },
    {
      "type": "Feature",
      "geometry": {
        "type": "Point",
        "coordinates": [
          18.4185174,
          46.2508438
        ]
      },
      "properties": {
        "id": 15757241,
        "osm_type": "relation",
        "name": "Váraljai Ifjúsági Tábor",
        "tourism": "camp_site"
      }
    },
    {
      "type": "Feature",
      "geometry": {
        "type": "Point",
        "coordinates": [
          18.8692392,
          46.4371796
        ]
      },
      "properties": {
        "id": 17885380,
        "osm_type": "relation",
        "name": "Fadd-Dombori Gyermektábor",
        "tourism": "camp_site",
        "contact:phone": "+36 74 510 422",
        "contact:website": "www.vagyonkezelokft.hu"
      }
    },
    {
      "type": "Feature",
      "geometry": {
        "type": "Point",
        "coordinates": [
          18.8757721,
          46.4348297
        ]
      },
      "properties": {
        "id": 17885390,
        "osm_type": "relation",
        "name": "Fadd-Dombori Ifjúsági Tábor",
        "tourism": "camp_site"
      }
    }
  ]
}