{
  "type": "FeatureCollection",
  "features": [
    {
      "type": "Feature",
      "geometry": {
        "type": "Point",
        "coordinates": [
          25.7358705,
          44.4617359
        ]
      },
      "properties": {
        "id": 663870162,
        "osm_type": "node",
        "name": "Motel Monrovia",
        "tourism": "hotel"
      }
    },
    {
      "type": "Feature",
      "geometry": {
        "type": "Point",
        "coordinates": [
          25.974703,
          43.927799
        ]
      },
      "properties": {
        "id": 2290452852,
        "osm_type": "node",
        "name": "Andaluzia",
        "tourism": "hotel",
        "opening_hours": "24/7",
        "contact:phone": "0246 210165",
        "contact:website": "http://www.hotelrestaurantgiurgiu.ro/"
      }
    },
    {
      "type": "Feature",
      "geometry": {
        "type": "Point",
        "coordinates": [
          25.9715524,
          43.9147738
        ]
      },
      "properties": {
        "id": 2290452854,
        "osm_type": "node",
        "name": "Hanul Cosminulul",
        "tourism": "hotel",
        "opening_hours": "24/7",
        "contact:website": "http://www.cosmogotel.ro/"
      }
    },
    {
      "type": "Feature",
      "geometry": {
        "type": "Point",
        "coordinates": [
          25.9800004,
          43.8996745
        ]
      },
      "properties": {
        "id": 2290454292,
        "osm_type": "node",
        "name": "Steaua Dunării",
        "tourism": "hotel",
        "phone": "+40 246 217 270",
        "website": "http://www.hotelsud.ro/",
        "check_date": "2024-11-15"
      }
    },
    {
      "type": "Feature",
      "geometry": {
        "type": "Point",
        "coordinates": [
          25.9667647,
          43.8887148
        ]
      },
      "properties": {
        "id": 2290757055,
        "osm_type": "node",
        "name": "Vlașca",
        "tourism": "hotel",
        "opening_hours": "24/7",
        "phone": "0246 215 321",
        "website": "http://www.hotel-vlasca.ro/"
      }
    },
    {
      "type": "Feature",
      "geometry": {
        "type": "Point",
        "coordinates": [
          25.9576913,
          43.8960087
        ]
      },
      "properties": {
        "id": 2290757061,
        "osm_type": "node",
        "name": "Vlasca",
        "tourism": "hotel",
        "phone": "+40 246 215 321",
        "website": "http://www.hotel-vlasca.ro/"
      }
    },
    {
      "type": "Feature",
      "geometry": {
        "type": "Point",
        "coordinates": [
          25.980234,
          43.9500628
        ]
      },
      "properties": {
        "id": 2342613185,
        "osm_type": "node",
        "tourism": "motel"
      }
    },
    {
      "type": "Feature",
      "geometry": {
        "type": "Point",
        "coordinates": [
          25.7381573,
          44.4617949
        ]
      },
      "properties": {
        "id": 2574386136,
        "osm_type": "node",
        "name": "Pensiune Casa Soleil",
        "tourism": "guest_house",
        "opening_hours": "24/7",
        "phone": "+40 722 244 976",
        "website": "http://www.casasoleil.ro"
      }
    },
    {
      "type": "Feature",
      "geometry": {
        "type": "Point",
        "coordinates": [
          26.1358204,
          44.1722772
        ]
      },
      "properties": {
        "id": 2576802298,
        "osm_type": "node",
        "name": "Casa Comana",
        "tourism": "hotel",
        "opening_hours": "24/7",
        "phone": "+40246283269",
        "website": "https://casacomana.ro"
      }
    },
    {
      "type": "Feature",
      "geometry": {
        "type": "Point",
        "coordinates": [
          25.978525,
          43.9032143
        ]
      },
      "properties": {
        "id": 2872732882,
        "osm_type": "node",
        "name": "Pensiunea La Tuky",
        "tourism": "guest_house",
        "opening_hours": "24/7",
        "phone": "+40 767 281 778"
      }
    },
    {
      "type": "Feature",
      "geometry": {
        "type": "Point",
        "coordinates": [
          25.9861928,
          43.90823
        ]
      },
      "properties": {
        "id": 3000270203,
        "osm_type": "node",
        "name": "Sunny Hotel & Restaurant",
        "tourism": "hotel"
      }
    },
    {
      "type": "Feature",
      "geometry": {
        "type": "Point",
        "coordinates": [
          26.1446444,
          44.1735535
        ]
      },
      "properties": {
        "id": 3023824745,
        "osm_type": "node",
        "name": "Pensiunea Bujorul",
        "tourism": "hotel",
        "phone": "0767695178",
        "website": "www.pensiuneabujorul. ro"
      }
    },
    {
      "type": "Feature",
      "geometry": {
        "type": "Point",
        "coordinates": [
          25.8979858,
          44.3139614
        ]
      },
      "properties": {
        "id": 3570064795,
        "osm_type": "node",
        "name": "Hotel Confidence",
        "tourism": "hotel"
      }
    },
    {
      "type": "Feature",
      "geometry": {
        "type": "Point",
        "coordinates": [
          25.9004427,
          44.3166079
        ]
      },
      "properties": {
        "id": 3570102493,
        "osm_type": "node",
        "name": "Hotel Dovinot",
        "tourism": "hotel"
      }
    },
    {
      "type": "Feature",
      "geometry": {
        "type": "Point",
        "coordinates": [
          25.8997802,
          44.3159784
        ]
      },
      "properties": {
        "id": 3570102494,
        "osm_type": "node",
        "name": "Hotel Buda",
        "tourism": "hotel"
      }
    },
    {
      "type": "Feature",
      "geometry": {
        "type": "Point",
        "coordinates": [
          25.9155765,
          44.3214154
        ]
      },
      "properties": {
        "id": 3570924507,
        "osm_type": "node",
        "name": "Dovinot",
        "tourism": "hotel"
      }
    },
    {
      "type": "Feature",
      "geometry": {
        "type": "Point",
        "coordinates": [
          25.8852446,
          44.298253
        ]
      },
      "properties": {
        "id": 4262178998,
        "osm_type": "node",
        "name": "Hotel SPA Dovinot",
        "tourism": "motel"
      }
    },
    {
      "type": "Feature",
      "geometry": {
        "type": "Point",
        "coordinates": [
          25.9735713,
          43.9277834
        ]
      },
      "properties": {
        "id": 4608386492,
        "osm_type": "node",
        "tourism": "chalet"
      }
    },
    {
      "type": "Feature",
      "geometry": {
        "type": "Point",
        "coordinates": [
          25.9926103,
          43.9951732
        ]
      },
      "properties": {
        "id": 5768677669,
        "osm_type": "node",
        "name": "Pensiunea Lokanta",
        "tourism": "hotel",
        "phone": "+40246244192"
      }
    },
    {
      "type": "Feature",
      "geometry": {
        "type": "Point",
        "coordinates": [
          25.9933905,
          44.1245133
        ]
      },
      "properties": {
        "id": 6704951688,
        "osm_type": "node",
        "name": "Hanul Fermierului",
        "tourism": "hostel",
        "opening_hours": "24/7"
      }
    },
    {
      "type": "Feature",
      "geometry": {
        "type": "Point",
        "coordinates": [
          26.1451382,
          44.1736899
        ]
      },
      "properties": {
        "id": 7880539958,
        "osm_type": "node",
        "name": "Vila Neajlov",
        "tourism": "guest_house"
      }
    },
    {
      "type": "Feature",
      "geometry": {
        "type": "Point",
        "coordinates": [
          26.3496473,
          44.1052235
        ]
      },
      "properties": {
        "id": 9452585919,
        "osm_type": "node",
        "name": "Domeniul Greaca",
        "tourism": "hotel",
        "website": "https://www.domeniul-greaca.ro/"
      }
    },
    {
      "type": "Feature",
      "geometry": {
        "type": "Point",
        "coordinates": [
          25.7805934,
          44.0513413
        ]
      },
      "properties": {
        "id": 11287821574,
        "osm_type": "node",
        "name": "Aurel Cazacu",
        "tourism": "apartment"
      }
    },
    {
      "type": "Feature",
      "geometry": {
        "type": "Point",
        "coordinates": [
          25.9656191,
          43.8863915
        ]
      },
      "properties": {
        "id": 12215568546,
        "osm_type": "node",
        "name": "Ambar Hotel",
        "tourism": "hotel"
      }
    },
    {
      "type": "Feature",
      "geometry": {
        "type": "Point",
        "coordinates": [
          25.9643668,
          43.9247603
        ]
      },
      "properties": {
        "id": 13118721122,
        "osm_type": "node",
        "name": "Casa Mocanu",
        "tourism": "guest_house"
      }
    },
    {
      "type": "Feature",
      "geometry": {
        "type": "Point",
        "coordinates": [
          26.079581,
          43.9477021
        ]
      },
      "properties": {
        "id": 13741773112,
        "osm_type": "node",
        "tourism": "camp_site",
        "tents": "yes"
      }
    },
    {
      "type": "Feature",
      "geometry": {
        "type": "Point",
        "coordinates": [
          25.9803519,
          43.9087994
        ]
      },
      "properties": {
        "id": 112017795,
        "osm_type": "way",
        "name": "Motel Prietenia",
        "tourism": "motel",
        "phone": "+40 246 274 777",
        "website": "http://www.motelprietenia.ro"
      }
    },
    {
      "type": "Feature",
      "geometry": {
        "type": "Point",
        "coordinates": [
          25.9764277,
          43.907028
        ]
      },
      "properties": {
        "id": 242715514,
        "osm_type": "way",
        "name": "Hotel Sud",
        "tourism": "hotel"
      }
    },
    {
      "type": "Feature",
      "geometry": {
        "type": "Point",
        "coordinates": [
          25.674022,
          44.4795554
        ]
      },
      "properties": {
        "id": 374909572,
        "osm_type": "way",
        "name": "Popasul lui Bădălău",
        "tourism": "motel"
      }
    },
    {
      "type": "Feature",
      "geometry": {
        "type": "Point",
        "coordinates": [
          25.9753353,
          43.8880769
        ]
      },
      "properties": {
        "id": 1408291033,
        "osm_type": "way",
        "name": "Pontonul de pe Dunăre",
        "tourism": "guest_house",
        "phone": "+40 745 608 804",
        "website": "https://www.pontonuldepedunare.com/"
      }
    }
  ]
}