{
  "type": "FeatureCollection",
  "features": [
    {
      "type": "Feature",
      "geometry": {
        "type": "Point",
        "coordinates": [
          -8.4190872,
          40.2029119
        ]
      },
      "properties": {
        "id": 251574370,
        "osm_type": "node",
        "name": "Residencial Botânico",
        "tourism": "hotel"
      }
    },
    {
      "type": "Feature",
      "geometry": {
        "type": "Point",
        "coordinates": [
          -8.4261855,
          40.210231
        ]
      },
      "properties": {
        "id": 654339121,
        "osm_type": "node",
        "name": "Casa Pombal",
        "tourism": "guest_house"
      }
    },
    {
      "type": "Feature",
      "geometry": {
        "type": "Point",
        "coordinates": [
          -8.433395,
          40.2142863
        ]
      },
      "properties": {
        "id": 738183784,
        "osm_type": "node",
        "name": "Tivoli Coimbra",
        "tourism": "hotel",
        "phone": "+351 239 858 300",
        "website": "https://tivolihotels.com"
      }
    },
    {
      "type": "Feature",
      "geometry": {
        "type": "Point",
        "coordinates": [
          -8.4204525,
          40.2073125
        ]
      },
      "properties": {
        "id": 1264478357,
        "osm_type": "node",
        "name": "Alojamento Local Duarte's",
        "tourism": "guest_house",
        "opening_hours": "24/7",
        "website": "https://www.alojamentolocalduartes.com/"
      }
    },
    {
      "type": "Feature",
      "geometry": {
        "type": "Point",
        "coordinates": [
          -8.8663623,
          40.1511536
        ]
      },
      "properties": {
        "id": 1287097544,
        "osm_type": "node",
        "name": "Hotel Mercure",
        "tourism": "hotel"
      }
    },
    {
      "type": "Feature",
      "geometry": {
        "type": "Point",
        "coordinates": [
          -8.882874,
          40.1668599
        ]
      },
      "properties": {
        "id": 1287097552,
        "osm_type": "node",
        "name": "Hotel Tamargueira",
        "tourism": "hotel"
      }
    },
    {
      "type": "Feature",
      "geometry": {
        "type": "Point",
        "coordinates": [
          -8.8641698,
          40.150337
        ]
      },
      "properties": {
        "id": 1287156327,
        "osm_type": "node",
        "name": "Hotel Wellington",
        "tourism": "hotel",
        "check_date": "2022-09-24"
      }
    },
    {
      "type": "Feature",
      "geometry": {
        "type": "Point",
        "coordinates": [
          -8.8646545,
          40.1495741
        ]
      },
      "properties": {
        "id": 1287156334,
        "osm_type": "node",
        "name": "Hotel Ibis",
        "tourism": "hotel",
        "phone": "+351 233 408 190",
        "website": "http://www.ibis.com/gb/hotel-2104-ibis-figueira-da-foz-centro/index.shtml"
      }
    },
    {
      "type": "Feature",
      "geometry": {
        "type": "Point",
        "coordinates": [
          -8.8948524,
          40.1754889
        ]
      },
      "properties": {
        "id": 1291303521,
        "osm_type": "node",
        "name": "Hotel Atlantida Sol",
        "tourism": "hotel"
      }
    },
    {
      "type": "Feature",
      "geometry": {
        "type": "Point",
        "coordinates": [
          -8.4286035,
          40.2066454
        ]
      },
      "properties": {
        "id": 1297298949,
        "osm_type": "node",
        "name": "Hotel Avenida",
        "tourism": "hotel",
        "phone": "+351 239 822 155",
        "website": "http://www.hotelavenidacoimbra.com/"
      }
    },
    {
      "type": "Feature",
      "geometry": {
        "type": "Point",
        "coordinates": [
          -8.8672006,
          40.1559461
        ]
      },
      "properties": {
        "id": 1323147389,
        "osm_type": "node",
        "name": "Aparthotel Oásis Plaza",
        "tourism": "hotel",
        "phone": "+351 233 200 010",
        "website": "https://www.eurostarshotels.com.pt/eurostars-oasis-plaza.html"
      }
    },
    {
      "type": "Feature",
      "geometry": {
        "type": "Point",
        "coordinates": [
          -7.8097824,
          40.3443192
        ]
      },
      "properties": {
        "id": 1323506075,
        "osm_type": "node",
        "tourism": "motel"
      }
    },
    {
      "type": "Feature",
      "geometry": {
        "type": "Point",
        "coordinates": [
          -7.809321,
          40.3462736
        ]
      },
      "properties": {
        "id": 1323506094,
        "osm_type": "node",
        "tourism": "caravan_site"
      }
    },
    {
      "type": "Feature",
      "geometry": {
        "type": "Point",
        "coordinates": [
          -7.8110433,
          40.3445695
        ]
      },
      "properties": {
        "id": 1323506102,
        "osm_type": "node",
        "tourism": "motel"
      }
    },
    {
      "type": "Feature",
      "geometry": {
        "type": "Point",
        "coordinates": [
          -7.8095946,
          40.3369185
        ]
      },
      "properties": {
        "id": 1323506108,
        "osm_type": "node",
        "tourism": "motel"
      }
    },
    {
      "type": "Feature",
      "geometry": {
        "type": "Point",
        "coordinates": [
          -8.8664264,
          40.1506972
        ]
      },
      "properties": {
        "id": 1354318707,
        "osm_type": "node",
        "name": "Sweet Atlantic Hotel & Spa",
        "tourism": "hotel"
      }
    },
    {
      "type": "Feature",
      "geometry": {
        "type": "Point",
        "coordinates": [
          -8.8645984,
          40.1596552
        ]
      },
      "properties": {
        "id": 1354320912,
        "osm_type": "node",
        "name": "Aparthotel Sottomayor",
        "tourism": "hotel"
      }
    },
    {
      "type": "Feature",
      "geometry": {
        "type": "Point",
        "coordinates": [
          -8.8897705,
          40.219966
        ]
      },
      "properties": {
        "id": 1402496714,
        "osm_type": "node",
        "name": "QH Hotels",
        "tourism": "hotel",
        "phone": "+351 233 917 530",
        "website": "https://qhhotels.pt/",
        "check_date": "2025-09-15"
      }
    },
    {
      "type": "Feature",
      "geometry": {
        "type": "Point",
        "coordinates": [
          -8.8654815,
          40.149921
        ]
      },
      "properties": {
        "id": 1561438909,
        "osm_type": "node",
        "name": "Aliança",
        "tourism": "hotel"
      }
    },
    {
      "type": "Feature",
      "geometry": {
        "type": "Point",
        "coordinates": [
          -8.4290724,
          40.2082312
        ]
      },
      "properties": {
        "id": 1591279335,
        "osm_type": "node",
        "name": "Pharmacia Guesthouse",
        "tourism": "guest_house",
        "phone": "+351 969 007 551",
        "website": "https://pharmaciaguesthouse.pt/"
      }
    },
    {
      "type": "Feature",
      "geometry": {
        "type": "Point",
        "coordinates": [
          -8.4315629,
          40.2099141
        ]
      },
      "properties": {
        "id": 1805289628,
        "osm_type": "node",
        "name": "Residencial Aviz",
        "tourism": "hostel",
        "phone": "+351 239 823 718",
        "website": "residencialaviz.net/index.php"
      }
    },
    {
      "type": "Feature",
      "geometry": {
        "type": "Point",
        "coordinates": [
          -8.4316112,
          40.2100022
        ]
      },
      "properties": {
        "id": 1805289629,
        "osm_type": "node",
        "name": "Residência Lusa Atenas",
        "tourism": "hotel",
        "website": "https://www.residencialusatenas.com/"
      }
    },
    {
      "type": "Feature",
      "geometry": {
        "type": "Point",
        "coordinates": [
          -8.857136,
          40.150464
        ]
      },
      "properties": {
        "id": 1834428758,
        "osm_type": "node",
        "name": "Chet Odete",
        "tourism": "hostel"
      }
    },
    {
      "type": "Feature",
      "geometry": {
        "type": "Point",
        "coordinates": [
          -8.8666554,
          40.1547632
        ]
      },
      "properties": {
        "id": 1880157820,
        "osm_type": "node",
        "name": "Greenwave Hostel",
        "tourism": "hostel"
      }
    },
    {
      "type": "Feature",
      "geometry": {
        "type": "Point",
        "coordinates": [
          -8.216253,
          40.3372861
        ]
      },
      "properties": {
        "id": 2068459246,
        "osm_type": "node",
        "name": "Hotel Rural Quinta da Conchada",
        "tourism": "hotel",
        "check_date": "2025-06-14"
      }
    },
    {
      "type": "Feature",
      "geometry": {
        "type": "Point",
        "coordinates": [
          -8.6855535,
          40.1722067
        ]
      },
      "properties": {
        "id": 2110920133,
        "osm_type": "node",
        "name": "Abade João",
        "tourism": "motel"
      }
    },
    {
      "type": "Feature",
      "geometry": {
        "type": "Point",
        "coordinates": [
          -8.8583277,
          40.1502344
        ]
      },
      "properties": {
        "id": 2218560205,
        "osm_type": "node",
        "name": "Areia da Foz",
        "tourism": "guest_house"
      }
    },
    {
      "type": "Feature",
      "geometry": {
        "type": "Point",
        "coordinates": [
          -8.8655791,
          40.1518318
        ]
      },
      "properties": {
        "id": 2218573992,
        "osm_type": "node",
        "name": "Hotel Costa de Prata 2",
        "tourism": "hotel"
      }
    },
    {
      "type": "Feature",
      "geometry": {
        "type": "Point",
        "coordinates": [
          -8.8657615,
          40.1495029
        ]
      },
      "properties": {
        "id": 2218573993,
        "osm_type": "node",
        "name": "Hotel Costa de Prata",
        "tourism": "hotel",
        "opening_hours": "24/7",
        "check_date": "2022-09-25"
      }
    },
    {
      "type": "Feature",
      "geometry": {
        "type": "Point",
        "coordinates": [
          -8.2465544,
          40.1092599
        ]
      },
      "properties": {
        "id": 2490144887,
        "osm_type": "node",
        "name": "Octant - Hotel Palácio da Lousã",
        "tourism": "hotel",
        "opening_hours": "Mo-Su 09:00-09:00",
        "website": "https://lousa.octanthotels.com/"
      }
    },
    {
      "type": "Feature",
      "geometry": {
        "type": "Point",
        "coordinates": [
          -8.4315682,
          40.2085536
        ]
      },
      "properties": {
        "id": 2609986379,
        "osm_type": "node",
        "name": "Residência International",
        "tourism": "hotel",
        "website": "http://www.residencialinternacional.com/",
        "check_date": "2024-05-01"
      }
    },
    {
      "type": "Feature",
      "geometry": {
        "type": "Point",
        "coordinates": [
          -7.9468064,
          40.0439916
        ]
      },
      "properties": {
        "id": 2657441525,
        "osm_type": "node",
        "name": "Villa Pampilhosa Hotel",
        "tourism": "hotel",
        "phone": "+351 235 590 010",
        "website": "https://www.www.villapampilhosahotel.com/"
      }
    },
    {
      "type": "Feature",
      "geometry": {
        "type": "Point",
        "coordinates": [
          -7.9514412,
          40.046394
        ]
      },
      "properties": {
        "id": 2657442434,
        "osm_type": "node",
        "name": "Casa Velha - Residencial",
        "tourism": "motel",
        "phone": "+351 235 594 884"
      }
    },
    {
      "type": "Feature",
      "geometry": {
        "type": "Point",
        "coordinates": [
          -8.2263787,
          40.0927699
        ]
      },
      "properties": {
        "id": 2675562596,
        "osm_type": "node",
        "name": "Casa Princesa Peralta",
        "tourism": "hostel",
        "phone": "+351 239 441 787",
        "website": "http://www.casaprincesaperalta.com/"
      }
    },
    {
      "type": "Feature",
      "geometry": {
        "type": "Point",
        "coordinates": [
          -8.4334379,
          40.2038133
        ]
      },
      "properties": {
        "id": 2693130078,
        "osm_type": "node",
        "name": "RiverSuites",
        "tourism": "hotel",
        "phone": "+351 239 440 582",
        "website": "https://www.riversuites.pt/"
      }
    },
    {
      "type": "Feature",
      "geometry": {
        "type": "Point",
        "coordinates": [
          -8.4314006,
          40.2129135
        ]
      },
      "properties": {
        "id": 2719952198,
        "osm_type": "node",
        "name": "Residencial Gouveia",
        "tourism": "hotel",
        "phone": "+351 239 829 793",
        "website": "https://www.residencialgouveia.com/"
      }
    },
    {
      "type": "Feature",
      "geometry": {
        "type": "Point",
        "coordinates": [
          -7.8718566,
          40.3071455
        ]
      },
      "properties": {
        "id": 2835516156,
        "osm_type": "node",
        "name": "Parque de Campismo Ponte das Três Entradas",
        "tourism": "camp_site",
        "phone": "+351 238 670 050",
        "website": "https://www.pontedas3entradas.com/"
      }
    },
    {
      "type": "Feature",
      "geometry": {
        "type": "Point",
        "coordinates": [
          -8.4189093,
          40.2100481
        ]
      },
      "properties": {
        "id": 2840952253,
        "osm_type": "node",
        "name": "NS Hostel & Suites",
        "tourism": "hostel",
        "phone": "+351 239 821343",
        "website": "https://ns-hostel.com/"
      }
    },
    {
      "type": "Feature",
      "geometry": {
        "type": "Point",
        "coordinates": [
          -8.8817562,
          40.1908719
        ]
      },
      "properties": {
        "id": 2885667598,
        "osm_type": "node",
        "name": "Casa Pinha",
        "tourism": "guest_house"
      }
    },
    {
      "type": "Feature",
      "geometry": {
        "type": "Point",
        "coordinates": [
          -8.802926,
          40.4546684
        ]
      },
      "properties": {
        "id": 2930471584,
        "osm_type": "node",
        "name": "Maçarico Beach Hotel",
        "tourism": "hotel",
        "phone": "+351 231 471 114",
        "website": "https://www.macaricobeachhotel.com/"
      }
    },
    {
      "type": "Feature",
      "geometry": {
        "type": "Point",
        "coordinates": [
          -8.4443143,
          40.2658384
        ]
      },
      "properties": {
        "id": 2986008534,
        "osm_type": "node",
        "name": "Casa Morais",
        "tourism": "guest_house",
        "phone": "+351 239 431 061",
        "website": "http://www.casamorais.com"
      }
    },
    {
      "type": "Feature",
      "geometry": {
        "type": "Point",
        "coordinates": [
          -8.8359328,
          40.2223752
        ]
      },
      "properties": {
        "id": 3011419145,
        "osm_type": "node",
        "name": "Quinta das Rolas",
        "tourism": "hotel"
      }
    },
    {
      "type": "Feature",
      "geometry": {
        "type": "Point",
        "coordinates": [
          -8.7988187,
          40.4553323
        ]
      },
      "properties": {
        "id": 3103439986,
        "osm_type": "node",
        "name": "Granny's House",
        "tourism": "hostel"
      }
    },
    {
      "type": "Feature",
      "geometry": {
        "type": "Point",
        "coordinates": [
          -8.4214302,
          40.2129474
        ]
      },
      "properties": {
        "id": 3209998946,
        "osm_type": "node",
        "name": "Casa da Alta",
        "tourism": "hotel"
      }
    },
    {
      "type": "Feature",
      "geometry": {
        "type": "Point",
        "coordinates": [
          -8.7561768,
          40.3062882
        ]
      },
      "properties": {
        "id": 3326349448,
        "osm_type": "node",
        "name": "Hotel Arcada",
        "tourism": "hotel"
      }
    },
    {
      "type": "Feature",
      "geometry": {
        "type": "Point",
        "coordinates": [
          -8.865667,
          40.150025
        ]
      },
      "properties": {
        "id": 3558196194,
        "osm_type": "node",
        "name": "Pensão al Bela Figueira",
        "tourism": "hostel"
      }
    },
    {
      "type": "Feature",
      "geometry": {
        "type": "Point",
        "coordinates": [
          -8.8654553,
          40.1508134
        ]
      },
      "properties": {
        "id": 3658366563,
        "osm_type": "node",
        "name": "Universal Boutique Hotel",
        "tourism": "hotel",
        "phone": "+351 233 090 110",
        "website": "https://universalboutiquehotel.pt/universal-boutique-hotel"
      }
    },
    {
      "type": "Feature",
      "geometry": {
        "type": "Point",
        "coordinates": [
          -8.4280799,
          40.2088294
        ]
      },
      "properties": {
        "id": 3681007061,
        "osm_type": "node",
        "name": "Quebra Luz",
        "tourism": "guest_house"
      }
    },
    {
      "type": "Feature",
      "geometry": {
        "type": "Point",
        "coordinates": [
          -8.3351769,
          40.0841948
        ]
      },
      "properties": {
        "id": 3775281786,
        "osm_type": "node",
        "name": "Hotel Parque Serra da Lousã",
        "tourism": "hotel",
        "phone": "+351 239 091 165"
      }
    },
    {
      "type": "Feature",
      "geometry": {
        "type": "Point",
        "coordinates": [
          -8.4205567,
          40.2074277
        ]
      },
      "properties": {
        "id": 3787225390,
        "osm_type": "node",
        "name": "Pensão Residencial Antunes",
        "tourism": "hotel",
        "phone": "+351 239 854 720",
        "website": "https://www.residencialantunes.com/"
      }
    },
    {
      "type": "Feature",
      "geometry": {
        "type": "Point",
        "coordinates": [
          -8.862244,
          40.1485187
        ]
      },
      "properties": {
        "id": 4227904996,
        "osm_type": "node",
        "name": "Hostel 402",
        "tourism": "hostel",
        "check_date": "2025-05-14"
      }
    },
    {
      "type": "Feature",
      "geometry": {
        "type": "Point",
        "coordinates": [
          -8.674578,
          40.1966989
        ]
      },
      "properties": {
        "id": 4233320489,
        "osm_type": "node",
        "name": "Zoo Europaradise",
        "tourism": "camp_site"
      }
    },
    {
      "type": "Feature",
      "geometry": {
        "type": "Point",
        "coordinates": [
          -8.8426374,
          40.1587076
        ]
      },
      "properties": {
        "id": 4234522841,
        "osm_type": "node",
        "tourism": "chalet"
      }
    },
    {
      "type": "Feature",
      "geometry": {
        "type": "Point",
        "coordinates": [
          -7.9693176,
          40.398366
        ]
      },
      "properties": {
        "id": 4261601990,
        "osm_type": "node",
        "name": "Quinta Vale Porchacho",
        "tourism": "hotel"
      }
    },
    {
      "type": "Feature",
      "geometry": {
        "type": "Point",
        "coordinates": [
          -8.2821733,
          40.2710209
        ]
      },
      "properties": {
        "id": 4351029463,
        "osm_type": "node",
        "name": "Pensão Avenida",
        "tourism": "guest_house",
        "phone": "+351 239 477 142",
        "website": "http://www.pensaoavenida.com/"
      }
    },
    {
      "type": "Feature",
      "geometry": {
        "type": "Point",
        "coordinates": [
          -7.9674564,
          40.377532
        ]
      },
      "properties": {
        "id": 4354032855,
        "osm_type": "node",
        "name": "Quinta da Cerca",
        "tourism": "camp_site"
      }
    },
    {
      "type": "Feature",
      "geometry": {
        "type": "Point",
        "coordinates": [
          -8.5782536,
          40.3410441
        ]
      },
      "properties": {
        "id": 4486289090,
        "osm_type": "node",
        "name": "Campo Escola Fonte Dom Pedro",
        "tourism": "camp_site"
      }
    },
    {
      "type": "Feature",
      "geometry": {
        "type": "Point",
        "coordinates": [
          -8.4290298,
          40.2070759
        ]
      },
      "properties": {
        "id": 4773770194,
        "osm_type": "node",
        "name": "Coimbra Portagem Hostel",
        "tourism": "hostel",
        "phone": "+351 917 569 143"
      }
    },
    {
      "type": "Feature",
      "geometry": {
        "type": "Point",
        "coordinates": [
          -8.8645185,
          40.1513354
        ]
      },
      "properties": {
        "id": 5016266322,
        "osm_type": "node",
        "name": "Puzzle Suites",
        "tourism": "guest_house",
        "check_date": "2024-07-28"
      }
    },
    {
      "type": "Feature",
      "geometry": {
        "type": "Point",
        "coordinates": [
          -8.8055294,
          40.0704821
        ]
      },
      "properties": {
        "id": 5022690626,
        "osm_type": "node",
        "name": "Casa do Marcelo",
        "tourism": "guest_house"
      }
    },
    {
      "type": "Feature",
      "geometry": {
        "type": "Point",
        "coordinates": [
          -8.8034045,
          40.0719884
        ]
      },
      "properties": {
        "id": 5022690627,
        "osm_type": "node",
        "name": "Casa Marcelo da Paião",
        "tourism": "guest_house"
      }
    },
    {
      "type": "Feature",
      "geometry": {
        "type": "Point",
        "coordinates": [
          -7.9233849,
          40.1494194
        ]
      },
      "properties": {
        "id": 5147352620,
        "osm_type": "node",
        "name": "A Cadeia",
        "tourism": "hotel"
      }
    },
    {
      "type": "Feature",
      "geometry": {
        "type": "Point",
        "coordinates": [
          -8.4337286,
          40.2032844
        ]
      },
      "properties": {
        "id": 5230935021,
        "osm_type": "node",
        "name": "Guest House Santa Clara",
        "tourism": "guest_house"
      }
    },
    {
      "type": "Feature",
      "geometry": {
        "type": "Point",
        "coordinates": [
          -8.4547211,
          40.0298726
        ]
      },
      "properties": {
        "id": 5543963592,
        "osm_type": "node",
        "name": "Pousada do Rabaçal",
        "tourism": "guest_house",
        "phone": "+351 918 752 990"
      }
    },
    {
      "type": "Feature",
      "geometry": {
        "type": "Point",
        "coordinates": [
          -8.4545562,
          40.0290357
        ]
      },
      "properties": {
        "id": 5543963599,
        "osm_type": "node",
        "name": "Albergue o Bonito",
        "tourism": "hostel",
        "phone": "+351 239 104 665;+351 916 890 599"
      }
    },
    {
      "type": "Feature",
      "geometry": {
        "type": "Point",
        "coordinates": [
          -8.4698139,
          40.1377478
        ]
      },
      "properties": {
        "id": 5546528050,
        "osm_type": "node",
        "name": "Albergue de Peregrinos Cernache",
        "tourism": "hostel",
        "phone": "+351 968 034 708"
      }
    },
    {
      "type": "Feature",
      "geometry": {
        "type": "Point",
        "coordinates": [
          -8.4878116,
          40.1059149
        ]
      },
      "properties": {
        "id": 5546528107,
        "osm_type": "node",
        "name": "Albergue privado de Conímbriga",
        "tourism": "hostel",
        "phone": "+351 962 870 633"
      }
    },
    {
      "type": "Feature",
      "geometry": {
        "type": "Point",
        "coordinates": [
          -8.4549612,
          40.1682571
        ]
      },
      "properties": {
        "id": 5547194987,
        "osm_type": "node",
        "name": "Jantesta Guest House",
        "tourism": "guest_house"
      }
    },
    {
      "type": "Feature",
      "geometry": {
        "type": "Point",
        "coordinates": [
          -8.4294009,
          40.2108885
        ]
      },
      "properties": {
        "id": 5549068968,
        "osm_type": "node",
        "name": "Pensão Santa Cruz",
        "tourism": "guest_house",
        "phone": "+351 239 826 197",
        "website": "https://pensaosantacruz.com/"
      }
    },
    {
      "type": "Feature",
      "geometry": {
        "type": "Point",
        "coordinates": [
          -8.0237156,
          40.2179954
        ]
      },
      "properties": {
        "id": 5582969165,
        "osm_type": "node",
        "name": "Casa Traca",
        "tourism": "guest_house"
      }
    },
    {
      "type": "Feature",
      "geometry": {
        "type": "Point",
        "coordinates": [
          -8.2716766,
          40.2218666
        ]
      },
      "properties": {
        "id": 6127209095,
        "osm_type": "node",
        "name": "Casa nas serras",
        "tourism": "chalet"
      }
    },
    {
      "type": "Feature",
      "geometry": {
        "type": "Point",
        "coordinates": [
          -8.2709745,
          40.2207959
        ]
      },
      "properties": {
        "id": 6127212862,
        "osm_type": "node",
        "name": "Casa de Coco",
        "tourism": "chalet"
      }
    },
    {
      "type": "Feature",
      "geometry": {
        "type": "Point",
        "coordinates": [
          -8.285419,
          40.2200969
        ]
      },
      "properties": {
        "id": 6127223300,
        "osm_type": "node",
        "name": "PortuCampo",
        "tourism": "guest_house"
      }
    },
    {
      "type": "Feature",
      "geometry": {
        "type": "Point",
        "coordinates": [
          -8.2841986,
          40.2208403
        ]
      },
      "properties": {
        "id": 6127223981,
        "osm_type": "node",
        "name": "Magnolia House",
        "tourism": "chalet"
      }
    },
    {
      "type": "Feature",
      "geometry": {
        "type": "Point",
        "coordinates": [
          -8.134393,
          40.0964096
        ]
      },
      "properties": {
        "id": 6252671338,
        "osm_type": "node",
        "name": "Casa da Fonte",
        "tourism": "guest_house"
      }
    },
    {
      "type": "Feature",
      "geometry": {
        "type": "Point",
        "coordinates": [
          -8.8677772,
          40.1478138
        ]
      },
      "properties": {
        "id": 6673688828,
        "osm_type": "node",
        "tourism": "caravan_site"
      }
    },
    {
      "type": "Feature",
      "geometry": {
        "type": "Point",
        "coordinates": [
          -7.9461915,
          40.2306613
        ]
      },
      "properties": {
        "id": 6819880087,
        "osm_type": "node",
        "tourism": "caravan_site"
      }
    },
    {
      "type": "Feature",
      "geometry": {
        "type": "Point",
        "coordinates": [
          -8.2841382,
          40.2670525
        ]
      },
      "properties": {
        "id": 6819880189,
        "osm_type": "node",
        "tourism": "caravan_site",
        "opening_hours": "24/7"
      }
    },
    {
      "type": "Feature",
      "geometry": {
        "type": "Point",
        "coordinates": [
          -8.4604847,
          40.0676248
        ]
      },
      "properties": {
        "id": 7007953776,
        "osm_type": "node",
        "name": "Refúgio de Peregrino Nicolau",
        "tourism": "camp_site"
      }
    },
    {
      "type": "Feature",
      "geometry": {
        "type": "Point",
        "coordinates": [
          -8.4308408,
          40.2082911
        ]
      },
      "properties": {
        "id": 7265251878,
        "osm_type": "node",
        "name": "Residência Paris",
        "tourism": "guest_house"
      }
    },
    {
      "type": "Feature",
      "geometry": {
        "type": "Point",
        "coordinates": [
          -8.89271,
          40.1799541
        ]
      },
      "properties": {
        "id": 7828994692,
        "osm_type": "node",
        "tourism": "alpine_hut"
      }
    },
    {
      "type": "Feature",
      "geometry": {
        "type": "Point",
        "coordinates": [
          -7.8682669,
          40.2964567
        ]
      },
      "properties": {
        "id": 7844528027,
        "osm_type": "node",
        "name": "Quinta da Geia",
        "tourism": "hotel"
      }
    },
    {
      "type": "Feature",
      "geometry": {
        "type": "Point",
        "coordinates": [
          -8.4285269,
          40.208621
        ]
      },
      "properties": {
        "id": 7882429971,
        "osm_type": "node",
        "name": "Change the World Hostel",
        "tourism": "hostel",
        "check_date": "2024-11-27"
      }
    },
    {
      "type": "Feature",
      "geometry": {
        "type": "Point",
        "coordinates": [
          -8.0906376,
          40.289565
        ]
      },
      "properties": {
        "id": 7936047565,
        "osm_type": "node",
        "name": "Quinta d'Alegria",
        "tourism": "guest_house",
        "phone": "+351 930 568 888"
      }
    },
    {
      "type": "Feature",
      "geometry": {
        "type": "Point",
        "coordinates": [
          -8.8330748,
          40.096403
        ]
      },
      "properties": {
        "id": 8016401611,
        "osm_type": "node",
        "name": "La Casa de Lylou",
        "tourism": "hotel",
        "opening_hours": "24/7",
        "phone": "+33783003645"
      }
    },
    {
      "type": "Feature",
      "geometry": {
        "type": "Point",
        "coordinates": [
          -8.7306974,
          40.3883435
        ]
      },
      "properties": {
        "id": 8025501886,
        "osm_type": "node",
        "name": "Greenside of Sea",
        "tourism": "hotel"
      }
    },
    {
      "type": "Feature",
      "geometry": {
        "type": "Point",
        "coordinates": [
          -7.8951215,
          40.3014814
        ]
      },
      "properties": {
        "id": 8078165059,
        "osm_type": "node",
        "name": "Rustialva",
        "tourism": "hotel"
      }
    },
    {
      "type": "Feature",
      "geometry": {
        "type": "Point",
        "coordinates": [
          -7.8974791,
          40.2945178
        ]
      },
      "properties": {
        "id": 8078366925,
        "osm_type": "node",
        "name": "Quinta da Tapada",
        "tourism": "hotel"
      }
    },
    {
      "type": "Feature",
      "geometry": {
        "type": "Point",
        "coordinates": [
          -7.9218748,
          40.3650909
        ]
      },
      "properties": {
        "id": 8142925303,
        "osm_type": "node",
        "name": "Camping Tapadinho",
        "tourism": "camp_site",
        "opening_hours": "closed",
        "tents": "yes",
        "phone": "+351238692314",
        "website": "https://www.campingtapadinho.com/"
      }
    },
    {
      "type": "Feature",
      "geometry": {
        "type": "Point",
        "coordinates": [
          -7.9396257,
          40.2589925
        ]
      },
      "properties": {
        "id": 8286130172,
        "osm_type": "node",
        "name": "Quinta da Palmeira",
        "tourism": "guest_house"
      }
    },
    {
      "type": "Feature",
      "geometry": {
        "type": "Point",
        "coordinates": [
          -7.863961,
          40.3606022
        ]
      },
      "properties": {
        "id": 8739456106,
        "osm_type": "node",
        "name": "Hotel Solar do Rebolo",
        "tourism": "hotel",
        "check_date": "2024-07-06"
      }
    },
    {
      "type": "Feature",
      "geometry": {
        "type": "Point",
        "coordinates": [
          -8.426023,
          40.2105389
        ]
      },
      "properties": {
        "id": 8905762706,
        "osm_type": "node",
        "name": "Solar Antigo",
        "tourism": "guest_house"
      }
    },
    {
      "type": "Feature",
      "geometry": {
        "type": "Point",
        "coordinates": [
          -8.4260168,
          40.210626
        ]
      },
      "properties": {
        "id": 8905762707,
        "osm_type": "node",
        "name": "Solar Antigo",
        "tourism": "guest_house",
        "check_date": "2024-04-21"
      }
    },
    {
      "type": "Feature",
      "geometry": {
        "type": "Point",
        "coordinates": [
          -7.8575794,
          40.2756171
        ]
      },
      "properties": {
        "id": 9291394916,
        "osm_type": "node",
        "name": "Casinha da Deolinda",
        "tourism": "guest_house"
      }
    },
    {
      "type": "Feature",
      "geometry": {
        "type": "Point",
        "coordinates": [
          -8.3326622,
          40.0878794
        ]
      },
      "properties": {
        "id": 9552420578,
        "osm_type": "node",
        "tourism": "caravan_site",
        "tents": "no"
      }
    },
    {
      "type": "Feature",
      "geometry": {
        "type": "Point",
        "coordinates": [
          -8.0541143,
          40.2179118
        ]
      },
      "properties": {
        "id": 9575581334,
        "osm_type": "node",
        "name": "Hotel Canário",
        "tourism": "hotel",
        "phone": "+351 235 202 457"
      }
    },
    {
      "type": "Feature",
      "geometry": {
        "type": "Point",
        "coordinates": [
          -8.4291343,
          40.207388
        ]
      },
      "properties": {
        "id": 9646671669,
        "osm_type": "node",
        "name": "Hotel Larbelo",
        "tourism": "guest_house",
        "check_date": "2026-03-09"
      }
    },
    {
      "type": "Feature",
      "geometry": {
        "type": "Point",
        "coordinates": [
          -8.4307179,
          40.2105637
        ]
      },
      "properties": {
        "id": 9696525681,
        "osm_type": "node",
        "name": "Residencial Moeda",
        "tourism": "guest_house",
        "phone": "+351 239 824 784"
      }
    },
    {
      "type": "Feature",
      "geometry": {
        "type": "Point",
        "coordinates": [
          -8.0545485,
          40.2171157
        ]
      },
      "properties": {
        "id": 9795067590,
        "osm_type": "node",
        "name": "Fonte d'Amandos",
        "tourism": "guest_house"
      }
    },
    {
      "type": "Feature",
      "geometry": {
        "type": "Point",
        "coordinates": [
          -8.8073862,
          40.06976
        ]
      },
      "properties": {
        "id": 9848757645,
        "osm_type": "node",
        "name": "Pensao Residencial Elisio",
        "tourism": "guest_house"
      }
    },
    {
      "type": "Feature",
      "geometry": {
        "type": "Point",
        "coordinates": [
          -8.4207208,
          40.2103637
        ]
      },
      "properties": {
        "id": 9919207684,
        "osm_type": "node",
        "name": "Top",
        "tourism": "hotel"
      }
    },
    {
      "type": "Feature",
      "geometry": {
        "type": "Point",
        "coordinates": [
          -8.8560222,
          40.1512333
        ]
      },
      "properties": {
        "id": 9990983970,
        "osm_type": "node",
        "name": "Paintshop Hostel",
        "tourism": "hostel",
        "phone": "+351916678202",
        "website": "https://www.paintshophostel.com/"
      }
    },
    {
      "type": "Feature",
      "geometry": {
        "type": "Point",
        "coordinates": [
          -8.2834475,
          40.268317
        ]
      },
      "properties": {
        "id": 10117380561,
        "osm_type": "node",
        "tourism": "caravan_site",
        "opening_hours": "24/7"
      }
    },
    {
      "type": "Feature",
      "geometry": {
        "type": "Point",
        "coordinates": [
          -8.3153678,
          40.2590508
        ]
      },
      "properties": {
        "id": 10117381126,
        "osm_type": "node",
        "tourism": "caravan_site"
      }
    },
    {
      "type": "Feature",
      "geometry": {
        "type": "Point",
        "coordinates": [
          -8.2576758,
          40.213309
        ]
      },
      "properties": {
        "id": 10117381221,
        "osm_type": "node",
        "tourism": "caravan_site",
        "opening_hours": "24/7"
      }
    },
    {
      "type": "Feature",
      "geometry": {
        "type": "Point",
        "coordinates": [
          -8.4308424,
          40.2104983
        ]
      },
      "properties": {
        "id": 10186726350,
        "osm_type": "node",
        "name": "Residência Ideal",
        "tourism": "guest_house",
        "phone": "+351 239 822 237"
      }
    },
    {
      "type": "Feature",
      "geometry": {
        "type": "Point",
        "coordinates": [
          -8.8973956,
          40.20688
        ]
      },
      "properties": {
        "id": 10293037571,
        "osm_type": "node",
        "name": "We Surf House",
        "tourism": "hotel"
      }
    },
    {
      "type": "Feature",
      "geometry": {
        "type": "Point",
        "coordinates": [
          -8.4336044,
          40.200049
        ]
      },
      "properties": {
        "id": 10310777567,
        "osm_type": "node",
        "tourism": "caravan_site"
      }
    },
    {
      "type": "Feature",
      "geometry": {
        "type": "Point",
        "coordinates": [
          -8.428524,
          40.207962
        ]
      },
      "properties": {
        "id": 10538298292,
        "osm_type": "node",
        "name": "Entre Linhas",
        "tourism": "hotel"
      }
    },
    {
      "type": "Feature",
      "geometry": {
        "type": "Point",
        "coordinates": [
          -8.495196,
          40.11309
        ]
      },
      "properties": {
        "id": 10769086109,
        "osm_type": "node",
        "tourism": "caravan_site"
      }
    },
    {
      "type": "Feature",
      "geometry": {
        "type": "Point",
        "coordinates": [
          -8.1173441,
          40.1592883
        ]
      },
      "properties": {
        "id": 10815044536,
        "osm_type": "node",
        "name": "Casa Carvalhal",
        "tourism": "guest_house",
        "phone": "+351968029901",
        "website": "https://casacarvalhal.com"
      }
    },
    {
      "type": "Feature",
      "geometry": {
        "type": "Point",
        "coordinates": [
          -8.8512669,
          40.1498673
        ]
      },
      "properties": {
        "id": 10846825005,
        "osm_type": "node",
        "name": "Vila Branca",
        "tourism": "guest_house",
        "phone": "+351 935 370 739",
        "website": "http://Vilabtancaguesthouse.com"
      }
    },
    {
      "type": "Feature",
      "geometry": {
        "type": "Point",
        "coordinates": [
          -8.4140672,
          40.211447
        ]
      },
      "properties": {
        "id": 10901119012,
        "osm_type": "node",
        "name": "Pensão Residencial Alentejana",
        "tourism": "guest_house",
        "phone": "+351 239 825 924"
      }
    },
    {
      "type": "Feature",
      "geometry": {
        "type": "Point",
        "coordinates": [
          -8.4308863,
          40.2092888
        ]
      },
      "properties": {
        "id": 11110713099,
        "osm_type": "node",
        "name": "Hotel Domus",
        "tourism": "hotel",
        "phone": "+351 239 828 584",
        "website": "https://hoteldomus.pt"
      }
    },
    {
      "type": "Feature",
      "geometry": {
        "type": "Point",
        "coordinates": [
          -8.0273499,
          40.1816989
        ]
      },
      "properties": {
        "id": 11334895689,
        "osm_type": "node",
        "name": "Adcasinha",
        "tourism": "guest_house",
        "phone": "+351 932 466 364",
        "website": "http://www.adcasinha.pt/"
      }
    },
    {
      "type": "Feature",
      "geometry": {
        "type": "Point",
        "coordinates": [
          -7.9164871,
          40.27672
        ]
      },
      "properties": {
        "id": 11610702349,
        "osm_type": "node",
        "name": "Casa Estaro",
        "tourism": "apartment"
      }
    },
    {
      "type": "Feature",
      "geometry": {
        "type": "Point",
        "coordinates": [
          -8.8682998,
          40.1623135
        ]
      },
      "properties": {
        "id": 11948006086,
        "osm_type": "node",
        "name": "UAU Hostel",
        "tourism": "hostel",
        "phone": "+351937421255;+351 933 936 428",
        "website": "http://www.uauhostels.com/"
      }
    },
    {
      "type": "Feature",
      "geometry": {
        "type": "Point",
        "coordinates": [
          -8.1347581,
          40.2657123
        ]
      },
      "properties": {
        "id": 11989920356,
        "osm_type": "node",
        "name": "Onze Stek",
        "tourism": "guest_house"
      }
    },
    {
      "type": "Feature",
      "geometry": {
        "type": "Point",
        "coordinates": [
          -8.2716594,
          40.16268
        ]
      },
      "properties": {
        "id": 12006389273,
        "osm_type": "node",
        "name": "Magnolias Cottage",
        "tourism": "guest_house"
      }
    },
    {
      "type": "Feature",
      "geometry": {
        "type": "Point",
        "coordinates": [
          -8.4214568,
          40.2097653
        ]
      },
      "properties": {
        "id": 12136539129,
        "osm_type": "node",
        "name": "República Guest House",
        "tourism": "guest_house",
        "website": "https://republicaguesthouse.pt"
      }
    },
    {
      "type": "Feature",
      "geometry": {
        "type": "Point",
        "coordinates": [
          -8.1946855,
          40.0938346
        ]
      },
      "properties": {
        "id": 12139561672,
        "osm_type": "node",
        "name": "Aldeia de Xisto Cerdeira",
        "tourism": "hotel",
        "website": "https://www.cerdeirahomeforcreativity.com/",
        "check_date": "2024-08-26"
      }
    },
    {
      "type": "Feature",
      "geometry": {
        "type": "Point",
        "coordinates": [
          -8.1484546,
          40.1858136
        ]
      },
      "properties": {
        "id": 12164369081,
        "osm_type": "node",
        "name": "Cantinho da Saudade",
        "tourism": "guest_house"
      }
    },
    {
      "type": "Feature",
      "geometry": {
        "type": "Point",
        "coordinates": [
          -8.4285468,
          40.210731
        ]
      },
      "properties": {
        "id": 12346240612,
        "osm_type": "node",
        "name": "Vinum Apartamentos",
        "tourism": "guest_house",
        "phone": "+351912458235"
      }
    },
    {
      "type": "Feature",
      "geometry": {
        "type": "Point",
        "coordinates": [
          -7.8030755,
          40.2353989
        ]
      },
      "properties": {
        "id": 12461495621,
        "osm_type": "node",
        "name": "InXisto Lodges",
        "tourism": "hotel",
        "check_date": "2024-12-29"
      }
    },
    {
      "type": "Feature",
      "geometry": {
        "type": "Point",
        "coordinates": [
          -8.6203444,
          40.3956575
        ]
      },
      "properties": {
        "id": 12501188445,
        "osm_type": "node",
        "name": "Campo de Atividades e Formação Escutista",
        "tourism": "camp_site",
        "tents": "yes"
      }
    },
    {
      "type": "Feature",
      "geometry": {
        "type": "Point",
        "coordinates": [
          -8.4369995,
          40.2020814
        ]
      },
      "properties": {
        "id": 12650799495,
        "osm_type": "node",
        "name": "Albergue de Peregrinos Rainha Santa Isabel",
        "tourism": "hostel",
        "phone": "+351 911 736 610;+351 239 441 674"
      }
    },
    {
      "type": "Feature",
      "geometry": {
        "type": "Point",
        "coordinates": [
          -8.0562766,
          40.2191287
        ]
      },
      "properties": {
        "id": 12685876855,
        "osm_type": "node",
        "tourism": "caravan_site"
      }
    },
    {
      "type": "Feature",
      "geometry": {
        "type": "Point",
        "coordinates": [
          -8.8650866,
          40.1521498
        ]
      },
      "properties": {
        "id": 12693537369,
        "osm_type": "node",
        "name": "Hotel Aviz",
        "tourism": "hotel"
      }
    },
    {
      "type": "Feature",
      "geometry": {
        "type": "Point",
        "coordinates": [
          -8.4216018,
          40.2113685
        ]
      },
      "properties": {
        "id": 12824344476,
        "osm_type": "node",
        "name": "Njoy Coimbra",
        "tourism": "guest_house",
        "phone": "+351 960 260292;+351 910 380280",
        "website": "https://www.njoycoimbra.pt",
        "check_date": "2025-05-09"
      }
    },
    {
      "type": "Feature",
      "geometry": {
        "type": "Point",
        "coordinates": [
          -8.8580505,
          40.1488527
        ]
      },
      "properties": {
        "id": 12982089042,
        "osm_type": "node",
        "name": "Hotel Dona Maria",
        "tourism": "hotel",
        "phone": "+351 233 099 400",
        "website": "https://donamariahotel.pt",
        "check_date": "2025-07-06"
      }
    },
    {
      "type": "Feature",
      "geometry": {
        "type": "Point",
        "coordinates": [
          -8.1514635,
          40.273286
        ]
      },
      "properties": {
        "id": 12985204551,
        "osm_type": "node",
        "name": "Vumba - Agroturismo",
        "tourism": "guest_house",
        "phone": "+351910002354",
        "website": "https://vumba.pt/"
      }
    },
    {
      "type": "Feature",
      "geometry": {
        "type": "Point",
        "coordinates": [
          -8.4289771,
          40.2069103
        ]
      },
      "properties": {
        "id": 13186303001,
        "osm_type": "node",
        "name": "River House",
        "tourism": "guest_house"
      }
    },
    {
      "type": "Feature",
      "geometry": {
        "type": "Point",
        "coordinates": [
          -8.7516995,
          40.3140227
        ]
      },
      "properties": {
        "id": 13206441642,
        "osm_type": "node",
        "name": "Moradia Alegre",
        "tourism": "guest_house",
        "phone": "+351 967 409382"
      }
    },
    {
      "type": "Feature",
      "geometry": {
        "type": "Point",
        "coordinates": [
          -8.3271754,
          40.0979495
        ]
      },
      "properties": {
        "id": 13454313855,
        "osm_type": "node",
        "name": "Quinta do Viso",
        "tourism": "hotel"
      }
    },
    {
      "type": "Feature",
      "geometry": {
        "type": "Point",
        "coordinates": [
          -8.4722332,
          40.1283503
        ]
      },
      "properties": {
        "id": 13502587901,
        "osm_type": "node",
        "name": "Casa Amazon",
        "tourism": "hostel"
      }
    },
    {
      "type": "Feature",
      "geometry": {
        "type": "Point",
        "coordinates": [
          -8.4286246,
          40.2084608
        ]
      },
      "properties": {
        "id": 13591798419,
        "osm_type": "node",
        "name": "Casa de Almedina",
        "tourism": "apartment"
      }
    },
    {
      "type": "Feature",
      "geometry": {
        "type": "Point",
        "coordinates": [
          -8.4302456,
          40.2099484
        ]
      },
      "properties": {
        "id": 13591878007,
        "osm_type": "node",
        "name": "Coimbra City Charm",
        "tourism": "apartment",
        "phone": "+351 965 373 966",
        "website": "https://coimbracitycharm.com"
      }
    },
    {
      "type": "Feature",
      "geometry": {
        "type": "Point",
        "coordinates": [
          -8.398668,
          40.1878289
        ]
      },
      "properties": {
        "id": 57041666,
        "osm_type": "way",
        "name": "Parque de Campismo de Coimbra",
        "tourism": "camp_site",
        "phone": "+351 239 086 902",
        "website": "https://coimbracamping.com/"
      }
    },
    {
      "type": "Feature",
      "geometry": {
        "type": "Point",
        "coordinates": [
          -8.4342834,
          40.1979424
        ]
      },
      "properties": {
        "id": 112545245,
        "osm_type": "way",
        "name": "Hotel Quinta das Lágrimas",
        "tourism": "hotel",
        "phone": "+351 239 802 380",
        "website": "https://www.quintadaslagrimas.pt/"
      }
    },
    {
      "type": "Feature",
      "geometry": {
        "type": "Point",
        "coordinates": [
          -7.8079986,
          40.3456958
        ]
      },
      "properties": {
        "id": 117526247,
        "osm_type": "way",
        "name": "Parque de Campismo de São Gião",
        "tourism": "camp_site"
      }
    },
    {
      "type": "Feature",
      "geometry": {
        "type": "Point",
        "coordinates": [
          -8.8587054,
          40.1178813
        ]
      },
      "properties": {
        "id": 141516532,
        "osm_type": "way",
        "name": "Orbitur Gala",
        "tourism": "camp_site"
      }
    },
    {
      "type": "Feature",
      "geometry": {
        "type": "Point",
        "coordinates": [
          -8.8643299,
          40.1595622
        ]
      },
      "properties": {
        "id": 142891732,
        "osm_type": "way",
        "name": "Malibu Foz Hotel",
        "tourism": "hotel",
        "phone": "+351 233 101 300",
        "website": "https://www.malibufoz.com/"
      }
    },
    {
      "type": "Feature",
      "geometry": {
        "type": "Point",
        "coordinates": [
          -8.4969414,
          40.1172226
        ]
      },
      "properties": {
        "id": 145405046,
        "osm_type": "way",
        "name": "Pousada de Condeixa Coimbra",
        "tourism": "hotel",
        "phone": "+351 239 944 025",
        "website": "http://www.pousadadecondeixa-coimbra.com"
      }
    },
    {
      "type": "Feature",
      "geometry": {
        "type": "Point",
        "coordinates": [
          -8.5840578,
          40.3462562
        ]
      },
      "properties": {
        "id": 145943182,
        "osm_type": "way",
        "name": "Marialvas Park Hotel",
        "tourism": "hotel"
      }
    },
    {
      "type": "Feature",
      "geometry": {
        "type": "Point",
        "coordinates": [
          -8.4311003,
          40.1901055
        ]
      },
      "properties": {
        "id": 174739185,
        "osm_type": "way",
        "name": "Best Western - Hotel Dom Luís",
        "tourism": "hotel"
      }
    },
    {
      "type": "Feature",
      "geometry": {
        "type": "Point",
        "coordinates": [
          -7.9175695,
          40.3072096
        ]
      },
      "properties": {
        "id": 180287153,
        "osm_type": "way",
        "name": "Flag Hotel Convento do Desagravo, Vila Pouca da Beira",
        "tourism": "hotel"
      }
    },
    {
      "type": "Feature",
      "geometry": {
        "type": "Point",
        "coordinates": [
          -7.8983652,
          40.2694614
        ]
      },
      "properties": {
        "id": 181093822,
        "osm_type": "way",
        "name": "Parque de Campismo da Bica",
        "tourism": "camp_site"
      }
    },
    {
      "type": "Feature",
      "geometry": {
        "type": "Point",
        "coordinates": [
          -7.8238595,
          40.2308464
        ]
      },
      "properties": {
        "id": 196924834,
        "osm_type": "way",
        "name": "Casa da Padaria",
        "tourism": "guest_house",
        "phone": "+351 235 732 773; +351 235 731 238; +351 964 889 498"
      }
    },
    {
      "type": "Feature",
      "geometry": {
        "type": "Point",
        "coordinates": [
          -7.8253241,
          40.2297576
        ]
      },
      "properties": {
        "id": 196928504,
        "osm_type": "way",
        "name": "Casa do Avô",
        "tourism": "guest_house",
        "phone": "+351 235732773;+351 235731238;+351 964889498"
      }
    },
    {
      "type": "Feature",
      "geometry": {
        "type": "Point",
        "coordinates": [
          -8.1111907,
          40.1557946
        ]
      },
      "properties": {
        "id": 208753226,
        "osm_type": "way",
        "name": "Residencial Casa Santo António",
        "tourism": "guest_house"
      }
    },
    {
      "type": "Feature",
      "geometry": {
        "type": "Point",
        "coordinates": [
          -8.4141737,
          40.2109937
        ]
      },
      "properties": {
        "id": 226687079,
        "osm_type": "way",
        "name": "Pousada de Juventude",
        "tourism": "hostel",
        "phone": "+351 239 829 228;+351 925 979 789"
      }
    },
    {
      "type": "Feature",
      "geometry": {
        "type": "Point",
        "coordinates": [
          -8.8842326,
          40.2199473
        ]
      },
      "properties": {
        "id": 231467929,
        "osm_type": "way",
        "name": "Parque de Campismo de Quiaios",
        "tourism": "camp_site",
        "tents": "yes"
      }
    },
    {
      "type": "Feature",
      "geometry": {
        "type": "Point",
        "coordinates": [
          -8.4266251,
          40.2089671
        ]
      },
      "properties": {
        "id": 239563393,
        "osm_type": "way",
        "name": "Serenata Hostel & Suites",
        "tourism": "hostel"
      }
    },
    {
      "type": "Feature",
      "geometry": {
        "type": "Point",
        "coordinates": [
          -8.7012501,
          40.4599458
        ]
      },
      "properties": {
        "id": 245041506,
        "osm_type": "way",
        "name": "Hotel Albergaria Quinta do Éden",
        "tourism": "hotel"
      }
    },
    {
      "type": "Feature",
      "geometry": {
        "type": "Point",
        "coordinates": [
          -8.8017284,
          40.4477576
        ]
      },
      "properties": {
        "id": 245247908,
        "osm_type": "way",
        "name": "Parque de Campismo Municipal de Mira",
        "tourism": "camp_site",
        "tents": "yes",
        "contact:phone": "+351 231 472 173",
        "website": "http://parquecampismo.cm-mira.pt/"
      }
    },
    {
      "type": "Feature",
      "geometry": {
        "type": "Point",
        "coordinates": [
          -8.8001704,
          40.4447596
        ]
      },
      "properties": {
        "id": 245248768,
        "osm_type": "way",
        "name": "Orbitur - Parque de Campismo da Praia de Mira",
        "tourism": "camp_site",
        "tents": "yes",
        "phone": "+351 231 471 234",
        "website": "https://www.orbitur.pt/pt/destinos/regiao-centro/orbitur-mira"
      }
    },
    {
      "type": "Feature",
      "geometry": {
        "type": "Point",
        "coordinates": [
          -8.7484864,
          40.451397
        ]
      },
      "properties": {
        "id": 245785237,
        "osm_type": "way",
        "name": "Herdade Lago Real",
        "tourism": "hotel",
        "website": "http://www.lagoareal.pt/"
      }
    },
    {
      "type": "Feature",
      "geometry": {
        "type": "Point",
        "coordinates": [
          -8.7561989,
          40.4478018
        ]
      },
      "properties": {
        "id": 245790451,
        "osm_type": "way",
        "name": "Vila Caia Camping",
        "tourism": "camp_site"
      }
    },
    {
      "type": "Feature",
      "geometry": {
        "type": "Point",
        "coordinates": [
          -8.7603891,
          40.4443522
        ]
      },
      "properties": {
        "id": 245804209,
        "osm_type": "way",
        "name": "Hotel Quinta da Lagoa",
        "tourism": "hotel",
        "contact:phone": "+351 231 458 688",
        "contact:website": "https://www.hotelquintadalagoa.pt/"
      }
    },
    {
      "type": "Feature",
      "geometry": {
        "type": "Point",
        "coordinates": [
          -8.7983539,
          40.4554545
        ]
      },
      "properties": {
        "id": 253987825,
        "osm_type": "way",
        "name": "Hotel Senhora da Conceição",
        "tourism": "hotel",
        "phone": "+351 231 471 645",
        "website": "https://www.hsdc.pt/"
      }
    },
    {
      "type": "Feature",
      "geometry": {
        "type": "Point",
        "coordinates": [
          -7.9467692,
          40.0438406
        ]
      },
      "properties": {
        "id": 258843391,
        "osm_type": "way",
        "tourism": "hotel"
      }
    },
    {
      "type": "Feature",
      "geometry": {
        "type": "Point",
        "coordinates": [
          -8.2535614,
          40.1460864
        ]
      },
      "properties": {
        "id": 259681802,
        "osm_type": "way",
        "name": "Quinta de Além do Ribeiro",
        "tourism": "guest_house",
        "phone": "+351 239 996 480",
        "website": "https://www.alemdoribeiro.com/"
      }
    },
    {
      "type": "Feature",
      "geometry": {
        "type": "Point",
        "coordinates": [
          -8.1980469,
          40.1582798
        ]
      },
      "properties": {
        "id": 261919707,
        "osm_type": "way",
        "name": "Parque Municipal de Campismo de Serpins",
        "tourism": "camp_site",
        "tents": "yes",
        "contact:phone": "+351 914 871 330; +351 239 401 084",
        "contact:website": "https://www.campismoserpins.pt/",
        "check_date": "2024-08-24"
      }
    },
    {
      "type": "Feature",
      "geometry": {
        "type": "Point",
        "coordinates": [
          -8.3742821,
          40.0230116
        ]
      },
      "properties": {
        "id": 264976308,
        "osm_type": "way",
        "name": "Duecitânia Design Hotel",
        "tourism": "hotel",
        "phone": "+351239700740",
        "website": "https://www.duecitania.pt/"
      }
    },
    {
      "type": "Feature",
      "geometry": {
        "type": "Point",
        "coordinates": [
          -8.4305105,
          40.2078186
        ]
      },
      "properties": {
        "id": 269860337,
        "osm_type": "way",
        "name": "Hotel Astória",
        "tourism": "hotel",
        "phone": "+351 239 853 020",
        "website": "https://www.almeidahotels.pt/pt/hotel-astoria-coimbra",
        "check_date": "2024-03-13"
      }
    },
    {
      "type": "Feature",
      "geometry": {
        "type": "Point",
        "coordinates": [
          -8.4266145,
          40.205234
        ]
      },
      "properties": {
        "id": 290622198,
        "osm_type": "way",
        "name": "Hotel Ibis",
        "tourism": "hotel",
        "phone": "+351 239 852 130",
        "website": "http://www.ibis.com/gb/hotel-1672-ibis-coimbra-centro/index.shtml"
      }
    },
    {
      "type": "Feature",
      "geometry": {
        "type": "Point",
        "coordinates": [
          -8.4328809,
          40.2117177
        ]
      },
      "properties": {
        "id": 299144636,
        "osm_type": "way",
        "name": "Just Stay Coimbra",
        "tourism": "hotel",
        "phone": "+351 239 855 500",
        "website": "https://www.stayhotels.pt/coimbra-centro/"
      }
    },
    {
      "type": "Feature",
      "geometry": {
        "type": "Point",
        "coordinates": [
          -8.7866726,
          40.4362015
        ]
      },
      "properties": {
        "id": 301862346,
        "osm_type": "way",
        "name": "Hotel Miravillas",
        "tourism": "hotel"
      }
    },
    {
      "type": "Feature",
      "geometry": {
        "type": "Point",
        "coordinates": [
          -8.7963357,
          40.443002
        ]
      },
      "properties": {
        "id": 301893371,
        "osm_type": "way",
        "name": "Mira Youth Hostel",
        "tourism": "hostel"
      }
    },
    {
      "type": "Feature",
      "geometry": {
        "type": "Point",
        "coordinates": [
          -7.9029086,
          40.4069712
        ]
      },
      "properties": {
        "id": 329354085,
        "osm_type": "way",
        "name": "Quinta do Pisão",
        "tourism": "guest_house"
      }
    },
    {
      "type": "Feature",
      "geometry": {
        "type": "Point",
        "coordinates": [
          -7.8902044,
          40.4186851
        ]
      },
      "properties": {
        "id": 329354087,
        "osm_type": "way",
        "name": "Solar de Ervedal da Beira",
        "tourism": "guest_house"
      }
    },
    {
      "type": "Feature",
      "geometry": {
        "type": "Point",
        "coordinates": [
          -7.8264166,
          40.4036794
        ]
      },
      "properties": {
        "id": 342312826,
        "osm_type": "way",
        "name": "Toca da Raposa",
        "tourism": "camp_site",
        "opening_hours": "Mar-Oct",
        "tents": "yes",
        "phone": "+351 926 704218",
        "website": "http://www.toca-da-raposa.com"
      }
    },
    {
      "type": "Feature",
      "geometry": {
        "type": "Point",
        "coordinates": [
          -8.5933573,
          40.2262652
        ]
      },
      "properties": {
        "id": 352868384,
        "osm_type": "way",
        "name": "Quinta das Tamengas",
        "tourism": "guest_house",
        "phone": "+351 966 813 906"
      }
    },
    {
      "type": "Feature",
      "geometry": {
        "type": "Point",
        "coordinates": [
          -7.8296363,
          40.2307841
        ]
      },
      "properties": {
        "id": 358125897,
        "osm_type": "way",
        "name": "Inatel Piódão",
        "tourism": "hotel"
      }
    },
    {
      "type": "Feature",
      "geometry": {
        "type": "Point",
        "coordinates": [
          -7.8016952,
          40.04724
        ]
      },
      "properties": {
        "id": 372291416,
        "osm_type": "way",
        "name": "Parque de Campismo de Janeiro de Baixo",
        "tourism": "camp_site",
        "website": "https://xistocamping.com/portal/en/home/"
      }
    },
    {
      "type": "Feature",
      "geometry": {
        "type": "Point",
        "coordinates": [
          -8.4015974,
          40.1843233
        ]
      },
      "properties": {
        "id": 379862938,
        "osm_type": "way",
        "tourism": "apartment"
      }
    },
    {
      "type": "Feature",
      "geometry": {
        "type": "Point",
        "coordinates": [
          -8.4360428,
          40.2137991
        ]
      },
      "properties": {
        "id": 380028526,
        "osm_type": "way",
        "name": "Hotel Vila Galé",
        "tourism": "hotel"
      }
    },
    {
      "type": "Feature",
      "geometry": {
        "type": "Point",
        "coordinates": [
          -8.6292464,
          40.20638
        ]
      },
      "properties": {
        "id": 404800153,
        "osm_type": "way",
        "name": "Hotel Garça Real",
        "tourism": "hotel"
      }
    },
    {
      "type": "Feature",
      "geometry": {
        "type": "Point",
        "coordinates": [
          -8.8580299,
          40.1662957
        ]
      },
      "properties": {
        "id": 436738565,
        "osm_type": "way",
        "name": "Parque de Campismo da Figueira da Foz",
        "tourism": "camp_site",
        "tents": "yes",
        "phone": "+351233209051",
        "website": "https://pcampismo.cm-figfoz.pt/"
      }
    },
    {
      "type": "Feature",
      "geometry": {
        "type": "Point",
        "coordinates": [
          -7.9965646,
          40.2675701
        ]
      },
      "properties": {
        "id": 437770231,
        "osm_type": "way",
        "name": "Parque de Campismo de Côja",
        "tourism": "camp_site",
        "tents": "yes",
        "phone": "+351 235 729 666"
      }
    },
    {
      "type": "Feature",
      "geometry": {
        "type": "Point",
        "coordinates": [
          -8.6263107,
          40.0551858
        ]
      },
      "properties": {
        "id": 438852946,
        "osm_type": "way",
        "tourism": "caravan_site"
      }
    },
    {
      "type": "Feature",
      "geometry": {
        "type": "Point",
        "coordinates": [
          -8.4264176,
          40.2087329
        ]
      },
      "properties": {
        "id": 473280733,
        "osm_type": "way",
        "name": "Hostel Sé Velha",
        "tourism": "hostel"
      }
    },
    {
      "type": "Feature",
      "geometry": {
        "type": "Point",
        "coordinates": [
          -8.4186482,
          40.2077354
        ]
      },
      "properties": {
        "id": 473305620,
        "osm_type": "way",
        "name": "Casa São Bento",
        "tourism": "guest_house",
        "phone": "+351 914411128",
        "website": "http://www.casadesaobento.com"
      }
    },
    {
      "type": "Feature",
      "geometry": {
        "type": "Point",
        "coordinates": [
          -8.4210488,
          40.2114645
        ]
      },
      "properties": {
        "id": 473305669,
        "osm_type": "way",
        "name": "AQ Guesthouse",
        "tourism": "guest_house",
        "website": "https://aq188guesthouse.com/"
      }
    },
    {
      "type": "Feature",
      "geometry": {
        "type": "Point",
        "coordinates": [
          -8.4318722,
          40.2091879
        ]
      },
      "properties": {
        "id": 473330952,
        "osm_type": "way",
        "name": "Hotel Bragança",
        "tourism": "hotel",
        "phone": "+351 239 822 171",
        "website": "http://hotel-braganca.com/"
      }
    },
    {
      "type": "Feature",
      "geometry": {
        "type": "Point",
        "coordinates": [
          -8.4280898,
          40.2063422
        ]
      },
      "properties": {
        "id": 473330963,
        "osm_type": "way",
        "name": "Zero Box Lodge",
        "tourism": "hotel",
        "website": "https://coimbra.thezerohotels.com/"
      }
    },
    {
      "type": "Feature",
      "geometry": {
        "type": "Point",
        "coordinates": [
          -8.4313873,
          40.2087387
        ]
      },
      "properties": {
        "id": 473335593,
        "osm_type": "way",
        "name": "Hotel Mondego",
        "tourism": "hotel",
        "phone": "+351 239 496 239",
        "website": "https://hotelmondego.com"
      }
    },
    {
      "type": "Feature",
      "geometry": {
        "type": "Point",
        "coordinates": [
          -8.4262527,
          40.2063635
        ]
      },
      "properties": {
        "id": 473522662,
        "osm_type": "way",
        "name": "Alto Canto",
        "tourism": "guest_house",
        "phone": "+351 912 166 336",
        "website": "https://altocanto.pt/"
      }
    },
    {
      "type": "Feature",
      "geometry": {
        "type": "Point",
        "coordinates": [
          -7.8665763,
          40.4376266
        ]
      },
      "properties": {
        "id": 478727772,
        "osm_type": "way",
        "name": "Casa Ci",
        "tourism": "hostel"
      }
    },
    {
      "type": "Feature",
      "geometry": {
        "type": "Point",
        "coordinates": [
          -8.8696805,
          40.0879755
        ]
      },
      "properties": {
        "id": 524902563,
        "osm_type": "way",
        "name": "Parque da Juventude Adventista (Campismo)",
        "tourism": "camp_site"
      }
    },
    {
      "type": "Feature",
      "geometry": {
        "type": "Point",
        "coordinates": [
          -8.0528747,
          40.2198733
        ]
      },
      "properties": {
        "id": 534544197,
        "osm_type": "way",
        "name": "Hotel de Arganil",
        "tourism": "hotel",
        "phone": "+351 235 205 959"
      }
    },
    {
      "type": "Feature",
      "geometry": {
        "type": "Point",
        "coordinates": [
          -7.8623833,
          40.3595822
        ]
      },
      "properties": {
        "id": 539278311,
        "osm_type": "way",
        "tourism": "hostel"
      }
    },
    {
      "type": "Feature",
      "geometry": {
        "type": "Point",
        "coordinates": [
          -8.4315361,
          40.2093108
        ]
      },
      "properties": {
        "id": 552552997,
        "osm_type": "way",
        "name": "Hotel Oslo",
        "tourism": "hotel",
        "phone": "+351 239 829 071",
        "website": "https://www.hoteloslo-coimbra.pt/",
        "check_date": "2025-09-29"
      }
    },
    {
      "type": "Feature",
      "geometry": {
        "type": "Point",
        "coordinates": [
          -7.9618541,
          40.2861132
        ]
      },
      "properties": {
        "id": 569472476,
        "osm_type": "way",
        "name": "Área de Serviço de Autocaravanas de Barril de Alva",
        "tourism": "caravan_site"
      }
    },
    {
      "type": "Feature",
      "geometry": {
        "type": "Point",
        "coordinates": [
          -7.8666335,
          40.3333679
        ]
      },
      "properties": {
        "id": 579941752,
        "osm_type": "way",
        "tourism": "caravan_site"
      }
    },
    {
      "type": "Feature",
      "geometry": {
        "type": "Point",
        "coordinates": [
          -7.8673863,
          40.3336101
        ]
      },
      "properties": {
        "id": 579941753,
        "osm_type": "way",
        "name": "Serra da Estrela-Oeste",
        "tourism": "caravan_site"
      }
    },
    {
      "type": "Feature",
      "geometry": {
        "type": "Point",
        "coordinates": [
          -7.8924747,
          40.3062338
        ]
      },
      "properties": {
        "id": 582370103,
        "osm_type": "way",
        "name": "Quinta da Madrugada",
        "tourism": "apartment"
      }
    },
    {
      "type": "Feature",
      "geometry": {
        "type": "Point",
        "coordinates": [
          -8.1135931,
          40.1539493
        ]
      },
      "properties": {
        "id": 604774409,
        "osm_type": "way",
        "name": "Góis Camping",
        "tourism": "camp_site",
        "tents": "yes",
        "contact:phone": "+351 235 772 034; +351 961 401 859",
        "contact:website": "https://goiscamping.com"
      }
    },
    {
      "type": "Feature",
      "geometry": {
        "type": "Point",
        "coordinates": [
          -8.4868127,
          40.2380457
        ]
      },
      "properties": {
        "id": 619410020,
        "osm_type": "way",
        "name": "Quinta do Regalo",
        "tourism": "guest_house",
        "website": "https://quintadoregalo.com/"
      }
    },
    {
      "type": "Feature",
      "geometry": {
        "type": "Point",
        "coordinates": [
          -8.1087966,
          40.1643244
        ]
      },
      "properties": {
        "id": 623215245,
        "osm_type": "way",
        "tourism": "caravan_site"
      }
    },
    {
      "type": "Feature",
      "geometry": {
        "type": "Point",
        "coordinates": [
          -8.8737912,
          40.0877406
        ]
      },
      "properties": {
        "id": 647443408,
        "osm_type": "way",
        "name": "Área de camping-car de Lavos",
        "tourism": "caravan_site",
        "tents": "no",
        "website": "https://www.campingcarpark.com/pt_PT/estadias-autocaravanas/coimbra/figueira-da-foz/lavos"
      }
    },
    {
      "type": "Feature",
      "geometry": {
        "type": "Point",
        "coordinates": [
          -7.8714044,
          40.3076485
        ]
      },
      "properties": {
        "id": 656618636,
        "osm_type": "way",
        "name": "Alva Valley Hotel",
        "tourism": "hotel"
      }
    },
    {
      "type": "Feature",
      "geometry": {
        "type": "Point",
        "coordinates": [
          -8.1125846,
          40.1518638
        ]
      },
      "properties": {
        "id": 667767364,
        "osm_type": "way",
        "name": "Centro de Atividades Escotistas Capital do Ceira",
        "tourism": "camp_site"
      }
    },
    {
      "type": "Feature",
      "geometry": {
        "type": "Point",
        "coordinates": [
          -8.7955764,
          40.4433755
        ]
      },
      "properties": {
        "id": 687792902,
        "osm_type": "way",
        "name": "Parque de Campismo de Jovens",
        "tourism": "camp_site"
      }
    },
    {
      "type": "Feature",
      "geometry": {
        "type": "Point",
        "coordinates": [
          -8.4059807,
          40.1979216
        ]
      },
      "properties": {
        "id": 698028136,
        "osm_type": "way",
        "name": "Coimbra INN",
        "tourism": "guest_house"
      }
    },
    {
      "type": "Feature",
      "geometry": {
        "type": "Point",
        "coordinates": [
          -7.9313263,
          40.2253698
        ]
      },
      "properties": {
        "id": 714731119,
        "osm_type": "way",
        "name": "Alojamento e Restaurante Pardieiros",
        "tourism": "hostel"
      }
    },
    {
      "type": "Feature",
      "geometry": {
        "type": "Point",
        "coordinates": [
          -8.0278765,
          40.3607145
        ]
      },
      "properties": {
        "id": 739796639,
        "osm_type": "way",
        "name": "Luna Hotel de Tábua",
        "tourism": "hotel",
        "check_date": "2025-04-12"
      }
    },
    {
      "type": "Feature",
      "geometry": {
        "type": "Point",
        "coordinates": [
          -8.4458831,
          40.0537199
        ]
      },
      "properties": {
        "id": 750666861,
        "osm_type": "way",
        "name": "Casa das Raposas",
        "tourism": "hostel",
        "phone": "+351 965 006 277"
      }
    },
    {
      "type": "Feature",
      "geometry": {
        "type": "Point",
        "coordinates": [
          -8.4358734,
          40.1985627
        ]
      },
      "properties": {
        "id": 767981508,
        "osm_type": "way",
        "name": "CoimbraAmeias",
        "tourism": "hotel"
      }
    },
    {
      "type": "Feature",
      "geometry": {
        "type": "Point",
        "coordinates": [
          -8.4364237,
          40.214505
        ]
      },
      "properties": {
        "id": 787281901,
        "osm_type": "way",
        "name": "Hotel Dona Inês",
        "tourism": "hotel"
      }
    },
    {
      "type": "Feature",
      "geometry": {
        "type": "Point",
        "coordinates": [
          -7.8827171,
          40.2648655
        ]
      },
      "properties": {
        "id": 799346186,
        "osm_type": "way",
        "name": "Casa da Alfazema",
        "tourism": "apartment"
      }
    },
    {
      "type": "Feature",
      "geometry": {
        "type": "Point",
        "coordinates": [
          -7.8414717,
          40.3040687
        ]
      },
      "properties": {
        "id": 834338333,
        "osm_type": "way",
        "name": "Quinta da Moenda",
        "tourism": "hotel"
      }
    },
    {
      "type": "Feature",
      "geometry": {
        "type": "Point",
        "coordinates": [
          -7.8796004,
          40.3361122
        ]
      },
      "properties": {
        "id": 840979096,
        "osm_type": "way",
        "name": "Casa do Penedo",
        "tourism": "guest_house"
      }
    },
    {
      "type": "Feature",
      "geometry": {
        "type": "Point",
        "coordinates": [
          -8.4291316,
          40.2074976
        ]
      },
      "properties": {
        "id": 841539093,
        "osm_type": "way",
        "name": "CBR Boutique Hotel",
        "tourism": "hotel"
      }
    },
    {
      "type": "Feature",
      "geometry": {
        "type": "Point",
        "coordinates": [
          -7.8903586,
          40.3391954
        ]
      },
      "properties": {
        "id": 846770501,
        "osm_type": "way",
        "name": "Quinta da Regada",
        "tourism": "guest_house"
      }
    },
    {
      "type": "Feature",
      "geometry": {
        "type": "Point",
        "coordinates": [
          -8.7397941,
          40.0852681
        ]
      },
      "properties": {
        "id": 923857326,
        "osm_type": "way",
        "name": "Termas do Bicanho Palace Hotel & Spa",
        "tourism": "hotel",
        "phone": "+351 239 580 020;+351 966 786 088",
        "website": "https://termasdobicanho.com/"
      }
    },
    {
      "type": "Feature",
      "geometry": {
        "type": "Point",
        "coordinates": [
          -8.4269677,
          40.2054758
        ]
      },
      "properties": {
        "id": 929415836,
        "osm_type": "way",
        "name": "Hotel Jardim",
        "tourism": "hotel",
        "phone": "+351239825204"
      }
    },
    {
      "type": "Feature",
      "geometry": {
        "type": "Point",
        "coordinates": [
          -8.7398684,
          40.0817212
        ]
      },
      "properties": {
        "id": 929918358,
        "osm_type": "way",
        "tourism": "camp_site"
      }
    },
    {
      "type": "Feature",
      "geometry": {
        "type": "Point",
        "coordinates": [
          -8.4138318,
          40.215873
        ]
      },
      "properties": {
        "id": 930785929,
        "osm_type": "way",
        "name": "Hotel Coimbra Aeminium",
        "tourism": "hotel",
        "contact:phone": "+351 239 480 800",
        "website": "https://melia.com/en/hotels/portugal/coimbra/hotel-coimbra-aeminium-by-melia"
      }
    },
    {
      "type": "Feature",
      "geometry": {
        "type": "Point",
        "coordinates": [
          -7.8590954,
          40.3604119
        ]
      },
      "properties": {
        "id": 936677828,
        "osm_type": "way",
        "name": "Hotel S. Paulo",
        "tourism": "hotel"
      }
    },
    {
      "type": "Feature",
      "geometry": {
        "type": "Point",
        "coordinates": [
          -7.9768051,
          40.1623266
        ]
      },
      "properties": {
        "id": 981458364,
        "osm_type": "way",
        "tourism": "camp_site"
      }
    },
    {
      "type": "Feature",
      "geometry": {
        "type": "Point",
        "coordinates": [
          -7.842171,
          40.3269711
        ]
      },
      "properties": {
        "id": 993010269,
        "osm_type": "way",
        "name": "Aqua Village Health Resort & Spa",
        "tourism": "hotel",
        "phone": "+351 238249040",
        "website": "https://www.aquavillage.pt/"
      }
    },
    {
      "type": "Feature",
      "geometry": {
        "type": "Point",
        "coordinates": [
          -7.9879487,
          40.1354309
        ]
      },
      "properties": {
        "id": 1083893330,
        "osm_type": "way",
        "name": "Casa da Amoreira",
        "tourism": "guest_house"
      }
    },
    {
      "type": "Feature",
      "geometry": {
        "type": "Point",
        "coordinates": [
          -7.9881258,
          40.1356991
        ]
      },
      "properties": {
        "id": 1083893331,
        "osm_type": "way",
        "name": "Casa da Cancelinha",
        "tourism": "guest_house"
      }
    },
    {
      "type": "Feature",
      "geometry": {
        "type": "Point",
        "coordinates": [
          -7.8665364,
          40.3174922
        ]
      },
      "properties": {
        "id": 1084046600,
        "osm_type": "way",
        "name": "Olhar Sobre o Alva - Turismo Rural",
        "tourism": "hotel"
      }
    },
    {
      "type": "Feature",
      "geometry": {
        "type": "Point",
        "coordinates": [
          -7.9167543,
          40.3136151
        ]
      },
      "properties": {
        "id": 1084048584,
        "osm_type": "way",
        "name": "Quinta do ìnsua",
        "tourism": "apartment"
      }
    },
    {
      "type": "Feature",
      "geometry": {
        "type": "Point",
        "coordinates": [
          -8.5342073,
          40.228792
        ]
      },
      "properties": {
        "id": 1084960609,
        "osm_type": "way",
        "name": "Palácio de São Silvestre Boutique Hotel",
        "tourism": "hotel",
        "phone": "+351 239 490 050",
        "website": "https://www.palaciosaosilvestre.com/"
      }
    },
    {
      "type": "Feature",
      "geometry": {
        "type": "Point",
        "coordinates": [
          -8.5868051,
          40.222781
        ]
      },
      "properties": {
        "id": 1084974592,
        "osm_type": "way",
        "name": "Quinta do Mourão",
        "tourism": "guest_house"
      }
    },
    {
      "type": "Feature",
      "geometry": {
        "type": "Point",
        "coordinates": [
          -8.2785486,
          40.2657825
        ]
      },
      "properties": {
        "id": 1089579397,
        "osm_type": "way",
        "name": "Parque de Campismo de Penacova",
        "tourism": "camp_site",
        "phone": "+351 239 477 464"
      }
    },
    {
      "type": "Feature",
      "geometry": {
        "type": "Point",
        "coordinates": [
          -7.8096181,
          40.3369732
        ]
      },
      "properties": {
        "id": 1089816515,
        "osm_type": "way",
        "name": "Quinta dos Barbas",
        "tourism": "apartment"
      }
    },
    {
      "type": "Feature",
      "geometry": {
        "type": "Point",
        "coordinates": [
          -8.8713902,
          40.1622935
        ]
      },
      "properties": {
        "id": 1092940881,
        "osm_type": "way",
        "name": "Residencial Funchal",
        "tourism": "guest_house"
      }
    },
    {
      "type": "Feature",
      "geometry": {
        "type": "Point",
        "coordinates": [
          -7.8861177,
          40.2906669
        ]
      },
      "properties": {
        "id": 1095408149,
        "osm_type": "way",
        "name": "Quinta do Vale do Fidalgo",
        "tourism": "apartment"
      }
    },
    {
      "type": "Feature",
      "geometry": {
        "type": "Point",
        "coordinates": [
          -8.419572,
          40.2105241
        ]
      },
      "properties": {
        "id": 1098963966,
        "osm_type": "way",
        "name": "The Luggage",
        "tourism": "hostel",
        "phone": "+351 239 820 257",
        "website": "https://www.theluggage.pt/"
      }
    },
    {
      "type": "Feature",
      "geometry": {
        "type": "Point",
        "coordinates": [
          -8.8400516,
          40.3262944
        ]
      },
      "properties": {
        "id": 1120415519,
        "osm_type": "way",
        "name": "Parque de Campismo Municipal da Praia da Tocha",
        "tourism": "camp_site"
      }
    },
    {
      "type": "Feature",
      "geometry": {
        "type": "Point",
        "coordinates": [
          -8.7553866,
          40.1707485
        ]
      },
      "properties": {
        "id": 1125740662,
        "osm_type": "way",
        "name": "Quinta d'Anta Hotel Rural",
        "tourism": "hotel",
        "phone": "+351 233 937 000",
        "website": "https://quintadanta.pt"
      }
    },
    {
      "type": "Feature",
      "geometry": {
        "type": "Point",
        "coordinates": [
          -8.3944116,
          40.191767
        ]
      },
      "properties": {
        "id": 1139122505,
        "osm_type": "way",
        "name": "Coimbra Green Hostel",
        "tourism": "hostel"
      }
    },
    {
      "type": "Feature",
      "geometry": {
        "type": "Point",
        "coordinates": [
          -8.3823637,
          40.0271757
        ]
      },
      "properties": {
        "id": 1142191055,
        "osm_type": "way",
        "tourism": "chalet"
      }
    },
    {
      "type": "Feature",
      "geometry": {
        "type": "Point",
        "coordinates": [
          -8.3825881,
          40.0270543
        ]
      },
      "properties": {
        "id": 1142192340,
        "osm_type": "way",
        "tourism": "chalet"
      }
    },
    {
      "type": "Feature",
      "geometry": {
        "type": "Point",
        "coordinates": [
          -8.3818323,
          40.0269673
        ]
      },
      "properties": {
        "id": 1142192341,
        "osm_type": "way",
        "tourism": "chalet"
      }
    },
    {
      "type": "Feature",
      "geometry": {
        "type": "Point",
        "coordinates": [
          -8.3823377,
          40.027228
        ]
      },
      "properties": {
        "id": 1142192342,
        "osm_type": "way",
        "tourism": "chalet"
      }
    },
    {
      "type": "Feature",
      "geometry": {
        "type": "Point",
        "coordinates": [
          -8.3829553,
          40.0267501
        ]
      },
      "properties": {
        "id": 1142195343,
        "osm_type": "way",
        "tourism": "chalet"
      }
    },
    {
      "type": "Feature",
      "geometry": {
        "type": "Point",
        "coordinates": [
          -8.0673345,
          40.2408389
        ]
      },
      "properties": {
        "id": 1188462120,
        "osm_type": "way",
        "name": "Parque de Campismo Municipal de Arganil",
        "tourism": "camp_site",
        "tents": "yes",
        "phone": "+351 235 205 706;+351 235 200 133;+351 235 200 150"
      }
    },
    {
      "type": "Feature",
      "geometry": {
        "type": "Point",
        "coordinates": [
          -7.8591233,
          40.3630676
        ]
      },
      "properties": {
        "id": 1188730207,
        "osm_type": "way",
        "name": "ASA de Oliveira do Hospital",
        "tourism": "caravan_site"
      }
    },
    {
      "type": "Feature",
      "geometry": {
        "type": "Point",
        "coordinates": [
          -8.4196175,
          40.2077149
        ]
      },
      "properties": {
        "id": 1189541102,
        "osm_type": "way",
        "name": "Ibn-Arrik",
        "tourism": "hotel",
        "contact:phone": "+351 239 822 600;+351 239 822 601;+351 239 822 602",
        "website": "http://www.ibn-arrik.pt",
        "contact:website": "http://www.ibn-arrik.pt",
        "check_date": "2022-09-22"
      }
    },
    {
      "type": "Feature",
      "geometry": {
        "type": "Point",
        "coordinates": [
          -8.4261508,
          40.2066785
        ]
      },
      "properties": {
        "id": 1219443973,
        "osm_type": "way",
        "name": "Sapientia Boutique Hotel",
        "tourism": "hotel",
        "phone": "+351 239 151 803",
        "website": "https://www.sapientiahotel.com/"
      }
    },
    {
      "type": "Feature",
      "geometry": {
        "type": "Point",
        "coordinates": [
          -8.3919616,
          40.0417091
        ]
      },
      "properties": {
        "id": 1282042631,
        "osm_type": "way",
        "name": "Uxa Paraiso",
        "tourism": "camp_site",
        "phone": "+351 935844560",
        "website": "https://www.uxaparaiso.com/"
      }
    },
    {
      "type": "Feature",
      "geometry": {
        "type": "Point",
        "coordinates": [
          -8.0858307,
          40.2888255
        ]
      },
      "properties": {
        "id": 1282249324,
        "osm_type": "way",
        "name": "Parque do Cruzeiro",
        "tourism": "caravan_site"
      }
    },
    {
      "type": "Feature",
      "geometry": {
        "type": "Point",
        "coordinates": [
          -8.2682506,
          40.2792893
        ]
      },
      "properties": {
        "id": 1285721441,
        "osm_type": "way",
        "name": "Penacova",
        "tourism": "caravan_site",
        "tents": "no"
      }
    },
    {
      "type": "Feature",
      "geometry": {
        "type": "Point",
        "coordinates": [
          -7.9962849,
          40.3961168
        ]
      },
      "properties": {
        "id": 1286264704,
        "osm_type": "way",
        "name": "Encontro no Rio",
        "tourism": "apartment",
        "website": "https://www.encontro-no-rio.eu/"
      }
    },
    {
      "type": "Feature",
      "geometry": {
        "type": "Point",
        "coordinates": [
          -8.2536911,
          40.1187736
        ]
      },
      "properties": {
        "id": 1286399751,
        "osm_type": "way",
        "name": "Quinta Portugal Travelling",
        "tourism": "caravan_site",
        "opening_hours": "24/7",
        "phone": "+351 915685895",
        "website": "https://portugaltravelling.com/"
      }
    },
    {
      "type": "Feature",
      "geometry": {
        "type": "Point",
        "coordinates": [
          -7.9524307,
          40.3790693
        ]
      },
      "properties": {
        "id": 1296737217,
        "osm_type": "way",
        "name": "Quinta dos Sobreiros",
        "tourism": "chalet"
      }
    },
    {
      "type": "Feature",
      "geometry": {
        "type": "Point",
        "coordinates": [
          -7.9524392,
          40.3783143
        ]
      },
      "properties": {
        "id": 1296741880,
        "osm_type": "way",
        "name": "Wibbel Wobbel",
        "tourism": "chalet",
        "website": "https://portugalbyhorse.com"
      }
    },
    {
      "type": "Feature",
      "geometry": {
        "type": "Point",
        "coordinates": [
          -7.9509116,
          40.378512
        ]
      },
      "properties": {
        "id": 1296741884,
        "osm_type": "way",
        "name": "Cottage Alegria",
        "tourism": "chalet",
        "website": "https://portugalbyhorse.com"
      }
    },
    {
      "type": "Feature",
      "geometry": {
        "type": "Point",
        "coordinates": [
          -7.9510229,
          40.3784519
        ]
      },
      "properties": {
        "id": 1296741885,
        "osm_type": "way",
        "name": "Accommodation Pedra",
        "tourism": "chalet",
        "website": "https://portugalbyhorse.com"
      }
    },
    {
      "type": "Feature",
      "geometry": {
        "type": "Point",
        "coordinates": [
          -8.3338358,
          40.0770245
        ]
      },
      "properties": {
        "id": 1309015124,
        "osm_type": "way",
        "name": "Equitare Rural",
        "tourism": "hotel",
        "phone": "+351961690504",
        "website": "https://www.equitarerural.com/"
      }
    },
    {
      "type": "Feature",
      "geometry": {
        "type": "Point",
        "coordinates": [
          -8.4311593,
          40.2086369
        ]
      },
      "properties": {
        "id": 1341438263,
        "osm_type": "way",
        "name": "Hotel Vitória",
        "tourism": "hotel",
        "phone": "+351 239 824 049",
        "website": "https://www.hotelvitoria.pt/"
      }
    },
    {
      "type": "Feature",
      "geometry": {
        "type": "Point",
        "coordinates": [
          -8.6204321,
          40.3957166
        ]
      },
      "properties": {
        "id": 1353128214,
        "osm_type": "way",
        "tourism": "camp_site"
      }
    },
    {
      "type": "Feature",
      "geometry": {
        "type": "Point",
        "coordinates": [
          -8.2421174,
          40.1125492
        ]
      },
      "properties": {
        "id": 1370393340,
        "osm_type": "way",
        "name": "HI Lousã - Pousada de Juventude",
        "tourism": "hostel",
        "phone": "+351 239 996 384;+351 925 664 984",
        "website": "https://www.pousadasjuventude.pt/pt/pousadas/pousada-da-lousa/"
      }
    },
    {
      "type": "Feature",
      "geometry": {
        "type": "Point",
        "coordinates": [
          -8.1134251,
          40.1555597
        ]
      },
      "properties": {
        "id": 1445382392,
        "osm_type": "way",
        "name": "Casa de Campo Vale do Ceira",
        "tourism": "guest_house",
        "phone": "+351 969 834 792",
        "website": "https://www.facebook.com/casadecampovaledoceira/"
      }
    },
    {
      "type": "Feature",
      "geometry": {
        "type": "Point",
        "coordinates": [
          -8.7562853,
          40.3060868
        ]
      },
      "properties": {
        "id": 1467269826,
        "osm_type": "way",
        "name": "Hotel Arcada",
        "tourism": "hotel"
      }
    },
    {
      "type": "Feature",
      "geometry": {
        "type": "Point",
        "coordinates": [
          -8.7564541,
          40.3062367
        ]
      },
      "properties": {
        "id": 1467269828,
        "osm_type": "way",
        "tourism": "hotel"
      }
    },
    {
      "type": "Feature",
      "geometry": {
        "type": "Point",
        "coordinates": [
          -8.2646316,
          40.1564472
        ]
      },
      "properties": {
        "id": 1490182620,
        "osm_type": "way",
        "name": "Campo de Férias Conde de Foz de Arouce",
        "tourism": "camp_site"
      }
    },
    {
      "type": "Feature",
      "geometry": {
        "type": "Point",
        "coordinates": [
          -8.4424589,
          40.2588824
        ]
      },
      "properties": {
        "id": 7284480,
        "osm_type": "relation",
        "name": "Fonte dos Amores",
        "tourism": "motel",
        "phone": "+351 239 433 050",
        "website": "https://www.fontedosamores.pt/"
      }
    },
    {
      "type": "Feature",
      "geometry": {
        "type": "Point",
        "coordinates": [
          -7.800714,
          40.3626299
        ]
      },
      "properties": {
        "id": 18847027,
        "osm_type": "relation",
        "name": "Pousada de Santa Bárbara",
        "tourism": "hotel",
        "website": "https://www.cm-oliveiradohospital.pt/index.php/turismo/patrimonio-nacional/patrimonio-classificado-de-interese-publico-iip/item/1159-pousada-de-santa-barbara"
      }
    }
  ]
}