{
  "type": "FeatureCollection",
  "features": [
    {
      "type": "Feature",
      "geometry": {
        "type": "Point",
        "coordinates": [
          26.637236,
          45.153453
        ]
      },
      "properties": {
        "id": 282327676,
        "osm_type": "node",
        "name": "Pensiunea Casa cu Tei",
        "tourism": "guest_house",
        "phone": "+4 0238 751 255;+4 0745 286 983;+4 0753 025 124",
        "website": "https://casacutei.ro/"
      }
    },
    {
      "type": "Feature",
      "geometry": {
        "type": "Point",
        "coordinates": [
          26.7142767,
          45.3598931
        ]
      },
      "properties": {
        "id": 304559713,
        "osm_type": "node",
        "name": "Vulcanii Noroioși",
        "tourism": "hotel"
      }
    },
    {
      "type": "Feature",
      "geometry": {
        "type": "Point",
        "coordinates": [
          26.6156591,
          45.456508
        ]
      },
      "properties": {
        "id": 304561647,
        "osm_type": "node",
        "name": "Campare",
        "tourism": "camp_site"
      }
    },
    {
      "type": "Feature",
      "geometry": {
        "type": "Point",
        "coordinates": [
          26.8258302,
          45.1437418
        ]
      },
      "properties": {
        "id": 509896486,
        "osm_type": "node",
        "name": "Hotel Bucegi",
        "tourism": "hotel"
      }
    },
    {
      "type": "Feature",
      "geometry": {
        "type": "Point",
        "coordinates": [
          27.0531724,
          45.3852865
        ]
      },
      "properties": {
        "id": 512099041,
        "osm_type": "node",
        "name": "Spot",
        "tourism": "motel"
      }
    },
    {
      "type": "Feature",
      "geometry": {
        "type": "Point",
        "coordinates": [
          26.632947,
          45.1494667
        ]
      },
      "properties": {
        "id": 567328718,
        "osm_type": "node",
        "name": "Ceres",
        "tourism": "hotel"
      }
    },
    {
      "type": "Feature",
      "geometry": {
        "type": "Point",
        "coordinates": [
          26.6211163,
          45.1541371
        ]
      },
      "properties": {
        "id": 567531541,
        "osm_type": "node",
        "name": "Pensiunea \"La Paducel\"",
        "tourism": "hotel"
      }
    },
    {
      "type": "Feature",
      "geometry": {
        "type": "Point",
        "coordinates": [
          26.6356964,
          45.1527381
        ]
      },
      "properties": {
        "id": 567531545,
        "osm_type": "node",
        "name": "Pensiunea Cerbul",
        "tourism": "guest_house"
      }
    },
    {
      "type": "Feature",
      "geometry": {
        "type": "Point",
        "coordinates": [
          26.6379064,
          45.148681
        ]
      },
      "properties": {
        "id": 567531553,
        "osm_type": "node",
        "name": "Pensiunea Mon Ami",
        "tourism": "guest_house"
      }
    },
    {
      "type": "Feature",
      "geometry": {
        "type": "Point",
        "coordinates": [
          26.6379112,
          45.149712
        ]
      },
      "properties": {
        "id": 567531613,
        "osm_type": "node",
        "name": "Pensiunea Mădălin",
        "tourism": "guest_house"
      }
    },
    {
      "type": "Feature",
      "geometry": {
        "type": "Point",
        "coordinates": [
          26.819784,
          45.1533231
        ]
      },
      "properties": {
        "id": 960110588,
        "osm_type": "node",
        "name": "Hotel Corona",
        "tourism": "hotel",
        "phone": "0238 710 084"
      }
    },
    {
      "type": "Feature",
      "geometry": {
        "type": "Point",
        "coordinates": [
          26.8291437,
          45.1601007
        ]
      },
      "properties": {
        "id": 960110767,
        "osm_type": "node",
        "name": "Hotel Sport B'90",
        "tourism": "hotel",
        "phone": "0238 720 222",
        "website": "https://www.b90.ro/"
      }
    },
    {
      "type": "Feature",
      "geometry": {
        "type": "Point",
        "coordinates": [
          26.4424833,
          45.5111541
        ]
      },
      "properties": {
        "id": 1538403255,
        "osm_type": "node",
        "name": "Pensiunea Varlaam",
        "tourism": "guest_house"
      }
    },
    {
      "type": "Feature",
      "geometry": {
        "type": "Point",
        "coordinates": [
          26.7101182,
          45.3471313
        ]
      },
      "properties": {
        "id": 1745248549,
        "osm_type": "node",
        "name": "Camping La Hangar",
        "tourism": "camp_site",
        "website": "http://www.campercontact.de/campersite/detail/id/23386"
      }
    },
    {
      "type": "Feature",
      "geometry": {
        "type": "Point",
        "coordinates": [
          26.5565008,
          45.2154544
        ]
      },
      "properties": {
        "id": 1813764934,
        "osm_type": "node",
        "name": "Hotel McPietroasa",
        "tourism": "hotel",
        "website": "http://www.hotelpietroasa.ro/mcpietroasa_index.htm"
      }
    },
    {
      "type": "Feature",
      "geometry": {
        "type": "Point",
        "coordinates": [
          26.6331173,
          45.1483909
        ]
      },
      "properties": {
        "id": 1819118973,
        "osm_type": "node",
        "name": "Cazino",
        "tourism": "hotel",
        "phone": "0238451002",
        "website": "https://cazinomonteoru.ro/"
      }
    },
    {
      "type": "Feature",
      "geometry": {
        "type": "Point",
        "coordinates": [
          26.6386002,
          45.147274
        ]
      },
      "properties": {
        "id": 1819118974,
        "osm_type": "node",
        "name": "Pensiunea Caprice",
        "tourism": "guest_house",
        "phone": "0238451029",
        "website": "http://www.complexcaprice.com/"
      }
    },
    {
      "type": "Feature",
      "geometry": {
        "type": "Point",
        "coordinates": [
          26.6317425,
          45.1484262
        ]
      },
      "properties": {
        "id": 1819118975,
        "osm_type": "node",
        "name": "Pensiunea Casa Monteoru",
        "tourism": "guest_house",
        "phone": "0722.353.955",
        "website": "http://casamonteoru.ro/"
      }
    },
    {
      "type": "Feature",
      "geometry": {
        "type": "Point",
        "coordinates": [
          26.6385711,
          45.1477072
        ]
      },
      "properties": {
        "id": 1819118976,
        "osm_type": "node",
        "name": "Pensiunea Favorit",
        "tourism": "guest_house",
        "website": "http://www.pensiunea-favorit.ro/"
      }
    },
    {
      "type": "Feature",
      "geometry": {
        "type": "Point",
        "coordinates": [
          26.6227213,
          45.1550027
        ]
      },
      "properties": {
        "id": 1819118977,
        "osm_type": "node",
        "name": "Pensiunea La Pădure",
        "tourism": "hostel",
        "phone": "0238451021"
      }
    },
    {
      "type": "Feature",
      "geometry": {
        "type": "Point",
        "coordinates": [
          26.6392697,
          45.1478692
        ]
      },
      "properties": {
        "id": 1819118978,
        "osm_type": "node",
        "name": "Pensiunea Duet",
        "tourism": "guest_house",
        "phone": "0238 451 053",
        "website": "http://www.pensiunealuminita.ro/"
      }
    },
    {
      "type": "Feature",
      "geometry": {
        "type": "Point",
        "coordinates": [
          26.3028628,
          45.4155613
        ]
      },
      "properties": {
        "id": 1845234876,
        "osm_type": "node",
        "name": "Pensiunea Roza",
        "tourism": "hotel"
      }
    },
    {
      "type": "Feature",
      "geometry": {
        "type": "Point",
        "coordinates": [
          26.4358805,
          45.4993705
        ]
      },
      "properties": {
        "id": 1860694085,
        "osm_type": "node",
        "name": "Pensiunea Montana",
        "tourism": "guest_house",
        "website": "https://montanavarlaam.ro/"
      }
    },
    {
      "type": "Feature",
      "geometry": {
        "type": "Point",
        "coordinates": [
          26.6347815,
          45.1495966
        ]
      },
      "properties": {
        "id": 1942706642,
        "osm_type": "node",
        "name": "Montana",
        "tourism": "hotel"
      }
    },
    {
      "type": "Feature",
      "geometry": {
        "type": "Point",
        "coordinates": [
          26.6342129,
          45.1497139
        ]
      },
      "properties": {
        "id": 1942706644,
        "osm_type": "node",
        "name": "Monteoru",
        "tourism": "hotel"
      }
    },
    {
      "type": "Feature",
      "geometry": {
        "type": "Point",
        "coordinates": [
          26.8258573,
          45.1754223
        ]
      },
      "properties": {
        "id": 1943803068,
        "osm_type": "node",
        "name": "Crâșmărița din Buzău",
        "tourism": "hotel"
      }
    },
    {
      "type": "Feature",
      "geometry": {
        "type": "Point",
        "coordinates": [
          27.0315475,
          45.3745855
        ]
      },
      "properties": {
        "id": 2383456914,
        "osm_type": "node",
        "name": "Poenița",
        "tourism": "hotel",
        "opening_hours": "24/7"
      }
    },
    {
      "type": "Feature",
      "geometry": {
        "type": "Point",
        "coordinates": [
          27.0320088,
          45.3734173
        ]
      },
      "properties": {
        "id": 2383456921,
        "osm_type": "node",
        "name": "La Ancuța p",
        "tourism": "guest_house"
      }
    },
    {
      "type": "Feature",
      "geometry": {
        "type": "Point",
        "coordinates": [
          26.6207812,
          45.4973969
        ]
      },
      "properties": {
        "id": 2388654489,
        "osm_type": "node",
        "tourism": "camp_site"
      }
    },
    {
      "type": "Feature",
      "geometry": {
        "type": "Point",
        "coordinates": [
          26.8231157,
          45.1538905
        ]
      },
      "properties": {
        "id": 3682431490,
        "osm_type": "node",
        "name": "Hotel Corso",
        "tourism": "hotel",
        "phone": "0756 889 709"
      }
    },
    {
      "type": "Feature",
      "geometry": {
        "type": "Point",
        "coordinates": [
          26.8141168,
          45.1391651
        ]
      },
      "properties": {
        "id": 3682431700,
        "osm_type": "node",
        "name": "Pensiunea Ileana",
        "tourism": "hotel"
      }
    },
    {
      "type": "Feature",
      "geometry": {
        "type": "Point",
        "coordinates": [
          26.6542156,
          45.218676
        ]
      },
      "properties": {
        "id": 3682803641,
        "osm_type": "node",
        "name": "Pensiunea Foisor",
        "tourism": "hotel",
        "phone": "0722 398 734"
      }
    },
    {
      "type": "Feature",
      "geometry": {
        "type": "Point",
        "coordinates": [
          26.8169415,
          45.1527572
        ]
      },
      "properties": {
        "id": 3703657834,
        "osm_type": "node",
        "name": "Hotel Art",
        "tourism": "hotel",
        "phone": "0338 401 611"
      }
    },
    {
      "type": "Feature",
      "geometry": {
        "type": "Point",
        "coordinates": [
          26.8572983,
          45.1345721
        ]
      },
      "properties": {
        "id": 3703657835,
        "osm_type": "node",
        "name": "Hotel-Restaurant Mușatinii",
        "tourism": "hotel",
        "phone": "0238 424 492"
      }
    },
    {
      "type": "Feature",
      "geometry": {
        "type": "Point",
        "coordinates": [
          26.8232285,
          45.1542799
        ]
      },
      "properties": {
        "id": 3710215381,
        "osm_type": "node",
        "name": "Hotel Corso",
        "tourism": "hotel",
        "phone": "+04 0731 836 553",
        "website": "https://www.hotelcorso.ro/"
      }
    },
    {
      "type": "Feature",
      "geometry": {
        "type": "Point",
        "coordinates": [
          26.2009506,
          45.5879341
        ]
      },
      "properties": {
        "id": 3733895656,
        "osm_type": "node",
        "name": "Hotel Hadar Chalet",
        "tourism": "hotel",
        "website": "https://hadarchalet.ro/"
      }
    },
    {
      "type": "Feature",
      "geometry": {
        "type": "Point",
        "coordinates": [
          26.5463947,
          45.4702939
        ]
      },
      "properties": {
        "id": 4162066989,
        "osm_type": "node",
        "name": "Pensiunea Lacul Zânelor",
        "tourism": "hotel",
        "website": "https://www.laculzanelor.ro/"
      }
    },
    {
      "type": "Feature",
      "geometry": {
        "type": "Point",
        "coordinates": [
          26.6385899,
          45.2155159
        ]
      },
      "properties": {
        "id": 4168622182,
        "osm_type": "node",
        "name": "Pensiunea Stejarul",
        "tourism": "guest_house",
        "phone": "0040722398734",
        "website": "https://stejarulbz.ro/"
      }
    },
    {
      "type": "Feature",
      "geometry": {
        "type": "Point",
        "coordinates": [
          26.765615,
          45.2115723
        ]
      },
      "properties": {
        "id": 4221640073,
        "osm_type": "node",
        "name": "Pensiunea Privighetoarea",
        "tourism": "motel",
        "phone": "0238 726 396",
        "website": "http://www.pensiuneaprivighetoarea.ro/"
      }
    },
    {
      "type": "Feature",
      "geometry": {
        "type": "Point",
        "coordinates": [
          26.6783742,
          45.286109
        ]
      },
      "properties": {
        "id": 4221645064,
        "osm_type": "node",
        "name": "Casa Matei",
        "tourism": "motel",
        "phone": "0238 510 830",
        "website": "https://casa-matei.ro/"
      }
    },
    {
      "type": "Feature",
      "geometry": {
        "type": "Point",
        "coordinates": [
          26.3447835,
          45.3512662
        ]
      },
      "properties": {
        "id": 4264650499,
        "osm_type": "node",
        "name": "Pensiunea Valea Lupului",
        "tourism": "hotel",
        "phone": "+40 238 500 300",
        "website": "https://www.valealupului.com/en/"
      }
    },
    {
      "type": "Feature",
      "geometry": {
        "type": "Point",
        "coordinates": [
          26.2235849,
          45.5142987
        ]
      },
      "properties": {
        "id": 4351624891,
        "osm_type": "node",
        "name": "izvorul bucuriei",
        "tourism": "alpine_hut"
      }
    },
    {
      "type": "Feature",
      "geometry": {
        "type": "Point",
        "coordinates": [
          26.7890429,
          45.1889492
        ]
      },
      "properties": {
        "id": 4367359489,
        "osm_type": "node",
        "name": "Casa Corneliu",
        "tourism": "guest_house"
      }
    },
    {
      "type": "Feature",
      "geometry": {
        "type": "Point",
        "coordinates": [
          26.5479579,
          45.4711591
        ]
      },
      "properties": {
        "id": 4517104889,
        "osm_type": "node",
        "name": "Pensiunea Lacul Mocearu",
        "tourism": "hotel",
        "opening_hours": "24/7",
        "phone": "0744319437",
        "website": "https://www.pensiunealaculmocearu.ro/"
      }
    },
    {
      "type": "Feature",
      "geometry": {
        "type": "Point",
        "coordinates": [
          26.8249056,
          45.1438164
        ]
      },
      "properties": {
        "id": 4575222590,
        "osm_type": "node",
        "name": "Brebeanu",
        "tourism": "hotel"
      }
    },
    {
      "type": "Feature",
      "geometry": {
        "type": "Point",
        "coordinates": [
          26.4975354,
          45.3853644
        ]
      },
      "properties": {
        "id": 4727611991,
        "osm_type": "node",
        "name": "Pensiunea Runcosu",
        "tourism": "guest_house"
      }
    },
    {
      "type": "Feature",
      "geometry": {
        "type": "Point",
        "coordinates": [
          26.4923313,
          45.3791234
        ]
      },
      "properties": {
        "id": 4728823792,
        "osm_type": "node",
        "name": "Pensiunea Runcosu",
        "tourism": "guest_house"
      }
    },
    {
      "type": "Feature",
      "geometry": {
        "type": "Point",
        "coordinates": [
          26.7359676,
          45.2022759
        ]
      },
      "properties": {
        "id": 4864086521,
        "osm_type": "node",
        "name": "Casa cu zorele",
        "tourism": "hostel"
      }
    },
    {
      "type": "Feature",
      "geometry": {
        "type": "Point",
        "coordinates": [
          26.8250273,
          45.1750435
        ]
      },
      "properties": {
        "id": 5173588172,
        "osm_type": "node",
        "name": "Pensiunea Bianca",
        "tourism": "guest_house"
      }
    },
    {
      "type": "Feature",
      "geometry": {
        "type": "Point",
        "coordinates": [
          26.8153977,
          45.1571715
        ]
      },
      "properties": {
        "id": 5242627021,
        "osm_type": "node",
        "name": "Bl. 5",
        "tourism": "apartment"
      }
    },
    {
      "type": "Feature",
      "geometry": {
        "type": "Point",
        "coordinates": [
          26.8304225,
          45.4919513
        ]
      },
      "properties": {
        "id": 5299635921,
        "osm_type": "node",
        "name": "Mircea Sandu",
        "tourism": "guest_house"
      }
    },
    {
      "type": "Feature",
      "geometry": {
        "type": "Point",
        "coordinates": [
          26.1715039,
          45.3911793
        ]
      },
      "properties": {
        "id": 5533455520,
        "osm_type": "node",
        "name": "Domeniul Gîrbea",
        "tourism": "guest_house",
        "phone": "+40722.542.199"
      }
    },
    {
      "type": "Feature",
      "geometry": {
        "type": "Point",
        "coordinates": [
          26.6984199,
          45.2400543
        ]
      },
      "properties": {
        "id": 5759743547,
        "osm_type": "node",
        "name": "Ferma Ruşilor",
        "tourism": "guest_house",
        "website": "http://pensiunealarusu.ro/"
      }
    },
    {
      "type": "Feature",
      "geometry": {
        "type": "Point",
        "coordinates": [
          26.2620143,
          45.471091
        ]
      },
      "properties": {
        "id": 5763361258,
        "osm_type": "node",
        "name": "Pensiunea Tanti Aglaia",
        "tourism": "guest_house"
      }
    },
    {
      "type": "Feature",
      "geometry": {
        "type": "Point",
        "coordinates": [
          26.2878895,
          45.5082181
        ]
      },
      "properties": {
        "id": 5763409853,
        "osm_type": "node",
        "name": "14 Scaune",
        "tourism": "guest_house"
      }
    },
    {
      "type": "Feature",
      "geometry": {
        "type": "Point",
        "coordinates": [
          26.3580835,
          45.2621224
        ]
      },
      "properties": {
        "id": 6500044286,
        "osm_type": "node",
        "name": "Casa Lăpușnea",
        "tourism": "guest_house"
      }
    },
    {
      "type": "Feature",
      "geometry": {
        "type": "Point",
        "coordinates": [
          26.5582152,
          45.2726746
        ]
      },
      "properties": {
        "id": 6690498170,
        "osm_type": "node",
        "name": "Măgura Belvedere",
        "tourism": "hostel"
      }
    },
    {
      "type": "Feature",
      "geometry": {
        "type": "Point",
        "coordinates": [
          26.5550222,
          45.2714316
        ]
      },
      "properties": {
        "id": 6690527088,
        "osm_type": "node",
        "name": "Hotel Măgura ***",
        "tourism": "hotel"
      }
    },
    {
      "type": "Feature",
      "geometry": {
        "type": "Point",
        "coordinates": [
          26.5428603,
          45.2464417
        ]
      },
      "properties": {
        "id": 6690537799,
        "osm_type": "node",
        "name": "Pensiunea Cetățuia ****",
        "tourism": "guest_house",
        "phone": "+40731999222;+40722735533",
        "website": "https://pensiunea-cetatuia.ro/"
      }
    },
    {
      "type": "Feature",
      "geometry": {
        "type": "Point",
        "coordinates": [
          26.6615718,
          45.2916142
        ]
      },
      "properties": {
        "id": 6846918231,
        "osm_type": "node",
        "name": "Cob Village",
        "tourism": "guest_house",
        "phone": "+4 0745 756 630",
        "website": "https://www.cobvillage.ro/"
      }
    },
    {
      "type": "Feature",
      "geometry": {
        "type": "Point",
        "coordinates": [
          26.822476,
          45.1566626
        ]
      },
      "properties": {
        "id": 8330327819,
        "osm_type": "node",
        "tourism": "apartment"
      }
    },
    {
      "type": "Feature",
      "geometry": {
        "type": "Point",
        "coordinates": [
          26.6983207,
          45.2416324
        ]
      },
      "properties": {
        "id": 8599869844,
        "osm_type": "node",
        "name": "Pensiunea \"Poiana Căprioarei\"",
        "tourism": "guest_house"
      }
    },
    {
      "type": "Feature",
      "geometry": {
        "type": "Point",
        "coordinates": [
          26.7426913,
          45.1936021
        ]
      },
      "properties": {
        "id": 8722349471,
        "osm_type": "node",
        "name": "Hotel Denisa",
        "tourism": "hotel"
      }
    },
    {
      "type": "Feature",
      "geometry": {
        "type": "Point",
        "coordinates": [
          26.300667,
          45.2480653
        ]
      },
      "properties": {
        "id": 8754812265,
        "osm_type": "node",
        "name": "Pensiunea Lavinia",
        "tourism": "hotel"
      }
    },
    {
      "type": "Feature",
      "geometry": {
        "type": "Point",
        "coordinates": [
          26.3529257,
          45.319274
        ]
      },
      "properties": {
        "id": 8985016982,
        "osm_type": "node",
        "name": "Pensiunea Maricor",
        "tourism": "motel"
      }
    },
    {
      "type": "Feature",
      "geometry": {
        "type": "Point",
        "coordinates": [
          26.6523606,
          45.1436394
        ]
      },
      "properties": {
        "id": 9810408164,
        "osm_type": "node",
        "name": "Casa De Zahăr",
        "tourism": "guest_house"
      }
    },
    {
      "type": "Feature",
      "geometry": {
        "type": "Point",
        "coordinates": [
          27.0418233,
          45.3770445
        ]
      },
      "properties": {
        "id": 10012164021,
        "osm_type": "node",
        "name": "1",
        "tourism": "apartment"
      }
    },
    {
      "type": "Feature",
      "geometry": {
        "type": "Point",
        "coordinates": [
          27.0550985,
          45.3710303
        ]
      },
      "properties": {
        "id": 10029206817,
        "osm_type": "node",
        "name": "32A",
        "tourism": "apartment"
      }
    },
    {
      "type": "Feature",
      "geometry": {
        "type": "Point",
        "coordinates": [
          27.0553239,
          45.3712179
        ]
      },
      "properties": {
        "id": 10029206917,
        "osm_type": "node",
        "name": "32B",
        "tourism": "apartment"
      }
    },
    {
      "type": "Feature",
      "geometry": {
        "type": "Point",
        "coordinates": [
          26.2591374,
          45.4837432
        ]
      },
      "properties": {
        "id": 10713085247,
        "osm_type": "node",
        "name": "Pensiunea Elena",
        "tourism": "guest_house"
      }
    },
    {
      "type": "Feature",
      "geometry": {
        "type": "Point",
        "coordinates": [
          26.5542282,
          45.2712167
        ]
      },
      "properties": {
        "id": 10774969807,
        "osm_type": "node",
        "name": "Complex Turistic Măgura",
        "tourism": "hotel"
      }
    },
    {
      "type": "Feature",
      "geometry": {
        "type": "Point",
        "coordinates": [
          26.8267179,
          45.1431392
        ]
      },
      "properties": {
        "id": 10860094889,
        "osm_type": "node",
        "name": "Hotel The Classic",
        "tourism": "hotel",
        "phone": "0753456126",
        "website": "https://hoteltheclassic.hotelrom.top/"
      }
    },
    {
      "type": "Feature",
      "geometry": {
        "type": "Point",
        "coordinates": [
          26.8243577,
          45.1434802
        ]
      },
      "properties": {
        "id": 10860103907,
        "osm_type": "node",
        "name": "Camere de închiriat",
        "tourism": "motel"
      }
    },
    {
      "type": "Feature",
      "geometry": {
        "type": "Point",
        "coordinates": [
          26.8738019,
          45.2373632
        ]
      },
      "properties": {
        "id": 11118210326,
        "osm_type": "node",
        "name": "Hanul Neptun",
        "tourism": "motel"
      }
    },
    {
      "type": "Feature",
      "geometry": {
        "type": "Point",
        "coordinates": [
          26.4540086,
          45.5248452
        ]
      },
      "properties": {
        "id": 11127114727,
        "osm_type": "node",
        "name": "Green camp",
        "tourism": "camp_site",
        "website": "https://www.greencamp.ro/"
      }
    },
    {
      "type": "Feature",
      "geometry": {
        "type": "Point",
        "coordinates": [
          26.3242786,
          45.3934526
        ]
      },
      "properties": {
        "id": 11132273345,
        "osm_type": "node",
        "name": "Pensiunea La Lac",
        "tourism": "guest_house"
      }
    },
    {
      "type": "Feature",
      "geometry": {
        "type": "Point",
        "coordinates": [
          27.0147492,
          45.3614343
        ]
      },
      "properties": {
        "id": 11146422601,
        "osm_type": "node",
        "name": "Quality",
        "tourism": "motel"
      }
    },
    {
      "type": "Feature",
      "geometry": {
        "type": "Point",
        "coordinates": [
          27.0464019,
          45.3984133
        ]
      },
      "properties": {
        "id": 11146494048,
        "osm_type": "node",
        "name": "Casa Veche",
        "tourism": "guest_house"
      }
    },
    {
      "type": "Feature",
      "geometry": {
        "type": "Point",
        "coordinates": [
          26.8768018,
          45.2433359
        ]
      },
      "properties": {
        "id": 11187740139,
        "osm_type": "node",
        "name": "Pensiunea Valverde",
        "tourism": "guest_house"
      }
    },
    {
      "type": "Feature",
      "geometry": {
        "type": "Point",
        "coordinates": [
          26.6412832,
          45.5303218
        ]
      },
      "properties": {
        "id": 11210971829,
        "osm_type": "node",
        "name": "Lacul cu Mesteceni",
        "tourism": "guest_house",
        "website": "https://lacul-cu-mesteceni.business.site/"
      }
    },
    {
      "type": "Feature",
      "geometry": {
        "type": "Point",
        "coordinates": [
          26.8286882,
          45.1569202
        ]
      },
      "properties": {
        "id": 11263876598,
        "osm_type": "node",
        "name": "Hotel Orhideea",
        "tourism": "hotel"
      }
    },
    {
      "type": "Feature",
      "geometry": {
        "type": "Point",
        "coordinates": [
          26.72055,
          45.4373879
        ]
      },
      "properties": {
        "id": 11385291623,
        "osm_type": "node",
        "name": "Pensiunea Carmen",
        "tourism": "guest_house",
        "website": "https://www.booking.com/hotel/ro/pensiunea-carmen-niculesti.ro.html"
      }
    },
    {
      "type": "Feature",
      "geometry": {
        "type": "Point",
        "coordinates": [
          26.7865523,
          45.164582
        ]
      },
      "properties": {
        "id": 11513429016,
        "osm_type": "node",
        "name": "Casa Genny",
        "tourism": "motel",
        "phone": "+40766 689 064",
        "website": "https://www.casa-genny.ro"
      }
    },
    {
      "type": "Feature",
      "geometry": {
        "type": "Point",
        "coordinates": [
          26.6875505,
          45.1254012
        ]
      },
      "properties": {
        "id": 12248184363,
        "osm_type": "node",
        "name": "Complex Arcadia",
        "tourism": "hotel",
        "phone": "0726278864",
        "website": "https://www.complex-arcadia.com/"
      }
    },
    {
      "type": "Feature",
      "geometry": {
        "type": "Point",
        "coordinates": [
          27.0343373,
          45.3904938
        ]
      },
      "properties": {
        "id": 12486281701,
        "osm_type": "node",
        "name": "Str caineni 1",
        "tourism": "apartment"
      }
    },
    {
      "type": "Feature",
      "geometry": {
        "type": "Point",
        "coordinates": [
          27.0430919,
          45.3821885
        ]
      },
      "properties": {
        "id": 12644150901,
        "osm_type": "node",
        "name": "Bloc 18c",
        "tourism": "apartment"
      }
    },
    {
      "type": "Feature",
      "geometry": {
        "type": "Point",
        "coordinates": [
          27.0388249,
          45.3824669
        ]
      },
      "properties": {
        "id": 12996212702,
        "osm_type": "node",
        "tourism": "apartment"
      }
    },
    {
      "type": "Feature",
      "geometry": {
        "type": "Point",
        "coordinates": [
          26.2426149,
          45.5077985
        ]
      },
      "properties": {
        "id": 13059325401,
        "osm_type": "node",
        "name": "Yabba Dabba Doo",
        "tourism": "camp_site",
        "website": "https://yabbadabbadoo.ro/"
      }
    },
    {
      "type": "Feature",
      "geometry": {
        "type": "Point",
        "coordinates": [
          27.0392224,
          45.3826171
        ]
      },
      "properties": {
        "id": 13081523102,
        "osm_type": "node",
        "tourism": "apartment"
      }
    },
    {
      "type": "Feature",
      "geometry": {
        "type": "Point",
        "coordinates": [
          27.0320034,
          45.3929239
        ]
      },
      "properties": {
        "id": 13092253401,
        "osm_type": "node",
        "tourism": "apartment"
      }
    },
    {
      "type": "Feature",
      "geometry": {
        "type": "Point",
        "coordinates": [
          27.0314824,
          45.3926671
        ]
      },
      "properties": {
        "id": 13092253501,
        "osm_type": "node",
        "tourism": "apartment"
      }
    },
    {
      "type": "Feature",
      "geometry": {
        "type": "Point",
        "coordinates": [
          27.0398181,
          45.3828606
        ]
      },
      "properties": {
        "id": 13153377701,
        "osm_type": "node",
        "tourism": "apartment"
      }
    },
    {
      "type": "Feature",
      "geometry": {
        "type": "Point",
        "coordinates": [
          27.2897708,
          45.3102356
        ]
      },
      "properties": {
        "id": 13283966928,
        "osm_type": "node",
        "name": "Conacul Balta Alba",
        "tourism": "guest_house",
        "website": "https://www.booking.com/hotel/ro/conacul-balta-alba.ro.html"
      }
    },
    {
      "type": "Feature",
      "geometry": {
        "type": "Point",
        "coordinates": [
          26.8111266,
          45.3146107
        ]
      },
      "properties": {
        "id": 13300317918,
        "osm_type": "node",
        "name": "Casa Pedro",
        "tourism": "guest_house",
        "phone": "0743 763 585",
        "website": "casapedro.ro"
      }
    },
    {
      "type": "Feature",
      "geometry": {
        "type": "Point",
        "coordinates": [
          27.0375206,
          45.3829035
        ]
      },
      "properties": {
        "id": 13324520501,
        "osm_type": "node",
        "tourism": "apartment"
      }
    },
    {
      "type": "Feature",
      "geometry": {
        "type": "Point",
        "coordinates": [
          26.825788,
          45.175037
        ]
      },
      "properties": {
        "id": 13664020336,
        "osm_type": "node",
        "name": "Complex Moara Drăgăicilor",
        "tourism": "hotel",
        "phone": "0238717213",
        "website": "https://www.moaradragaicilor.ro/"
      }
    },
    {
      "type": "Feature",
      "geometry": {
        "type": "Point",
        "coordinates": [
          26.2073569,
          45.4301663
        ]
      },
      "properties": {
        "id": 13670103101,
        "osm_type": "node",
        "name": "Pensiunea Răstoaca",
        "tourism": "guest_house"
      }
    },
    {
      "type": "Feature",
      "geometry": {
        "type": "Point",
        "coordinates": [
          26.8217859,
          45.1521907
        ]
      },
      "properties": {
        "id": 122638552,
        "osm_type": "way",
        "name": "Hotel Pietroasa",
        "tourism": "hotel",
        "phone": "0238 445 610"
      }
    },
    {
      "type": "Feature",
      "geometry": {
        "type": "Point",
        "coordinates": [
          26.1357801,
          45.5099859
        ]
      },
      "properties": {
        "id": 206003646,
        "osm_type": "way",
        "name": "Cabana de Vânătoare Lacul Vulturilor",
        "tourism": "alpine_hut"
      }
    },
    {
      "type": "Feature",
      "geometry": {
        "type": "Point",
        "coordinates": [
          26.8250659,
          45.1586616
        ]
      },
      "properties": {
        "id": 220209554,
        "osm_type": "way",
        "name": "Hotel Avenue",
        "tourism": "hotel"
      }
    },
    {
      "type": "Feature",
      "geometry": {
        "type": "Point",
        "coordinates": [
          26.6342256,
          45.1497135
        ]
      },
      "properties": {
        "id": 228928109,
        "osm_type": "way",
        "name": "Hotel Monteoru",
        "tourism": "hotel"
      }
    },
    {
      "type": "Feature",
      "geometry": {
        "type": "Point",
        "coordinates": [
          26.6347657,
          45.1495842
        ]
      },
      "properties": {
        "id": 228928116,
        "osm_type": "way",
        "name": "Hotel Montana",
        "tourism": "hotel"
      }
    },
    {
      "type": "Feature",
      "geometry": {
        "type": "Point",
        "coordinates": [
          26.6207105,
          45.4971227
        ]
      },
      "properties": {
        "id": 229662652,
        "osm_type": "way",
        "name": "Complex Turistic Meledic",
        "tourism": "camp_site"
      }
    },
    {
      "type": "Feature",
      "geometry": {
        "type": "Point",
        "coordinates": [
          26.619121,
          45.4977065
        ]
      },
      "properties": {
        "id": 230355763,
        "osm_type": "way",
        "name": "Meledic",
        "tourism": "guest_house"
      }
    },
    {
      "type": "Feature",
      "geometry": {
        "type": "Point",
        "coordinates": [
          26.1976678,
          45.5353222
        ]
      },
      "properties": {
        "id": 242915421,
        "osm_type": "way",
        "name": "Pensiunea Valea Neagra",
        "tourism": "guest_house"
      }
    },
    {
      "type": "Feature",
      "geometry": {
        "type": "Point",
        "coordinates": [
          26.8091065,
          45.1419068
        ]
      },
      "properties": {
        "id": 291986954,
        "osm_type": "way",
        "name": "Complex Carol",
        "tourism": "motel"
      }
    },
    {
      "type": "Feature",
      "geometry": {
        "type": "Point",
        "coordinates": [
          26.7004169,
          45.1034949
        ]
      },
      "properties": {
        "id": 384005988,
        "osm_type": "way",
        "name": "Hanul Merei",
        "tourism": "motel",
        "website": "complexpopasmerei.ro"
      }
    },
    {
      "type": "Feature",
      "geometry": {
        "type": "Point",
        "coordinates": [
          27.0383646,
          45.392021
        ]
      },
      "properties": {
        "id": 392075726,
        "osm_type": "way",
        "name": "Rustic 2",
        "tourism": "hotel"
      }
    },
    {
      "type": "Feature",
      "geometry": {
        "type": "Point",
        "coordinates": [
          26.818195,
          45.1683292
        ]
      },
      "properties": {
        "id": 400828793,
        "osm_type": "way",
        "name": "Motel Aqua Max Nonstop",
        "tourism": "motel"
      }
    },
    {
      "type": "Feature",
      "geometry": {
        "type": "Point",
        "coordinates": [
          26.7616234,
          45.1274417
        ]
      },
      "properties": {
        "id": 540199337,
        "osm_type": "way",
        "name": "Hotel Prezident",
        "tourism": "hotel"
      }
    },
    {
      "type": "Feature",
      "geometry": {
        "type": "Point",
        "coordinates": [
          26.6379073,
          45.1486834
        ]
      },
      "properties": {
        "id": 598445305,
        "osm_type": "way",
        "name": "Pensiunea Mon Ami",
        "tourism": "guest_house"
      }
    },
    {
      "type": "Feature",
      "geometry": {
        "type": "Point",
        "coordinates": [
          26.621066,
          45.1542226
        ]
      },
      "properties": {
        "id": 711648390,
        "osm_type": "way",
        "name": "La Paducel",
        "tourism": "guest_house"
      }
    },
    {
      "type": "Feature",
      "geometry": {
        "type": "Point",
        "coordinates": [
          26.6332608,
          45.1483213
        ]
      },
      "properties": {
        "id": 727511872,
        "osm_type": "way",
        "name": "Hotel Cazino",
        "tourism": "hotel"
      }
    },
    {
      "type": "Feature",
      "geometry": {
        "type": "Point",
        "coordinates": [
          26.6318004,
          45.1484169
        ]
      },
      "properties": {
        "id": 727512102,
        "osm_type": "way",
        "name": "Casa Monteoru",
        "tourism": "guest_house"
      }
    },
    {
      "type": "Feature",
      "geometry": {
        "type": "Point",
        "coordinates": [
          26.6376356,
          45.1495948
        ]
      },
      "properties": {
        "id": 727512626,
        "osm_type": "way",
        "name": "Pensiunea Mădălin",
        "tourism": "guest_house"
      }
    },
    {
      "type": "Feature",
      "geometry": {
        "type": "Point",
        "coordinates": [
          26.6393355,
          45.1479519
        ]
      },
      "properties": {
        "id": 727571259,
        "osm_type": "way",
        "name": "Pensiunea Luminița",
        "tourism": "guest_house"
      }
    },
    {
      "type": "Feature",
      "geometry": {
        "type": "Point",
        "coordinates": [
          26.6227716,
          45.1549991
        ]
      },
      "properties": {
        "id": 727572557,
        "osm_type": "way",
        "name": "La Pădure",
        "tourism": "guest_house"
      }
    },
    {
      "type": "Feature",
      "geometry": {
        "type": "Point",
        "coordinates": [
          26.6384971,
          45.1476648
        ]
      },
      "properties": {
        "id": 727757927,
        "osm_type": "way",
        "name": "Favorit",
        "tourism": "guest_house"
      }
    },
    {
      "type": "Feature",
      "geometry": {
        "type": "Point",
        "coordinates": [
          26.6385992,
          45.1472728
        ]
      },
      "properties": {
        "id": 727758491,
        "osm_type": "way",
        "name": "Caprice",
        "tourism": "guest_house"
      }
    },
    {
      "type": "Feature",
      "geometry": {
        "type": "Point",
        "coordinates": [
          26.6486007,
          45.1470242
        ]
      },
      "properties": {
        "id": 727777054,
        "osm_type": "way",
        "name": "Pensiunea Forest View",
        "tourism": "guest_house"
      }
    },
    {
      "type": "Feature",
      "geometry": {
        "type": "Point",
        "coordinates": [
          26.4822845,
          45.5377755
        ]
      },
      "properties": {
        "id": 985527993,
        "osm_type": "way",
        "name": "Canton Romsilva- CABANA VADU OII",
        "tourism": "alpine_hut"
      }
    },
    {
      "type": "Feature",
      "geometry": {
        "type": "Point",
        "coordinates": [
          26.5663979,
          45.235462
        ]
      },
      "properties": {
        "id": 1100640770,
        "osm_type": "way",
        "name": "Complex Cabana Izvoranu",
        "tourism": "hotel",
        "website": "https://www.cabanaizvoranu.ro"
      }
    },
    {
      "type": "Feature",
      "geometry": {
        "type": "Point",
        "coordinates": [
          26.6817157,
          45.2473844
        ]
      },
      "properties": {
        "id": 1163349470,
        "osm_type": "way",
        "name": "Tina Neagră",
        "tourism": "camp_site"
      }
    },
    {
      "type": "Feature",
      "geometry": {
        "type": "Point",
        "coordinates": [
          26.5731331,
          45.0922641
        ]
      },
      "properties": {
        "id": 1278787936,
        "osm_type": "way",
        "name": "La Butoaie",
        "tourism": "hotel",
        "phone": "0744 938 038",
        "website": "https://labutoaie.ro/"
      }
    },
    {
      "type": "Feature",
      "geometry": {
        "type": "Point",
        "coordinates": [
          26.6643186,
          45.1265076
        ]
      },
      "properties": {
        "id": 1279347663,
        "osm_type": "way",
        "name": "Shurra",
        "tourism": "hotel",
        "phone": "0740367829",
        "website": "https://shurra.ro/"
      }
    },
    {
      "type": "Feature",
      "geometry": {
        "type": "Point",
        "coordinates": [
          26.5099963,
          45.3313893
        ]
      },
      "properties": {
        "id": 1423330248,
        "osm_type": "way",
        "tourism": "camp_site",
        "tents": "yes",
        "website": "https://www.campingvaleabanului.ro/"
      }
    },
    {
      "type": "Feature",
      "geometry": {
        "type": "Point",
        "coordinates": [
          27.3090798,
          45.3052206
        ]
      },
      "properties": {
        "id": 1426277048,
        "osm_type": "way",
        "name": "Complex Balta Albă",
        "tourism": "hotel"
      }
    },
    {
      "type": "Feature",
      "geometry": {
        "type": "Point",
        "coordinates": [
          26.2493867,
          45.4996193
        ]
      },
      "properties": {
        "id": 1493487571,
        "osm_type": "way",
        "name": "Pensiunea Diana",
        "tourism": "hotel"
      }
    },
    {
      "type": "Feature",
      "geometry": {
        "type": "Point",
        "coordinates": [
          26.2521131,
          45.5017282
        ]
      },
      "properties": {
        "id": 1493487577,
        "osm_type": "way",
        "name": "Cabana Lupul Argintiu",
        "tourism": "hotel"
      }
    },
    {
      "type": "Feature",
      "geometry": {
        "type": "Point",
        "coordinates": [
          26.2477313,
          45.5038901
        ]
      },
      "properties": {
        "id": 1493487583,
        "osm_type": "way",
        "name": "Pensiunea Diana",
        "tourism": "hotel"
      }
    }
  ]
}