{
  "type": "FeatureCollection",
  "features": [
    {
      "type": "Feature",
      "geometry": {
        "type": "Point",
        "coordinates": [
          21.3356273,
          46.1844224
        ]
      },
      "properties": {
        "id": 256115700,
        "osm_type": "node",
        "name": "Monica",
        "tourism": "hotel"
      }
    },
    {
      "type": "Feature",
      "geometry": {
        "type": "Point",
        "coordinates": [
          21.3655506,
          46.1747651
        ]
      },
      "properties": {
        "id": 261092101,
        "osm_type": "node",
        "name": "Raluca",
        "tourism": "hostel"
      }
    },
    {
      "type": "Feature",
      "geometry": {
        "type": "Point",
        "coordinates": [
          21.3654856,
          46.1745905
        ]
      },
      "properties": {
        "id": 261092106,
        "osm_type": "node",
        "name": "Panorama",
        "tourism": "guest_house",
        "opening_hours": "24/7",
        "phone": "+40 257 279 398",
        "website": "http://www.pensiunea-panorama.ro"
      }
    },
    {
      "type": "Feature",
      "geometry": {
        "type": "Point",
        "coordinates": [
          21.3359825,
          46.164338
        ]
      },
      "properties": {
        "id": 263492064,
        "osm_type": "node",
        "name": "Beauty",
        "tourism": "hotel"
      }
    },
    {
      "type": "Feature",
      "geometry": {
        "type": "Point",
        "coordinates": [
          21.3302616,
          46.1600917
        ]
      },
      "properties": {
        "id": 263497405,
        "osm_type": "node",
        "name": "Fortress",
        "tourism": "hostel"
      }
    },
    {
      "type": "Feature",
      "geometry": {
        "type": "Point",
        "coordinates": [
          21.3680052,
          46.1767114
        ]
      },
      "properties": {
        "id": 264553733,
        "osm_type": "node",
        "name": "Roua",
        "tourism": "hostel"
      }
    },
    {
      "type": "Feature",
      "geometry": {
        "type": "Point",
        "coordinates": [
          21.3516986,
          46.1803659
        ]
      },
      "properties": {
        "id": 264563068,
        "osm_type": "node",
        "name": "S&G",
        "tourism": "hotel"
      }
    },
    {
      "type": "Feature",
      "geometry": {
        "type": "Point",
        "coordinates": [
          21.3235039,
          46.1503041
        ]
      },
      "properties": {
        "id": 265331555,
        "osm_type": "node",
        "name": "Cristian",
        "tourism": "hotel"
      }
    },
    {
      "type": "Feature",
      "geometry": {
        "type": "Point",
        "coordinates": [
          21.2674303,
          46.2076953
        ]
      },
      "properties": {
        "id": 267162308,
        "osm_type": "node",
        "name": "Sep",
        "tourism": "hotel"
      }
    },
    {
      "type": "Feature",
      "geometry": {
        "type": "Point",
        "coordinates": [
          21.2830367,
          46.212346
        ]
      },
      "properties": {
        "id": 267169509,
        "osm_type": "node",
        "name": "Ella",
        "tourism": "hostel"
      }
    },
    {
      "type": "Feature",
      "geometry": {
        "type": "Point",
        "coordinates": [
          21.3676765,
          46.1761701
        ]
      },
      "properties": {
        "id": 268339329,
        "osm_type": "node",
        "name": "Neta",
        "tourism": "hostel"
      }
    },
    {
      "type": "Feature",
      "geometry": {
        "type": "Point",
        "coordinates": [
          21.3305473,
          46.1832176
        ]
      },
      "properties": {
        "id": 268983261,
        "osm_type": "node",
        "name": "Pensiunea Monica",
        "tourism": "hostel"
      }
    },
    {
      "type": "Feature",
      "geometry": {
        "type": "Point",
        "coordinates": [
          21.3179221,
          46.1443242
        ]
      },
      "properties": {
        "id": 270328651,
        "osm_type": "node",
        "name": "Paradis",
        "tourism": "hotel"
      }
    },
    {
      "type": "Feature",
      "geometry": {
        "type": "Point",
        "coordinates": [
          21.3192415,
          46.1475363
        ]
      },
      "properties": {
        "id": 270471907,
        "osm_type": "node",
        "name": "Pascha",
        "tourism": "hostel"
      }
    },
    {
      "type": "Feature",
      "geometry": {
        "type": "Point",
        "coordinates": [
          21.3354315,
          46.1961603
        ]
      },
      "properties": {
        "id": 271008370,
        "osm_type": "node",
        "name": "West",
        "tourism": "hotel"
      }
    },
    {
      "type": "Feature",
      "geometry": {
        "type": "Point",
        "coordinates": [
          21.2781488,
          46.2033045
        ]
      },
      "properties": {
        "id": 271626733,
        "osm_type": "node",
        "name": "Pensiune SAN",
        "tourism": "hostel"
      }
    },
    {
      "type": "Feature",
      "geometry": {
        "type": "Point",
        "coordinates": [
          21.2501582,
          46.1482138
        ]
      },
      "properties": {
        "id": 272013041,
        "osm_type": "node",
        "name": "Zori de Zi",
        "tourism": "hostel"
      }
    },
    {
      "type": "Feature",
      "geometry": {
        "type": "Point",
        "coordinates": [
          21.5859074,
          46.1545124
        ]
      },
      "properties": {
        "id": 278318361,
        "osm_type": "node",
        "name": "Konak",
        "tourism": "hostel"
      }
    },
    {
      "type": "Feature",
      "geometry": {
        "type": "Point",
        "coordinates": [
          21.2507991,
          46.1518319
        ]
      },
      "properties": {
        "id": 305369582,
        "osm_type": "node",
        "tourism": "hostel"
      }
    },
    {
      "type": "Feature",
      "geometry": {
        "type": "Point",
        "coordinates": [
          22.2642838,
          46.4637242
        ]
      },
      "properties": {
        "id": 450218814,
        "osm_type": "node",
        "name": "Moneasa",
        "tourism": "hotel"
      }
    },
    {
      "type": "Feature",
      "geometry": {
        "type": "Point",
        "coordinates": [
          22.2669464,
          46.4633684
        ]
      },
      "properties": {
        "id": 450218831,
        "osm_type": "node",
        "name": "Codru Moma",
        "tourism": "hotel"
      }
    },
    {
      "type": "Feature",
      "geometry": {
        "type": "Point",
        "coordinates": [
          22.2594786,
          46.4628659
        ]
      },
      "properties": {
        "id": 450218835,
        "osm_type": "node",
        "name": "Parc",
        "tourism": "hotel",
        "check_date": "2024-08-18"
      }
    },
    {
      "type": "Feature",
      "geometry": {
        "type": "Point",
        "coordinates": [
          21.3015475,
          46.3375177
        ]
      },
      "properties": {
        "id": 473827901,
        "osm_type": "node",
        "name": "Pensiunea INTERTEC",
        "tourism": "hotel"
      }
    },
    {
      "type": "Feature",
      "geometry": {
        "type": "Point",
        "coordinates": [
          21.6534923,
          46.1052603
        ]
      },
      "properties": {
        "id": 565143254,
        "osm_type": "node",
        "name": "Popas Mara",
        "tourism": "motel",
        "opening_hours": "24/7"
      }
    },
    {
      "type": "Feature",
      "geometry": {
        "type": "Point",
        "coordinates": [
          22.1302228,
          46.372311
        ]
      },
      "properties": {
        "id": 591581829,
        "osm_type": "node",
        "name": "Hotel Central",
        "tourism": "hotel",
        "check_date": "2025-01-03"
      }
    },
    {
      "type": "Feature",
      "geometry": {
        "type": "Point",
        "coordinates": [
          21.5987905,
          46.133454
        ]
      },
      "properties": {
        "id": 798530021,
        "osm_type": "node",
        "name": "Camping Route Roemenie",
        "tourism": "camp_site",
        "tents": "yes"
      }
    },
    {
      "type": "Feature",
      "geometry": {
        "type": "Point",
        "coordinates": [
          21.5282956,
          46.5350733
        ]
      },
      "properties": {
        "id": 1361479548,
        "osm_type": "node",
        "name": "Hotel Crișul",
        "tourism": "hotel"
      }
    },
    {
      "type": "Feature",
      "geometry": {
        "type": "Point",
        "coordinates": [
          21.6895136,
          46.0890447
        ]
      },
      "properties": {
        "id": 1731157580,
        "osm_type": "node",
        "name": "Pensiunea Divertis",
        "tourism": "hostel"
      }
    },
    {
      "type": "Feature",
      "geometry": {
        "type": "Point",
        "coordinates": [
          21.7003649,
          46.0987704
        ]
      },
      "properties": {
        "id": 1769846301,
        "osm_type": "node",
        "name": "Faleza Mureș",
        "tourism": "hostel"
      }
    },
    {
      "type": "Feature",
      "geometry": {
        "type": "Point",
        "coordinates": [
          22.2624854,
          45.9750596
        ]
      },
      "properties": {
        "id": 2287172848,
        "osm_type": "node",
        "name": "Pensiunea Patrimara",
        "tourism": "guest_house",
        "phone": "+40257214225",
        "website": "http://pensiunea-patrimara.ro"
      }
    },
    {
      "type": "Feature",
      "geometry": {
        "type": "Point",
        "coordinates": [
          22.1314829,
          46.0347349
        ]
      },
      "properties": {
        "id": 2395318902,
        "osm_type": "node",
        "name": "Pensiune La gura raiului",
        "tourism": "guest_house"
      }
    },
    {
      "type": "Feature",
      "geometry": {
        "type": "Point",
        "coordinates": [
          22.0776754,
          46.3757226
        ]
      },
      "properties": {
        "id": 2437378237,
        "osm_type": "node",
        "tourism": "hotel"
      }
    },
    {
      "type": "Feature",
      "geometry": {
        "type": "Point",
        "coordinates": [
          22.14436,
          46.3110151
        ]
      },
      "properties": {
        "id": 2437381919,
        "osm_type": "node",
        "name": "Elim",
        "tourism": "hotel"
      }
    },
    {
      "type": "Feature",
      "geometry": {
        "type": "Point",
        "coordinates": [
          21.2875618,
          46.213413
        ]
      },
      "properties": {
        "id": 2574069263,
        "osm_type": "node",
        "name": "Pensiunea Etap",
        "tourism": "guest_house",
        "opening_hours": "24/7",
        "phone": "+40 744 606 165",
        "website": "http://pensiunea-etap.ro"
      }
    },
    {
      "type": "Feature",
      "geometry": {
        "type": "Point",
        "coordinates": [
          21.9456506,
          46.2596797
        ]
      },
      "properties": {
        "id": 2621447831,
        "osm_type": "node",
        "tourism": "camp_site"
      }
    },
    {
      "type": "Feature",
      "geometry": {
        "type": "Point",
        "coordinates": [
          21.3575724,
          46.1725821
        ]
      },
      "properties": {
        "id": 2918488425,
        "osm_type": "node",
        "name": "Pensiunea Olimp",
        "tourism": "motel",
        "opening_hours": "24/7",
        "phone": "+40257-279 443",
        "website": "www.pensiuneaolimp.ro"
      }
    },
    {
      "type": "Feature",
      "geometry": {
        "type": "Point",
        "coordinates": [
          21.3511689,
          46.1792728
        ]
      },
      "properties": {
        "id": 3145651681,
        "osm_type": "node",
        "name": "Pensiune Radena",
        "tourism": "hostel"
      }
    },
    {
      "type": "Feature",
      "geometry": {
        "type": "Point",
        "coordinates": [
          21.351022,
          46.1789849
        ]
      },
      "properties": {
        "id": 3145666399,
        "osm_type": "node",
        "name": "Hotel Ana",
        "tourism": "hotel"
      }
    },
    {
      "type": "Feature",
      "geometry": {
        "type": "Point",
        "coordinates": [
          21.3458917,
          46.1692774
        ]
      },
      "properties": {
        "id": 3153634784,
        "osm_type": "node",
        "name": "Leon Hotel & Spa",
        "tourism": "hotel"
      }
    },
    {
      "type": "Feature",
      "geometry": {
        "type": "Point",
        "coordinates": [
          21.3016012,
          46.1692415
        ]
      },
      "properties": {
        "id": 3224589461,
        "osm_type": "node",
        "name": "Pensiune Mario",
        "tourism": "hostel"
      }
    },
    {
      "type": "Feature",
      "geometry": {
        "type": "Point",
        "coordinates": [
          22.2597788,
          46.4616909
        ]
      },
      "properties": {
        "id": 3710589588,
        "osm_type": "node",
        "name": "hotel panoramic",
        "tourism": "hotel",
        "website": "http://www.panoramicmoneasa.ro/"
      }
    },
    {
      "type": "Feature",
      "geometry": {
        "type": "Point",
        "coordinates": [
          21.8380083,
          46.4261639
        ]
      },
      "properties": {
        "id": 3980707450,
        "osm_type": "node",
        "name": "Hotel Central",
        "tourism": "hotel",
        "phone": "+40 257-511 833, +40 731-008 925",
        "website": "www.hotelineu.ro"
      }
    },
    {
      "type": "Feature",
      "geometry": {
        "type": "Point",
        "coordinates": [
          20.7237051,
          46.1660786
        ]
      },
      "properties": {
        "id": 3980781366,
        "osm_type": "node",
        "name": "Hotel Jackson",
        "tourism": "hotel",
        "opening_hours": "24/7"
      }
    },
    {
      "type": "Feature",
      "geometry": {
        "type": "Point",
        "coordinates": [
          22.2523379,
          46.4587077
        ]
      },
      "properties": {
        "id": 4082590694,
        "osm_type": "node",
        "name": "Hotel Sântana",
        "tourism": "hotel"
      }
    },
    {
      "type": "Feature",
      "geometry": {
        "type": "Point",
        "coordinates": [
          22.2594787,
          46.4617353
        ]
      },
      "properties": {
        "id": 4188852794,
        "osm_type": "node",
        "name": "Hotel Panoramic",
        "tourism": "hotel"
      }
    },
    {
      "type": "Feature",
      "geometry": {
        "type": "Point",
        "coordinates": [
          21.8180231,
          46.4021547
        ]
      },
      "properties": {
        "id": 4189224957,
        "osm_type": "node",
        "name": "Hanul Moara cu Noroc",
        "tourism": "hotel"
      }
    },
    {
      "type": "Feature",
      "geometry": {
        "type": "Point",
        "coordinates": [
          21.4107278,
          46.1617756
        ]
      },
      "properties": {
        "id": 4191423425,
        "osm_type": "node",
        "name": "Motel West",
        "tourism": "motel",
        "opening_hours": "24/7",
        "phone": "+40 257-515 500"
      }
    },
    {
      "type": "Feature",
      "geometry": {
        "type": "Point",
        "coordinates": [
          21.3364454,
          46.1410837
        ]
      },
      "properties": {
        "id": 4335691592,
        "osm_type": "node",
        "name": "Frunzei garsoniere",
        "tourism": "hotel"
      }
    },
    {
      "type": "Feature",
      "geometry": {
        "type": "Point",
        "coordinates": [
          21.3292617,
          46.1761709
        ]
      },
      "properties": {
        "id": 4340131124,
        "osm_type": "node",
        "name": "Casute strand",
        "tourism": "hotel"
      }
    },
    {
      "type": "Feature",
      "geometry": {
        "type": "Point",
        "coordinates": [
          21.3034397,
          46.1651897
        ]
      },
      "properties": {
        "id": 4340142792,
        "osm_type": "node",
        "name": "Blocuri",
        "tourism": "hotel"
      }
    },
    {
      "type": "Feature",
      "geometry": {
        "type": "Point",
        "coordinates": [
          21.2969517,
          46.1686201
        ]
      },
      "properties": {
        "id": 4377379790,
        "osm_type": "node",
        "name": "Nr.145",
        "tourism": "chalet"
      }
    },
    {
      "type": "Feature",
      "geometry": {
        "type": "Point",
        "coordinates": [
          21.3494642,
          46.1794744
        ]
      },
      "properties": {
        "id": 4491032889,
        "osm_type": "node",
        "name": "Miorița",
        "tourism": "guest_house"
      }
    },
    {
      "type": "Feature",
      "geometry": {
        "type": "Point",
        "coordinates": [
          21.3678253,
          46.1767566
        ]
      },
      "properties": {
        "id": 4533245691,
        "osm_type": "node",
        "name": "Hotel Roua",
        "tourism": "hotel"
      }
    },
    {
      "type": "Feature",
      "geometry": {
        "type": "Point",
        "coordinates": [
          21.3038125,
          46.19434
        ]
      },
      "properties": {
        "id": 4609269608,
        "osm_type": "node",
        "name": "Bl.Z20 sc A",
        "tourism": "chalet"
      }
    },
    {
      "type": "Feature",
      "geometry": {
        "type": "Point",
        "coordinates": [
          21.3109431,
          46.1931396
        ]
      },
      "properties": {
        "id": 5020625621,
        "osm_type": "node",
        "name": "Vila 12",
        "tourism": "chalet"
      }
    },
    {
      "type": "Feature",
      "geometry": {
        "type": "Point",
        "coordinates": [
          21.3103695,
          46.1936036
        ]
      },
      "properties": {
        "id": 5020625721,
        "osm_type": "node",
        "name": "Vila 13",
        "tourism": "chalet"
      }
    },
    {
      "type": "Feature",
      "geometry": {
        "type": "Point",
        "coordinates": [
          21.5908496,
          46.1178649
        ]
      },
      "properties": {
        "id": 5732513750,
        "osm_type": "node",
        "name": "Casa Ago - Guest House",
        "tourism": "guest_house"
      }
    },
    {
      "type": "Feature",
      "geometry": {
        "type": "Point",
        "coordinates": [
          21.3045165,
          46.3403722
        ]
      },
      "properties": {
        "id": 5784210453,
        "osm_type": "node",
        "name": "Ștrandul Termal Curtici",
        "tourism": "camp_site"
      }
    },
    {
      "type": "Feature",
      "geometry": {
        "type": "Point",
        "coordinates": [
          21.3449597,
          46.1726069
        ]
      },
      "properties": {
        "id": 5912496285,
        "osm_type": "node",
        "name": "ARED",
        "tourism": "apartment",
        "opening_hours": "Mo-Fr 09:00-18:00"
      }
    },
    {
      "type": "Feature",
      "geometry": {
        "type": "Point",
        "coordinates": [
          21.3002547,
          46.1511041
        ]
      },
      "properties": {
        "id": 6104313744,
        "osm_type": "node",
        "name": "Pensiune",
        "tourism": "guest_house"
      }
    },
    {
      "type": "Feature",
      "geometry": {
        "type": "Point",
        "coordinates": [
          21.3032576,
          46.1899053
        ]
      },
      "properties": {
        "id": 6137138087,
        "osm_type": "node",
        "name": "5 bis",
        "tourism": "apartment"
      }
    },
    {
      "type": "Feature",
      "geometry": {
        "type": "Point",
        "coordinates": [
          21.3250882,
          46.1941878
        ]
      },
      "properties": {
        "id": 6435537887,
        "osm_type": "node",
        "name": "Dani Gazdă 3",
        "tourism": "apartment"
      }
    },
    {
      "type": "Feature",
      "geometry": {
        "type": "Point",
        "coordinates": [
          21.309715,
          46.1838058
        ]
      },
      "properties": {
        "id": 6805167230,
        "osm_type": "node",
        "name": "Hotel Darosy",
        "tourism": "hotel",
        "phone": "+40 745 724 550",
        "website": "https://www.hoteldarosy.ro/"
      }
    },
    {
      "type": "Feature",
      "geometry": {
        "type": "Point",
        "coordinates": [
          21.3329133,
          46.1580018
        ]
      },
      "properties": {
        "id": 8296399221,
        "osm_type": "node",
        "name": "Sc B",
        "tourism": "apartment"
      }
    },
    {
      "type": "Feature",
      "geometry": {
        "type": "Point",
        "coordinates": [
          21.332679,
          46.1581166
        ]
      },
      "properties": {
        "id": 8296411319,
        "osm_type": "node",
        "name": "Sc A",
        "tourism": "apartment"
      }
    },
    {
      "type": "Feature",
      "geometry": {
        "type": "Point",
        "coordinates": [
          21.30344,
          46.1966266
        ]
      },
      "properties": {
        "id": 8518170417,
        "osm_type": "node",
        "name": "Grant Hotel Boutique",
        "tourism": "hotel"
      }
    },
    {
      "type": "Feature",
      "geometry": {
        "type": "Point",
        "coordinates": [
          21.2755087,
          46.2102517
        ]
      },
      "properties": {
        "id": 8592499218,
        "osm_type": "node",
        "name": "Eldopol",
        "tourism": "guest_house"
      }
    },
    {
      "type": "Feature",
      "geometry": {
        "type": "Point",
        "coordinates": [
          21.2931489,
          46.2021777
        ]
      },
      "properties": {
        "id": 8647772317,
        "osm_type": "node",
        "name": "Star",
        "tourism": "guest_house"
      }
    },
    {
      "type": "Feature",
      "geometry": {
        "type": "Point",
        "coordinates": [
          21.3243535,
          46.1459459
        ]
      },
      "properties": {
        "id": 9754282347,
        "osm_type": "node",
        "name": "Pensiunea Larissa",
        "tourism": "guest_house"
      }
    },
    {
      "type": "Feature",
      "geometry": {
        "type": "Point",
        "coordinates": [
          21.3443878,
          46.1729454
        ]
      },
      "properties": {
        "id": 10022451518,
        "osm_type": "node",
        "name": "Bloc 15",
        "tourism": "apartment"
      }
    },
    {
      "type": "Feature",
      "geometry": {
        "type": "Point",
        "coordinates": [
          21.309312,
          46.171671
        ]
      },
      "properties": {
        "id": 10132266633,
        "osm_type": "node",
        "name": "Hotel Cosmin",
        "tourism": "hotel",
        "phone": "+40 0757 127 770"
      }
    },
    {
      "type": "Feature",
      "geometry": {
        "type": "Point",
        "coordinates": [
          21.3160114,
          46.1816491
        ]
      },
      "properties": {
        "id": 10181159036,
        "osm_type": "node",
        "name": "Pensiunea Nimbus",
        "tourism": "guest_house",
        "phone": "+40 0755 010 304",
        "website": "https://www.pensiunea-nimbus.ro/"
      }
    },
    {
      "type": "Feature",
      "geometry": {
        "type": "Point",
        "coordinates": [
          21.424456,
          46.1572278
        ]
      },
      "properties": {
        "id": 11141933441,
        "osm_type": "node",
        "name": "Pensiunea Casa Verde",
        "tourism": "guest_house",
        "phone": "+40745245715"
      }
    },
    {
      "type": "Feature",
      "geometry": {
        "type": "Point",
        "coordinates": [
          21.3180923,
          46.1764722
        ]
      },
      "properties": {
        "id": 11152758905,
        "osm_type": "node",
        "tourism": "apartment"
      }
    },
    {
      "type": "Feature",
      "geometry": {
        "type": "Point",
        "coordinates": [
          21.317848,
          46.176366
        ]
      },
      "properties": {
        "id": 11152760605,
        "osm_type": "node",
        "tourism": "apartment"
      }
    },
    {
      "type": "Feature",
      "geometry": {
        "type": "Point",
        "coordinates": [
          21.3153252,
          46.1931098
        ]
      },
      "properties": {
        "id": 11346210669,
        "osm_type": "node",
        "tourism": "apartment"
      }
    },
    {
      "type": "Feature",
      "geometry": {
        "type": "Point",
        "coordinates": [
          21.4593485,
          46.1497149
        ]
      },
      "properties": {
        "id": 11573035022,
        "osm_type": "node",
        "name": "Motel Ioanis",
        "tourism": "motel",
        "phone": "+40 744 565 554"
      }
    },
    {
      "type": "Feature",
      "geometry": {
        "type": "Point",
        "coordinates": [
          21.3209655,
          46.1659742
        ]
      },
      "properties": {
        "id": 11577334969,
        "osm_type": "node",
        "name": "Trend Buildings",
        "tourism": "apartment"
      }
    },
    {
      "type": "Feature",
      "geometry": {
        "type": "Point",
        "coordinates": [
          21.31587,
          46.1924139
        ]
      },
      "properties": {
        "id": 11708879369,
        "osm_type": "node",
        "tourism": "apartment"
      }
    },
    {
      "type": "Feature",
      "geometry": {
        "type": "Point",
        "coordinates": [
          21.3135265,
          46.1708938
        ]
      },
      "properties": {
        "id": 12016395149,
        "osm_type": "node",
        "name": "Aniroc Signature Hotel",
        "tourism": "hotel",
        "phone": "+40 723 280 762",
        "website": "https://www.anirocsignaturehotel.ro/"
      }
    },
    {
      "type": "Feature",
      "geometry": {
        "type": "Point",
        "coordinates": [
          21.3158306,
          46.1929735
        ]
      },
      "properties": {
        "id": 12292340803,
        "osm_type": "node",
        "tourism": "apartment"
      }
    },
    {
      "type": "Feature",
      "geometry": {
        "type": "Point",
        "coordinates": [
          21.3157442,
          46.1926571
        ]
      },
      "properties": {
        "id": 12312783901,
        "osm_type": "node",
        "tourism": "apartment"
      }
    },
    {
      "type": "Feature",
      "geometry": {
        "type": "Point",
        "coordinates": [
          21.3151521,
          46.1935329
        ]
      },
      "properties": {
        "id": 12359960502,
        "osm_type": "node",
        "name": "R34",
        "tourism": "apartment"
      }
    },
    {
      "type": "Feature",
      "geometry": {
        "type": "Point",
        "coordinates": [
          21.3043943,
          46.1884411
        ]
      },
      "properties": {
        "id": 12422821401,
        "osm_type": "node",
        "tourism": "apartment"
      }
    },
    {
      "type": "Feature",
      "geometry": {
        "type": "Point",
        "coordinates": [
          21.3034859,
          46.1880136
        ]
      },
      "properties": {
        "id": 12422821402,
        "osm_type": "node",
        "tourism": "apartment"
      }
    },
    {
      "type": "Feature",
      "geometry": {
        "type": "Point",
        "coordinates": [
          21.3160235,
          46.1933518
        ]
      },
      "properties": {
        "id": 12791914001,
        "osm_type": "node",
        "tourism": "apartment"
      }
    },
    {
      "type": "Feature",
      "geometry": {
        "type": "Point",
        "coordinates": [
          21.3156703,
          46.1935264
        ]
      },
      "properties": {
        "id": 12791914101,
        "osm_type": "node",
        "tourism": "apartment"
      }
    },
    {
      "type": "Feature",
      "geometry": {
        "type": "Point",
        "coordinates": [
          21.315917,
          46.1930121
        ]
      },
      "properties": {
        "id": 12791914702,
        "osm_type": "node",
        "tourism": "apartment"
      }
    },
    {
      "type": "Feature",
      "geometry": {
        "type": "Point",
        "coordinates": [
          21.5137902,
          46.6185859
        ]
      },
      "properties": {
        "id": 13433094878,
        "osm_type": "node",
        "name": "Pensiunea Zerind",
        "tourism": "guest_house",
        "phone": "+40 771 319 557"
      }
    },
    {
      "type": "Feature",
      "geometry": {
        "type": "Point",
        "coordinates": [
          21.3184859,
          46.1706435
        ]
      },
      "properties": {
        "id": 34130465,
        "osm_type": "way",
        "name": "Hotel Palace",
        "tourism": "hotel"
      }
    },
    {
      "type": "Feature",
      "geometry": {
        "type": "Point",
        "coordinates": [
          21.3576359,
          46.1727016
        ]
      },
      "properties": {
        "id": 181038817,
        "osm_type": "way",
        "name": "Pensiune Olimp",
        "tourism": "hostel"
      }
    },
    {
      "type": "Feature",
      "geometry": {
        "type": "Point",
        "coordinates": [
          21.36526,
          46.1759168
        ]
      },
      "properties": {
        "id": 200647031,
        "osm_type": "way",
        "name": "Pensiune Arada",
        "tourism": "hostel",
        "check_date": "2025-08-04"
      }
    },
    {
      "type": "Feature",
      "geometry": {
        "type": "Point",
        "coordinates": [
          21.3580442,
          46.1774458
        ]
      },
      "properties": {
        "id": 200648052,
        "osm_type": "way",
        "name": "Pensiunea Alexander",
        "tourism": "hotel"
      }
    },
    {
      "type": "Feature",
      "geometry": {
        "type": "Point",
        "coordinates": [
          22.2624785,
          45.9750653
        ]
      },
      "properties": {
        "id": 219569900,
        "osm_type": "way",
        "name": "Pensiunea Patrimara",
        "tourism": "guest_house"
      }
    },
    {
      "type": "Feature",
      "geometry": {
        "type": "Point",
        "coordinates": [
          22.0484872,
          45.9948366
        ]
      },
      "properties": {
        "id": 219893291,
        "osm_type": "way",
        "name": "Casa Bata",
        "tourism": "hotel",
        "phone": "+40726234684",
        "website": "https://www.casabata.ro/"
      }
    },
    {
      "type": "Feature",
      "geometry": {
        "type": "Point",
        "coordinates": [
          21.3184356,
          46.173902
        ]
      },
      "properties": {
        "id": 222802646,
        "osm_type": "way",
        "name": "Hotel Continental Forum Arad",
        "tourism": "hotel",
        "website": "https://continental-forum-arad.continentalhotels.ro"
      }
    },
    {
      "type": "Feature",
      "geometry": {
        "type": "Point",
        "coordinates": [
          22.1447127,
          46.3114727
        ]
      },
      "properties": {
        "id": 235663290,
        "osm_type": "way",
        "tourism": "camp_site"
      }
    },
    {
      "type": "Feature",
      "geometry": {
        "type": "Point",
        "coordinates": [
          21.3556917,
          46.171635
        ]
      },
      "properties": {
        "id": 236756885,
        "osm_type": "way",
        "name": "Hotel Voinicul",
        "tourism": "hostel"
      }
    },
    {
      "type": "Feature",
      "geometry": {
        "type": "Point",
        "coordinates": [
          21.3065282,
          46.1799856
        ]
      },
      "properties": {
        "id": 237104011,
        "osm_type": "way",
        "name": "Pensiune XO Residence",
        "tourism": "hostel"
      }
    },
    {
      "type": "Feature",
      "geometry": {
        "type": "Point",
        "coordinates": [
          21.3048458,
          46.18036
        ]
      },
      "properties": {
        "id": 237104134,
        "osm_type": "way",
        "name": "Hotel Class",
        "tourism": "hotel"
      }
    },
    {
      "type": "Feature",
      "geometry": {
        "type": "Point",
        "coordinates": [
          21.3190679,
          46.1731805
        ]
      },
      "properties": {
        "id": 237109908,
        "osm_type": "way",
        "name": "Hotel Arad",
        "tourism": "hotel"
      }
    },
    {
      "type": "Feature",
      "geometry": {
        "type": "Point",
        "coordinates": [
          21.3493518,
          46.1794849
        ]
      },
      "properties": {
        "id": 303436530,
        "osm_type": "way",
        "name": "Pensiune Miorița",
        "tourism": "hostel"
      }
    },
    {
      "type": "Feature",
      "geometry": {
        "type": "Point",
        "coordinates": [
          21.3511128,
          46.1789576
        ]
      },
      "properties": {
        "id": 303436746,
        "osm_type": "way",
        "name": "Hotel Ana",
        "tourism": "hotel"
      }
    },
    {
      "type": "Feature",
      "geometry": {
        "type": "Point",
        "coordinates": [
          21.3459717,
          46.1802538
        ]
      },
      "properties": {
        "id": 303438130,
        "osm_type": "way",
        "name": "Pensiune Johanna",
        "tourism": "hostel"
      }
    },
    {
      "type": "Feature",
      "geometry": {
        "type": "Point",
        "coordinates": [
          21.3223094,
          46.1568083
        ]
      },
      "properties": {
        "id": 303898840,
        "osm_type": "way",
        "name": "Pensiune XE-MAR",
        "tourism": "hostel"
      }
    },
    {
      "type": "Feature",
      "geometry": {
        "type": "Point",
        "coordinates": [
          21.3098848,
          46.1925647
        ]
      },
      "properties": {
        "id": 304006338,
        "osm_type": "way",
        "name": "Pensiune Adriana",
        "tourism": "hostel"
      }
    },
    {
      "type": "Feature",
      "geometry": {
        "type": "Point",
        "coordinates": [
          21.3906395,
          46.1656064
        ]
      },
      "properties": {
        "id": 304495421,
        "osm_type": "way",
        "name": "Pensiunea Raluca",
        "tourism": "hostel",
        "check_date": "2024-09-25"
      }
    },
    {
      "type": "Feature",
      "geometry": {
        "type": "Point",
        "coordinates": [
          21.3183697,
          46.1676718
        ]
      },
      "properties": {
        "id": 304625980,
        "osm_type": "way",
        "name": "Hotel Gio",
        "tourism": "hotel"
      }
    },
    {
      "type": "Feature",
      "geometry": {
        "type": "Point",
        "coordinates": [
          21.3457894,
          46.1693834
        ]
      },
      "properties": {
        "id": 304938037,
        "osm_type": "way",
        "name": "Hotel Leon",
        "tourism": "hotel"
      }
    },
    {
      "type": "Feature",
      "geometry": {
        "type": "Point",
        "coordinates": [
          21.3040571,
          46.1715191
        ]
      },
      "properties": {
        "id": 305040466,
        "osm_type": "way",
        "name": "Hotel Iris",
        "tourism": "hotel"
      }
    },
    {
      "type": "Feature",
      "geometry": {
        "type": "Point",
        "coordinates": [
          21.30159,
          46.1691829
        ]
      },
      "properties": {
        "id": 305041277,
        "osm_type": "way",
        "name": "Pensiune Mario",
        "tourism": "hostel"
      }
    },
    {
      "type": "Feature",
      "geometry": {
        "type": "Point",
        "coordinates": [
          21.306529,
          46.1916284
        ]
      },
      "properties": {
        "id": 305042160,
        "osm_type": "way",
        "name": "Pensiune Roberto",
        "tourism": "hostel"
      }
    },
    {
      "type": "Feature",
      "geometry": {
        "type": "Point",
        "coordinates": [
          21.2987589,
          46.1912599
        ]
      },
      "properties": {
        "id": 305043178,
        "osm_type": "way",
        "name": "Hotel Queen",
        "tourism": "hotel"
      }
    },
    {
      "type": "Feature",
      "geometry": {
        "type": "Point",
        "coordinates": [
          21.3387311,
          46.1997114
        ]
      },
      "properties": {
        "id": 305418682,
        "osm_type": "way",
        "name": "Pensiune George's",
        "tourism": "hostel"
      }
    },
    {
      "type": "Feature",
      "geometry": {
        "type": "Point",
        "coordinates": [
          21.3379529,
          46.1992539
        ]
      },
      "properties": {
        "id": 305419276,
        "osm_type": "way",
        "name": "Motel Rareș",
        "tourism": "hostel"
      }
    },
    {
      "type": "Feature",
      "geometry": {
        "type": "Point",
        "coordinates": [
          21.2809441,
          46.2007936
        ]
      },
      "properties": {
        "id": 305926500,
        "osm_type": "way",
        "name": "Hotel Phoenix",
        "tourism": "hotel"
      }
    },
    {
      "type": "Feature",
      "geometry": {
        "type": "Point",
        "coordinates": [
          21.3431273,
          46.1800496
        ]
      },
      "properties": {
        "id": 306327585,
        "osm_type": "way",
        "name": "Hotel Maxim",
        "tourism": "hotel"
      }
    },
    {
      "type": "Feature",
      "geometry": {
        "type": "Point",
        "coordinates": [
          21.3679754,
          46.1767492
        ]
      },
      "properties": {
        "id": 308758612,
        "osm_type": "way",
        "name": "Pensiune Roua",
        "tourism": "hostel"
      }
    },
    {
      "type": "Feature",
      "geometry": {
        "type": "Point",
        "coordinates": [
          21.3512651,
          46.1792666
        ]
      },
      "properties": {
        "id": 309239948,
        "osm_type": "way",
        "name": "Pensiune Radena",
        "tourism": "hostel"
      }
    },
    {
      "type": "Feature",
      "geometry": {
        "type": "Point",
        "coordinates": [
          21.3518897,
          46.1803281
        ]
      },
      "properties": {
        "id": 309241131,
        "osm_type": "way",
        "name": "Pensiune Sergiu & Geanina",
        "tourism": "hostel"
      }
    },
    {
      "type": "Feature",
      "geometry": {
        "type": "Point",
        "coordinates": [
          21.3173353,
          46.1768683
        ]
      },
      "properties": {
        "id": 310597975,
        "osm_type": "way",
        "name": "Best Western Central Hotel",
        "tourism": "hotel"
      }
    },
    {
      "type": "Feature",
      "geometry": {
        "type": "Point",
        "coordinates": [
          21.3367315,
          46.1971106
        ]
      },
      "properties": {
        "id": 314852068,
        "osm_type": "way",
        "name": "Pensiune Milly",
        "tourism": "hostel"
      }
    },
    {
      "type": "Feature",
      "geometry": {
        "type": "Point",
        "coordinates": [
          21.2781952,
          46.2032437
        ]
      },
      "properties": {
        "id": 316366350,
        "osm_type": "way",
        "name": "Pensiune SAN",
        "tourism": "hostel"
      }
    },
    {
      "type": "Feature",
      "geometry": {
        "type": "Point",
        "coordinates": [
          21.3471146,
          46.1798277
        ]
      },
      "properties": {
        "id": 330913005,
        "osm_type": "way",
        "name": "Pensiune Select",
        "tourism": "hostel"
      }
    },
    {
      "type": "Feature",
      "geometry": {
        "type": "Point",
        "coordinates": [
          21.8182832,
          46.4012707
        ]
      },
      "properties": {
        "id": 418529314,
        "osm_type": "way",
        "name": "Hanul Moara cu Noroc",
        "tourism": "guest_house",
        "phone": "0785.223.440 & 0740.094.047",
        "website": "https://www.hanulmoaracunoroc.ro/"
      }
    },
    {
      "type": "Feature",
      "geometry": {
        "type": "Point",
        "coordinates": [
          21.686448,
          46.0939612
        ]
      },
      "properties": {
        "id": 422614781,
        "osm_type": "way",
        "name": "Casa Maria Magdalena",
        "tourism": "guest_house"
      }
    },
    {
      "type": "Feature",
      "geometry": {
        "type": "Point",
        "coordinates": [
          22.2368556,
          46.4809881
        ]
      },
      "properties": {
        "id": 424760282,
        "osm_type": "way",
        "name": "Cabana Gaudeamus",
        "tourism": "alpine_hut"
      }
    },
    {
      "type": "Feature",
      "geometry": {
        "type": "Point",
        "coordinates": [
          21.7530836,
          46.2173756
        ]
      },
      "properties": {
        "id": 429044232,
        "osm_type": "way",
        "name": "Pensiunea Carmelia",
        "tourism": "guest_house"
      }
    },
    {
      "type": "Feature",
      "geometry": {
        "type": "Point",
        "coordinates": [
          22.2569383,
          46.460501
        ]
      },
      "properties": {
        "id": 512846952,
        "osm_type": "way",
        "name": "Pensiunea Mayumi",
        "tourism": "hotel"
      }
    },
    {
      "type": "Feature",
      "geometry": {
        "type": "Point",
        "coordinates": [
          22.2654354,
          46.4630212
        ]
      },
      "properties": {
        "id": 512846956,
        "osm_type": "way",
        "name": "Pensiunea Lacul liniștit",
        "tourism": "hotel"
      }
    },
    {
      "type": "Feature",
      "geometry": {
        "type": "Point",
        "coordinates": [
          21.3902831,
          46.1660884
        ]
      },
      "properties": {
        "id": 521521649,
        "osm_type": "way",
        "name": "Pensiunea ALMADA",
        "tourism": "hostel",
        "check_date": "2024-09-16"
      }
    },
    {
      "type": "Feature",
      "geometry": {
        "type": "Point",
        "coordinates": [
          20.7508287,
          46.1694192
        ]
      },
      "properties": {
        "id": 538284195,
        "osm_type": "way",
        "name": "Hotel Nadlac",
        "tourism": "hotel"
      }
    },
    {
      "type": "Feature",
      "geometry": {
        "type": "Point",
        "coordinates": [
          21.2840972,
          46.0667487
        ]
      },
      "properties": {
        "id": 576360045,
        "osm_type": "way",
        "name": "Cabana Deltei",
        "tourism": "motel",
        "website": "http://www.cabanadeltei.ro/"
      }
    },
    {
      "type": "Feature",
      "geometry": {
        "type": "Point",
        "coordinates": [
          21.3195924,
          46.1643134
        ]
      },
      "properties": {
        "id": 617698423,
        "osm_type": "way",
        "name": "Hostel Moara cu Noroc",
        "tourism": "hostel"
      }
    },
    {
      "type": "Feature",
      "geometry": {
        "type": "Point",
        "coordinates": [
          21.2478665,
          46.2034852
        ]
      },
      "properties": {
        "id": 724690806,
        "osm_type": "way",
        "name": "Ibis Styles",
        "tourism": "hotel"
      }
    },
    {
      "type": "Feature",
      "geometry": {
        "type": "Point",
        "coordinates": [
          21.3799129,
          46.2531376
        ]
      },
      "properties": {
        "id": 834669263,
        "osm_type": "way",
        "name": "Domino Residence",
        "tourism": "hotel"
      }
    },
    {
      "type": "Feature",
      "geometry": {
        "type": "Point",
        "coordinates": [
          21.2833227,
          46.1699569
        ]
      },
      "properties": {
        "id": 906667173,
        "osm_type": "way",
        "name": "Pensiunea \"La Cuscrii\"",
        "tourism": "guest_house",
        "phone": "+40 771 449 599",
        "website": "https://pensiune-arad.ro/"
      }
    },
    {
      "type": "Feature",
      "geometry": {
        "type": "Point",
        "coordinates": [
          21.3234644,
          46.1614582
        ]
      },
      "properties": {
        "id": 944564082,
        "osm_type": "way",
        "name": "Hotel Coandi",
        "tourism": "hotel",
        "phone": "+40257287777",
        "website": "http://www.hotelcoandi.ro/"
      }
    },
    {
      "type": "Feature",
      "geometry": {
        "type": "Point",
        "coordinates": [
          21.3906491,
          46.1661611
        ]
      },
      "properties": {
        "id": 1056641097,
        "osm_type": "way",
        "tourism": "guest_house"
      }
    },
    {
      "type": "Feature",
      "geometry": {
        "type": "Point",
        "coordinates": [
          21.3906509,
          46.1659325
        ]
      },
      "properties": {
        "id": 1056641098,
        "osm_type": "way",
        "tourism": "guest_house"
      }
    },
    {
      "type": "Feature",
      "geometry": {
        "type": "Point",
        "coordinates": [
          21.1905845,
          46.2053895
        ]
      },
      "properties": {
        "id": 1182273652,
        "osm_type": "way",
        "name": "Hanul de la Răscruce",
        "tourism": "hotel"
      }
    },
    {
      "type": "Feature",
      "geometry": {
        "type": "Point",
        "coordinates": [
          21.3221032,
          46.158332
        ]
      },
      "properties": {
        "id": 1249931542,
        "osm_type": "way",
        "name": "Hotel Xemar",
        "tourism": "hotel"
      }
    },
    {
      "type": "Feature",
      "geometry": {
        "type": "Point",
        "coordinates": [
          21.307691,
          46.3404041
        ]
      },
      "properties": {
        "id": 1254977646,
        "osm_type": "way",
        "name": "Motel Regal",
        "tourism": "motel"
      }
    },
    {
      "type": "Feature",
      "geometry": {
        "type": "Point",
        "coordinates": [
          21.3133793,
          46.3463279
        ]
      },
      "properties": {
        "id": 1256349951,
        "osm_type": "way",
        "name": "Pensiune & Pizzerie Milano",
        "tourism": "guest_house"
      }
    },
    {
      "type": "Feature",
      "geometry": {
        "type": "Point",
        "coordinates": [
          22.2554663,
          46.4615683
        ]
      },
      "properties": {
        "id": 1333030470,
        "osm_type": "way",
        "name": "Pensiunea Bogdan",
        "tourism": "guest_house",
        "phone": "+40-257-313002"
      }
    },
    {
      "type": "Feature",
      "geometry": {
        "type": "Point",
        "coordinates": [
          21.4245132,
          46.1572166
        ]
      },
      "properties": {
        "id": 1494467002,
        "osm_type": "way",
        "tourism": "guest_house"
      }
    },
    {
      "type": "Feature",
      "geometry": {
        "type": "Point",
        "coordinates": [
          21.314817,
          46.1714544
        ]
      },
      "properties": {
        "id": 3193944,
        "osm_type": "relation",
        "name": "Hotel Ardealul",
        "tourism": "hotel"
      }
    }
  ]
}