{
  "type": "FeatureCollection",
  "features": [
    {
      "type": "Feature",
      "geometry": {
        "type": "Point",
        "coordinates": [
          41.1782844,
          40.7910104
        ]
      },
      "properties": {
        "id": 3884506209,
        "osm_type": "node",
        "name": "Soğanlı Yayla",
        "tourism": "camp_site"
      }
    },
    {
      "type": "Feature",
      "geometry": {
        "type": "Point",
        "coordinates": [
          40.9137868,
          40.7179775
        ]
      },
      "properties": {
        "id": 3960398270,
        "osm_type": "node",
        "name": "Kapili Göller",
        "tourism": "camp_site"
      }
    },
    {
      "type": "Feature",
      "geometry": {
        "type": "Point",
        "coordinates": [
          40.9296954,
          40.6983706
        ]
      },
      "properties": {
        "id": 3960398271,
        "osm_type": "node",
        "tourism": "camp_site"
      }
    },
    {
      "type": "Feature",
      "geometry": {
        "type": "Point",
        "coordinates": [
          41.2840874,
          39.848816
        ]
      },
      "properties": {
        "id": 4041340489,
        "osm_type": "node",
        "name": "Dedeman Palandöken",
        "tourism": "hotel",
        "phone": "+904423162414",
        "website": "https://www.dedeman.com/oteller/dedeman-palandoken",
        "check_date": "2024-08-30"
      }
    },
    {
      "type": "Feature",
      "geometry": {
        "type": "Point",
        "coordinates": [
          41.2517455,
          39.902929
        ]
      },
      "properties": {
        "id": 4379218235,
        "osm_type": "node",
        "name": "Konukevi-2",
        "tourism": "guest_house"
      }
    },
    {
      "type": "Feature",
      "geometry": {
        "type": "Point",
        "coordinates": [
          41.2639087,
          39.9028256
        ]
      },
      "properties": {
        "id": 4379260223,
        "osm_type": "node",
        "name": "Konukevi-3",
        "tourism": "guest_house"
      }
    },
    {
      "type": "Feature",
      "geometry": {
        "type": "Point",
        "coordinates": [
          41.2755442,
          39.9105912
        ]
      },
      "properties": {
        "id": 4549312750,
        "osm_type": "node",
        "name": "Yeni Çinar Oteli",
        "tourism": "hotel",
        "phone": "+90442213669091"
      }
    },
    {
      "type": "Feature",
      "geometry": {
        "type": "Point",
        "coordinates": [
          40.6939414,
          39.9201713
        ]
      },
      "properties": {
        "id": 5377171321,
        "osm_type": "node",
        "name": "grand otel",
        "tourism": "hotel"
      }
    },
    {
      "type": "Feature",
      "geometry": {
        "type": "Point",
        "coordinates": [
          40.6952892,
          39.9203855
        ]
      },
      "properties": {
        "id": 5377865821,
        "osm_type": "node",
        "name": "otel apart",
        "tourism": "hotel"
      }
    },
    {
      "type": "Feature",
      "geometry": {
        "type": "Point",
        "coordinates": [
          41.2756607,
          39.910709
        ]
      },
      "properties": {
        "id": 5620936989,
        "osm_type": "node",
        "name": "Bahar Otel",
        "tourism": "hotel"
      }
    },
    {
      "type": "Feature",
      "geometry": {
        "type": "Point",
        "coordinates": [
          41.2682693,
          39.9057846
        ]
      },
      "properties": {
        "id": 5879253687,
        "osm_type": "node",
        "name": "Otel Esadas",
        "tourism": "hotel",
        "phone": "+90 4440025",
        "website": "https://esadas.com/"
      }
    },
    {
      "type": "Feature",
      "geometry": {
        "type": "Point",
        "coordinates": [
          41.2708301,
          39.9107588
        ]
      },
      "properties": {
        "id": 6221756285,
        "osm_type": "node",
        "name": "Bayburt otel",
        "tourism": "hotel",
        "opening_hours": "24/7"
      }
    },
    {
      "type": "Feature",
      "geometry": {
        "type": "Point",
        "coordinates": [
          40.6920857,
          39.9198305
        ]
      },
      "properties": {
        "id": 6381615287,
        "osm_type": "node",
        "name": "aksale",
        "tourism": "hotel",
        "phone": "+904424151234"
      }
    },
    {
      "type": "Feature",
      "geometry": {
        "type": "Point",
        "coordinates": [
          41.2678656,
          39.9070778
        ]
      },
      "properties": {
        "id": 6402364097,
        "osm_type": "node",
        "name": "Erzurum Öğretmenevi",
        "tourism": "hostel"
      }
    },
    {
      "type": "Feature",
      "geometry": {
        "type": "Point",
        "coordinates": [
          41.5458655,
          40.5325054
        ]
      },
      "properties": {
        "id": 6624516568,
        "osm_type": "node",
        "name": "Uzundere Öğretmenevi",
        "tourism": "hotel"
      }
    },
    {
      "type": "Feature",
      "geometry": {
        "type": "Point",
        "coordinates": [
          41.2689033,
          39.9047159
        ]
      },
      "properties": {
        "id": 6758604985,
        "osm_type": "node",
        "name": "Saray otel",
        "tourism": "hotel",
        "opening_hours": "24/7"
      }
    },
    {
      "type": "Feature",
      "geometry": {
        "type": "Point",
        "coordinates": [
          41.2680182,
          39.9054665
        ]
      },
      "properties": {
        "id": 7764765130,
        "osm_type": "node",
        "name": "Erzurum Polis evi",
        "tourism": "guest_house",
        "website": "https://www.polisevi.com/erzurum-polisevi/"
      }
    },
    {
      "type": "Feature",
      "geometry": {
        "type": "Point",
        "coordinates": [
          41.0797524,
          40.7704463
        ]
      },
      "properties": {
        "id": 8957470337,
        "osm_type": "node",
        "tourism": "camp_site"
      }
    },
    {
      "type": "Feature",
      "geometry": {
        "type": "Point",
        "coordinates": [
          41.0478823,
          40.7710818
        ]
      },
      "properties": {
        "id": 8959621278,
        "osm_type": "node",
        "tourism": "camp_site"
      }
    },
    {
      "type": "Feature",
      "geometry": {
        "type": "Point",
        "coordinates": [
          41.6335426,
          40.6360736
        ]
      },
      "properties": {
        "id": 9740995294,
        "osm_type": "node",
        "name": "KAMP ALANI",
        "tourism": "camp_site"
      }
    },
    {
      "type": "Feature",
      "geometry": {
        "type": "Point",
        "coordinates": [
          41.4268699,
          39.9707712
        ]
      },
      "properties": {
        "id": 10141154218,
        "osm_type": "node",
        "tourism": "motel"
      }
    },
    {
      "type": "Feature",
      "geometry": {
        "type": "Point",
        "coordinates": [
          41.425653,
          39.9705931
        ]
      },
      "properties": {
        "id": 10141154617,
        "osm_type": "node",
        "tourism": "caravan_site"
      }
    },
    {
      "type": "Feature",
      "geometry": {
        "type": "Point",
        "coordinates": [
          41.8748479,
          40.2986315
        ]
      },
      "properties": {
        "id": 10143206017,
        "osm_type": "node",
        "tourism": "caravan_site"
      }
    },
    {
      "type": "Feature",
      "geometry": {
        "type": "Point",
        "coordinates": [
          41.8541597,
          40.3032073
        ]
      },
      "properties": {
        "id": 10143210917,
        "osm_type": "node",
        "tourism": "caravan_site"
      }
    },
    {
      "type": "Feature",
      "geometry": {
        "type": "Point",
        "coordinates": [
          41.2783242,
          39.9106439
        ]
      },
      "properties": {
        "id": 10147941917,
        "osm_type": "node",
        "name": "Atlas Otel",
        "tourism": "hotel"
      }
    },
    {
      "type": "Feature",
      "geometry": {
        "type": "Point",
        "coordinates": [
          41.5472261,
          40.5313653
        ]
      },
      "properties": {
        "id": 10147961685,
        "osm_type": "node",
        "name": "Polis Lojmanları",
        "tourism": "motel"
      }
    },
    {
      "type": "Feature",
      "geometry": {
        "type": "Point",
        "coordinates": [
          42.1650241,
          40.0375464
        ]
      },
      "properties": {
        "id": 10172013454,
        "osm_type": "node",
        "name": "Sahra",
        "tourism": "hotel"
      }
    },
    {
      "type": "Feature",
      "geometry": {
        "type": "Point",
        "coordinates": [
          42.1695419,
          40.0399019
        ]
      },
      "properties": {
        "id": 10172013470,
        "osm_type": "node",
        "name": "Karaca",
        "tourism": "hotel"
      }
    },
    {
      "type": "Feature",
      "geometry": {
        "type": "Point",
        "coordinates": [
          42.1496949,
          40.0318479
        ]
      },
      "properties": {
        "id": 10172013499,
        "osm_type": "node",
        "name": "Aydıneresort",
        "tourism": "hotel"
      }
    },
    {
      "type": "Feature",
      "geometry": {
        "type": "Point",
        "coordinates": [
          41.8591725,
          39.9656074
        ]
      },
      "properties": {
        "id": 10172013688,
        "osm_type": "node",
        "tourism": "hotel"
      }
    },
    {
      "type": "Feature",
      "geometry": {
        "type": "Point",
        "coordinates": [
          41.5469749,
          40.2950107
        ]
      },
      "properties": {
        "id": 10220852517,
        "osm_type": "node",
        "tourism": "hotel"
      }
    },
    {
      "type": "Feature",
      "geometry": {
        "type": "Point",
        "coordinates": [
          41.1028174,
          39.4379325
        ]
      },
      "properties": {
        "id": 12143804944,
        "osm_type": "node",
        "tourism": "camp_site"
      }
    },
    {
      "type": "Feature",
      "geometry": {
        "type": "Point",
        "coordinates": [
          41.6456858,
          39.6313922
        ]
      },
      "properties": {
        "id": 12143804945,
        "osm_type": "node",
        "tourism": "camp_site"
      }
    },
    {
      "type": "Feature",
      "geometry": {
        "type": "Point",
        "coordinates": [
          42.1814007,
          40.1186058
        ]
      },
      "properties": {
        "id": 12143804953,
        "osm_type": "node",
        "tourism": "camp_site"
      }
    },
    {
      "type": "Feature",
      "geometry": {
        "type": "Point",
        "coordinates": [
          41.2803441,
          39.9141166
        ]
      },
      "properties": {
        "id": 12823954701,
        "osm_type": "node",
        "name": "Otel Büyük Doğu",
        "tourism": "hotel",
        "opening_hours": "Mo-Su 14:00-00:00",
        "phone": "+905051999841"
      }
    },
    {
      "type": "Feature",
      "geometry": {
        "type": "Point",
        "coordinates": [
          41.2504693,
          39.9162045
        ]
      },
      "properties": {
        "id": 12951822137,
        "osm_type": "node",
        "name": "Hilton Garden Inn Erzurum",
        "tourism": "hotel",
        "phone": "+90 442 232 32 32",
        "website": "https://www.hilton.com/en/hotels/erzykgi-hilton-garden-inn-erzurum/"
      }
    },
    {
      "type": "Feature",
      "geometry": {
        "type": "Point",
        "coordinates": [
          41.0032475,
          40.4893042
        ]
      },
      "properties": {
        "id": 13586382802,
        "osm_type": "node",
        "name": "Özel İspir Ortaöğretim Erkek Öğrenci Yurdu",
        "tourism": "guest_house",
        "opening_hours": "24/7"
      }
    },
    {
      "type": "Feature",
      "geometry": {
        "type": "Point",
        "coordinates": [
          41.2748107,
          39.8664256
        ]
      },
      "properties": {
        "id": 102591921,
        "osm_type": "way",
        "name": "Pollat Renaissance Erzurum",
        "tourism": "hotel",
        "website": "https://www.marriott.com/hotels/travel/erzbr-renaissance-polat-erzurum-hotel/"
      }
    },
    {
      "type": "Feature",
      "geometry": {
        "type": "Point",
        "coordinates": [
          41.1997981,
          39.7824071
        ]
      },
      "properties": {
        "id": 209585364,
        "osm_type": "way",
        "name": "Konaklı Kayak Merkezi",
        "tourism": "hotel"
      }
    },
    {
      "type": "Feature",
      "geometry": {
        "type": "Point",
        "coordinates": [
          41.2745029,
          39.8675219
        ]
      },
      "properties": {
        "id": 240355262,
        "osm_type": "way",
        "name": "Sway Hotel",
        "tourism": "hotel"
      }
    },
    {
      "type": "Feature",
      "geometry": {
        "type": "Point",
        "coordinates": [
          41.499242,
          40.5364298
        ]
      },
      "properties": {
        "id": 468647649,
        "osm_type": "way",
        "name": "Dikyar Dağ Evi",
        "tourism": "alpine_hut"
      }
    },
    {
      "type": "Feature",
      "geometry": {
        "type": "Point",
        "coordinates": [
          41.2541227,
          39.9037155
        ]
      },
      "properties": {
        "id": 520864743,
        "osm_type": "way",
        "name": "Konukevi-1",
        "tourism": "guest_house"
      }
    },
    {
      "type": "Feature",
      "geometry": {
        "type": "Point",
        "coordinates": [
          41.2565185,
          39.9071694
        ]
      },
      "properties": {
        "id": 667383714,
        "osm_type": "way",
        "name": "Misafirhane",
        "tourism": "guest_house"
      }
    },
    {
      "type": "Feature",
      "geometry": {
        "type": "Point",
        "coordinates": [
          40.6078384,
          39.8518651
        ]
      },
      "properties": {
        "id": 1018635611,
        "osm_type": "way",
        "name": "Lojman",
        "tourism": "guest_house"
      }
    },
    {
      "type": "Feature",
      "geometry": {
        "type": "Point",
        "coordinates": [
          40.6079764,
          39.8518806
        ]
      },
      "properties": {
        "id": 1018635612,
        "osm_type": "way",
        "name": "Lojman",
        "tourism": "guest_house"
      }
    },
    {
      "type": "Feature",
      "geometry": {
        "type": "Point",
        "coordinates": [
          40.5859073,
          39.8516977
        ]
      },
      "properties": {
        "id": 1018818804,
        "osm_type": "way",
        "tourism": "guest_house"
      }
    },
    {
      "type": "Feature",
      "geometry": {
        "type": "Point",
        "coordinates": [
          40.5856466,
          39.8517463
        ]
      },
      "properties": {
        "id": 1018818805,
        "osm_type": "way",
        "tourism": "guest_house"
      }
    },
    {
      "type": "Feature",
      "geometry": {
        "type": "Point",
        "coordinates": [
          40.5858289,
          39.8515027
        ]
      },
      "properties": {
        "id": 1018818806,
        "osm_type": "way",
        "tourism": "guest_house"
      }
    },
    {
      "type": "Feature",
      "geometry": {
        "type": "Point",
        "coordinates": [
          41.0079641,
          39.9819827
        ]
      },
      "properties": {
        "id": 1173587458,
        "osm_type": "way",
        "name": "Koza Kaskas Hotel",
        "tourism": "hotel"
      }
    },
    {
      "type": "Feature",
      "geometry": {
        "type": "Point",
        "coordinates": [
          41.2883509,
          39.8485502
        ]
      },
      "properties": {
        "id": 1338304857,
        "osm_type": "way",
        "name": "Vilayetler Evi",
        "tourism": "hotel"
      }
    },
    {
      "type": "Feature",
      "geometry": {
        "type": "Point",
        "coordinates": [
          41.2888306,
          39.8482908
        ]
      },
      "properties": {
        "id": 1338304858,
        "osm_type": "way",
        "name": "Vilayetler Evi",
        "tourism": "hotel"
      }
    },
    {
      "type": "Feature",
      "geometry": {
        "type": "Point",
        "coordinates": [
          41.287985,
          39.848863
        ]
      },
      "properties": {
        "id": 1338304859,
        "osm_type": "way",
        "tourism": "hotel"
      }
    },
    {
      "type": "Feature",
      "geometry": {
        "type": "Point",
        "coordinates": [
          41.2880543,
          39.8487921
        ]
      },
      "properties": {
        "id": 1338304860,
        "osm_type": "way",
        "tourism": "hotel"
      }
    },
    {
      "type": "Feature",
      "geometry": {
        "type": "Point",
        "coordinates": [
          41.2881237,
          39.8487223
        ]
      },
      "properties": {
        "id": 1338304861,
        "osm_type": "way",
        "tourism": "hotel"
      }
    },
    {
      "type": "Feature",
      "geometry": {
        "type": "Point",
        "coordinates": [
          41.288193,
          39.8486525
        ]
      },
      "properties": {
        "id": 1338304862,
        "osm_type": "way",
        "tourism": "hotel"
      }
    },
    {
      "type": "Feature",
      "geometry": {
        "type": "Point",
        "coordinates": [
          41.2882577,
          39.848585
        ]
      },
      "properties": {
        "id": 1338304863,
        "osm_type": "way",
        "tourism": "hotel"
      }
    },
    {
      "type": "Feature",
      "geometry": {
        "type": "Point",
        "coordinates": [
          41.2883255,
          39.84852
        ]
      },
      "properties": {
        "id": 1338304864,
        "osm_type": "way",
        "tourism": "hotel"
      }
    },
    {
      "type": "Feature",
      "geometry": {
        "type": "Point",
        "coordinates": [
          41.2883913,
          39.8484552
        ]
      },
      "properties": {
        "id": 1338304865,
        "osm_type": "way",
        "tourism": "hotel"
      }
    },
    {
      "type": "Feature",
      "geometry": {
        "type": "Point",
        "coordinates": [
          41.2884584,
          39.8483892
        ]
      },
      "properties": {
        "id": 1338304866,
        "osm_type": "way",
        "tourism": "hotel"
      }
    },
    {
      "type": "Feature",
      "geometry": {
        "type": "Point",
        "coordinates": [
          41.2880021,
          39.8489787
        ]
      },
      "properties": {
        "id": 1338304867,
        "osm_type": "way",
        "tourism": "hotel"
      }
    },
    {
      "type": "Feature",
      "geometry": {
        "type": "Point",
        "coordinates": [
          41.288634,
          39.8486152
        ]
      },
      "properties": {
        "id": 1338304868,
        "osm_type": "way",
        "tourism": "hotel"
      }
    },
    {
      "type": "Feature",
      "geometry": {
        "type": "Point",
        "coordinates": [
          41.2889101,
          39.8480892
        ]
      },
      "properties": {
        "id": 1338304869,
        "osm_type": "way",
        "tourism": "hotel"
      }
    },
    {
      "type": "Feature",
      "geometry": {
        "type": "Point",
        "coordinates": [
          41.2720714,
          39.9072704
        ]
      },
      "properties": {
        "id": 1379285332,
        "osm_type": "way",
        "name": "Lala Grand Hotel",
        "tourism": "hotel",
        "phone": "+90 442 502 42 25",
        "website": "https://www.lalagrandhotel.com/"
      }
    },
    {
      "type": "Feature",
      "geometry": {
        "type": "Point",
        "coordinates": [
          40.9767729,
          39.6128181
        ]
      },
      "properties": {
        "id": 1384779434,
        "osm_type": "way",
        "name": "Çat Öğretmenevi ve Akşam Sanat Okulu",
        "tourism": "hotel"
      }
    },
    {
      "type": "Feature",
      "geometry": {
        "type": "Point",
        "coordinates": [
          42.4048205,
          40.4515299
        ]
      },
      "properties": {
        "id": 1454417201,
        "osm_type": "way",
        "name": "Misafirhane",
        "tourism": "guest_house"
      }
    },
    {
      "type": "Feature",
      "geometry": {
        "type": "Point",
        "coordinates": [
          42.4023516,
          40.4513925
        ]
      },
      "properties": {
        "id": 1454417206,
        "osm_type": "way",
        "name": "Lojman",
        "tourism": "guest_house"
      }
    },
    {
      "type": "Feature",
      "geometry": {
        "type": "Point",
        "coordinates": [
          41.2518455,
          39.9030037
        ]
      },
      "properties": {
        "id": 1504977073,
        "osm_type": "way",
        "tourism": "guest_house"
      }
    }
  ]
}