{
  "type": "FeatureCollection",
  "features": [
    {
      "type": "Feature",
      "geometry": {
        "type": "Point",
        "coordinates": [
          29.9835076,
          39.4201927
        ]
      },
      "properties": {
        "id": 3776073322,
        "osm_type": "node",
        "name": "Hotaş Otel",
        "tourism": "hotel"
      }
    },
    {
      "type": "Feature",
      "geometry": {
        "type": "Point",
        "coordinates": [
          29.9848816,
          39.4186168
        ]
      },
      "properties": {
        "id": 3776073323,
        "osm_type": "node",
        "name": "GulPalas Hotel",
        "tourism": "hotel"
      }
    },
    {
      "type": "Feature",
      "geometry": {
        "type": "Point",
        "coordinates": [
          29.9907046,
          39.425438
        ]
      },
      "properties": {
        "id": 3776220857,
        "osm_type": "node",
        "name": "Qtahya Hotel",
        "tourism": "hotel"
      }
    },
    {
      "type": "Feature",
      "geometry": {
        "type": "Point",
        "coordinates": [
          29.9871496,
          39.4188333
        ]
      },
      "properties": {
        "id": 3776221592,
        "osm_type": "node",
        "name": "Erbaylar Hotel",
        "tourism": "hotel"
      }
    },
    {
      "type": "Feature",
      "geometry": {
        "type": "Point",
        "coordinates": [
          28.9768605,
          39.0890098
        ]
      },
      "properties": {
        "id": 5163384872,
        "osm_type": "node",
        "name": "Otel Güven",
        "tourism": "hotel"
      }
    },
    {
      "type": "Feature",
      "geometry": {
        "type": "Point",
        "coordinates": [
          29.4442976,
          39.4956678
        ]
      },
      "properties": {
        "id": 5819912854,
        "osm_type": "node",
        "tourism": "camp_site"
      }
    },
    {
      "type": "Feature",
      "geometry": {
        "type": "Point",
        "coordinates": [
          29.6098014,
          39.2026841
        ]
      },
      "properties": {
        "id": 5822454153,
        "osm_type": "node",
        "tourism": "camp_site"
      }
    },
    {
      "type": "Feature",
      "geometry": {
        "type": "Point",
        "coordinates": [
          29.9845403,
          39.4187311
        ]
      },
      "properties": {
        "id": 6744472985,
        "osm_type": "node",
        "name": "Çinili Otel",
        "tourism": "hotel"
      }
    },
    {
      "type": "Feature",
      "geometry": {
        "type": "Point",
        "coordinates": [
          29.9921653,
          39.4269104
        ]
      },
      "properties": {
        "id": 7575099885,
        "osm_type": "node",
        "name": "Alya Aile Pansiyonu",
        "tourism": "hostel",
        "phone": "05414348384"
      }
    },
    {
      "type": "Feature",
      "geometry": {
        "type": "Point",
        "coordinates": [
          29.9913957,
          39.4264968
        ]
      },
      "properties": {
        "id": 7575101785,
        "osm_type": "node",
        "name": "Via Hotel",
        "tourism": "hotel"
      }
    },
    {
      "type": "Feature",
      "geometry": {
        "type": "Point",
        "coordinates": [
          30.0010076,
          39.4307011
        ]
      },
      "properties": {
        "id": 7793776989,
        "osm_type": "node",
        "name": "Kütahya Polis Evi",
        "tourism": "guest_house",
        "phone": "+90 274 225 12 75",
        "website": "https://www.polisevi.com/kutahya-polisevi/"
      }
    },
    {
      "type": "Feature",
      "geometry": {
        "type": "Point",
        "coordinates": [
          28.9775439,
          39.0887797
        ]
      },
      "properties": {
        "id": 11373483872,
        "osm_type": "node",
        "name": "Bilgin",
        "tourism": "hotel"
      }
    },
    {
      "type": "Feature",
      "geometry": {
        "type": "Point",
        "coordinates": [
          30.1907584,
          39.5634041
        ]
      },
      "properties": {
        "id": 11611477871,
        "osm_type": "node",
        "tourism": "camp_site"
      }
    },
    {
      "type": "Feature",
      "geometry": {
        "type": "Point",
        "coordinates": [
          29.4695128,
          39.5520912
        ]
      },
      "properties": {
        "id": 12228660901,
        "osm_type": "node",
        "name": "Şahmaran Özel Erkek Öğrenci Apartman Yurdu",
        "tourism": "hostel",
        "opening_hours": "24/7"
      }
    },
    {
      "type": "Feature",
      "geometry": {
        "type": "Point",
        "coordinates": [
          29.4605399,
          39.5669709
        ]
      },
      "properties": {
        "id": 12228660902,
        "osm_type": "node",
        "name": "KYK Tavşanlı Arslanbey Yükseköğretim Öğrenci Yurdu",
        "tourism": "hostel",
        "opening_hours": "24/7"
      }
    },
    {
      "type": "Feature",
      "geometry": {
        "type": "Point",
        "coordinates": [
          30.0389026,
          39.4886561
        ]
      },
      "properties": {
        "id": 12231350801,
        "osm_type": "node",
        "name": "KÜMAŞ Misafirhane",
        "tourism": "guest_house"
      }
    },
    {
      "type": "Feature",
      "geometry": {
        "type": "Point",
        "coordinates": [
          29.490007,
          39.5398446
        ]
      },
      "properties": {
        "id": 12236291802,
        "osm_type": "node",
        "name": "Tavşanlı Otel",
        "tourism": "hotel"
      }
    },
    {
      "type": "Feature",
      "geometry": {
        "type": "Point",
        "coordinates": [
          29.2580885,
          38.9403697
        ]
      },
      "properties": {
        "id": 13055717426,
        "osm_type": "node",
        "tourism": "hotel"
      }
    },
    {
      "type": "Feature",
      "geometry": {
        "type": "Point",
        "coordinates": [
          29.9105447,
          39.4853059
        ]
      },
      "properties": {
        "id": 13075824842,
        "osm_type": "node",
        "name": "Hezar Dinari KYK Erkek Öğrenci Yurdu",
        "tourism": "guest_house"
      }
    },
    {
      "type": "Feature",
      "geometry": {
        "type": "Point",
        "coordinates": [
          29.9858406,
          39.4254111
        ]
      },
      "properties": {
        "id": 13340140304,
        "osm_type": "node",
        "name": "Kütahya Şehir Otel",
        "tourism": "hotel",
        "phone": "+902742710272",
        "website": "https://www.kutahyasehirotel.com"
      }
    },
    {
      "type": "Feature",
      "geometry": {
        "type": "Point",
        "coordinates": [
          29.9856123,
          39.4202513
        ]
      },
      "properties": {
        "id": 402928212,
        "osm_type": "way",
        "tourism": "hotel"
      }
    },
    {
      "type": "Feature",
      "geometry": {
        "type": "Point",
        "coordinates": [
          29.9860199,
          39.4209496
        ]
      },
      "properties": {
        "id": 402968203,
        "osm_type": "way",
        "name": "Hilton Garden Inn Kutahya",
        "tourism": "hotel",
        "phone": "+90 274 229 5555",
        "website": "https://www.hilton.com/en/hotels/eskgigi-hilton-garden-inn-kutahya/"
      }
    },
    {
      "type": "Feature",
      "geometry": {
        "type": "Point",
        "coordinates": [
          30.0165096,
          39.409762
        ]
      },
      "properties": {
        "id": 879328519,
        "osm_type": "way",
        "name": "Grand Çınar Hotel",
        "tourism": "hotel",
        "check_date": "2024-10-14"
      }
    },
    {
      "type": "Feature",
      "geometry": {
        "type": "Point",
        "coordinates": [
          30.036208,
          39.3893003
        ]
      },
      "properties": {
        "id": 1090490646,
        "osm_type": "way",
        "name": "Bossev Rezidance",
        "tourism": "guest_house"
      }
    }
  ]
}