{
  "type": "FeatureCollection",
  "features": [
    {
      "type": "Feature",
      "geometry": {
        "type": "Point",
        "coordinates": [
          21.411445,
          43.8631154
        ]
      },
      "properties": {
        "id": 1729357954,
        "osm_type": "node",
        "name": "Хотел Петрус",
        "tourism": "hotel"
      }
    },
    {
      "type": "Feature",
      "geometry": {
        "type": "Point",
        "coordinates": [
          21.2653241,
          43.9591428
        ]
      },
      "properties": {
        "id": 3627101847,
        "osm_type": "node",
        "name": "Ruza vetrova",
        "tourism": "camp_site",
        "tents": "yes"
      }
    },
    {
      "type": "Feature",
      "geometry": {
        "type": "Point",
        "coordinates": [
          21.3311385,
          43.9776006
        ]
      },
      "properties": {
        "id": 4129850808,
        "osm_type": "node",
        "name": "Alfa",
        "tourism": "hotel"
      }
    },
    {
      "type": "Feature",
      "geometry": {
        "type": "Point",
        "coordinates": [
          21.3069866,
          43.983495
        ]
      },
      "properties": {
        "id": 4431106991,
        "osm_type": "node",
        "name": "OzonFish",
        "tourism": "motel",
        "opening_hours": "24/7",
        "phone": "+381660080343",
        "website": "https://ozonfish.webnode.com/"
      }
    },
    {
      "type": "Feature",
      "geometry": {
        "type": "Point",
        "coordinates": [
          21.2516866,
          43.9681369
        ]
      },
      "properties": {
        "id": 4698165490,
        "osm_type": "node",
        "name": "Dajici",
        "tourism": "guest_house"
      }
    },
    {
      "type": "Feature",
      "geometry": {
        "type": "Point",
        "coordinates": [
          21.2453518,
          43.9929791
        ]
      },
      "properties": {
        "id": 4756935033,
        "osm_type": "node",
        "name": "Кућа Јгд",
        "tourism": "guest_house"
      }
    },
    {
      "type": "Feature",
      "geometry": {
        "type": "Point",
        "coordinates": [
          21.200386,
          44.2251791
        ]
      },
      "properties": {
        "id": 5168721023,
        "osm_type": "node",
        "name": "San marko",
        "tourism": "hotel",
        "opening_hours": "24/7",
        "phone": "+381638137653"
      }
    },
    {
      "type": "Feature",
      "geometry": {
        "type": "Point",
        "coordinates": [
          21.3675296,
          43.93751
        ]
      },
      "properties": {
        "id": 5612317522,
        "osm_type": "node",
        "tourism": "camp_site"
      }
    },
    {
      "type": "Feature",
      "geometry": {
        "type": "Point",
        "coordinates": [
          21.1839601,
          44.2324455
        ]
      },
      "properties": {
        "id": 5724722267,
        "osm_type": "node",
        "name": "B&B Drumski Raj",
        "tourism": "motel"
      }
    },
    {
      "type": "Feature",
      "geometry": {
        "type": "Point",
        "coordinates": [
          21.4536915,
          44.0917232
        ]
      },
      "properties": {
        "id": 8207767485,
        "osm_type": "node",
        "name": "Давидовић",
        "tourism": "guest_house",
        "contact:phone": "+381643643096",
        "contact:website": "https://www.prenociste-davidovic.com/"
      }
    },
    {
      "type": "Feature",
      "geometry": {
        "type": "Point",
        "coordinates": [
          21.0357522,
          43.8447673
        ]
      },
      "properties": {
        "id": 8617229017,
        "osm_type": "node",
        "name": "Ljubisav",
        "tourism": "apartment"
      }
    },
    {
      "type": "Feature",
      "geometry": {
        "type": "Point",
        "coordinates": [
          21.4039782,
          43.9265314
        ]
      },
      "properties": {
        "id": 9109033313,
        "osm_type": "node",
        "name": "Camp Plum",
        "tourism": "caravan_site"
      }
    },
    {
      "type": "Feature",
      "geometry": {
        "type": "Point",
        "coordinates": [
          21.4300311,
          44.1041029
        ]
      },
      "properties": {
        "id": 9862585596,
        "osm_type": "node",
        "name": "Motel Kruna",
        "tourism": "motel"
      }
    },
    {
      "type": "Feature",
      "geometry": {
        "type": "Point",
        "coordinates": [
          21.3705235,
          43.9280466
        ]
      },
      "properties": {
        "id": 9922174865,
        "osm_type": "node",
        "name": "Плава лагуна",
        "tourism": "guest_house",
        "website": "https://www.plavalagunacuprija.rs/"
      }
    },
    {
      "type": "Feature",
      "geometry": {
        "type": "Point",
        "coordinates": [
          21.5869217,
          43.9559471
        ]
      },
      "properties": {
        "id": 12253165101,
        "osm_type": "node",
        "name": "Biogor",
        "tourism": "hotel",
        "phone": "+38135740741",
        "website": "https://biogor.rs/"
      }
    },
    {
      "type": "Feature",
      "geometry": {
        "type": "Point",
        "coordinates": [
          21.6361647,
          44.0909319
        ]
      },
      "properties": {
        "id": 12730397417,
        "osm_type": "node",
        "name": "Планинарска кућа Суваја",
        "tourism": "alpine_hut"
      }
    },
    {
      "type": "Feature",
      "geometry": {
        "type": "Point",
        "coordinates": [
          21.5334152,
          43.8597744
        ]
      },
      "properties": {
        "id": 12769975240,
        "osm_type": "node",
        "name": "Dorotej",
        "tourism": "motel"
      }
    },
    {
      "type": "Feature",
      "geometry": {
        "type": "Point",
        "coordinates": [
          21.5905348,
          43.9535513
        ]
      },
      "properties": {
        "id": 12817762981,
        "osm_type": "node",
        "name": "Apartmani Mihajlovic",
        "tourism": "guest_house"
      }
    },
    {
      "type": "Feature",
      "geometry": {
        "type": "Point",
        "coordinates": [
          21.511788,
          44.1176552
        ]
      },
      "properties": {
        "id": 13074089233,
        "osm_type": "node",
        "name": "Etno domaćinstvo Milenković",
        "tourism": "hotel"
      }
    },
    {
      "type": "Feature",
      "geometry": {
        "type": "Point",
        "coordinates": [
          21.57722,
          43.9557029
        ]
      },
      "properties": {
        "id": 13127481090,
        "osm_type": "node",
        "name": "Etno kutak Milojevic",
        "tourism": "hotel"
      }
    },
    {
      "type": "Feature",
      "geometry": {
        "type": "Point",
        "coordinates": [
          21.4562716,
          44.0965195
        ]
      },
      "properties": {
        "id": 264847550,
        "osm_type": "way",
        "name": "Коначиште „Ресава”",
        "tourism": "hotel"
      }
    },
    {
      "type": "Feature",
      "geometry": {
        "type": "Point",
        "coordinates": [
          21.2495123,
          43.967197
        ]
      },
      "properties": {
        "id": 278319526,
        "osm_type": "way",
        "name": "Vegas",
        "tourism": "hostel"
      }
    },
    {
      "type": "Feature",
      "geometry": {
        "type": "Point",
        "coordinates": [
          21.2628844,
          43.9775982
        ]
      },
      "properties": {
        "id": 278325988,
        "osm_type": "way",
        "name": "Romansa",
        "tourism": "hotel"
      }
    },
    {
      "type": "Feature",
      "geometry": {
        "type": "Point",
        "coordinates": [
          21.3682843,
          43.9389917
        ]
      },
      "properties": {
        "id": 283611091,
        "osm_type": "way",
        "name": "Hotel Plaza",
        "tourism": "hotel"
      }
    },
    {
      "type": "Feature",
      "geometry": {
        "type": "Point",
        "coordinates": [
          21.4099782,
          43.8624303
        ]
      },
      "properties": {
        "id": 284164569,
        "osm_type": "way",
        "name": "Орбис",
        "tourism": "hotel"
      }
    },
    {
      "type": "Feature",
      "geometry": {
        "type": "Point",
        "coordinates": [
          21.3882466,
          43.9372445
        ]
      },
      "properties": {
        "id": 303504295,
        "osm_type": "way",
        "name": "Motel Ravanica",
        "tourism": "motel",
        "phone": "035-472-242;035-462-242"
      }
    },
    {
      "type": "Feature",
      "geometry": {
        "type": "Point",
        "coordinates": [
          21.1948249,
          44.2305461
        ]
      },
      "properties": {
        "id": 397308359,
        "osm_type": "way",
        "name": "Топољар",
        "tourism": "hotel"
      }
    },
    {
      "type": "Feature",
      "geometry": {
        "type": "Point",
        "coordinates": [
          21.1075011,
          44.0122856
        ]
      },
      "properties": {
        "id": 641543878,
        "osm_type": "way",
        "name": "Планинарски дом „Црни врх”",
        "tourism": "alpine_hut"
      }
    },
    {
      "type": "Feature",
      "geometry": {
        "type": "Point",
        "coordinates": [
          21.6459259,
          43.8962387
        ]
      },
      "properties": {
        "id": 690352190,
        "osm_type": "way",
        "name": "Планинарски дом „Ђорђе Живковић”",
        "tourism": "alpine_hut",
        "website": "www.javorakpn.com"
      }
    },
    {
      "type": "Feature",
      "geometry": {
        "type": "Point",
        "coordinates": [
          21.6259784,
          43.8647571
        ]
      },
      "properties": {
        "id": 855462220,
        "osm_type": "way",
        "name": "Колиба",
        "tourism": "hotel",
        "phone": "+381 35 540 440;+381 69 154 0 440",
        "website": "https://koliba-grza.co.rs/"
      }
    },
    {
      "type": "Feature",
      "geometry": {
        "type": "Point",
        "coordinates": [
          21.1837631,
          44.232612
        ]
      },
      "properties": {
        "id": 1067912452,
        "osm_type": "way",
        "tourism": "hotel"
      }
    },
    {
      "type": "Feature",
      "geometry": {
        "type": "Point",
        "coordinates": [
          21.2692884,
          43.9937798
        ]
      },
      "properties": {
        "id": 1127328968,
        "osm_type": "way",
        "name": "TES Hotel „Vidoco”",
        "tourism": "hotel",
        "opening_hours": "24/7",
        "phone": "+38169600885",
        "website": "http://www.tes.rs/hotel/sr/"
      }
    },
    {
      "type": "Feature",
      "geometry": {
        "type": "Point",
        "coordinates": [
          21.2664557,
          43.9663362
        ]
      },
      "properties": {
        "id": 1134438589,
        "osm_type": "way",
        "name": "Hill hotel",
        "tourism": "hotel",
        "phone": "+381 35 252 202",
        "website": "https://www.hill-hotel.com/"
      }
    },
    {
      "type": "Feature",
      "geometry": {
        "type": "Point",
        "coordinates": [
          21.4076385,
          43.8670317
        ]
      },
      "properties": {
        "id": 1204254573,
        "osm_type": "way",
        "name": "International Inn",
        "tourism": "hotel",
        "contact:phone": "+381 62 568230"
      }
    },
    {
      "type": "Feature",
      "geometry": {
        "type": "Point",
        "coordinates": [
          21.5873744,
          43.9570009
        ]
      },
      "properties": {
        "id": 1427907754,
        "osm_type": "way",
        "name": "Odmaraliste Rakic Sisevac",
        "tourism": "hotel",
        "website": "https://www.instagram.com/odmaraliste_rakic_sisevac"
      }
    },
    {
      "type": "Feature",
      "geometry": {
        "type": "Point",
        "coordinates": [
          21.5871591,
          43.9570977
        ]
      },
      "properties": {
        "id": 1427907755,
        "osm_type": "way",
        "tourism": "chalet"
      }
    },
    {
      "type": "Feature",
      "geometry": {
        "type": "Point",
        "coordinates": [
          21.636165,
          44.0909001
        ]
      },
      "properties": {
        "id": 1461525425,
        "osm_type": "way",
        "tourism": "alpine_hut"
      }
    },
    {
      "type": "Feature",
      "geometry": {
        "type": "Point",
        "coordinates": [
          21.7550149,
          43.9871932
        ]
      },
      "properties": {
        "id": 1501791418,
        "osm_type": "way",
        "name": "Ловачка кућа Валкалуци",
        "tourism": "alpine_hut",
        "website": "https://srbijasume.rs/lovstvo/objekti-za-smestaj-lovaca/"
      }
    }
  ]
}