{
  "type": "FeatureCollection",
  "features": [
    {
      "type": "Feature",
      "geometry": {
        "type": "Point",
        "coordinates": [
          11.4109258,
          60.1513203
        ]
      },
      "properties": {
        "id": 255176791,
        "osm_type": "node",
        "name": "Vormsund Golf Hotell",
        "tourism": "hotel"
      }
    },
    {
      "type": "Feature",
      "geometry": {
        "type": "Point",
        "coordinates": [
          11.1461127,
          60.1675954
        ]
      },
      "properties": {
        "id": 255177782,
        "osm_type": "node",
        "name": "Thon Hotel Gardermoen",
        "tourism": "hotel",
        "phone": "+47 64 00 45 00",
        "website": "https://www.thonhotels.com/our-hotels/norway/gardermoen/thon-hotel-gardermoen/"
      }
    },
    {
      "type": "Feature",
      "geometry": {
        "type": "Point",
        "coordinates": [
          11.0487203,
          59.957293
        ]
      },
      "properties": {
        "id": 275005873,
        "osm_type": "node",
        "name": "Thon Hotel Lillestrøm",
        "tourism": "hotel",
        "check_date": "2025-05-02"
      }
    },
    {
      "type": "Feature",
      "geometry": {
        "type": "Point",
        "coordinates": [
          10.4412717,
          59.8345999
        ]
      },
      "properties": {
        "id": 308128332,
        "osm_type": "node",
        "name": "Scandic Asker",
        "tourism": "hotel"
      }
    },
    {
      "type": "Feature",
      "geometry": {
        "type": "Point",
        "coordinates": [
          11.0523855,
          60.4024044
        ]
      },
      "properties": {
        "id": 331056106,
        "osm_type": "node",
        "name": "Hurdalsjøen Hotell & Spa",
        "tourism": "hotel",
        "website": "https://hurdalsjoen.no"
      }
    },
    {
      "type": "Feature",
      "geometry": {
        "type": "Point",
        "coordinates": [
          10.6317915,
          59.9037218
        ]
      },
      "properties": {
        "id": 391519249,
        "osm_type": "node",
        "name": "Radisson Blu Park Hotel",
        "tourism": "hotel",
        "website": "https://www.radissonblu.com/parkhotel-oslo",
        "check_date": "2025-10-26"
      }
    },
    {
      "type": "Feature",
      "geometry": {
        "type": "Point",
        "coordinates": [
          10.908578,
          59.8065912
        ]
      },
      "properties": {
        "id": 590224805,
        "osm_type": "node",
        "name": "Sørmarka kurs- og konferansesenter",
        "tourism": "hotel"
      }
    },
    {
      "type": "Feature",
      "geometry": {
        "type": "Point",
        "coordinates": [
          10.8365464,
          59.7183571
        ]
      },
      "properties": {
        "id": 603972227,
        "osm_type": "node",
        "name": "Thon Hotel Ski",
        "tourism": "hotel",
        "phone": "+47 64853500",
        "website": "https://www.thonhotels.no/hoteller/norge/ski/thon-hotel-ski/"
      }
    },
    {
      "type": "Feature",
      "geometry": {
        "type": "Point",
        "coordinates": [
          10.4247662,
          59.559396
        ]
      },
      "properties": {
        "id": 638966186,
        "osm_type": "node",
        "name": "Badehotellet",
        "tourism": "hotel",
        "opening_hours": "24/7",
        "phone": "+47 32 79 40 00",
        "website": "https://badehotellet.com/"
      }
    },
    {
      "type": "Feature",
      "geometry": {
        "type": "Point",
        "coordinates": [
          10.604744,
          59.903676
        ]
      },
      "properties": {
        "id": 772941937,
        "osm_type": "node",
        "name": "Hostel Oslofjord",
        "tourism": "hostel",
        "opening_hours": "Mo-Su 16:00-11:00",
        "phone": "(+47) 40 40 51 30",
        "website": "https://oslofjord.fhs.no/hostel/"
      }
    },
    {
      "type": "Feature",
      "geometry": {
        "type": "Point",
        "coordinates": [
          10.6172888,
          59.5711276
        ]
      },
      "properties": {
        "id": 849438813,
        "osm_type": "node",
        "name": "Vilma Sjøbad",
        "tourism": "hotel",
        "website": "https://www.vilmasjobad.no"
      }
    },
    {
      "type": "Feature",
      "geometry": {
        "type": "Point",
        "coordinates": [
          10.5342059,
          60.2317867
        ]
      },
      "properties": {
        "id": 855293376,
        "osm_type": "node",
        "name": "Trantjern gård",
        "tourism": "chalet",
        "website": "https://ut.no/hytte/10591/trantjern-gard"
      }
    },
    {
      "type": "Feature",
      "geometry": {
        "type": "Point",
        "coordinates": [
          10.953676,
          59.918602
        ]
      },
      "properties": {
        "id": 1015656114,
        "osm_type": "node",
        "name": "Thon Hotel Triaden",
        "tourism": "hotel",
        "phone": "+47 66 109700",
        "website": "https://www.thonhotels.no/hoteller/land/norge/lorenskog/thon-hotel-triaden/"
      }
    },
    {
      "type": "Feature",
      "geometry": {
        "type": "Point",
        "coordinates": [
          11.0084724,
          59.9625164
        ]
      },
      "properties": {
        "id": 1050419734,
        "osm_type": "node",
        "name": "Maya Apartments Kasjotten",
        "tourism": "apartment"
      }
    },
    {
      "type": "Feature",
      "geometry": {
        "type": "Point",
        "coordinates": [
          10.9938162,
          59.9351582
        ]
      },
      "properties": {
        "id": 1338448775,
        "osm_type": "node",
        "name": "NKS Sykehotell",
        "tourism": "hotel"
      }
    },
    {
      "type": "Feature",
      "geometry": {
        "type": "Point",
        "coordinates": [
          10.9834963,
          59.8906006
        ]
      },
      "properties": {
        "id": 1355280275,
        "osm_type": "node",
        "name": "Losby gods",
        "tourism": "hotel",
        "website": "https://ut.no/hytte/losby-gods"
      }
    },
    {
      "type": "Feature",
      "geometry": {
        "type": "Point",
        "coordinates": [
          10.5212054,
          59.6929034
        ]
      },
      "properties": {
        "id": 1356213548,
        "osm_type": "node",
        "name": "Båthuset",
        "tourism": "chalet",
        "website": "https://ut.no/hytte/baathuset"
      }
    },
    {
      "type": "Feature",
      "geometry": {
        "type": "Point",
        "coordinates": [
          10.5414633,
          59.8518688
        ]
      },
      "properties": {
        "id": 1356401422,
        "osm_type": "node",
        "name": "Butikken",
        "tourism": "chalet",
        "website": "https://ut.no/hytte/butikken"
      }
    },
    {
      "type": "Feature",
      "geometry": {
        "type": "Point",
        "coordinates": [
          10.5624277,
          59.701821
        ]
      },
      "properties": {
        "id": 1356457528,
        "osm_type": "node",
        "name": "Badstua",
        "tourism": "chalet",
        "website": "https://ut.no/hytte/badstua"
      }
    },
    {
      "type": "Feature",
      "geometry": {
        "type": "Point",
        "coordinates": [
          10.5891045,
          59.673598
        ]
      },
      "properties": {
        "id": 1356457545,
        "osm_type": "node",
        "name": "Befalsboligen, Bergholmen",
        "tourism": "chalet",
        "website": "https://ut.no/hytte/bergholmen"
      }
    },
    {
      "type": "Feature",
      "geometry": {
        "type": "Point",
        "coordinates": [
          10.56109,
          59.70231
        ]
      },
      "properties": {
        "id": 1356457714,
        "osm_type": "node",
        "name": "Eldhuset",
        "tourism": "chalet",
        "website": "https://www.oslofjorden.org/portal/page/portal/of/artikkel?element_id=98187&displaypage=TRUE"
      }
    },
    {
      "type": "Feature",
      "geometry": {
        "type": "Point",
        "coordinates": [
          10.5832188,
          59.6646518
        ]
      },
      "properties": {
        "id": 1356457747,
        "osm_type": "node",
        "name": "Fiskerhytta",
        "tourism": "chalet",
        "website": "https://ut.no/hytte/fiskerhytta"
      }
    },
    {
      "type": "Feature",
      "geometry": {
        "type": "Point",
        "coordinates": [
          10.5864687,
          59.880663
        ]
      },
      "properties": {
        "id": 1356458251,
        "osm_type": "node",
        "name": "Kjeholmen",
        "tourism": "chalet",
        "website": "https://ut.no/hytte/kjeholmen"
      }
    },
    {
      "type": "Feature",
      "geometry": {
        "type": "Point",
        "coordinates": [
          10.6081531,
          59.8029181
        ]
      },
      "properties": {
        "id": 1356458691,
        "osm_type": "node",
        "name": "Ommen/Veslestua",
        "tourism": "chalet",
        "website": "https://ut.no/hytte/ommen"
      }
    },
    {
      "type": "Feature",
      "geometry": {
        "type": "Point",
        "coordinates": [
          10.5673469,
          59.7018819
        ]
      },
      "properties": {
        "id": 1356459056,
        "osm_type": "node",
        "name": "Stranda",
        "tourism": "chalet",
        "website": "https://ut.no/hytte/stranda"
      }
    },
    {
      "type": "Feature",
      "geometry": {
        "type": "Point",
        "coordinates": [
          10.6511976,
          59.5667344
        ]
      },
      "properties": {
        "id": 1356459102,
        "osm_type": "node",
        "name": "Svartåshytta",
        "tourism": "chalet",
        "website": "https://www.oslofjorden.org/portal/page/portal/of/artikkel?element_id=2336208&displaypage=TRUE"
      }
    },
    {
      "type": "Feature",
      "geometry": {
        "type": "Point",
        "coordinates": [
          10.6085799,
          59.805428
        ]
      },
      "properties": {
        "id": 1356459434,
        "osm_type": "node",
        "name": "Vestli",
        "tourism": "chalet",
        "website": "https://ut.no/hytte/vestli"
      }
    },
    {
      "type": "Feature",
      "geometry": {
        "type": "Point",
        "coordinates": [
          10.413911,
          59.541194
        ]
      },
      "properties": {
        "id": 1690025246,
        "osm_type": "node",
        "name": "Holmsbu Resort",
        "tourism": "hotel",
        "phone": "+47 45 87 89 40",
        "website": "https://www.holmsburesort.no/"
      }
    },
    {
      "type": "Feature",
      "geometry": {
        "type": "Point",
        "coordinates": [
          10.681398,
          59.516428
        ]
      },
      "properties": {
        "id": 2285670719,
        "osm_type": "node",
        "name": "Son Spa",
        "tourism": "hotel",
        "phone": "+47 64 98 48 00",
        "website": "https://sonspa.no/"
      }
    },
    {
      "type": "Feature",
      "geometry": {
        "type": "Point",
        "coordinates": [
          10.9140955,
          60.1273375
        ]
      },
      "properties": {
        "id": 2565429880,
        "osm_type": "node",
        "tourism": "camp_site",
        "tents": "yes"
      }
    },
    {
      "type": "Feature",
      "geometry": {
        "type": "Point",
        "coordinates": [
          10.5400769,
          59.9072419
        ]
      },
      "properties": {
        "id": 2813795515,
        "osm_type": "node",
        "name": "Gjestehus",
        "tourism": "hotel"
      }
    },
    {
      "type": "Feature",
      "geometry": {
        "type": "Point",
        "coordinates": [
          10.465451,
          59.831632
        ]
      },
      "properties": {
        "id": 2825321976,
        "osm_type": "node",
        "name": "Quaity Hotel Leangkollen",
        "tourism": "hotel"
      }
    },
    {
      "type": "Feature",
      "geometry": {
        "type": "Point",
        "coordinates": [
          10.494806,
          59.851302
        ]
      },
      "properties": {
        "id": 2826655474,
        "osm_type": "node",
        "name": "Holmen Fjordhotell",
        "tourism": "hotel",
        "website": "https://www.holmenfjordhotell.no/"
      }
    },
    {
      "type": "Feature",
      "geometry": {
        "type": "Point",
        "coordinates": [
          11.180722,
          60.250072
        ]
      },
      "properties": {
        "id": 3123089878,
        "osm_type": "node",
        "name": "Best Western Leto Arena",
        "tourism": "hotel",
        "contact:phone": "+47 63 95 91 00",
        "website": "https://www.letohallen.no/"
      }
    },
    {
      "type": "Feature",
      "geometry": {
        "type": "Point",
        "coordinates": [
          10.948717,
          59.932114
        ]
      },
      "properties": {
        "id": 3124635848,
        "osm_type": "node",
        "name": "Hula",
        "tourism": "motel"
      }
    },
    {
      "type": "Feature",
      "geometry": {
        "type": "Point",
        "coordinates": [
          10.5956798,
          59.816785
        ]
      },
      "properties": {
        "id": 3220431981,
        "osm_type": "node",
        "name": "Fyrsteilene",
        "tourism": "chalet",
        "website": "https://ut.no/hytte/fyrsteilene"
      }
    },
    {
      "type": "Feature",
      "geometry": {
        "type": "Point",
        "coordinates": [
          10.6579705,
          59.8700129
        ]
      },
      "properties": {
        "id": 3220431982,
        "osm_type": "node",
        "name": "Rødstua",
        "tourism": "chalet",
        "website": "https://www.oslofjorden.org/portal/page/portal/of/kystleden/hytteinformasjon?http://www.oslofjorden.org/portal/page/portal/of/kystleden/hytteinformasjon?displaypage=TRUE&element_id=6434&p_hy_id=105",
        "check_date": "2025-05-07"
      }
    },
    {
      "type": "Feature",
      "geometry": {
        "type": "Point",
        "coordinates": [
          11.3092269,
          60.0937321
        ]
      },
      "properties": {
        "id": 3472679542,
        "osm_type": "node",
        "name": "Bålplass",
        "tourism": "camp_site",
        "tents": "yes"
      }
    },
    {
      "type": "Feature",
      "geometry": {
        "type": "Point",
        "coordinates": [
          11.3357819,
          60.1118011
        ]
      },
      "properties": {
        "id": 3474584325,
        "osm_type": "node",
        "name": "Bålplass",
        "tourism": "camp_site",
        "tents": "yes"
      }
    },
    {
      "type": "Feature",
      "geometry": {
        "type": "Point",
        "coordinates": [
          10.9134802,
          60.1275252
        ]
      },
      "properties": {
        "id": 3474601513,
        "osm_type": "node",
        "tourism": "camp_site",
        "tents": "yes"
      }
    },
    {
      "type": "Feature",
      "geometry": {
        "type": "Point",
        "coordinates": [
          10.9117298,
          60.1291359
        ]
      },
      "properties": {
        "id": 3474602832,
        "osm_type": "node",
        "tourism": "camp_site",
        "tents": "yes"
      }
    },
    {
      "type": "Feature",
      "geometry": {
        "type": "Point",
        "coordinates": [
          10.5866325,
          59.6738292
        ]
      },
      "properties": {
        "id": 3556362324,
        "osm_type": "node",
        "name": "Jacobine",
        "tourism": "chalet",
        "website": "https://ut.no/hytte/3.2480/"
      }
    },
    {
      "type": "Feature",
      "geometry": {
        "type": "Point",
        "coordinates": [
          11.006363,
          59.749833
        ]
      },
      "properties": {
        "id": 3663314254,
        "osm_type": "node",
        "name": "Bakkesand Camping",
        "tourism": "camp_site",
        "phone": "+47 930 05 513"
      }
    },
    {
      "type": "Feature",
      "geometry": {
        "type": "Point",
        "coordinates": [
          11.509111,
          60.168392
        ]
      },
      "properties": {
        "id": 3663314971,
        "osm_type": "node",
        "name": "Frognerstrand Camping AS",
        "tourism": "camp_site",
        "phone": "+47 63 90 74 60",
        "website": "http://www.frognerstrand.no"
      }
    },
    {
      "type": "Feature",
      "geometry": {
        "type": "Point",
        "coordinates": [
          11.5148,
          60.169188
        ]
      },
      "properties": {
        "id": 3663315253,
        "osm_type": "node",
        "name": "Hagen Camping",
        "tourism": "camp_site",
        "phone": "+47 988 29 205"
      }
    },
    {
      "type": "Feature",
      "geometry": {
        "type": "Point",
        "coordinates": [
          11.077584,
          60.401389
        ]
      },
      "properties": {
        "id": 3663315274,
        "osm_type": "node",
        "name": "Haraldvangen AS",
        "tourism": "camp_site",
        "phone": "+47 63 98 81 00",
        "website": "http://www.haraldvangen.no"
      }
    },
    {
      "type": "Feature",
      "geometry": {
        "type": "Point",
        "coordinates": [
          11.812165,
          59.746329
        ]
      },
      "properties": {
        "id": 3663316005,
        "osm_type": "node",
        "name": "Nord Steinby Kro og Camping",
        "tourism": "camp_site",
        "phone": "+47 928 47 982",
        "website": "https://www.nord-steinby-camping.com/"
      }
    },
    {
      "type": "Feature",
      "geometry": {
        "type": "Point",
        "coordinates": [
          11.716798,
          59.843841
        ]
      },
      "properties": {
        "id": 3663317160,
        "osm_type": "node",
        "name": "Tangen Camping",
        "tourism": "camp_site",
        "phone": "+47 936 43 118"
      }
    },
    {
      "type": "Feature",
      "geometry": {
        "type": "Point",
        "coordinates": [
          10.732508,
          59.628718
        ]
      },
      "properties": {
        "id": 3663317762,
        "osm_type": "node",
        "name": "Vestby Hyttepark",
        "tourism": "camp_site",
        "phone": "+47 64 95 98 00",
        "website": "http://www.vestbyhyttepark.no"
      }
    },
    {
      "type": "Feature",
      "geometry": {
        "type": "Point",
        "coordinates": [
          11.393336,
          60.326571
        ]
      },
      "properties": {
        "id": 3685361109,
        "osm_type": "node",
        "name": "Gruevangen",
        "tourism": "chalet"
      }
    },
    {
      "type": "Feature",
      "geometry": {
        "type": "Point",
        "coordinates": [
          11.3354832,
          60.4416666
        ]
      },
      "properties": {
        "id": 3685375723,
        "osm_type": "node",
        "name": "Brøstadvangen",
        "tourism": "chalet"
      }
    },
    {
      "type": "Feature",
      "geometry": {
        "type": "Point",
        "coordinates": [
          11.3228352,
          60.4264976
        ]
      },
      "properties": {
        "id": 3685379779,
        "osm_type": "node",
        "name": "Fremmingvangen",
        "tourism": "chalet"
      }
    },
    {
      "type": "Feature",
      "geometry": {
        "type": "Point",
        "coordinates": [
          10.8409804,
          60.0241512
        ]
      },
      "properties": {
        "id": 4523282226,
        "osm_type": "node",
        "name": "Nydalshytta",
        "tourism": "chalet",
        "website": "https://ut.no/hytte/10595/nydalshytta"
      }
    },
    {
      "type": "Feature",
      "geometry": {
        "type": "Point",
        "coordinates": [
          11.3596429,
          60.4292618
        ]
      },
      "properties": {
        "id": 4581779830,
        "osm_type": "node",
        "name": "Lønntjennbråtan",
        "tourism": "chalet"
      }
    },
    {
      "type": "Feature",
      "geometry": {
        "type": "Point",
        "coordinates": [
          10.5617679,
          59.7015651
        ]
      },
      "properties": {
        "id": 4972336531,
        "osm_type": "node",
        "tourism": "camp_site"
      }
    },
    {
      "type": "Feature",
      "geometry": {
        "type": "Point",
        "coordinates": [
          10.5529899,
          59.7189989
        ]
      },
      "properties": {
        "id": 4972337226,
        "osm_type": "node",
        "tourism": "camp_site",
        "tents": "yes"
      }
    },
    {
      "type": "Feature",
      "geometry": {
        "type": "Point",
        "coordinates": [
          10.8954995,
          60.1583827
        ]
      },
      "properties": {
        "id": 5005262543,
        "osm_type": "node",
        "tourism": "camp_site"
      }
    },
    {
      "type": "Feature",
      "geometry": {
        "type": "Point",
        "coordinates": [
          10.8954542,
          60.1579027
        ]
      },
      "properties": {
        "id": 5005262544,
        "osm_type": "node",
        "tourism": "camp_site"
      }
    },
    {
      "type": "Feature",
      "geometry": {
        "type": "Point",
        "coordinates": [
          10.8941293,
          60.1587625
        ]
      },
      "properties": {
        "id": 5005262550,
        "osm_type": "node",
        "tourism": "camp_site"
      }
    },
    {
      "type": "Feature",
      "geometry": {
        "type": "Point",
        "coordinates": [
          10.9241776,
          60.1544501
        ]
      },
      "properties": {
        "id": 5005273351,
        "osm_type": "node",
        "tourism": "camp_site"
      }
    },
    {
      "type": "Feature",
      "geometry": {
        "type": "Point",
        "coordinates": [
          10.9415355,
          60.1628858
        ]
      },
      "properties": {
        "id": 5005273353,
        "osm_type": "node",
        "tourism": "camp_site"
      }
    },
    {
      "type": "Feature",
      "geometry": {
        "type": "Point",
        "coordinates": [
          11.445595,
          59.801645
        ]
      },
      "properties": {
        "id": 5262608052,
        "osm_type": "node",
        "name": "Høland Gaardsmotell",
        "tourism": "motel",
        "phone": "+47 63 85 05 55",
        "website": "https://gaardsmotel.no/"
      }
    },
    {
      "type": "Feature",
      "geometry": {
        "type": "Point",
        "coordinates": [
          10.9754001,
          59.9839566
        ]
      },
      "properties": {
        "id": 5455662077,
        "osm_type": "node",
        "name": "MOXY Oslo X",
        "tourism": "hotel",
        "opening_hours": "Mo-Fr 09:00-18:00",
        "phone": "+47 23 96 55 31",
        "website": "https://www.marriott.com/en-us/hotels/oslox-moxy-oslo-x/overview/",
        "check_date": "2025-10-11"
      }
    },
    {
      "type": "Feature",
      "geometry": {
        "type": "Point",
        "coordinates": [
          10.715953,
          59.8716778
        ]
      },
      "properties": {
        "id": 5593001122,
        "osm_type": "node",
        "tourism": "camp_site"
      }
    },
    {
      "type": "Feature",
      "geometry": {
        "type": "Point",
        "coordinates": [
          11.015503,
          59.7387762
        ]
      },
      "properties": {
        "id": 5738601278,
        "osm_type": "node",
        "tourism": "guest_house"
      }
    },
    {
      "type": "Feature",
      "geometry": {
        "type": "Point",
        "coordinates": [
          11.4242013,
          59.8467197
        ]
      },
      "properties": {
        "id": 5809480053,
        "osm_type": "node",
        "tourism": "guest_house"
      }
    },
    {
      "type": "Feature",
      "geometry": {
        "type": "Point",
        "coordinates": [
          10.9992645,
          59.8186642
        ]
      },
      "properties": {
        "id": 5920115758,
        "osm_type": "node",
        "name": "Vangen",
        "tourism": "alpine_hut",
        "opening_hours": "Mo-Fr 10:00-15:00; Sa-Su 10:00-16:00",
        "website": "https://www.vangenskistue.no"
      }
    },
    {
      "type": "Feature",
      "geometry": {
        "type": "Point",
        "coordinates": [
          10.643825,
          59.6385167
        ]
      },
      "properties": {
        "id": 6463615945,
        "osm_type": "node",
        "name": "Skiphelle",
        "tourism": "hotel"
      }
    },
    {
      "type": "Feature",
      "geometry": {
        "type": "Point",
        "coordinates": [
          10.715118,
          59.7426246
        ]
      },
      "properties": {
        "id": 6463616218,
        "osm_type": "node",
        "name": "Fuglesang feriehjem",
        "tourism": "guest_house"
      }
    },
    {
      "type": "Feature",
      "geometry": {
        "type": "Point",
        "coordinates": [
          10.6090944,
          59.8058833
        ]
      },
      "properties": {
        "id": 6463658481,
        "osm_type": "node",
        "name": "Vestli",
        "tourism": "chalet"
      }
    },
    {
      "type": "Feature",
      "geometry": {
        "type": "Point",
        "coordinates": [
          10.718403,
          59.8691154
        ]
      },
      "properties": {
        "id": 6463659344,
        "osm_type": "node",
        "name": "Langøyene",
        "tourism": "chalet",
        "check_date": "2025-07-24"
      }
    },
    {
      "type": "Feature",
      "geometry": {
        "type": "Point",
        "coordinates": [
          10.5624965,
          59.9478989
        ]
      },
      "properties": {
        "id": 6465581052,
        "osm_type": "node",
        "name": "Sætra",
        "tourism": "chalet"
      }
    },
    {
      "type": "Feature",
      "geometry": {
        "type": "Point",
        "coordinates": [
          10.3898646,
          59.9193363
        ]
      },
      "properties": {
        "id": 6465581091,
        "osm_type": "node",
        "name": "Svartvannshytta",
        "tourism": "chalet"
      }
    },
    {
      "type": "Feature",
      "geometry": {
        "type": "Point",
        "coordinates": [
          10.5473883,
          59.967357
        ]
      },
      "properties": {
        "id": 6465581105,
        "osm_type": "node",
        "name": "Brunkollen turisthytte",
        "tourism": "chalet"
      }
    },
    {
      "type": "Feature",
      "geometry": {
        "type": "Point",
        "coordinates": [
          10.4085139,
          59.881875
        ]
      },
      "properties": {
        "id": 6465581384,
        "osm_type": "node",
        "name": "Furuholmen",
        "tourism": "hotel"
      }
    },
    {
      "type": "Feature",
      "geometry": {
        "type": "Point",
        "coordinates": [
          10.5810839,
          59.8782053
        ]
      },
      "properties": {
        "id": 6812447353,
        "osm_type": "node",
        "name": "Kjeholmen",
        "tourism": "chalet"
      }
    },
    {
      "type": "Feature",
      "geometry": {
        "type": "Point",
        "coordinates": [
          10.7321674,
          59.6266101
        ]
      },
      "properties": {
        "id": 6812447354,
        "osm_type": "node",
        "name": "Vestby hyttepark & gjestegård",
        "tourism": "apartment"
      }
    },
    {
      "type": "Feature",
      "geometry": {
        "type": "Point",
        "coordinates": [
          11.3690579,
          60.2082825
        ]
      },
      "properties": {
        "id": 6812447355,
        "osm_type": "node",
        "name": "Huser",
        "tourism": "guest_house",
        "website": "https://husergard.no/"
      }
    },
    {
      "type": "Feature",
      "geometry": {
        "type": "Point",
        "coordinates": [
          11.2424818,
          60.3903006
        ]
      },
      "properties": {
        "id": 6812447356,
        "osm_type": "node",
        "name": "Bjerknes B&B",
        "tourism": "apartment"
      }
    },
    {
      "type": "Feature",
      "geometry": {
        "type": "Point",
        "coordinates": [
          10.9768411,
          59.9893057
        ]
      },
      "properties": {
        "id": 6812447357,
        "osm_type": "node",
        "name": "Aaraastunet",
        "tourism": "guest_house"
      }
    },
    {
      "type": "Feature",
      "geometry": {
        "type": "Point",
        "coordinates": [
          10.9511805,
          59.7393347
        ]
      },
      "properties": {
        "id": 6812447358,
        "osm_type": "node",
        "name": "Gjedsjø gaard B&B",
        "tourism": "guest_house"
      }
    },
    {
      "type": "Feature",
      "geometry": {
        "type": "Point",
        "coordinates": [
          11.0773757,
          60.3970613
        ]
      },
      "properties": {
        "id": 6812447359,
        "osm_type": "node",
        "name": "Hurdalsenteret",
        "tourism": "guest_house"
      }
    },
    {
      "type": "Feature",
      "geometry": {
        "type": "Point",
        "coordinates": [
          10.4333103,
          59.8558017
        ]
      },
      "properties": {
        "id": 6812447360,
        "osm_type": "node",
        "name": "Sem Gjestegård",
        "tourism": "guest_house"
      }
    },
    {
      "type": "Feature",
      "geometry": {
        "type": "Point",
        "coordinates": [
          11.1874509,
          60.0351987
        ]
      },
      "properties": {
        "id": 6812447361,
        "osm_type": "node",
        "name": "Smakfulle Rom konferansegård",
        "tourism": "guest_house"
      }
    },
    {
      "type": "Feature",
      "geometry": {
        "type": "Point",
        "coordinates": [
          11.3642836,
          60.2325437
        ]
      },
      "properties": {
        "id": 6812447362,
        "osm_type": "node",
        "name": "Rolstad gård",
        "tourism": "guest_house"
      }
    },
    {
      "type": "Feature",
      "geometry": {
        "type": "Point",
        "coordinates": [
          11.6313055,
          60.1162179
        ]
      },
      "properties": {
        "id": 6812447363,
        "osm_type": "node",
        "name": "Nes Villmarksforum",
        "tourism": "guest_house"
      }
    },
    {
      "type": "Feature",
      "geometry": {
        "type": "Point",
        "coordinates": [
          10.4917449,
          59.8946646
        ]
      },
      "properties": {
        "id": 6812447364,
        "osm_type": "node",
        "name": "Emma Gjestehus",
        "tourism": "guest_house"
      }
    },
    {
      "type": "Feature",
      "geometry": {
        "type": "Point",
        "coordinates": [
          11.585083,
          59.885169
        ]
      },
      "properties": {
        "id": 6812447365,
        "osm_type": "node",
        "name": "Eidsverket gods",
        "tourism": "hotel"
      }
    },
    {
      "type": "Feature",
      "geometry": {
        "type": "Point",
        "coordinates": [
          10.6305277,
          59.6598385
        ]
      },
      "properties": {
        "id": 6812447374,
        "osm_type": "node",
        "name": "Reenskaug Hotel",
        "tourism": "hotel"
      }
    },
    {
      "type": "Feature",
      "geometry": {
        "type": "Point",
        "coordinates": [
          11.0998124,
          60.1932691
        ]
      },
      "properties": {
        "id": 6836659093,
        "osm_type": "node",
        "tourism": "guest_house"
      }
    },
    {
      "type": "Feature",
      "geometry": {
        "type": "Point",
        "coordinates": [
          10.9612111,
          59.9269581
        ]
      },
      "properties": {
        "id": 6836659193,
        "osm_type": "node",
        "tourism": "guest_house"
      }
    },
    {
      "type": "Feature",
      "geometry": {
        "type": "Point",
        "coordinates": [
          10.952169,
          59.927579
        ]
      },
      "properties": {
        "id": 6836659289,
        "osm_type": "node",
        "tourism": "guest_house"
      }
    },
    {
      "type": "Feature",
      "geometry": {
        "type": "Point",
        "coordinates": [
          11.021171,
          59.959212
        ]
      },
      "properties": {
        "id": 6836659391,
        "osm_type": "node",
        "tourism": "guest_house"
      }
    },
    {
      "type": "Feature",
      "geometry": {
        "type": "Point",
        "coordinates": [
          10.9411929,
          59.9291675
        ]
      },
      "properties": {
        "id": 7762407986,
        "osm_type": "node",
        "tourism": "apartment"
      }
    },
    {
      "type": "Feature",
      "geometry": {
        "type": "Point",
        "coordinates": [
          11.0196851,
          59.848926
        ]
      },
      "properties": {
        "id": 7845521286,
        "osm_type": "node",
        "tourism": "camp_site"
      }
    },
    {
      "type": "Feature",
      "geometry": {
        "type": "Point",
        "coordinates": [
          11.0821916,
          59.999192
        ]
      },
      "properties": {
        "id": 8018787776,
        "osm_type": "node",
        "name": "Ullereng gård pilegrimsherberge",
        "tourism": "guest_house",
        "opening_hours": "May-Aug",
        "website": "https://pilegrimsleden.no/interessepunkter/ullereng-gard-pilegrimsherberge"
      }
    },
    {
      "type": "Feature",
      "geometry": {
        "type": "Point",
        "coordinates": [
          10.5652429,
          59.6698865
        ]
      },
      "properties": {
        "id": 8585119998,
        "osm_type": "node",
        "name": "Det Gule Huset",
        "tourism": "apartment"
      }
    },
    {
      "type": "Feature",
      "geometry": {
        "type": "Point",
        "coordinates": [
          10.9982071,
          59.9684373
        ]
      },
      "properties": {
        "id": 9309679717,
        "osm_type": "node",
        "name": "Aso House",
        "tourism": "apartment"
      }
    },
    {
      "type": "Feature",
      "geometry": {
        "type": "Point",
        "coordinates": [
          10.7806082,
          59.8217971
        ]
      },
      "properties": {
        "id": 9423413894,
        "osm_type": "node",
        "tourism": "camp_site"
      }
    },
    {
      "type": "Feature",
      "geometry": {
        "type": "Point",
        "coordinates": [
          10.8434683,
          60.2517035
        ]
      },
      "properties": {
        "id": 9789197396,
        "osm_type": "node",
        "tourism": "camp_site"
      }
    },
    {
      "type": "Feature",
      "geometry": {
        "type": "Point",
        "coordinates": [
          10.8402785,
          60.0244896
        ]
      },
      "properties": {
        "id": 9807511863,
        "osm_type": "node",
        "name": "Røverhula",
        "tourism": "chalet",
        "website": "https://ut.no/hytte/10785/rverhula"
      }
    },
    {
      "type": "Feature",
      "geometry": {
        "type": "Point",
        "coordinates": [
          11.1306269,
          59.7362301
        ]
      },
      "properties": {
        "id": 9810716478,
        "osm_type": "node",
        "name": "Larsbråten",
        "tourism": "chalet"
      }
    },
    {
      "type": "Feature",
      "geometry": {
        "type": "Point",
        "coordinates": [
          10.4197076,
          59.8093911
        ]
      },
      "properties": {
        "id": 9810716523,
        "osm_type": "node",
        "name": "Wentzelhytta",
        "tourism": "chalet",
        "website": "https://ut.no/hytte/10887501/wentzelhytta"
      }
    },
    {
      "type": "Feature",
      "geometry": {
        "type": "Point",
        "coordinates": [
          11.5475313,
          59.6698055
        ]
      },
      "properties": {
        "id": 9833704270,
        "osm_type": "node",
        "name": "Smia",
        "tourism": "chalet"
      }
    },
    {
      "type": "Feature",
      "geometry": {
        "type": "Point",
        "coordinates": [
          10.5353592,
          59.5191254
        ]
      },
      "properties": {
        "id": 9833704282,
        "osm_type": "node",
        "name": "Ranvikholmen",
        "tourism": "chalet"
      }
    },
    {
      "type": "Feature",
      "geometry": {
        "type": "Point",
        "coordinates": [
          10.7572808,
          59.8258852
        ]
      },
      "properties": {
        "id": 9833704310,
        "osm_type": "node",
        "name": "Bestemorstua",
        "tourism": "chalet"
      }
    },
    {
      "type": "Feature",
      "geometry": {
        "type": "Point",
        "coordinates": [
          10.426954,
          59.5625812
        ]
      },
      "properties": {
        "id": 9833704317,
        "osm_type": "node",
        "name": "Bakkeskjær",
        "tourism": "chalet"
      }
    },
    {
      "type": "Feature",
      "geometry": {
        "type": "Point",
        "coordinates": [
          10.9797687,
          60.0711945
        ]
      },
      "properties": {
        "id": 9833704372,
        "osm_type": "node",
        "name": "Breimåsahytta",
        "tourism": "chalet"
      }
    },
    {
      "type": "Feature",
      "geometry": {
        "type": "Point",
        "coordinates": [
          10.5644972,
          59.7602371
        ]
      },
      "properties": {
        "id": 9833704375,
        "osm_type": "node",
        "name": "Søndre Langåra - Tåkeklokke",
        "tourism": "chalet"
      }
    },
    {
      "type": "Feature",
      "geometry": {
        "type": "Point",
        "coordinates": [
          10.7151573,
          59.8627309
        ]
      },
      "properties": {
        "id": 9833704376,
        "osm_type": "node",
        "name": "Husbergøya",
        "tourism": "chalet"
      }
    },
    {
      "type": "Feature",
      "geometry": {
        "type": "Point",
        "coordinates": [
          11.0552159,
          59.9562587
        ]
      },
      "properties": {
        "id": 11564974375,
        "osm_type": "node",
        "name": "Lux",
        "tourism": "hotel",
        "check_date": "2024-01-29"
      }
    },
    {
      "type": "Feature",
      "geometry": {
        "type": "Point",
        "coordinates": [
          11.3417216,
          60.1121175
        ]
      },
      "properties": {
        "id": 12862838448,
        "osm_type": "node",
        "name": "Lavvo",
        "tourism": "camp_site",
        "tents": "yes"
      }
    },
    {
      "type": "Feature",
      "geometry": {
        "type": "Point",
        "coordinates": [
          11.084921,
          59.9499614
        ]
      },
      "properties": {
        "id": 12994116181,
        "osm_type": "node",
        "tourism": "camp_site"
      }
    },
    {
      "type": "Feature",
      "geometry": {
        "type": "Point",
        "coordinates": [
          11.1586261,
          60.0768093
        ]
      },
      "properties": {
        "id": 13416254702,
        "osm_type": "node",
        "name": "Lily country club",
        "tourism": "hotel"
      }
    },
    {
      "type": "Feature",
      "geometry": {
        "type": "Point",
        "coordinates": [
          10.6159135,
          59.5948197
        ]
      },
      "properties": {
        "id": 26938348,
        "osm_type": "way",
        "name": "Solbergstøa camping og hytter",
        "tourism": "camp_site",
        "phone": "+47 907 80 434",
        "website": "https://www.solbergstoa.no/"
      }
    },
    {
      "type": "Feature",
      "geometry": {
        "type": "Point",
        "coordinates": [
          10.605836,
          59.675566
        ]
      },
      "properties": {
        "id": 45773515,
        "osm_type": "way",
        "name": "Oscarsborg Hotel & Resort",
        "tourism": "hotel",
        "phone": "+47 64 90 40 00",
        "website": "https://festningshotellene.no/oscarsborg-hotel-resort/",
        "check_date": "2024-05-09"
      }
    },
    {
      "type": "Feature",
      "geometry": {
        "type": "Point",
        "coordinates": [
          10.5096008,
          59.7406946
        ]
      },
      "properties": {
        "id": 45959499,
        "osm_type": "way",
        "name": "Ramton Camping",
        "tourism": "camp_site",
        "phone": "+47 31 28 22 49",
        "website": "https://ramton.no/"
      }
    },
    {
      "type": "Feature",
      "geometry": {
        "type": "Point",
        "coordinates": [
          10.9983053,
          59.979401
        ]
      },
      "properties": {
        "id": 89482111,
        "osm_type": "way",
        "name": "Quality Hotel Olavsgaard",
        "tourism": "hotel"
      }
    },
    {
      "type": "Feature",
      "geometry": {
        "type": "Point",
        "coordinates": [
          10.7185537,
          59.8723465
        ]
      },
      "properties": {
        "id": 97666364,
        "osm_type": "way",
        "tourism": "camp_site"
      }
    },
    {
      "type": "Feature",
      "geometry": {
        "type": "Point",
        "coordinates": [
          10.9992705,
          59.9793627
        ]
      },
      "properties": {
        "id": 98520866,
        "osm_type": "way",
        "name": "Quality Hotel Olavsgaard",
        "tourism": "hotel",
        "phone": "+47 63 84 77 00",
        "website": "https://www.nordicchoicehotels.no/quality/quality-hotel-olavsgaard/"
      }
    },
    {
      "type": "Feature",
      "geometry": {
        "type": "Point",
        "coordinates": [
          10.5191595,
          59.8858105
        ]
      },
      "properties": {
        "id": 101744047,
        "osm_type": "way",
        "name": "Thon Hotel Oslofjord",
        "tourism": "hotel"
      }
    },
    {
      "type": "Feature",
      "geometry": {
        "type": "Point",
        "coordinates": [
          11.048788,
          59.950929
        ]
      },
      "properties": {
        "id": 115788727,
        "osm_type": "way",
        "name": "Thon Hotel Arena",
        "tourism": "hotel",
        "phone": "+47 66936000",
        "website": "https://www.thonhotels.no/arena"
      }
    },
    {
      "type": "Feature",
      "geometry": {
        "type": "Point",
        "coordinates": [
          10.4752269,
          59.5244558
        ]
      },
      "properties": {
        "id": 118242098,
        "osm_type": "way",
        "name": "Knatvoldstranda Camping",
        "tourism": "camp_site",
        "phone": "+47 415 64 381",
        "website": "https://www.knatvoldstrandacamping.no/"
      }
    },
    {
      "type": "Feature",
      "geometry": {
        "type": "Point",
        "coordinates": [
          10.4771722,
          59.5251114
        ]
      },
      "properties": {
        "id": 118242099,
        "osm_type": "way",
        "tourism": "camp_site"
      }
    },
    {
      "type": "Feature",
      "geometry": {
        "type": "Point",
        "coordinates": [
          11.065934,
          60.1872465
        ]
      },
      "properties": {
        "id": 125496538,
        "osm_type": "way",
        "name": "Best Western Plus Oslo Airport",
        "tourism": "hotel",
        "website": "https://www.gardermoen-airporthotel.no/"
      }
    },
    {
      "type": "Feature",
      "geometry": {
        "type": "Point",
        "coordinates": [
          11.0677913,
          60.188135
        ]
      },
      "properties": {
        "id": 125496555,
        "osm_type": "way",
        "name": "Park Inn Oslo Airport West",
        "tourism": "hotel",
        "website": "https://www.radissonhotels.com/en-us/hotels/park-inn-oslo-airport-west",
        "check_date": "2025-07-13"
      }
    },
    {
      "type": "Feature",
      "geometry": {
        "type": "Point",
        "coordinates": [
          11.1541211,
          60.1645312
        ]
      },
      "properties": {
        "id": 136363816,
        "osm_type": "way",
        "name": "Thon Hotel Oslo Airport",
        "tourism": "hotel",
        "phone": "+47 63929400",
        "website": "https://www.thonhotels.no/hoteller/norge/gardermoen/thon-hotel-oslo-airport/"
      }
    },
    {
      "type": "Feature",
      "geometry": {
        "type": "Point",
        "coordinates": [
          11.1575045,
          60.1667175
        ]
      },
      "properties": {
        "id": 137055507,
        "osm_type": "way",
        "name": "Scandic Gardermoen",
        "tourism": "hotel",
        "phone": "+4763926600",
        "website": "https://www.scandichotels.com/"
      }
    },
    {
      "type": "Feature",
      "geometry": {
        "type": "Point",
        "coordinates": [
          11.036248,
          60.072729
        ]
      },
      "properties": {
        "id": 147300195,
        "osm_type": "way",
        "name": "Raumergården Hotel",
        "tourism": "hotel",
        "phone": "+47 900 48 986",
        "website": "raumergarden.no"
      }
    },
    {
      "type": "Feature",
      "geometry": {
        "type": "Point",
        "coordinates": [
          10.6221036,
          59.8739536
        ]
      },
      "properties": {
        "id": 154726787,
        "osm_type": "way",
        "name": "Ytre Vassholmen",
        "tourism": "chalet",
        "website": "https://ut.no/hytte/10861/ytre-vassholmen"
      }
    },
    {
      "type": "Feature",
      "geometry": {
        "type": "Point",
        "coordinates": [
          10.4222146,
          59.5283958
        ]
      },
      "properties": {
        "id": 161473739,
        "osm_type": "way",
        "name": "Rødtangen Camping",
        "tourism": "caravan_site",
        "website": "https://www.sommersomvinter.no/rødtangen-camping"
      }
    },
    {
      "type": "Feature",
      "geometry": {
        "type": "Point",
        "coordinates": [
          10.470939,
          59.8297435
        ]
      },
      "properties": {
        "id": 167407313,
        "osm_type": "way",
        "name": "Thon Hotel Vettre",
        "tourism": "hotel"
      }
    },
    {
      "type": "Feature",
      "geometry": {
        "type": "Point",
        "coordinates": [
          11.0646155,
          60.185525
        ]
      },
      "properties": {
        "id": 182550124,
        "osm_type": "way",
        "name": "Scandic Oslo Airport",
        "tourism": "hotel",
        "check_date": "2025-07-21"
      }
    },
    {
      "type": "Feature",
      "geometry": {
        "type": "Point",
        "coordinates": [
          10.6158985,
          59.7658164
        ]
      },
      "properties": {
        "id": 188185406,
        "osm_type": "way",
        "tourism": "camp_site"
      }
    },
    {
      "type": "Feature",
      "geometry": {
        "type": "Point",
        "coordinates": [
          11.071839,
          60.1930745
        ]
      },
      "properties": {
        "id": 208460960,
        "osm_type": "way",
        "name": "Comfort Hotel RunWay",
        "tourism": "hotel"
      }
    },
    {
      "type": "Feature",
      "geometry": {
        "type": "Point",
        "coordinates": [
          11.0631062,
          60.1916631
        ]
      },
      "properties": {
        "id": 208460963,
        "osm_type": "way",
        "name": "Garder kurs- og konferansesenter",
        "tourism": "hotel",
        "check_date": "2025-07-21"
      }
    },
    {
      "type": "Feature",
      "geometry": {
        "type": "Point",
        "coordinates": [
          11.2441977,
          60.3969495
        ]
      },
      "properties": {
        "id": 220272809,
        "osm_type": "way",
        "name": "Storenga Camping",
        "tourism": "camp_site",
        "phone": "+47 63 968352"
      }
    },
    {
      "type": "Feature",
      "geometry": {
        "type": "Point",
        "coordinates": [
          10.6298745,
          59.8936985
        ]
      },
      "properties": {
        "id": 267365551,
        "osm_type": "way",
        "name": "Scandic Fornebu",
        "tourism": "hotel",
        "phone": "+47 21 05 70 00",
        "website": "https://www.scandichotels.com/Hotels/Norway/Oslo/Fornebu/"
      }
    },
    {
      "type": "Feature",
      "geometry": {
        "type": "Point",
        "coordinates": [
          10.5890037,
          59.8966415
        ]
      },
      "properties": {
        "id": 289195662,
        "osm_type": "way",
        "name": "Granly barnehjem",
        "tourism": "guest_house"
      }
    },
    {
      "type": "Feature",
      "geometry": {
        "type": "Point",
        "coordinates": [
          10.990923,
          60.2347566
        ]
      },
      "properties": {
        "id": 440374167,
        "osm_type": "way",
        "name": "Kringler gjestegård",
        "tourism": "guest_house",
        "phone": "+4763 99 37 00",
        "website": "https://kringler.no/"
      }
    },
    {
      "type": "Feature",
      "geometry": {
        "type": "Point",
        "coordinates": [
          11.1077217,
          60.137607
        ]
      },
      "properties": {
        "id": 444262092,
        "osm_type": "way",
        "name": "Boligutleie Bedder.no",
        "tourism": "motel",
        "website": "https://bedder.net/index.html"
      }
    },
    {
      "type": "Feature",
      "geometry": {
        "type": "Point",
        "coordinates": [
          11.0763575,
          60.2111988
        ]
      },
      "properties": {
        "id": 462799992,
        "osm_type": "way",
        "name": "Gardermoen Hotel Bed & Breakfast",
        "tourism": "hotel"
      }
    },
    {
      "type": "Feature",
      "geometry": {
        "type": "Point",
        "coordinates": [
          10.7796625,
          59.825172
        ]
      },
      "properties": {
        "id": 472187606,
        "osm_type": "way",
        "name": "Quality Hotel Entry",
        "tourism": "hotel",
        "phone": "+47  66 99 78 00",
        "website": "https://www.nordicchoicehotels.no/hotell/norge/kolbotn/quality-hotel-entry/",
        "check_date": "2024-05-19"
      }
    },
    {
      "type": "Feature",
      "geometry": {
        "type": "Point",
        "coordinates": [
          11.0314138,
          60.1569916
        ]
      },
      "properties": {
        "id": 497769150,
        "osm_type": "way",
        "name": "Fagerli Pensjonat",
        "tourism": "guest_house",
        "phone": "+47 2222 3736;+47 900 60 000;+47 2222 5000",
        "website": "http://www.bbnorway.com/?fagerli-pensjonat-holter,201"
      }
    },
    {
      "type": "Feature",
      "geometry": {
        "type": "Point",
        "coordinates": [
          10.8025481,
          60.2592902
        ]
      },
      "properties": {
        "id": 511027306,
        "osm_type": "way",
        "tourism": "camp_site",
        "tents": "yes"
      }
    },
    {
      "type": "Feature",
      "geometry": {
        "type": "Point",
        "coordinates": [
          10.8004141,
          60.2628759
        ]
      },
      "properties": {
        "id": 511029867,
        "osm_type": "way",
        "tourism": "camp_site",
        "tents": "yes"
      }
    },
    {
      "type": "Feature",
      "geometry": {
        "type": "Point",
        "coordinates": [
          10.8056592,
          60.2638059
        ]
      },
      "properties": {
        "id": 511029868,
        "osm_type": "way",
        "tourism": "camp_site",
        "tents": "yes"
      }
    },
    {
      "type": "Feature",
      "geometry": {
        "type": "Point",
        "coordinates": [
          10.7986269,
          60.2602125
        ]
      },
      "properties": {
        "id": 511030294,
        "osm_type": "way",
        "tourism": "camp_site",
        "tents": "limited"
      }
    },
    {
      "type": "Feature",
      "geometry": {
        "type": "Point",
        "coordinates": [
          10.9414933,
          60.1628456
        ]
      },
      "properties": {
        "id": 511039822,
        "osm_type": "way",
        "tourism": "camp_site"
      }
    },
    {
      "type": "Feature",
      "geometry": {
        "type": "Point",
        "coordinates": [
          10.8053582,
          60.2655203
        ]
      },
      "properties": {
        "id": 511056193,
        "osm_type": "way",
        "tourism": "camp_site"
      }
    },
    {
      "type": "Feature",
      "geometry": {
        "type": "Point",
        "coordinates": [
          10.921693,
          60.1542274
        ]
      },
      "properties": {
        "id": 511773407,
        "osm_type": "way",
        "tourism": "camp_site"
      }
    },
    {
      "type": "Feature",
      "geometry": {
        "type": "Point",
        "coordinates": [
          11.7428995,
          59.7326295
        ]
      },
      "properties": {
        "id": 533162793,
        "osm_type": "way",
        "name": "Rømskog Hotell Spa & Resort",
        "tourism": "hotel",
        "website": "https://romskogspa.no",
        "check_date": "2025-04-17"
      }
    },
    {
      "type": "Feature",
      "geometry": {
        "type": "Point",
        "coordinates": [
          11.0464423,
          59.9524605
        ]
      },
      "properties": {
        "id": 570781861,
        "osm_type": "way",
        "name": "Scandic Lillestrøm",
        "tourism": "hotel",
        "phone": "+47 23 00 23 00",
        "website": "https://www.scandichotels.no/lillestrom",
        "check_date": "2024-11-22"
      }
    },
    {
      "type": "Feature",
      "geometry": {
        "type": "Point",
        "coordinates": [
          11.1024614,
          60.1898183
        ]
      },
      "properties": {
        "id": 643883062,
        "osm_type": "way",
        "name": "Radisson RED Oslo Airport",
        "tourism": "hotel",
        "website": "https://www.radissonhotels.com/en-us/hotels/radisson-red-oslo-airport",
        "check_date": "2025-07-20"
      }
    },
    {
      "type": "Feature",
      "geometry": {
        "type": "Point",
        "coordinates": [
          11.0695695,
          60.192597
        ]
      },
      "properties": {
        "id": 652111830,
        "osm_type": "way",
        "name": "Clarion Hotel & Congress Oslo Airport",
        "tourism": "hotel",
        "phone": "+47 63 94 94 94",
        "website": "https://www.nordicchoicehotels.no/hotell/norge/oslo-airport/clarion-hotel-oslo-airport/"
      }
    },
    {
      "type": "Feature",
      "geometry": {
        "type": "Point",
        "coordinates": [
          11.1931643,
          60.3827767
        ]
      },
      "properties": {
        "id": 678033381,
        "osm_type": "way",
        "name": "Oslo Airport Motel",
        "tourism": "motel",
        "website": "https://oslo-airport-motel-no.book.direct/"
      }
    },
    {
      "type": "Feature",
      "geometry": {
        "type": "Point",
        "coordinates": [
          10.514726,
          59.698708
        ]
      },
      "properties": {
        "id": 759265006,
        "osm_type": "way",
        "name": "Klevstua",
        "tourism": "chalet"
      }
    },
    {
      "type": "Feature",
      "geometry": {
        "type": "Point",
        "coordinates": [
          10.5156185,
          59.6982299
        ]
      },
      "properties": {
        "id": 759265008,
        "osm_type": "way",
        "name": "Snippen",
        "tourism": "chalet"
      }
    },
    {
      "type": "Feature",
      "geometry": {
        "type": "Point",
        "coordinates": [
          10.5150202,
          59.6983563
        ]
      },
      "properties": {
        "id": 759265009,
        "osm_type": "way",
        "name": "Fjellholt",
        "tourism": "chalet"
      }
    },
    {
      "type": "Feature",
      "geometry": {
        "type": "Point",
        "coordinates": [
          10.5155203,
          59.6988062
        ]
      },
      "properties": {
        "id": 759265014,
        "osm_type": "way",
        "tourism": "chalet"
      }
    },
    {
      "type": "Feature",
      "geometry": {
        "type": "Point",
        "coordinates": [
          10.9831555,
          59.8868725
        ]
      },
      "properties": {
        "id": 819618193,
        "osm_type": "way",
        "name": "Losby Gods",
        "tourism": "hotel",
        "phone": "+47 67 92 33 00",
        "website": "https://www.losbygods.no/"
      }
    },
    {
      "type": "Feature",
      "geometry": {
        "type": "Point",
        "coordinates": [
          10.6355507,
          59.8285657
        ]
      },
      "properties": {
        "id": 840125279,
        "osm_type": "way",
        "tourism": "guest_house"
      }
    },
    {
      "type": "Feature",
      "geometry": {
        "type": "Point",
        "coordinates": [
          11.2623005,
          60.3270175
        ]
      },
      "properties": {
        "id": 858004343,
        "osm_type": "way",
        "tourism": "caravan_site",
        "check_date": "2025-08-27"
      }
    },
    {
      "type": "Feature",
      "geometry": {
        "type": "Point",
        "coordinates": [
          10.5001437,
          59.8021336
        ]
      },
      "properties": {
        "id": 928241885,
        "osm_type": "way",
        "name": "Sjåførboligen på Elnestangen",
        "tourism": "chalet",
        "website": "https://ut.no/hytte/101039692/sjafrboligen-pa-elnestangen"
      }
    },
    {
      "type": "Feature",
      "geometry": {
        "type": "Point",
        "coordinates": [
          11.1617702,
          60.1635725
        ]
      },
      "properties": {
        "id": 932211252,
        "osm_type": "way",
        "name": "Quality Airport Hotel Gardermoen",
        "tourism": "hotel",
        "phone": "+47 63 92 61 00",
        "website": "https://www.nordicchoicehotels.no/hotell/norge/oslo-airport/quality-airport-hotel-gardermoen/?gclid=Cj0KCQjwse-DBhC7ARIsAI8YcWLF_7ThxQjqlWpPKqysO6J26YavbqdHQxC0_4270f7UXK4YFzwsklIaAgUBEALw_wcB",
        "check_date": "2025-07-13"
      }
    },
    {
      "type": "Feature",
      "geometry": {
        "type": "Point",
        "coordinates": [
          10.4103592,
          60.2842601
        ]
      },
      "properties": {
        "id": 984255607,
        "osm_type": "way",
        "name": "Sløvika camping",
        "tourism": "camp_site",
        "phone": "+47 61 31 55 80",
        "website": "https://www.slovikacamping.no/"
      }
    },
    {
      "type": "Feature",
      "geometry": {
        "type": "Point",
        "coordinates": [
          10.4125046,
          60.2848239
        ]
      },
      "properties": {
        "id": 984255608,
        "osm_type": "way",
        "tourism": "caravan_site"
      }
    },
    {
      "type": "Feature",
      "geometry": {
        "type": "Point",
        "coordinates": [
          10.4196063,
          59.5288542
        ]
      },
      "properties": {
        "id": 1013810994,
        "osm_type": "way",
        "name": "Hygga",
        "tourism": "chalet"
      }
    },
    {
      "type": "Feature",
      "geometry": {
        "type": "Point",
        "coordinates": [
          10.953926,
          59.9476974
        ]
      },
      "properties": {
        "id": 1298201382,
        "osm_type": "way",
        "name": "Thon Hotel Snø",
        "tourism": "hotel",
        "website": "https://www.thonhotels.com/our-hotels/norway/lorenskog/thon-hotel-sno/"
      }
    },
    {
      "type": "Feature",
      "geometry": {
        "type": "Point",
        "coordinates": [
          10.6998062,
          59.8120883
        ]
      },
      "properties": {
        "id": 1298947079,
        "osm_type": "way",
        "name": "Kirkevik",
        "tourism": "camp_site",
        "website": "https://kirkevik.juvente.no"
      }
    },
    {
      "type": "Feature",
      "geometry": {
        "type": "Point",
        "coordinates": [
          10.6214231,
          59.8042133
        ]
      },
      "properties": {
        "id": 1336006750,
        "osm_type": "way",
        "tourism": "caravan_site"
      }
    },
    {
      "type": "Feature",
      "geometry": {
        "type": "Point",
        "coordinates": [
          11.2448528,
          60.3247209
        ]
      },
      "properties": {
        "id": 1414028323,
        "osm_type": "way",
        "tourism": "guest_house"
      }
    },
    {
      "type": "Feature",
      "geometry": {
        "type": "Point",
        "coordinates": [
          11.2450808,
          60.3245433
        ]
      },
      "properties": {
        "id": 1414028324,
        "osm_type": "way",
        "tourism": "guest_house"
      }
    },
    {
      "type": "Feature",
      "geometry": {
        "type": "Point",
        "coordinates": [
          11.2449061,
          60.3245839
        ]
      },
      "properties": {
        "id": 1414028325,
        "osm_type": "way",
        "tourism": "guest_house"
      }
    },
    {
      "type": "Feature",
      "geometry": {
        "type": "Point",
        "coordinates": [
          11.244725,
          60.3245547
        ]
      },
      "properties": {
        "id": 1414028326,
        "osm_type": "way",
        "tourism": "guest_house"
      }
    },
    {
      "type": "Feature",
      "geometry": {
        "type": "Point",
        "coordinates": [
          10.5574826,
          59.85155
        ]
      },
      "properties": {
        "id": 1500973003,
        "osm_type": "way",
        "name": "Tomm Murstad Sjøleir",
        "tourism": "camp_site",
        "tents": "no",
        "contact:phone": "907 03 111",
        "website": "https://www.sjoleir.no/"
      }
    },
    {
      "type": "Feature",
      "geometry": {
        "type": "Point",
        "coordinates": [
          10.6291329,
          59.9025319
        ]
      },
      "properties": {
        "id": 6043658,
        "osm_type": "relation",
        "name": "Quality Hotel Expo",
        "tourism": "hotel"
      }
    },
    {
      "type": "Feature",
      "geometry": {
        "type": "Point",
        "coordinates": [
          10.4013617,
          60.2417332
        ]
      },
      "properties": {
        "id": 12765087,
        "osm_type": "relation",
        "name": "Thorbjørnrud Hotel",
        "tourism": "hotel",
        "website": "https://thorbjornrudhotell.no/"
      }
    },
    {
      "type": "Feature",
      "geometry": {
        "type": "Point",
        "coordinates": [
          11.0950745,
          60.1924175
        ]
      },
      "properties": {
        "id": 13488100,
        "osm_type": "relation",
        "name": "Radisson Blu Airport Hotel, Oslo Gardermoen",
        "tourism": "hotel",
        "phone": "+47 63933000",
        "website": "www.radissonblu.no/hotell-gardermoen",
        "check_date": "2025-07-20"
      }
    },
    {
      "type": "Feature",
      "geometry": {
        "type": "Point",
        "coordinates": [
          11.7150387,
          59.8336276
        ]
      },
      "properties": {
        "id": 14194428,
        "osm_type": "relation",
        "name": "Kirkevika Camping og Badeplass",
        "tourism": "camp_site",
        "phone": "+47 995 24 127"
      }
    }
  ]
}