{
  "type": "FeatureCollection",
  "features": [
    {
      "type": "Feature",
      "geometry": {
        "type": "Point",
        "coordinates": [
          29.3603295,
          40.6823499
        ]
      },
      "properties": {
        "id": 2333415651,
        "osm_type": "node",
        "name": "Murtur Camp",
        "tourism": "camp_site"
      }
    },
    {
      "type": "Feature",
      "geometry": {
        "type": "Point",
        "coordinates": [
          29.1729757,
          40.6067667
        ]
      },
      "properties": {
        "id": 4250896436,
        "osm_type": "node",
        "name": "Yalova Termal Otel",
        "tourism": "hotel"
      }
    },
    {
      "type": "Feature",
      "geometry": {
        "type": "Point",
        "coordinates": [
          29.189359,
          40.6184637
        ]
      },
      "properties": {
        "id": 4354567779,
        "osm_type": "node",
        "name": "Yalova Thermal Palace",
        "tourism": "hotel"
      }
    },
    {
      "type": "Feature",
      "geometry": {
        "type": "Point",
        "coordinates": [
          28.8794197,
          40.4865152
        ]
      },
      "properties": {
        "id": 5136171422,
        "osm_type": "node",
        "name": "ayışığı motel",
        "tourism": "motel"
      }
    },
    {
      "type": "Feature",
      "geometry": {
        "type": "Point",
        "coordinates": [
          29.1736387,
          40.6059728
        ]
      },
      "properties": {
        "id": 5287231156,
        "osm_type": "node",
        "tourism": "guest_house"
      }
    },
    {
      "type": "Feature",
      "geometry": {
        "type": "Point",
        "coordinates": [
          29.2825063,
          40.6462513
        ]
      },
      "properties": {
        "id": 5675638685,
        "osm_type": "node",
        "name": "Hilton Garden Inn Yalova",
        "tourism": "hotel",
        "phone": "+90 226 815 77 77",
        "website": "https://www.hilton.com/en/hotels/sawyvgi-hilton-garden-inn-yalova/"
      }
    },
    {
      "type": "Feature",
      "geometry": {
        "type": "Point",
        "coordinates": [
          29.2185697,
          40.5577243
        ]
      },
      "properties": {
        "id": 6539882487,
        "osm_type": "node",
        "name": "Cevizli Bahçe Kahvaltı ve Kamp Alanı",
        "tourism": "camp_site",
        "phone": "+905419734342",
        "website": "http://www.kapilicinar.com"
      }
    },
    {
      "type": "Feature",
      "geometry": {
        "type": "Point",
        "coordinates": [
          29.273559,
          40.6574577
        ]
      },
      "properties": {
        "id": 6726103895,
        "osm_type": "node",
        "tourism": "hotel"
      }
    },
    {
      "type": "Feature",
      "geometry": {
        "type": "Point",
        "coordinates": [
          29.5063992,
          40.7276001
        ]
      },
      "properties": {
        "id": 7023405228,
        "osm_type": "node",
        "name": "Hersek Otel",
        "tourism": "hotel",
        "phone": "+905556382779",
        "website": "http://hersekpansiyon.com"
      }
    },
    {
      "type": "Feature",
      "geometry": {
        "type": "Point",
        "coordinates": [
          29.2285811,
          40.5710788
        ]
      },
      "properties": {
        "id": 7282104734,
        "osm_type": "node",
        "name": "Ormanika Kamp ve Kahvaltı Tesisleri",
        "tourism": "camp_site"
      }
    },
    {
      "type": "Feature",
      "geometry": {
        "type": "Point",
        "coordinates": [
          29.0589392,
          40.6454705
        ]
      },
      "properties": {
        "id": 8944176527,
        "osm_type": "node",
        "name": "Lavington Hotel",
        "tourism": "hotel"
      }
    },
    {
      "type": "Feature",
      "geometry": {
        "type": "Point",
        "coordinates": [
          29.2287373,
          40.571063
        ]
      },
      "properties": {
        "id": 9132906454,
        "osm_type": "node",
        "name": "Sufi Trail campsite by Ahmet Yiğit",
        "tourism": "camp_site"
      }
    },
    {
      "type": "Feature",
      "geometry": {
        "type": "Point",
        "coordinates": [
          29.442701,
          40.6865193
        ]
      },
      "properties": {
        "id": 9790520872,
        "osm_type": "node",
        "name": "Marine View Hotel",
        "tourism": "hotel",
        "phone": "+90226 465 6040",
        "website": "https://marineviewhotel.com.tr/"
      }
    },
    {
      "type": "Feature",
      "geometry": {
        "type": "Point",
        "coordinates": [
          29.5109513,
          40.6967492
        ]
      },
      "properties": {
        "id": 9991396017,
        "osm_type": "node",
        "tourism": "hotel"
      }
    },
    {
      "type": "Feature",
      "geometry": {
        "type": "Point",
        "coordinates": [
          29.3226766,
          40.6692014
        ]
      },
      "properties": {
        "id": 10001372317,
        "osm_type": "node",
        "tourism": "apartment"
      }
    },
    {
      "type": "Feature",
      "geometry": {
        "type": "Point",
        "coordinates": [
          29.1732912,
          40.6070849
        ]
      },
      "properties": {
        "id": 10926072805,
        "osm_type": "node",
        "tourism": "hotel"
      }
    },
    {
      "type": "Feature",
      "geometry": {
        "type": "Point",
        "coordinates": [
          29.1732078,
          40.606782
        ]
      },
      "properties": {
        "id": 10926072905,
        "osm_type": "node",
        "tourism": "hotel"
      }
    },
    {
      "type": "Feature",
      "geometry": {
        "type": "Point",
        "coordinates": [
          29.1454719,
          40.6565325
        ]
      },
      "properties": {
        "id": 12246811601,
        "osm_type": "node",
        "name": "Grand Koru Otel",
        "tourism": "hotel"
      }
    },
    {
      "type": "Feature",
      "geometry": {
        "type": "Point",
        "coordinates": [
          29.1745618,
          40.605642
        ]
      },
      "properties": {
        "id": 12641575579,
        "osm_type": "node",
        "name": "Öz Örnek Apart",
        "tourism": "apartment"
      }
    },
    {
      "type": "Feature",
      "geometry": {
        "type": "Point",
        "coordinates": [
          28.8801925,
          40.4858139
        ]
      },
      "properties": {
        "id": 12960835028,
        "osm_type": "node",
        "name": "Çağrı pansiyon",
        "tourism": "hostel",
        "phone": "+90 532 615 02 46",
        "website": "https://cagripansiyon.com/"
      }
    },
    {
      "type": "Feature",
      "geometry": {
        "type": "Point",
        "coordinates": [
          29.1733108,
          40.60595
        ]
      },
      "properties": {
        "id": 13205178576,
        "osm_type": "node",
        "name": "Termal Elit Hotel",
        "tourism": "hotel"
      }
    },
    {
      "type": "Feature",
      "geometry": {
        "type": "Point",
        "coordinates": [
          28.8933295,
          40.5838598
        ]
      },
      "properties": {
        "id": 13238093741,
        "osm_type": "node",
        "name": "Marmara Bungalov",
        "tourism": "hotel",
        "phone": "+905304042297",
        "website": "https://www.marmarabungalov.com"
      }
    },
    {
      "type": "Feature",
      "geometry": {
        "type": "Point",
        "coordinates": [
          28.8953953,
          40.5845877
        ]
      },
      "properties": {
        "id": 13458873235,
        "osm_type": "node",
        "name": "Saklı Bahçe Doğa & Deniz Kampı",
        "tourism": "camp_site"
      }
    },
    {
      "type": "Feature",
      "geometry": {
        "type": "Point",
        "coordinates": [
          29.174124,
          40.6035857
        ]
      },
      "properties": {
        "id": 124975764,
        "osm_type": "way",
        "name": "Termal Kaplıcaları",
        "tourism": "hotel",
        "website": "http://www.yalovatermal.com/"
      }
    },
    {
      "type": "Feature",
      "geometry": {
        "type": "Point",
        "coordinates": [
          29.1756986,
          40.6051684
        ]
      },
      "properties": {
        "id": 124975770,
        "osm_type": "way",
        "name": "Limak Thermal Boutique Hotel",
        "tourism": "hotel"
      }
    },
    {
      "type": "Feature",
      "geometry": {
        "type": "Point",
        "coordinates": [
          29.1690728,
          40.6099389
        ]
      },
      "properties": {
        "id": 400835236,
        "osm_type": "way",
        "name": "Kapri Motel",
        "tourism": "motel",
        "phone": "+90 226 600 0020"
      }
    },
    {
      "type": "Feature",
      "geometry": {
        "type": "Point",
        "coordinates": [
          29.2055449,
          40.599715
        ]
      },
      "properties": {
        "id": 437590714,
        "osm_type": "way",
        "name": "Wed White Palace Hotel",
        "tourism": "hotel"
      }
    },
    {
      "type": "Feature",
      "geometry": {
        "type": "Point",
        "coordinates": [
          29.2155756,
          40.5822213
        ]
      },
      "properties": {
        "id": 464500803,
        "osm_type": "way",
        "name": "Kaltur Butik Hotel",
        "tourism": "hotel"
      }
    },
    {
      "type": "Feature",
      "geometry": {
        "type": "Point",
        "coordinates": [
          29.2706106,
          40.6581086
        ]
      },
      "properties": {
        "id": 518426482,
        "osm_type": "way",
        "name": "Kılıçlar Otel",
        "tourism": "hotel"
      }
    },
    {
      "type": "Feature",
      "geometry": {
        "type": "Point",
        "coordinates": [
          29.2704175,
          40.658422
        ]
      },
      "properties": {
        "id": 518426483,
        "osm_type": "way",
        "name": "Efes Otel",
        "tourism": "hotel"
      }
    },
    {
      "type": "Feature",
      "geometry": {
        "type": "Point",
        "coordinates": [
          29.2709069,
          40.6584745
        ]
      },
      "properties": {
        "id": 518426490,
        "osm_type": "way",
        "name": "Öncü Otel",
        "tourism": "hotel"
      }
    },
    {
      "type": "Feature",
      "geometry": {
        "type": "Point",
        "coordinates": [
          29.2710355,
          40.6584817
        ]
      },
      "properties": {
        "id": 518426491,
        "osm_type": "way",
        "name": "Ülke Otel",
        "tourism": "hotel"
      }
    },
    {
      "type": "Feature",
      "geometry": {
        "type": "Point",
        "coordinates": [
          29.2712767,
          40.6584962
        ]
      },
      "properties": {
        "id": 518428610,
        "osm_type": "way",
        "name": "Şeref Otel",
        "tourism": "hotel"
      }
    },
    {
      "type": "Feature",
      "geometry": {
        "type": "Point",
        "coordinates": [
          29.1900964,
          40.6184032
        ]
      },
      "properties": {
        "id": 537178421,
        "osm_type": "way",
        "name": "Yalova Thermal Palace",
        "tourism": "hotel"
      }
    },
    {
      "type": "Feature",
      "geometry": {
        "type": "Point",
        "coordinates": [
          29.2314469,
          40.5992207
        ]
      },
      "properties": {
        "id": 699051092,
        "osm_type": "way",
        "tourism": "camp_site"
      }
    },
    {
      "type": "Feature",
      "geometry": {
        "type": "Point",
        "coordinates": [
          29.2189177,
          40.5775674
        ]
      },
      "properties": {
        "id": 699091212,
        "osm_type": "way",
        "tourism": "camp_site"
      }
    },
    {
      "type": "Feature",
      "geometry": {
        "type": "Point",
        "coordinates": [
          28.8374113,
          40.5359931
        ]
      },
      "properties": {
        "id": 757494041,
        "osm_type": "way",
        "name": "Termal Hotel",
        "tourism": "hotel"
      }
    },
    {
      "type": "Feature",
      "geometry": {
        "type": "Point",
        "coordinates": [
          29.2830318,
          40.6560638
        ]
      },
      "properties": {
        "id": 760620704,
        "osm_type": "way",
        "name": "Ramada by Wyndham Yalova",
        "tourism": "hotel",
        "phone": "+90 226 303 03 03",
        "website": "https://www.wyndhamhotels.com/tr-tr/ramada"
      }
    },
    {
      "type": "Feature",
      "geometry": {
        "type": "Point",
        "coordinates": [
          29.4447672,
          40.687576
        ]
      },
      "properties": {
        "id": 761180631,
        "osm_type": "way",
        "name": "Elegance Resort Hotel",
        "tourism": "hotel",
        "phone": "0850 532 4802",
        "website": "https://www.eleganceresort.com.tr/"
      }
    },
    {
      "type": "Feature",
      "geometry": {
        "type": "Point",
        "coordinates": [
          29.2325861,
          40.6448106
        ]
      },
      "properties": {
        "id": 761541480,
        "osm_type": "way",
        "name": "Lova Hotel Spa Yalova",
        "tourism": "hotel",
        "phone": "0226 880 00 50",
        "website": "https://www.lovahotel.com/"
      }
    },
    {
      "type": "Feature",
      "geometry": {
        "type": "Point",
        "coordinates": [
          29.2708694,
          40.65677
        ]
      },
      "properties": {
        "id": 762082400,
        "osm_type": "way",
        "name": "Fatih Otel",
        "tourism": "hotel"
      }
    },
    {
      "type": "Feature",
      "geometry": {
        "type": "Point",
        "coordinates": [
          29.227825,
          40.6562272
        ]
      },
      "properties": {
        "id": 762525113,
        "osm_type": "way",
        "name": "Rizom Tatil Köyü",
        "tourism": "hotel",
        "phone": "0226 811 02 22"
      }
    },
    {
      "type": "Feature",
      "geometry": {
        "type": "Point",
        "coordinates": [
          29.2452144,
          40.658001
        ]
      },
      "properties": {
        "id": 762529287,
        "osm_type": "way",
        "name": "Yalova Öğretmenevi",
        "tourism": "hotel",
        "phone": "0226 814 94 00",
        "website": "https://yalovaogretmenevi.meb.k12.tr/"
      }
    },
    {
      "type": "Feature",
      "geometry": {
        "type": "Point",
        "coordinates": [
          29.2643104,
          40.6529334
        ]
      },
      "properties": {
        "id": 765138929,
        "osm_type": "way",
        "name": "Yalova Uygulama Oteli",
        "tourism": "hotel",
        "phone": "+90 226 811 59 07",
        "website": "http://www.yalovauygulamaoteli.com.tr/"
      }
    },
    {
      "type": "Feature",
      "geometry": {
        "type": "Point",
        "coordinates": [
          29.2712944,
          40.6522813
        ]
      },
      "properties": {
        "id": 765413841,
        "osm_type": "way",
        "name": "Royal Hotel",
        "tourism": "hotel"
      }
    },
    {
      "type": "Feature",
      "geometry": {
        "type": "Point",
        "coordinates": [
          29.1453207,
          40.6558762
        ]
      },
      "properties": {
        "id": 768060302,
        "osm_type": "way",
        "name": "Grand Koru Otel Beach",
        "tourism": "hotel"
      }
    },
    {
      "type": "Feature",
      "geometry": {
        "type": "Point",
        "coordinates": [
          29.1893343,
          40.6193303
        ]
      },
      "properties": {
        "id": 785367489,
        "osm_type": "way",
        "tourism": "hotel"
      }
    },
    {
      "type": "Feature",
      "geometry": {
        "type": "Point",
        "coordinates": [
          29.1883824,
          40.6195015
        ]
      },
      "properties": {
        "id": 785367490,
        "osm_type": "way",
        "tourism": "hotel"
      }
    },
    {
      "type": "Feature",
      "geometry": {
        "type": "Point",
        "coordinates": [
          29.442709,
          40.6864924
        ]
      },
      "properties": {
        "id": 1066146633,
        "osm_type": "way",
        "name": "Marine View Hotel",
        "tourism": "hotel",
        "phone": "+902264656040",
        "website": "https://marineviewhotel.com.tr/"
      }
    },
    {
      "type": "Feature",
      "geometry": {
        "type": "Point",
        "coordinates": [
          29.2359053,
          40.6577847
        ]
      },
      "properties": {
        "id": 1290313693,
        "osm_type": "way",
        "tourism": "camp_site"
      }
    },
    {
      "type": "Feature",
      "geometry": {
        "type": "Point",
        "coordinates": [
          28.8378438,
          40.5434501
        ]
      },
      "properties": {
        "id": 1391609313,
        "osm_type": "way",
        "name": "Eski Kaplıca Oteli (Yıkıldı)",
        "tourism": "hotel"
      }
    },
    {
      "type": "Feature",
      "geometry": {
        "type": "Point",
        "coordinates": [
          28.851399,
          40.506404
        ]
      },
      "properties": {
        "id": 1412861136,
        "osm_type": "way",
        "name": "Motel Model",
        "tourism": "hotel"
      }
    },
    {
      "type": "Feature",
      "geometry": {
        "type": "Point",
        "coordinates": [
          28.8531517,
          40.5075267
        ]
      },
      "properties": {
        "id": 1414290638,
        "osm_type": "way",
        "name": "Biodenge Otel",
        "tourism": "hotel"
      }
    }
  ]
}