{
  "type": "FeatureCollection",
  "features": [
    {
      "type": "Feature",
      "geometry": {
        "type": "Point",
        "coordinates": [
          44.2829992,
          37.5712361
        ]
      },
      "properties": {
        "id": 4808321324,
        "osm_type": "node",
        "name": "Hotel Oslo",
        "tourism": "hotel"
      }
    },
    {
      "type": "Feature",
      "geometry": {
        "type": "Point",
        "coordinates": [
          44.2833402,
          37.5709966
        ]
      },
      "properties": {
        "id": 4809108425,
        "osm_type": "node",
        "name": "Otel Esen",
        "tourism": "hotel"
      }
    },
    {
      "type": "Feature",
      "geometry": {
        "type": "Point",
        "coordinates": [
          44.2817354,
          37.5718797
        ]
      },
      "properties": {
        "id": 4809108426,
        "osm_type": "node",
        "name": "Zafer Otel",
        "tourism": "hotel",
        "opening_hours": "24/7"
      }
    },
    {
      "type": "Feature",
      "geometry": {
        "type": "Point",
        "coordinates": [
          44.2840522,
          37.5700406
        ]
      },
      "properties": {
        "id": 4809108523,
        "osm_type": "node",
        "name": "Otel Ova",
        "tourism": "hotel"
      }
    },
    {
      "type": "Feature",
      "geometry": {
        "type": "Point",
        "coordinates": [
          44.2825274,
          37.5712731
        ]
      },
      "properties": {
        "id": 4857136621,
        "osm_type": "node",
        "name": "Hotel 2000",
        "tourism": "hotel"
      }
    },
    {
      "type": "Feature",
      "geometry": {
        "type": "Point",
        "coordinates": [
          44.2833146,
          37.5709717
        ]
      },
      "properties": {
        "id": 4888628423,
        "osm_type": "node",
        "name": "Otel Arslan",
        "tourism": "hotel"
      }
    },
    {
      "type": "Feature",
      "geometry": {
        "type": "Point",
        "coordinates": [
          44.3023733,
          37.4806467
        ]
      },
      "properties": {
        "id": 6605419197,
        "osm_type": "node",
        "name": "abdullah kocali",
        "tourism": "caravan_site"
      }
    },
    {
      "type": "Feature",
      "geometry": {
        "type": "Point",
        "coordinates": [
          43.988623,
          37.529306
        ]
      },
      "properties": {
        "id": 6634200585,
        "osm_type": "node",
        "tourism": "alpine_hut"
      }
    },
    {
      "type": "Feature",
      "geometry": {
        "type": "Point",
        "coordinates": [
          44.2860667,
          37.576441
        ]
      },
      "properties": {
        "id": 7181122822,
        "osm_type": "node",
        "name": "öztekin",
        "tourism": "alpine_hut"
      }
    },
    {
      "type": "Feature",
      "geometry": {
        "type": "Point",
        "coordinates": [
          44.2842671,
          37.5720043
        ]
      },
      "properties": {
        "id": 10810641499,
        "osm_type": "node",
        "name": "Avazem",
        "tourism": "hotel"
      }
    },
    {
      "type": "Feature",
      "geometry": {
        "type": "Point",
        "coordinates": [
          44.2472881,
          37.5357908
        ]
      },
      "properties": {
        "id": 11780296356,
        "osm_type": "node",
        "name": "Dilekli Kampı",
        "tourism": "camp_site"
      }
    },
    {
      "type": "Feature",
      "geometry": {
        "type": "Point",
        "coordinates": [
          44.5747967,
          37.3058592
        ]
      },
      "properties": {
        "id": 273541313,
        "osm_type": "way",
        "name": "Vali Orhan Isin Hoteli",
        "tourism": "hotel"
      }
    },
    {
      "type": "Feature",
      "geometry": {
        "type": "Point",
        "coordinates": [
          44.2814137,
          37.570675
        ]
      },
      "properties": {
        "id": 430617700,
        "osm_type": "way",
        "name": "Yüksekova Öğretmen Evi",
        "tourism": "hotel"
      }
    },
    {
      "type": "Feature",
      "geometry": {
        "type": "Point",
        "coordinates": [
          44.2832619,
          37.5712819
        ]
      },
      "properties": {
        "id": 431256264,
        "osm_type": "way",
        "name": "Hotel Oslo",
        "tourism": "hotel"
      }
    },
    {
      "type": "Feature",
      "geometry": {
        "type": "Point",
        "coordinates": [
          44.2852106,
          37.569582
        ]
      },
      "properties": {
        "id": 491424956,
        "osm_type": "way",
        "name": "Hotel Grand Yılmaz",
        "tourism": "hotel"
      }
    },
    {
      "type": "Feature",
      "geometry": {
        "type": "Point",
        "coordinates": [
          43.7340866,
          37.5784918
        ]
      },
      "properties": {
        "id": 1071596603,
        "osm_type": "way",
        "name": "Şen Otel",
        "tourism": "hotel"
      }
    },
    {
      "type": "Feature",
      "geometry": {
        "type": "Point",
        "coordinates": [
          44.2609319,
          37.5661638
        ]
      },
      "properties": {
        "id": 1208983591,
        "osm_type": "way",
        "name": "DoubleTree by Hilton Yüksekova",
        "tourism": "hotel",
        "phone": "+90 438 216 5555"
      }
    },
    {
      "type": "Feature",
      "geometry": {
        "type": "Point",
        "coordinates": [
          43.6786546,
          37.5714068
        ]
      },
      "properties": {
        "id": 1283879831,
        "osm_type": "way",
        "tourism": "hotel"
      }
    }
  ]
}