{
  "type": "FeatureCollection",
  "features": [
    {
      "type": "Feature",
      "geometry": {
        "type": "Point",
        "coordinates": [
          35.0969846,
          37.8580811
        ]
      },
      "properties": {
        "id": 833213359,
        "osm_type": "node",
        "name": "Mümtaz Çankaya Dağ Evi",
        "tourism": "alpine_hut"
      }
    },
    {
      "type": "Feature",
      "geometry": {
        "type": "Point",
        "coordinates": [
          34.6820354,
          37.9719354
        ]
      },
      "properties": {
        "id": 1757257250,
        "osm_type": "node",
        "name": "Nahita",
        "tourism": "hotel"
      }
    },
    {
      "type": "Feature",
      "geometry": {
        "type": "Point",
        "coordinates": [
          34.4834534,
          37.4394834
        ]
      },
      "properties": {
        "id": 2364199761,
        "osm_type": "node",
        "tourism": "alpine_hut"
      }
    },
    {
      "type": "Feature",
      "geometry": {
        "type": "Point",
        "coordinates": [
          35.0515052,
          37.8241329
        ]
      },
      "properties": {
        "id": 2409263269,
        "osm_type": "node",
        "name": "Aladağlar Camping Bungalow",
        "tourism": "chalet",
        "website": "https://www.aladaglarcamping.com/"
      }
    },
    {
      "type": "Feature",
      "geometry": {
        "type": "Point",
        "coordinates": [
          35.0469233,
          37.8368197
        ]
      },
      "properties": {
        "id": 2879740873,
        "osm_type": "node",
        "name": "Öz Safak Pension",
        "tourism": "guest_house",
        "phone": "+90 536 324 69 11",
        "website": "http://www.ozsafak.net/"
      }
    },
    {
      "type": "Feature",
      "geometry": {
        "type": "Point",
        "coordinates": [
          34.6780599,
          37.9713805
        ]
      },
      "properties": {
        "id": 6309077089,
        "osm_type": "node",
        "tourism": "hotel"
      }
    },
    {
      "type": "Feature",
      "geometry": {
        "type": "Point",
        "coordinates": [
          34.9864267,
          37.833168
        ]
      },
      "properties": {
        "id": 7252646585,
        "osm_type": "node",
        "tourism": "hotel"
      }
    },
    {
      "type": "Feature",
      "geometry": {
        "type": "Point",
        "coordinates": [
          35.1423947,
          37.8637537
        ]
      },
      "properties": {
        "id": 11008633645,
        "osm_type": "node",
        "tourism": "camp_site"
      }
    },
    {
      "type": "Feature",
      "geometry": {
        "type": "Point",
        "coordinates": [
          34.771522,
          37.5127286
        ]
      },
      "properties": {
        "id": 11575739750,
        "osm_type": "node",
        "name": "Şafak Otel",
        "tourism": "hostel"
      }
    },
    {
      "type": "Feature",
      "geometry": {
        "type": "Point",
        "coordinates": [
          34.7707489,
          37.5111979
        ]
      },
      "properties": {
        "id": 11575746668,
        "osm_type": "node",
        "name": "Nur Pansiyon",
        "tourism": "hostel"
      }
    },
    {
      "type": "Feature",
      "geometry": {
        "type": "Point",
        "coordinates": [
          34.7735657,
          37.5129242
        ]
      },
      "properties": {
        "id": 11575789801,
        "osm_type": "node",
        "name": "Ağaoğlu Pansiyon",
        "tourism": "hostel"
      }
    },
    {
      "type": "Feature",
      "geometry": {
        "type": "Point",
        "coordinates": [
          34.4560406,
          38.3365581
        ]
      },
      "properties": {
        "id": 12143804901,
        "osm_type": "node",
        "tourism": "camp_site"
      }
    },
    {
      "type": "Feature",
      "geometry": {
        "type": "Point",
        "coordinates": [
          35.0615224,
          37.794879
        ]
      },
      "properties": {
        "id": 12809143280,
        "osm_type": "node",
        "name": "Karadağ Bungalow",
        "tourism": "chalet"
      }
    },
    {
      "type": "Feature",
      "geometry": {
        "type": "Point",
        "coordinates": [
          34.4583747,
          37.6573377
        ]
      },
      "properties": {
        "id": 13242855758,
        "osm_type": "node",
        "name": "Altay Ata Mekan Kımız Çiftliği",
        "tourism": "camp_site"
      }
    },
    {
      "type": "Feature",
      "geometry": {
        "type": "Point",
        "coordinates": [
          35.1422281,
          37.9129546
        ]
      },
      "properties": {
        "id": 232054911,
        "osm_type": "way",
        "name": "Maden Camp",
        "tourism": "camp_site"
      }
    },
    {
      "type": "Feature",
      "geometry": {
        "type": "Point",
        "coordinates": [
          35.1788137,
          37.8732942
        ]
      },
      "properties": {
        "id": 232167854,
        "osm_type": "way",
        "name": "Karagöl Camp",
        "tourism": "camp_site"
      }
    },
    {
      "type": "Feature",
      "geometry": {
        "type": "Point",
        "coordinates": [
          35.1110381,
          37.8290261
        ]
      },
      "properties": {
        "id": 232477795,
        "osm_type": "way",
        "tourism": "camp_site",
        "website": "https://www.dijontravel.com/"
      }
    },
    {
      "type": "Feature",
      "geometry": {
        "type": "Point",
        "coordinates": [
          35.1146364,
          37.8262497
        ]
      },
      "properties": {
        "id": 232574807,
        "osm_type": "way",
        "tourism": "camp_site",
        "website": "http://www.sobektrekking.com/; http://www.demavendtravel.com/"
      }
    },
    {
      "type": "Feature",
      "geometry": {
        "type": "Point",
        "coordinates": [
          35.1138676,
          37.8169015
        ]
      },
      "properties": {
        "id": 232581769,
        "osm_type": "way",
        "tourism": "camp_site",
        "website": "https://terra-anatolia.com/"
      }
    },
    {
      "type": "Feature",
      "geometry": {
        "type": "Point",
        "coordinates": [
          35.0943848,
          37.7676955
        ]
      },
      "properties": {
        "id": 232581771,
        "osm_type": "way",
        "name": "Emli Vadisi",
        "tourism": "camp_site"
      }
    },
    {
      "type": "Feature",
      "geometry": {
        "type": "Point",
        "coordinates": [
          35.0475711,
          37.8377237
        ]
      },
      "properties": {
        "id": 284219426,
        "osm_type": "way",
        "name": "Safak Pansiyon",
        "tourism": "guest_house",
        "phone": "+905378226224",
        "website": "https://www.safaktravel.net/"
      }
    },
    {
      "type": "Feature",
      "geometry": {
        "type": "Point",
        "coordinates": [
          34.4622861,
          38.3447367
        ]
      },
      "properties": {
        "id": 286059369,
        "osm_type": "way",
        "name": "Narlı Göl Termal Otel",
        "tourism": "hotel"
      }
    },
    {
      "type": "Feature",
      "geometry": {
        "type": "Point",
        "coordinates": [
          34.7005684,
          37.966732
        ]
      },
      "properties": {
        "id": 324217207,
        "osm_type": "way",
        "name": "Polis Evi",
        "tourism": "guest_house",
        "website": "https://www.polisevi.com/nigde-polisevi/"
      }
    },
    {
      "type": "Feature",
      "geometry": {
        "type": "Point",
        "coordinates": [
          34.6768888,
          37.9692688
        ]
      },
      "properties": {
        "id": 461989996,
        "osm_type": "way",
        "name": "Grand Otel",
        "tourism": "hotel"
      }
    },
    {
      "type": "Feature",
      "geometry": {
        "type": "Point",
        "coordinates": [
          34.6766224,
          37.9709141
        ]
      },
      "properties": {
        "id": 461990002,
        "osm_type": "way",
        "name": "Öğretmenevi",
        "tourism": "hotel"
      }
    },
    {
      "type": "Feature",
      "geometry": {
        "type": "Point",
        "coordinates": [
          34.7714766,
          37.5127251
        ]
      },
      "properties": {
        "id": 1245167506,
        "osm_type": "way",
        "tourism": "hostel"
      }
    },
    {
      "type": "Feature",
      "geometry": {
        "type": "Point",
        "coordinates": [
          34.7735584,
          37.5129262
        ]
      },
      "properties": {
        "id": 1245167548,
        "osm_type": "way",
        "tourism": "hostel"
      }
    },
    {
      "type": "Feature",
      "geometry": {
        "type": "Point",
        "coordinates": [
          34.5890615,
          37.7961294
        ]
      },
      "properties": {
        "id": 1395512311,
        "osm_type": "way",
        "name": "Uçar Bahçe Evi",
        "tourism": "chalet"
      }
    }
  ]
}