{
  "type": "FeatureCollection",
  "features": [
    {
      "type": "Feature",
      "geometry": {
        "type": "Point",
        "coordinates": [
          37.7717269,
          41.0738958
        ]
      },
      "properties": {
        "id": 2352459944,
        "osm_type": "node",
        "name": "uygulama hotel",
        "tourism": "hotel"
      }
    },
    {
      "type": "Feature",
      "geometry": {
        "type": "Point",
        "coordinates": [
          37.7174433,
          41.1133058
        ]
      },
      "properties": {
        "id": 2905301869,
        "osm_type": "node",
        "name": "Beyazkum",
        "tourism": "camp_site"
      }
    },
    {
      "type": "Feature",
      "geometry": {
        "type": "Point",
        "coordinates": [
          37.4782585,
          41.0216974
        ]
      },
      "properties": {
        "id": 2906165454,
        "osm_type": "node",
        "name": "Yalcin Resort Hotel",
        "tourism": "hotel",
        "website": "http://www.hotelyalcin.com.tr/"
      }
    },
    {
      "type": "Feature",
      "geometry": {
        "type": "Point",
        "coordinates": [
          37.7730487,
          41.0687213
        ]
      },
      "properties": {
        "id": 3123848911,
        "osm_type": "node",
        "name": "Hotel Dedeevi",
        "tourism": "hotel"
      }
    },
    {
      "type": "Feature",
      "geometry": {
        "type": "Point",
        "coordinates": [
          37.478649,
          41.058447
        ]
      },
      "properties": {
        "id": 3255689561,
        "osm_type": "node",
        "name": "Hotel Dolunay",
        "tourism": "hotel"
      }
    },
    {
      "type": "Feature",
      "geometry": {
        "type": "Point",
        "coordinates": [
          37.2873,
          41.1341984
        ]
      },
      "properties": {
        "id": 3791091702,
        "osm_type": "node",
        "name": "Yalihan Ari Hotel",
        "tourism": "hotel"
      }
    },
    {
      "type": "Feature",
      "geometry": {
        "type": "Point",
        "coordinates": [
          37.7137133,
          41.1130104
        ]
      },
      "properties": {
        "id": 4915112121,
        "osm_type": "node",
        "name": "Yalı Piknik Camp",
        "tourism": "camp_site"
      }
    },
    {
      "type": "Feature",
      "geometry": {
        "type": "Point",
        "coordinates": [
          37.2847757,
          41.1326787
        ]
      },
      "properties": {
        "id": 5578296010,
        "osm_type": "node",
        "name": "Paşabahçe Konağı Butik Otel",
        "tourism": "hotel"
      }
    },
    {
      "type": "Feature",
      "geometry": {
        "type": "Point",
        "coordinates": [
          37.8321747,
          41.0198978
        ]
      },
      "properties": {
        "id": 5616502922,
        "osm_type": "node",
        "tourism": "camp_site"
      }
    },
    {
      "type": "Feature",
      "geometry": {
        "type": "Point",
        "coordinates": [
          37.5929763,
          41.0366217
        ]
      },
      "properties": {
        "id": 5781578853,
        "osm_type": "node",
        "name": "Yıldız Apart",
        "tourism": "hotel"
      }
    },
    {
      "type": "Feature",
      "geometry": {
        "type": "Point",
        "coordinates": [
          37.2775425,
          41.1443527
        ]
      },
      "properties": {
        "id": 5835948985,
        "osm_type": "node",
        "tourism": "camp_site"
      }
    },
    {
      "type": "Feature",
      "geometry": {
        "type": "Point",
        "coordinates": [
          37.0180954,
          40.7951797
        ]
      },
      "properties": {
        "id": 6123703494,
        "osm_type": "node",
        "name": "Akkuş Öğretmenevi Otel",
        "tourism": "hotel"
      }
    },
    {
      "type": "Feature",
      "geometry": {
        "type": "Point",
        "coordinates": [
          37.7118819,
          41.1131621
        ]
      },
      "properties": {
        "id": 6478844660,
        "osm_type": "node",
        "name": "Gölge Camp",
        "tourism": "camp_site"
      }
    },
    {
      "type": "Feature",
      "geometry": {
        "type": "Point",
        "coordinates": [
          37.7797352,
          41.0587459
        ]
      },
      "properties": {
        "id": 6666617585,
        "osm_type": "node",
        "name": "anafor otel",
        "tourism": "hotel"
      }
    },
    {
      "type": "Feature",
      "geometry": {
        "type": "Point",
        "coordinates": [
          37.8791981,
          40.9845681
        ]
      },
      "properties": {
        "id": 6696977585,
        "osm_type": "node",
        "tourism": "hotel"
      }
    },
    {
      "type": "Feature",
      "geometry": {
        "type": "Point",
        "coordinates": [
          37.2935724,
          40.6260465
        ]
      },
      "properties": {
        "id": 6902701247,
        "osm_type": "node",
        "name": "TAŞ KONAK BUTİK OTEL",
        "tourism": "hotel"
      }
    },
    {
      "type": "Feature",
      "geometry": {
        "type": "Point",
        "coordinates": [
          37.9154355,
          40.9825381
        ]
      },
      "properties": {
        "id": 7793895547,
        "osm_type": "node",
        "name": "Ordu Polis Evi",
        "tourism": "guest_house",
        "website": "https://www.polisevi.com/ordu-polisevi/"
      }
    },
    {
      "type": "Feature",
      "geometry": {
        "type": "Point",
        "coordinates": [
          37.8802259,
          40.9853376
        ]
      },
      "properties": {
        "id": 8149291105,
        "osm_type": "node",
        "name": "Atlıhan Otel",
        "tourism": "hotel"
      }
    },
    {
      "type": "Feature",
      "geometry": {
        "type": "Point",
        "coordinates": [
          37.8922315,
          40.9809501
        ]
      },
      "properties": {
        "id": 8285089053,
        "osm_type": "node",
        "name": "Egas Otel",
        "tourism": "hotel"
      }
    },
    {
      "type": "Feature",
      "geometry": {
        "type": "Point",
        "coordinates": [
          37.8792628,
          40.9815589
        ]
      },
      "properties": {
        "id": 8518234818,
        "osm_type": "node",
        "name": "STAT OTEL",
        "tourism": "apartment",
        "website": "https://www.statotel.com/"
      }
    },
    {
      "type": "Feature",
      "geometry": {
        "type": "Point",
        "coordinates": [
          37.8773063,
          40.9867149
        ]
      },
      "properties": {
        "id": 8521300717,
        "osm_type": "node",
        "name": "Ordu Merkez Öğretmenevi ve Akşam Sanat Okulu",
        "tourism": "guest_house",
        "phone": "+90 452 225 43 58"
      }
    },
    {
      "type": "Feature",
      "geometry": {
        "type": "Point",
        "coordinates": [
          37.8772425,
          40.9866147
        ]
      },
      "properties": {
        "id": 8521301417,
        "osm_type": "node",
        "name": "Ordu Orduevi Askeri Gazino",
        "tourism": "guest_house",
        "phone": "+90 452 225 46 85"
      }
    },
    {
      "type": "Feature",
      "geometry": {
        "type": "Point",
        "coordinates": [
          37.8784207,
          40.9866243
        ]
      },
      "properties": {
        "id": 8521354618,
        "osm_type": "node",
        "name": "Sinema Hotel Ordu Otel",
        "tourism": "apartment"
      }
    },
    {
      "type": "Feature",
      "geometry": {
        "type": "Point",
        "coordinates": [
          37.9123238,
          40.9837487
        ]
      },
      "properties": {
        "id": 8527053119,
        "osm_type": "node",
        "name": "Cotyora Otel",
        "tourism": "apartment"
      }
    },
    {
      "type": "Feature",
      "geometry": {
        "type": "Point",
        "coordinates": [
          37.1920468,
          41.1436712
        ]
      },
      "properties": {
        "id": 10087657375,
        "osm_type": "node",
        "name": "Yunus Emre Kurtuluş Kampi",
        "tourism": "camp_site"
      }
    },
    {
      "type": "Feature",
      "geometry": {
        "type": "Point",
        "coordinates": [
          37.5537927,
          41.0243486
        ]
      },
      "properties": {
        "id": 10090333483,
        "osm_type": "node",
        "name": "Derin Deniz Boutique",
        "tourism": "hotel"
      }
    },
    {
      "type": "Feature",
      "geometry": {
        "type": "Point",
        "coordinates": [
          37.4923375,
          41.0356955
        ]
      },
      "properties": {
        "id": 10090459812,
        "osm_type": "node",
        "name": "Ihsaniye Erkek Ogrenci Yurdu",
        "tourism": "hotel"
      }
    },
    {
      "type": "Feature",
      "geometry": {
        "type": "Point",
        "coordinates": [
          37.4856105,
          41.0472159
        ]
      },
      "properties": {
        "id": 10090474085,
        "osm_type": "node",
        "name": "Demas Plajı",
        "tourism": "camp_site"
      }
    },
    {
      "type": "Feature",
      "geometry": {
        "type": "Point",
        "coordinates": [
          37.8281867,
          40.8243746
        ]
      },
      "properties": {
        "id": 10984503184,
        "osm_type": "node",
        "name": "Uzunırmak",
        "tourism": "guest_house"
      }
    },
    {
      "type": "Feature",
      "geometry": {
        "type": "Point",
        "coordinates": [
          37.9522728,
          40.9762352
        ]
      },
      "properties": {
        "id": 11014650815,
        "osm_type": "node",
        "name": "Grand Ayzek Hotel",
        "tourism": "hotel",
        "phone": "+90 452 250 52 52",
        "website": "https://www.grandayzekhotel.com/"
      }
    },
    {
      "type": "Feature",
      "geometry": {
        "type": "Point",
        "coordinates": [
          37.7070251,
          41.1134265
        ]
      },
      "properties": {
        "id": 11114622904,
        "osm_type": "node",
        "name": "Hayal Kamp",
        "tourism": "camp_site"
      }
    },
    {
      "type": "Feature",
      "geometry": {
        "type": "Point",
        "coordinates": [
          37.9285635,
          40.727834
        ]
      },
      "properties": {
        "id": 12438543039,
        "osm_type": "node",
        "name": "Gıli Gıli Dağ Evi",
        "tourism": "alpine_hut"
      }
    },
    {
      "type": "Feature",
      "geometry": {
        "type": "Point",
        "coordinates": [
          38.0575731,
          40.9677984
        ]
      },
      "properties": {
        "id": 13019621801,
        "osm_type": "node",
        "tourism": "camp_site"
      }
    },
    {
      "type": "Feature",
      "geometry": {
        "type": "Point",
        "coordinates": [
          37.9140906,
          40.9834804
        ]
      },
      "properties": {
        "id": 316526043,
        "osm_type": "way",
        "name": "Hampton by Hilton Ordu",
        "tourism": "hotel",
        "phone": "+90 452 250 11 00",
        "website": "https://www.hilton.com/en/hotels/qorhxhx-hampton-ordu/"
      }
    },
    {
      "type": "Feature",
      "geometry": {
        "type": "Point",
        "coordinates": [
          37.4823706,
          41.0490101
        ]
      },
      "properties": {
        "id": 330663197,
        "osm_type": "way",
        "tourism": "camp_site"
      }
    },
    {
      "type": "Feature",
      "geometry": {
        "type": "Point",
        "coordinates": [
          37.4846376,
          41.0476507
        ]
      },
      "properties": {
        "id": 330663198,
        "osm_type": "way",
        "tourism": "camp_site"
      }
    },
    {
      "type": "Feature",
      "geometry": {
        "type": "Point",
        "coordinates": [
          37.5644595,
          41.0267946
        ]
      },
      "properties": {
        "id": 557114967,
        "osm_type": "way",
        "name": "Yıldız Otel",
        "tourism": "hotel",
        "website": "http://www.yildizotel.net/"
      }
    },
    {
      "type": "Feature",
      "geometry": {
        "type": "Point",
        "coordinates": [
          37.2847582,
          41.1327042
        ]
      },
      "properties": {
        "id": 875601799,
        "osm_type": "way",
        "tourism": "hotel"
      }
    },
    {
      "type": "Feature",
      "geometry": {
        "type": "Point",
        "coordinates": [
          37.2694281,
          41.1435604
        ]
      },
      "properties": {
        "id": 921694830,
        "osm_type": "way",
        "name": "Ramada Resort By Wyndham",
        "tourism": "hotel"
      }
    },
    {
      "type": "Feature",
      "geometry": {
        "type": "Point",
        "coordinates": [
          37.2674756,
          41.1435592
        ]
      },
      "properties": {
        "id": 921694844,
        "osm_type": "way",
        "name": "Atik Otel",
        "tourism": "hotel"
      }
    },
    {
      "type": "Feature",
      "geometry": {
        "type": "Point",
        "coordinates": [
          37.2566913,
          41.1459921
        ]
      },
      "properties": {
        "id": 921728548,
        "osm_type": "way",
        "name": "Ünye Sahil Otel",
        "tourism": "hotel"
      }
    },
    {
      "type": "Feature",
      "geometry": {
        "type": "Point",
        "coordinates": [
          37.8222036,
          41.0217009
        ]
      },
      "properties": {
        "id": 1017615752,
        "osm_type": "way",
        "name": "Üçer Kamp Çadır",
        "tourism": "camp_site"
      }
    },
    {
      "type": "Feature",
      "geometry": {
        "type": "Point",
        "coordinates": [
          37.8221686,
          41.0216396
        ]
      },
      "properties": {
        "id": 1017615753,
        "osm_type": "way",
        "tourism": "camp_site"
      }
    },
    {
      "type": "Feature",
      "geometry": {
        "type": "Point",
        "coordinates": [
          37.8221406,
          41.0215831
        ]
      },
      "properties": {
        "id": 1017615754,
        "osm_type": "way",
        "tourism": "camp_site"
      }
    },
    {
      "type": "Feature",
      "geometry": {
        "type": "Point",
        "coordinates": [
          37.8221109,
          41.0215201
        ]
      },
      "properties": {
        "id": 1017615755,
        "osm_type": "way",
        "tourism": "camp_site"
      }
    },
    {
      "type": "Feature",
      "geometry": {
        "type": "Point",
        "coordinates": [
          37.8223701,
          41.0216992
        ]
      },
      "properties": {
        "id": 1017615756,
        "osm_type": "way",
        "tourism": "camp_site"
      }
    },
    {
      "type": "Feature",
      "geometry": {
        "type": "Point",
        "coordinates": [
          37.8224702,
          41.0216572
        ]
      },
      "properties": {
        "id": 1017615757,
        "osm_type": "way",
        "tourism": "camp_site"
      }
    },
    {
      "type": "Feature",
      "geometry": {
        "type": "Point",
        "coordinates": [
          37.8226018,
          41.0216126
        ]
      },
      "properties": {
        "id": 1017615758,
        "osm_type": "way",
        "tourism": "camp_site"
      }
    },
    {
      "type": "Feature",
      "geometry": {
        "type": "Point",
        "coordinates": [
          37.8225889,
          41.0215637
        ]
      },
      "properties": {
        "id": 1017615759,
        "osm_type": "way",
        "tourism": "camp_site"
      }
    },
    {
      "type": "Feature",
      "geometry": {
        "type": "Point",
        "coordinates": [
          37.8225577,
          41.0215252
        ]
      },
      "properties": {
        "id": 1017615760,
        "osm_type": "way",
        "tourism": "camp_site"
      }
    },
    {
      "type": "Feature",
      "geometry": {
        "type": "Point",
        "coordinates": [
          37.8225352,
          41.0214802
        ]
      },
      "properties": {
        "id": 1017615761,
        "osm_type": "way",
        "tourism": "camp_site"
      }
    },
    {
      "type": "Feature",
      "geometry": {
        "type": "Point",
        "coordinates": [
          37.8225071,
          41.0214309
        ]
      },
      "properties": {
        "id": 1017615762,
        "osm_type": "way",
        "tourism": "camp_site"
      }
    },
    {
      "type": "Feature",
      "geometry": {
        "type": "Point",
        "coordinates": [
          37.8224478,
          41.021329
        ]
      },
      "properties": {
        "id": 1017615763,
        "osm_type": "way",
        "tourism": "camp_site"
      }
    },
    {
      "type": "Feature",
      "geometry": {
        "type": "Point",
        "coordinates": [
          37.8224313,
          41.0212807
        ]
      },
      "properties": {
        "id": 1017615764,
        "osm_type": "way",
        "tourism": "camp_site"
      }
    },
    {
      "type": "Feature",
      "geometry": {
        "type": "Point",
        "coordinates": [
          37.8224063,
          41.0212268
        ]
      },
      "properties": {
        "id": 1017615765,
        "osm_type": "way",
        "tourism": "camp_site"
      }
    },
    {
      "type": "Feature",
      "geometry": {
        "type": "Point",
        "coordinates": [
          37.8223837,
          41.0211562
        ]
      },
      "properties": {
        "id": 1017615766,
        "osm_type": "way",
        "tourism": "camp_site"
      }
    },
    {
      "type": "Feature",
      "geometry": {
        "type": "Point",
        "coordinates": [
          37.8223,
          41.0213385
        ]
      },
      "properties": {
        "id": 1017615767,
        "osm_type": "way",
        "tourism": "camp_site"
      }
    },
    {
      "type": "Feature",
      "geometry": {
        "type": "Point",
        "coordinates": [
          37.8220667,
          41.0214365
        ]
      },
      "properties": {
        "id": 1017615768,
        "osm_type": "way",
        "tourism": "camp_site"
      }
    },
    {
      "type": "Feature",
      "geometry": {
        "type": "Point",
        "coordinates": [
          37.8222706,
          41.0214308
        ]
      },
      "properties": {
        "id": 1017615769,
        "osm_type": "way",
        "tourism": "camp_site"
      }
    },
    {
      "type": "Feature",
      "geometry": {
        "type": "Point",
        "coordinates": [
          37.8223153,
          41.0214922
        ]
      },
      "properties": {
        "id": 1017615770,
        "osm_type": "way",
        "tourism": "camp_site"
      }
    },
    {
      "type": "Feature",
      "geometry": {
        "type": "Point",
        "coordinates": [
          37.8225973,
          41.0218243
        ]
      },
      "properties": {
        "id": 1017615771,
        "osm_type": "way",
        "tourism": "camp_site"
      }
    },
    {
      "type": "Feature",
      "geometry": {
        "type": "Point",
        "coordinates": [
          37.8243009,
          41.0213896
        ]
      },
      "properties": {
        "id": 1017617099,
        "osm_type": "way",
        "name": "Layla Kamp Tent",
        "tourism": "camp_site"
      }
    },
    {
      "type": "Feature",
      "geometry": {
        "type": "Point",
        "coordinates": [
          37.8241444,
          41.0213535
        ]
      },
      "properties": {
        "id": 1017617100,
        "osm_type": "way",
        "tourism": "camp_site"
      }
    },
    {
      "type": "Feature",
      "geometry": {
        "type": "Point",
        "coordinates": [
          37.8242853,
          41.0213309
        ]
      },
      "properties": {
        "id": 1017617101,
        "osm_type": "way",
        "tourism": "camp_site"
      }
    },
    {
      "type": "Feature",
      "geometry": {
        "type": "Point",
        "coordinates": [
          37.8241414,
          41.0213022
        ]
      },
      "properties": {
        "id": 1017617102,
        "osm_type": "way",
        "tourism": "camp_site"
      }
    },
    {
      "type": "Feature",
      "geometry": {
        "type": "Point",
        "coordinates": [
          37.8242652,
          41.0212814
        ]
      },
      "properties": {
        "id": 1017617103,
        "osm_type": "way",
        "tourism": "camp_site"
      }
    },
    {
      "type": "Feature",
      "geometry": {
        "type": "Point",
        "coordinates": [
          37.8242482,
          41.021229
        ]
      },
      "properties": {
        "id": 1017617104,
        "osm_type": "way",
        "tourism": "camp_site"
      }
    },
    {
      "type": "Feature",
      "geometry": {
        "type": "Point",
        "coordinates": [
          37.8245168,
          41.0213762
        ]
      },
      "properties": {
        "id": 1017617105,
        "osm_type": "way",
        "tourism": "camp_site"
      }
    },
    {
      "type": "Feature",
      "geometry": {
        "type": "Point",
        "coordinates": [
          37.8246419,
          41.0213618
        ]
      },
      "properties": {
        "id": 1017617106,
        "osm_type": "way",
        "tourism": "camp_site"
      }
    },
    {
      "type": "Feature",
      "geometry": {
        "type": "Point",
        "coordinates": [
          37.8244983,
          41.0213241
        ]
      },
      "properties": {
        "id": 1017617107,
        "osm_type": "way",
        "tourism": "camp_site"
      }
    },
    {
      "type": "Feature",
      "geometry": {
        "type": "Point",
        "coordinates": [
          37.8246288,
          41.0213073
        ]
      },
      "properties": {
        "id": 1017617108,
        "osm_type": "way",
        "tourism": "camp_site"
      }
    },
    {
      "type": "Feature",
      "geometry": {
        "type": "Point",
        "coordinates": [
          37.8244855,
          41.0212806
        ]
      },
      "properties": {
        "id": 1017617109,
        "osm_type": "way",
        "tourism": "camp_site"
      }
    },
    {
      "type": "Feature",
      "geometry": {
        "type": "Point",
        "coordinates": [
          37.824611,
          41.0212559
        ]
      },
      "properties": {
        "id": 1017617110,
        "osm_type": "way",
        "tourism": "camp_site"
      }
    },
    {
      "type": "Feature",
      "geometry": {
        "type": "Point",
        "coordinates": [
          37.8245986,
          41.0212041
        ]
      },
      "properties": {
        "id": 1017617111,
        "osm_type": "way",
        "tourism": "camp_site"
      }
    },
    {
      "type": "Feature",
      "geometry": {
        "type": "Point",
        "coordinates": [
          37.824458,
          41.0211756
        ]
      },
      "properties": {
        "id": 1017617112,
        "osm_type": "way",
        "tourism": "camp_site"
      }
    },
    {
      "type": "Feature",
      "geometry": {
        "type": "Point",
        "coordinates": [
          37.8245858,
          41.0211556
        ]
      },
      "properties": {
        "id": 1017617113,
        "osm_type": "way",
        "tourism": "camp_site"
      }
    },
    {
      "type": "Feature",
      "geometry": {
        "type": "Point",
        "coordinates": [
          37.824578,
          41.0211142
        ]
      },
      "properties": {
        "id": 1017617114,
        "osm_type": "way",
        "tourism": "camp_site"
      }
    },
    {
      "type": "Feature",
      "geometry": {
        "type": "Point",
        "coordinates": [
          37.8242904,
          41.0211162
        ]
      },
      "properties": {
        "id": 1017617115,
        "osm_type": "way",
        "tourism": "camp_site"
      }
    },
    {
      "type": "Feature",
      "geometry": {
        "type": "Point",
        "coordinates": [
          37.8243717,
          41.0211013
        ]
      },
      "properties": {
        "id": 1017617116,
        "osm_type": "way",
        "tourism": "camp_site"
      }
    },
    {
      "type": "Feature",
      "geometry": {
        "type": "Point",
        "coordinates": [
          37.8248486,
          41.0213471
        ]
      },
      "properties": {
        "id": 1017617117,
        "osm_type": "way",
        "tourism": "camp_site"
      }
    },
    {
      "type": "Feature",
      "geometry": {
        "type": "Point",
        "coordinates": [
          37.8249776,
          41.0213215
        ]
      },
      "properties": {
        "id": 1017617118,
        "osm_type": "way",
        "tourism": "camp_site"
      }
    },
    {
      "type": "Feature",
      "geometry": {
        "type": "Point",
        "coordinates": [
          37.8248332,
          41.0212947
        ]
      },
      "properties": {
        "id": 1017617119,
        "osm_type": "way",
        "tourism": "camp_site"
      }
    },
    {
      "type": "Feature",
      "geometry": {
        "type": "Point",
        "coordinates": [
          37.8249626,
          41.0212677
        ]
      },
      "properties": {
        "id": 1017617120,
        "osm_type": "way",
        "tourism": "camp_site"
      }
    },
    {
      "type": "Feature",
      "geometry": {
        "type": "Point",
        "coordinates": [
          37.8248331,
          41.0212394
        ]
      },
      "properties": {
        "id": 1017617121,
        "osm_type": "way",
        "tourism": "camp_site"
      }
    },
    {
      "type": "Feature",
      "geometry": {
        "type": "Point",
        "coordinates": [
          37.8249498,
          41.0212159
        ]
      },
      "properties": {
        "id": 1017617122,
        "osm_type": "way",
        "tourism": "camp_site"
      }
    },
    {
      "type": "Feature",
      "geometry": {
        "type": "Point",
        "coordinates": [
          37.82481,
          41.021192
        ]
      },
      "properties": {
        "id": 1017617123,
        "osm_type": "way",
        "tourism": "camp_site"
      }
    },
    {
      "type": "Feature",
      "geometry": {
        "type": "Point",
        "coordinates": [
          37.824929,
          41.0211673
        ]
      },
      "properties": {
        "id": 1017617124,
        "osm_type": "way",
        "tourism": "camp_site"
      }
    },
    {
      "type": "Feature",
      "geometry": {
        "type": "Point",
        "coordinates": [
          37.8247935,
          41.0211473
        ]
      },
      "properties": {
        "id": 1017617125,
        "osm_type": "way",
        "tourism": "camp_site"
      }
    },
    {
      "type": "Feature",
      "geometry": {
        "type": "Point",
        "coordinates": [
          37.8249128,
          41.0211124
        ]
      },
      "properties": {
        "id": 1017617126,
        "osm_type": "way",
        "tourism": "camp_site"
      }
    },
    {
      "type": "Feature",
      "geometry": {
        "type": "Point",
        "coordinates": [
          37.8247774,
          41.0210986
        ]
      },
      "properties": {
        "id": 1017617127,
        "osm_type": "way",
        "tourism": "camp_site"
      }
    },
    {
      "type": "Feature",
      "geometry": {
        "type": "Point",
        "coordinates": [
          37.8248926,
          41.0210594
        ]
      },
      "properties": {
        "id": 1017617128,
        "osm_type": "way",
        "tourism": "camp_site"
      }
    },
    {
      "type": "Feature",
      "geometry": {
        "type": "Point",
        "coordinates": [
          37.82486,
          41.0210093
        ]
      },
      "properties": {
        "id": 1017617129,
        "osm_type": "way",
        "tourism": "camp_site"
      }
    },
    {
      "type": "Feature",
      "geometry": {
        "type": "Point",
        "coordinates": [
          37.8251931,
          41.0212868
        ]
      },
      "properties": {
        "id": 1017617130,
        "osm_type": "way",
        "tourism": "camp_site"
      }
    },
    {
      "type": "Feature",
      "geometry": {
        "type": "Point",
        "coordinates": [
          37.8251728,
          41.021232
        ]
      },
      "properties": {
        "id": 1017617131,
        "osm_type": "way",
        "tourism": "camp_site"
      }
    },
    {
      "type": "Feature",
      "geometry": {
        "type": "Point",
        "coordinates": [
          37.8251555,
          41.0211875
        ]
      },
      "properties": {
        "id": 1017617132,
        "osm_type": "way",
        "tourism": "camp_site"
      }
    },
    {
      "type": "Feature",
      "geometry": {
        "type": "Point",
        "coordinates": [
          37.8251379,
          41.021141
        ]
      },
      "properties": {
        "id": 1017617133,
        "osm_type": "way",
        "tourism": "camp_site"
      }
    },
    {
      "type": "Feature",
      "geometry": {
        "type": "Point",
        "coordinates": [
          37.8251218,
          41.0210942
        ]
      },
      "properties": {
        "id": 1017617134,
        "osm_type": "way",
        "tourism": "camp_site"
      }
    },
    {
      "type": "Feature",
      "geometry": {
        "type": "Point",
        "coordinates": [
          37.8250975,
          41.0210493
        ]
      },
      "properties": {
        "id": 1017617135,
        "osm_type": "way",
        "tourism": "camp_site"
      }
    },
    {
      "type": "Feature",
      "geometry": {
        "type": "Point",
        "coordinates": [
          37.8250963,
          41.0209957
        ]
      },
      "properties": {
        "id": 1017617136,
        "osm_type": "way",
        "tourism": "camp_site"
      }
    },
    {
      "type": "Feature",
      "geometry": {
        "type": "Point",
        "coordinates": [
          37.8250369,
          41.0209158
        ]
      },
      "properties": {
        "id": 1017617137,
        "osm_type": "way",
        "tourism": "camp_site"
      }
    },
    {
      "type": "Feature",
      "geometry": {
        "type": "Point",
        "coordinates": [
          37.6818287,
          41.127588
        ]
      },
      "properties": {
        "id": 1038858614,
        "osm_type": "way",
        "name": "Yason Blue",
        "tourism": "hotel",
        "phone": "+90 452 527 27 27",
        "website": "https://www.yasonbluehotel.com/"
      }
    },
    {
      "type": "Feature",
      "geometry": {
        "type": "Point",
        "coordinates": [
          37.8192866,
          41.0218532
        ]
      },
      "properties": {
        "id": 1091952104,
        "osm_type": "way",
        "tourism": "guest_house"
      }
    },
    {
      "type": "Feature",
      "geometry": {
        "type": "Point",
        "coordinates": [
          37.8192928,
          41.0219156
        ]
      },
      "properties": {
        "id": 1091952105,
        "osm_type": "way",
        "tourism": "guest_house"
      }
    },
    {
      "type": "Feature",
      "geometry": {
        "type": "Point",
        "coordinates": [
          37.8192986,
          41.0219779
        ]
      },
      "properties": {
        "id": 1091952106,
        "osm_type": "way",
        "tourism": "guest_house"
      }
    },
    {
      "type": "Feature",
      "geometry": {
        "type": "Point",
        "coordinates": [
          37.8193063,
          41.0220397
        ]
      },
      "properties": {
        "id": 1091952107,
        "osm_type": "way",
        "tourism": "guest_house"
      }
    },
    {
      "type": "Feature",
      "geometry": {
        "type": "Point",
        "coordinates": [
          37.819805,
          41.0217302
        ]
      },
      "properties": {
        "id": 1091952109,
        "osm_type": "way",
        "tourism": "guest_house"
      }
    },
    {
      "type": "Feature",
      "geometry": {
        "type": "Point",
        "coordinates": [
          37.8198431,
          41.0217858
        ]
      },
      "properties": {
        "id": 1091952110,
        "osm_type": "way",
        "tourism": "guest_house"
      }
    },
    {
      "type": "Feature",
      "geometry": {
        "type": "Point",
        "coordinates": [
          37.8198819,
          41.0218413
        ]
      },
      "properties": {
        "id": 1091952111,
        "osm_type": "way",
        "tourism": "guest_house"
      }
    },
    {
      "type": "Feature",
      "geometry": {
        "type": "Point",
        "coordinates": [
          37.8199183,
          41.0218965
        ]
      },
      "properties": {
        "id": 1091952112,
        "osm_type": "way",
        "tourism": "guest_house"
      }
    },
    {
      "type": "Feature",
      "geometry": {
        "type": "Point",
        "coordinates": [
          37.8194388,
          41.0221604
        ]
      },
      "properties": {
        "id": 1091952114,
        "osm_type": "way",
        "tourism": "guest_house"
      }
    },
    {
      "type": "Feature",
      "geometry": {
        "type": "Point",
        "coordinates": [
          37.8194451,
          41.0222227
        ]
      },
      "properties": {
        "id": 1091952115,
        "osm_type": "way",
        "tourism": "guest_house"
      }
    },
    {
      "type": "Feature",
      "geometry": {
        "type": "Point",
        "coordinates": [
          37.8194509,
          41.0222851
        ]
      },
      "properties": {
        "id": 1091952116,
        "osm_type": "way",
        "tourism": "guest_house"
      }
    },
    {
      "type": "Feature",
      "geometry": {
        "type": "Point",
        "coordinates": [
          37.8194586,
          41.0223469
        ]
      },
      "properties": {
        "id": 1091952117,
        "osm_type": "way",
        "tourism": "guest_house"
      }
    },
    {
      "type": "Feature",
      "geometry": {
        "type": "Point",
        "coordinates": [
          37.8199919,
          41.0221172
        ]
      },
      "properties": {
        "id": 1091952118,
        "osm_type": "way",
        "tourism": "guest_house"
      }
    },
    {
      "type": "Feature",
      "geometry": {
        "type": "Point",
        "coordinates": [
          37.8200283,
          41.0221724
        ]
      },
      "properties": {
        "id": 1091952119,
        "osm_type": "way",
        "tourism": "guest_house"
      }
    },
    {
      "type": "Feature",
      "geometry": {
        "type": "Point",
        "coordinates": [
          37.8199532,
          41.0220617
        ]
      },
      "properties": {
        "id": 1091952120,
        "osm_type": "way",
        "tourism": "guest_house"
      }
    },
    {
      "type": "Feature",
      "geometry": {
        "type": "Point",
        "coordinates": [
          37.8199151,
          41.0220063
        ]
      },
      "properties": {
        "id": 1091952121,
        "osm_type": "way",
        "tourism": "guest_house"
      }
    },
    {
      "type": "Feature",
      "geometry": {
        "type": "Point",
        "coordinates": [
          37.7075871,
          41.1110875
        ]
      },
      "properties": {
        "id": 1166283011,
        "osm_type": "way",
        "name": "Dr. Taflan Çiftlik Evi",
        "tourism": "guest_house"
      }
    },
    {
      "type": "Feature",
      "geometry": {
        "type": "Point",
        "coordinates": [
          37.7730166,
          41.0687108
        ]
      },
      "properties": {
        "id": 1184454253,
        "osm_type": "way",
        "name": "Dedeevi",
        "tourism": "hotel"
      }
    },
    {
      "type": "Feature",
      "geometry": {
        "type": "Point",
        "coordinates": [
          37.8574036,
          40.9886981
        ]
      },
      "properties": {
        "id": 1194299136,
        "osm_type": "way",
        "name": "Radisson Blue",
        "tourism": "hotel",
        "phone": "+904526666888",
        "website": "https://www.radissonhotels.com/tr-tr/oteller/radisson-blu-ordu?facilitatorId=RHGSEM&cid=a:ps+b:ggl+c:emea+i:brand+e:rdb+d:eerut+r:brt+f:tr-TR+g:ho+h:TRQOR1+v:cf&gclid=Cj0KCQjwoK2mBhDzARIsADGbjeqfpCvBykNj2PGTC2C26n9-w8BMLkY9f6gkTTgwYnTkKJvpJKwA5xcaAh-PEALw"
      }
    },
    {
      "type": "Feature",
      "geometry": {
        "type": "Point",
        "coordinates": [
          37.8758096,
          40.9962504
        ]
      },
      "properties": {
        "id": 1194309960,
        "osm_type": "way",
        "name": "Anemon Otel",
        "tourism": "hotel",
        "phone": "+90 452 213 15 74",
        "website": "https://anemonhotels.com/hotel/anemon-ordu/"
      }
    },
    {
      "type": "Feature",
      "geometry": {
        "type": "Point",
        "coordinates": [
          37.86998,
          41.0067128
        ]
      },
      "properties": {
        "id": 1194309962,
        "osm_type": "way",
        "name": "Balıktaşı Otel",
        "tourism": "hotel"
      }
    },
    {
      "type": "Feature",
      "geometry": {
        "type": "Point",
        "coordinates": [
          37.4999108,
          41.0307949
        ]
      },
      "properties": {
        "id": 1194675938,
        "osm_type": "way",
        "name": "Otel Yahşi",
        "tourism": "hotel"
      }
    },
    {
      "type": "Feature",
      "geometry": {
        "type": "Point",
        "coordinates": [
          37.7010946,
          41.1151421
        ]
      },
      "properties": {
        "id": 1194736392,
        "osm_type": "way",
        "tourism": "chalet"
      }
    },
    {
      "type": "Feature",
      "geometry": {
        "type": "Point",
        "coordinates": [
          37.7796592,
          41.0587781
        ]
      },
      "properties": {
        "id": 1195335179,
        "osm_type": "way",
        "name": "Anafor Oteli",
        "tourism": "hotel"
      }
    },
    {
      "type": "Feature",
      "geometry": {
        "type": "Point",
        "coordinates": [
          37.4764255,
          41.0573855
        ]
      },
      "properties": {
        "id": 1201898752,
        "osm_type": "way",
        "name": "Safir",
        "tourism": "hotel"
      }
    },
    {
      "type": "Feature",
      "geometry": {
        "type": "Point",
        "coordinates": [
          37.4786093,
          41.058424
        ]
      },
      "properties": {
        "id": 1201898753,
        "osm_type": "way",
        "tourism": "hotel"
      }
    },
    {
      "type": "Feature",
      "geometry": {
        "type": "Point",
        "coordinates": [
          37.5929239,
          41.0367488
        ]
      },
      "properties": {
        "id": 1258183196,
        "osm_type": "way",
        "tourism": "hotel"
      }
    },
    {
      "type": "Feature",
      "geometry": {
        "type": "Point",
        "coordinates": [
          37.9285664,
          40.7278222
        ]
      },
      "properties": {
        "id": 1344527853,
        "osm_type": "way",
        "tourism": "alpine_hut"
      }
    },
    {
      "type": "Feature",
      "geometry": {
        "type": "Point",
        "coordinates": [
          37.4784559,
          41.0216075
        ]
      },
      "properties": {
        "id": 1459055087,
        "osm_type": "way",
        "tourism": "hotel"
      }
    },
    {
      "type": "Feature",
      "geometry": {
        "type": "Point",
        "coordinates": [
          37.478753,
          41.0219859
        ]
      },
      "properties": {
        "id": 1459055089,
        "osm_type": "way",
        "tourism": "hotel"
      }
    },
    {
      "type": "Feature",
      "geometry": {
        "type": "Point",
        "coordinates": [
          37.4785451,
          41.0220664
        ]
      },
      "properties": {
        "id": 1459055090,
        "osm_type": "way",
        "tourism": "hotel"
      }
    },
    {
      "type": "Feature",
      "geometry": {
        "type": "Point",
        "coordinates": [
          37.4786992,
          41.0218625
        ]
      },
      "properties": {
        "id": 1459055091,
        "osm_type": "way",
        "tourism": "hotel"
      }
    }
  ]
}