{
  "type": "FeatureCollection",
  "features": [
    {
      "type": "Feature",
      "geometry": {
        "type": "Point",
        "coordinates": [
          25.6347315,
          43.3697987
        ]
      },
      "properties": {
        "id": 475563590,
        "osm_type": "node",
        "name": "Esperanto",
        "tourism": "hotel",
        "check_date": "2024-08-19"
      }
    },
    {
      "type": "Feature",
      "geometry": {
        "type": "Point",
        "coordinates": [
          25.6455324,
          43.1233101
        ]
      },
      "properties": {
        "id": 1925067603,
        "osm_type": "node",
        "name": "х. Божур",
        "tourism": "alpine_hut"
      }
    },
    {
      "type": "Feature",
      "geometry": {
        "type": "Point",
        "coordinates": [
          25.3540666,
          43.1338819
        ]
      },
      "properties": {
        "id": 1974848151,
        "osm_type": "node",
        "name": "Imenieto",
        "tourism": "guest_house"
      }
    },
    {
      "type": "Feature",
      "geometry": {
        "type": "Point",
        "coordinates": [
          25.9600263,
          42.7867158
        ]
      },
      "properties": {
        "id": 2114752510,
        "osm_type": "node",
        "name": "хижа Чумерна",
        "tourism": "alpine_hut"
      }
    },
    {
      "type": "Feature",
      "geometry": {
        "type": "Point",
        "coordinates": [
          25.7535624,
          43.0669381
        ]
      },
      "properties": {
        "id": 2351111485,
        "osm_type": "node",
        "name": "Camping Veliko Tarnovo",
        "tourism": "camp_site",
        "phone": "+359 619 42 777",
        "website": "https://www.campingvelikotarnovo.com/"
      }
    },
    {
      "type": "Feature",
      "geometry": {
        "type": "Point",
        "coordinates": [
          25.3148233,
          43.2419838
        ]
      },
      "properties": {
        "id": 2425316873,
        "osm_type": "node",
        "name": "Бора",
        "tourism": "hotel",
        "website": "http://www.parkhotel-bora.com/"
      }
    },
    {
      "type": "Feature",
      "geometry": {
        "type": "Point",
        "coordinates": [
          25.6206113,
          43.0462088
        ]
      },
      "properties": {
        "id": 2461037707,
        "osm_type": "node",
        "name": "Мейхип",
        "tourism": "hotel"
      }
    },
    {
      "type": "Feature",
      "geometry": {
        "type": "Point",
        "coordinates": [
          25.6393579,
          43.0849046
        ]
      },
      "properties": {
        "id": 2608845547,
        "osm_type": "node",
        "name": "Начевата Къща",
        "tourism": "guest_house",
        "website": "http://nachevata-kashta.noshtuvkivt.com/"
      }
    },
    {
      "type": "Feature",
      "geometry": {
        "type": "Point",
        "coordinates": [
          25.6389904,
          43.0839605
        ]
      },
      "properties": {
        "id": 2608860932,
        "osm_type": "node",
        "name": "Стамболов",
        "tourism": "hotel",
        "website": "http://hotel-stambolov.com/"
      }
    },
    {
      "type": "Feature",
      "geometry": {
        "type": "Point",
        "coordinates": [
          25.6296433,
          43.0824747
        ]
      },
      "properties": {
        "id": 2609483682,
        "osm_type": "node",
        "name": "Апартамент Зеленика",
        "tourism": "guest_house"
      }
    },
    {
      "type": "Feature",
      "geometry": {
        "type": "Point",
        "coordinates": [
          25.638625,
          43.0836936
        ]
      },
      "properties": {
        "id": 2610061082,
        "osm_type": "node",
        "name": "Стаи за гости Йоан Асен",
        "tourism": "guest_house",
        "website": "http://www.rooms-turnovo.com/",
        "check_date": "2025-06-19"
      }
    },
    {
      "type": "Feature",
      "geometry": {
        "type": "Point",
        "coordinates": [
          25.6399366,
          43.0829139
        ]
      },
      "properties": {
        "id": 2610085916,
        "osm_type": "node",
        "name": "Хостел Пашов",
        "tourism": "hostel",
        "website": "http://hostelpashov.com/"
      }
    },
    {
      "type": "Feature",
      "geometry": {
        "type": "Point",
        "coordinates": [
          25.6395691,
          43.0828983
        ]
      },
      "properties": {
        "id": 2610087033,
        "osm_type": "node",
        "name": "Ross Hostel",
        "tourism": "hostel",
        "website": "http://www.rosshostel.com/"
      }
    },
    {
      "type": "Feature",
      "geometry": {
        "type": "Point",
        "coordinates": [
          25.6429916,
          43.0818131
        ]
      },
      "properties": {
        "id": 2610155383,
        "osm_type": "node",
        "name": "Рашев",
        "tourism": "hotel",
        "website": "http://www.hotel-rashev.com/"
      }
    },
    {
      "type": "Feature",
      "geometry": {
        "type": "Point",
        "coordinates": [
          25.6449738,
          43.0813586
        ]
      },
      "properties": {
        "id": 2610163026,
        "osm_type": "node",
        "name": "Студио",
        "tourism": "hotel",
        "website": "http://studiohotel-vt.com/"
      }
    },
    {
      "type": "Feature",
      "geometry": {
        "type": "Point",
        "coordinates": [
          25.6443932,
          43.0806096
        ]
      },
      "properties": {
        "id": 2611682780,
        "osm_type": "node",
        "tourism": "hotel"
      }
    },
    {
      "type": "Feature",
      "geometry": {
        "type": "Point",
        "coordinates": [
          25.9395956,
          42.9124021
        ]
      },
      "properties": {
        "id": 2834700589,
        "osm_type": "node",
        "name": "Чонтовата къща",
        "tourism": "guest_house"
      }
    },
    {
      "type": "Feature",
      "geometry": {
        "type": "Point",
        "coordinates": [
          25.665768,
          43.098487
        ]
      },
      "properties": {
        "id": 3049005333,
        "osm_type": "node",
        "name": "Комплекс Извора",
        "tourism": "hotel",
        "opening_hours": "24/7",
        "phone": "+359 62 601 205",
        "website": "https://www.izvora.com/"
      }
    },
    {
      "type": "Feature",
      "geometry": {
        "type": "Point",
        "coordinates": [
          25.8876923,
          42.7894131
        ]
      },
      "properties": {
        "id": 3686084396,
        "osm_type": "node",
        "name": "хижа Буковец",
        "tourism": "alpine_hut"
      }
    },
    {
      "type": "Feature",
      "geometry": {
        "type": "Point",
        "coordinates": [
          25.6355367,
          43.0849319
        ]
      },
      "properties": {
        "id": 3739690554,
        "osm_type": "node",
        "name": "The House",
        "tourism": "hotel"
      }
    },
    {
      "type": "Feature",
      "geometry": {
        "type": "Point",
        "coordinates": [
          25.6335128,
          43.0837556
        ]
      },
      "properties": {
        "id": 3741800533,
        "osm_type": "node",
        "name": "Анхеа",
        "tourism": "hotel",
        "website": "https://anheabg.com/"
      }
    },
    {
      "type": "Feature",
      "geometry": {
        "type": "Point",
        "coordinates": [
          25.6353489,
          43.0848643
        ]
      },
      "properties": {
        "id": 3743375233,
        "osm_type": "node",
        "name": "Реал",
        "tourism": "hotel",
        "website": "http://hotelreal.eu/"
      }
    },
    {
      "type": "Feature",
      "geometry": {
        "type": "Point",
        "coordinates": [
          25.6333319,
          43.0811696
        ]
      },
      "properties": {
        "id": 3744675547,
        "osm_type": "node",
        "name": "City Hotel",
        "tourism": "hotel"
      }
    },
    {
      "type": "Feature",
      "geometry": {
        "type": "Point",
        "coordinates": [
          25.4993457,
          43.0874754
        ]
      },
      "properties": {
        "id": 3750991657,
        "osm_type": "node",
        "tourism": "hotel"
      }
    },
    {
      "type": "Feature",
      "geometry": {
        "type": "Point",
        "coordinates": [
          25.6149144,
          43.0797666
        ]
      },
      "properties": {
        "id": 3751006746,
        "osm_type": "node",
        "name": "Нептун",
        "tourism": "hotel"
      }
    },
    {
      "type": "Feature",
      "geometry": {
        "type": "Point",
        "coordinates": [
          25.6190528,
          43.078554
        ]
      },
      "properties": {
        "id": 3751006747,
        "osm_type": "node",
        "name": "Парк Хотел Ивайло",
        "tourism": "hotel",
        "phone": "+359 87 620 7902",
        "website": "https://park-hotel-ivailo.bg/"
      }
    },
    {
      "type": "Feature",
      "geometry": {
        "type": "Point",
        "coordinates": [
          25.6351365,
          42.8752407
        ]
      },
      "properties": {
        "id": 3832310100,
        "osm_type": "node",
        "name": "Релакс-кооп",
        "tourism": "hotel"
      }
    },
    {
      "type": "Feature",
      "geometry": {
        "type": "Point",
        "coordinates": [
          25.6381534,
          42.8762987
        ]
      },
      "properties": {
        "id": 3832446988,
        "osm_type": "node",
        "tourism": "hotel"
      }
    },
    {
      "type": "Feature",
      "geometry": {
        "type": "Point",
        "coordinates": [
          25.6403193,
          42.8777771
        ]
      },
      "properties": {
        "id": 3832447014,
        "osm_type": "node",
        "tourism": "hotel"
      }
    },
    {
      "type": "Feature",
      "geometry": {
        "type": "Point",
        "coordinates": [
          25.6386326,
          42.8782262
        ]
      },
      "properties": {
        "id": 3832447028,
        "osm_type": "node",
        "tourism": "hotel"
      }
    },
    {
      "type": "Feature",
      "geometry": {
        "type": "Point",
        "coordinates": [
          25.6372043,
          42.8788795
        ]
      },
      "properties": {
        "id": 3832447044,
        "osm_type": "node",
        "tourism": "hotel"
      }
    },
    {
      "type": "Feature",
      "geometry": {
        "type": "Point",
        "coordinates": [
          25.6404728,
          42.8792882
        ]
      },
      "properties": {
        "id": 3832447054,
        "osm_type": "node",
        "tourism": "hotel"
      }
    },
    {
      "type": "Feature",
      "geometry": {
        "type": "Point",
        "coordinates": [
          25.6341738,
          42.873165
        ]
      },
      "properties": {
        "id": 3832447090,
        "osm_type": "node",
        "name": "Газстрой",
        "tourism": "hotel"
      }
    },
    {
      "type": "Feature",
      "geometry": {
        "type": "Point",
        "coordinates": [
          25.6453233,
          43.080918
        ]
      },
      "properties": {
        "id": 3858913971,
        "osm_type": "node",
        "name": "Бутиков Хотел Царевец",
        "tourism": "hotel",
        "phone": "+359 62 601 885;+359 62 601 886;+359 88 646 2626",
        "website": "http://www.hoteltsarevets.com/"
      }
    },
    {
      "type": "Feature",
      "geometry": {
        "type": "Point",
        "coordinates": [
          25.7410371,
          42.9184891
        ]
      },
      "properties": {
        "id": 3983825031,
        "osm_type": "node",
        "name": "Хотелски Комплекс Еленски Ритон",
        "tourism": "hotel"
      }
    },
    {
      "type": "Feature",
      "geometry": {
        "type": "Point",
        "coordinates": [
          25.6632368,
          43.0968438
        ]
      },
      "properties": {
        "id": 4102256619,
        "osm_type": "node",
        "name": "Парк хотел Севастократор Арбанаси",
        "tourism": "hotel",
        "phone": "+359 62 655 553;+359 88 586 9961",
        "website": "https://sevastokrator.com/"
      }
    },
    {
      "type": "Feature",
      "geometry": {
        "type": "Point",
        "coordinates": [
          25.640119,
          43.0862792
        ]
      },
      "properties": {
        "id": 4215292290,
        "osm_type": "node",
        "name": "Hiker's Hostel",
        "tourism": "hostel",
        "contact:phone": "+359 88 969 1661",
        "website": "https://www.hikers-hostel.org/vt/"
      }
    },
    {
      "type": "Feature",
      "geometry": {
        "type": "Point",
        "coordinates": [
          25.6214901,
          42.9661524
        ]
      },
      "properties": {
        "id": 4245427390,
        "osm_type": "node",
        "name": "Villa Kalin",
        "tourism": "guest_house",
        "phone": "+359 89 672 2746",
        "website": "https://www.villa-kalin.com/"
      }
    },
    {
      "type": "Feature",
      "geometry": {
        "type": "Point",
        "coordinates": [
          25.6626078,
          43.0971978
        ]
      },
      "properties": {
        "id": 4253995490,
        "osm_type": "node",
        "name": "Елена",
        "tourism": "hotel",
        "phone": "+359 62 650 101",
        "website": "http://www.hotelelena.info/"
      }
    },
    {
      "type": "Feature",
      "geometry": {
        "type": "Point",
        "coordinates": [
          25.8957845,
          42.9693677
        ]
      },
      "properties": {
        "id": 4323719991,
        "osm_type": "node",
        "name": "Боаза",
        "tourism": "hotel"
      }
    },
    {
      "type": "Feature",
      "geometry": {
        "type": "Point",
        "coordinates": [
          25.6337393,
          43.0792635
        ]
      },
      "properties": {
        "id": 4397824175,
        "osm_type": "node",
        "name": "Квартира Наш Дом",
        "tourism": "hotel"
      }
    },
    {
      "type": "Feature",
      "geometry": {
        "type": "Point",
        "coordinates": [
          25.6646639,
          43.0952445
        ]
      },
      "properties": {
        "id": 4546760297,
        "osm_type": "node",
        "name": "Парк Хотел Арбанаси & Спа",
        "tourism": "hotel",
        "opening_hours": "24/7",
        "website": "https://www.booking.com/hotel/bg/park-arbanassi.bg.html"
      }
    },
    {
      "type": "Feature",
      "geometry": {
        "type": "Point",
        "coordinates": [
          25.6726763,
          43.0836028
        ]
      },
      "properties": {
        "id": 4779902039,
        "osm_type": "node",
        "name": "Ксилифор",
        "tourism": "alpine_hut"
      }
    },
    {
      "type": "Feature",
      "geometry": {
        "type": "Point",
        "coordinates": [
          25.7469615,
          42.9759967
        ]
      },
      "properties": {
        "id": 4937546953,
        "osm_type": "node",
        "name": "Къмпинг \"Къпиновски манастир\"",
        "tourism": "camp_site",
        "phone": "+359 88 448 5454",
        "website": "https://www.kapinovski.bg/"
      }
    },
    {
      "type": "Feature",
      "geometry": {
        "type": "Point",
        "coordinates": [
          25.6285782,
          43.081038
        ]
      },
      "properties": {
        "id": 4946627366,
        "osm_type": "node",
        "name": "Agusta",
        "tourism": "hotel",
        "website": "http://hotel-agusta-vt.com"
      }
    },
    {
      "type": "Feature",
      "geometry": {
        "type": "Point",
        "coordinates": [
          25.8758696,
          42.9303128
        ]
      },
      "properties": {
        "id": 4975219179,
        "osm_type": "node",
        "name": "Комплекс Николовата къща",
        "tourism": "hotel"
      }
    },
    {
      "type": "Feature",
      "geometry": {
        "type": "Point",
        "coordinates": [
          25.8795914,
          42.9405608
        ]
      },
      "properties": {
        "id": 4975280402,
        "osm_type": "node",
        "tourism": "hotel"
      }
    },
    {
      "type": "Feature",
      "geometry": {
        "type": "Point",
        "coordinates": [
          25.8827638,
          43.0864761
        ]
      },
      "properties": {
        "id": 4993172223,
        "osm_type": "node",
        "name": "велика гледка",
        "tourism": "guest_house"
      }
    },
    {
      "type": "Feature",
      "geometry": {
        "type": "Point",
        "coordinates": [
          25.9976784,
          42.8878351
        ]
      },
      "properties": {
        "id": 5475327191,
        "osm_type": "node",
        "name": "Катрафилова къща",
        "tourism": "guest_house",
        "phone": "+359 88 466 6439",
        "website": "https://katrafilovatakushta.eu/"
      }
    },
    {
      "type": "Feature",
      "geometry": {
        "type": "Point",
        "coordinates": [
          25.750784,
          42.9280589
        ]
      },
      "properties": {
        "id": 5513073492,
        "osm_type": "node",
        "name": "Раювски Хан",
        "tourism": "guest_house",
        "phone": "+359 88 740 4043",
        "website": "https://rayuvskihan.com/"
      }
    },
    {
      "type": "Feature",
      "geometry": {
        "type": "Point",
        "coordinates": [
          25.6397926,
          43.2655291
        ]
      },
      "properties": {
        "id": 5782168112,
        "osm_type": "node",
        "name": "Guest House Kutsina",
        "tourism": "guest_house",
        "phone": "+359 87 696 6902"
      }
    },
    {
      "type": "Feature",
      "geometry": {
        "type": "Point",
        "coordinates": [
          25.6119617,
          43.1378001
        ]
      },
      "properties": {
        "id": 5782169968,
        "osm_type": "node",
        "name": "Family Guest House",
        "tourism": "hotel",
        "phone": "+359 88 859 5119"
      }
    },
    {
      "type": "Feature",
      "geometry": {
        "type": "Point",
        "coordinates": [
          25.7422167,
          43.0350663
        ]
      },
      "properties": {
        "id": 6438866047,
        "osm_type": "node",
        "name": "White House",
        "tourism": "guest_house"
      }
    },
    {
      "type": "Feature",
      "geometry": {
        "type": "Point",
        "coordinates": [
          25.7048643,
          43.0961219
        ]
      },
      "properties": {
        "id": 6438893963,
        "osm_type": "node",
        "name": "Ваканционно селище \"Манастира\"",
        "tourism": "hotel"
      }
    },
    {
      "type": "Feature",
      "geometry": {
        "type": "Point",
        "coordinates": [
          25.4747952,
          43.612359
        ]
      },
      "properties": {
        "id": 6576760692,
        "osm_type": "node",
        "name": "Old Catfish",
        "tourism": "chalet"
      }
    },
    {
      "type": "Feature",
      "geometry": {
        "type": "Point",
        "coordinates": [
          25.5638132,
          43.2717123
        ]
      },
      "properties": {
        "id": 6594499304,
        "osm_type": "node",
        "name": "Sunflower Guest House",
        "tourism": "guest_house",
        "phone": "+359"
      }
    },
    {
      "type": "Feature",
      "geometry": {
        "type": "Point",
        "coordinates": [
          25.6409151,
          43.0818153
        ]
      },
      "properties": {
        "id": 6935046086,
        "osm_type": "node",
        "name": "Hi Story Inn",
        "tourism": "guest_house"
      }
    },
    {
      "type": "Feature",
      "geometry": {
        "type": "Point",
        "coordinates": [
          25.6375096,
          43.0846244
        ]
      },
      "properties": {
        "id": 6936486986,
        "osm_type": "node",
        "name": "Bolyarski",
        "tourism": "hotel",
        "check_date": "2024-09-03"
      }
    },
    {
      "type": "Feature",
      "geometry": {
        "type": "Point",
        "coordinates": [
          25.6188826,
          43.0755458
        ]
      },
      "properties": {
        "id": 6946468686,
        "osm_type": "node",
        "name": "Квартира",
        "tourism": "apartment"
      }
    },
    {
      "type": "Feature",
      "geometry": {
        "type": "Point",
        "coordinates": [
          26.0101123,
          42.9191148
        ]
      },
      "properties": {
        "id": 7261743103,
        "osm_type": "node",
        "name": "Вила Чевермето",
        "tourism": "guest_house"
      }
    },
    {
      "type": "Feature",
      "geometry": {
        "type": "Point",
        "coordinates": [
          25.3532134,
          43.1340599
        ]
      },
      "properties": {
        "id": 7904266154,
        "osm_type": "node",
        "name": "Нигованка",
        "tourism": "guest_house"
      }
    },
    {
      "type": "Feature",
      "geometry": {
        "type": "Point",
        "coordinates": [
          25.6766106,
          42.8804205
        ]
      },
      "properties": {
        "id": 7958594170,
        "osm_type": "node",
        "name": "Арония",
        "tourism": "guest_house"
      }
    },
    {
      "type": "Feature",
      "geometry": {
        "type": "Point",
        "coordinates": [
          25.6711339,
          43.0958017
        ]
      },
      "properties": {
        "id": 9673897256,
        "osm_type": "node",
        "name": "Арбанашка среща",
        "tourism": "hotel"
      }
    },
    {
      "type": "Feature",
      "geometry": {
        "type": "Point",
        "coordinates": [
          25.6689611,
          43.0977558
        ]
      },
      "properties": {
        "id": 9673897259,
        "osm_type": "node",
        "name": "Елеганс",
        "tourism": "hotel"
      }
    },
    {
      "type": "Feature",
      "geometry": {
        "type": "Point",
        "coordinates": [
          25.6687299,
          43.0977882
        ]
      },
      "properties": {
        "id": 9673897260,
        "osm_type": "node",
        "name": "при Чакъра",
        "tourism": "hotel"
      }
    },
    {
      "type": "Feature",
      "geometry": {
        "type": "Point",
        "coordinates": [
          25.6828842,
          43.1283584
        ]
      },
      "properties": {
        "id": 9963132738,
        "osm_type": "node",
        "tourism": "hotel"
      }
    },
    {
      "type": "Feature",
      "geometry": {
        "type": "Point",
        "coordinates": [
          25.6692128,
          43.0980249
        ]
      },
      "properties": {
        "id": 10118427098,
        "osm_type": "node",
        "tourism": "hotel"
      }
    },
    {
      "type": "Feature",
      "geometry": {
        "type": "Point",
        "coordinates": [
          25.661793,
          43.0967148
        ]
      },
      "properties": {
        "id": 10118504846,
        "osm_type": "node",
        "name": "Sevastokrator Hotel",
        "tourism": "hotel"
      }
    },
    {
      "type": "Feature",
      "geometry": {
        "type": "Point",
        "coordinates": [
          25.8738814,
          42.8776248
        ]
      },
      "properties": {
        "id": 10293109639,
        "osm_type": "node",
        "name": "Сбъдната мечта",
        "tourism": "guest_house"
      }
    },
    {
      "type": "Feature",
      "geometry": {
        "type": "Point",
        "coordinates": [
          25.9828916,
          42.9176004
        ]
      },
      "properties": {
        "id": 10293109640,
        "osm_type": "node",
        "name": "Герасимови",
        "tourism": "guest_house"
      }
    },
    {
      "type": "Feature",
      "geometry": {
        "type": "Point",
        "coordinates": [
          25.8776045,
          42.9006823
        ]
      },
      "properties": {
        "id": 10293109642,
        "osm_type": "node",
        "name": "Сирма",
        "tourism": "guest_house"
      }
    },
    {
      "type": "Feature",
      "geometry": {
        "type": "Point",
        "coordinates": [
          25.8565597,
          42.904363
        ]
      },
      "properties": {
        "id": 10293117460,
        "osm_type": "node",
        "name": "Самикан",
        "tourism": "guest_house"
      }
    },
    {
      "type": "Feature",
      "geometry": {
        "type": "Point",
        "coordinates": [
          25.9368078,
          42.8473997
        ]
      },
      "properties": {
        "id": 10293121190,
        "osm_type": "node",
        "name": "Детелина",
        "tourism": "guest_house"
      }
    },
    {
      "type": "Feature",
      "geometry": {
        "type": "Point",
        "coordinates": [
          25.7494762,
          42.9830518
        ]
      },
      "properties": {
        "id": 10293121356,
        "osm_type": "node",
        "name": "Марина",
        "tourism": "guest_house"
      }
    },
    {
      "type": "Feature",
      "geometry": {
        "type": "Point",
        "coordinates": [
          25.9456123,
          42.8488609
        ]
      },
      "properties": {
        "id": 10293121357,
        "osm_type": "node",
        "name": "Бялата къща",
        "tourism": "guest_house"
      }
    },
    {
      "type": "Feature",
      "geometry": {
        "type": "Point",
        "coordinates": [
          25.9378637,
          42.910705
        ]
      },
      "properties": {
        "id": 10293121359,
        "osm_type": "node",
        "name": "Дядовата къща",
        "tourism": "guest_house"
      }
    },
    {
      "type": "Feature",
      "geometry": {
        "type": "Point",
        "coordinates": [
          25.6693971,
          42.8798131
        ]
      },
      "properties": {
        "id": 10293131230,
        "osm_type": "node",
        "name": "Залеза и Зората",
        "tourism": "guest_house"
      }
    },
    {
      "type": "Feature",
      "geometry": {
        "type": "Point",
        "coordinates": [
          25.9179061,
          42.9193362
        ]
      },
      "properties": {
        "id": 10293134228,
        "osm_type": "node",
        "name": "Мимона",
        "tourism": "guest_house"
      }
    },
    {
      "type": "Feature",
      "geometry": {
        "type": "Point",
        "coordinates": [
          25.9455384,
          42.8491338
        ]
      },
      "properties": {
        "id": 10293137473,
        "osm_type": "node",
        "name": "Захарската къща",
        "tourism": "guest_house"
      }
    },
    {
      "type": "Feature",
      "geometry": {
        "type": "Point",
        "coordinates": [
          26.0004347,
          42.9156544
        ]
      },
      "properties": {
        "id": 10293137474,
        "osm_type": "node",
        "name": "Вила Панорама",
        "tourism": "guest_house"
      }
    },
    {
      "type": "Feature",
      "geometry": {
        "type": "Point",
        "coordinates": [
          25.8772945,
          42.941392
        ]
      },
      "properties": {
        "id": 10293138073,
        "osm_type": "node",
        "name": "Чукани",
        "tourism": "guest_house"
      }
    },
    {
      "type": "Feature",
      "geometry": {
        "type": "Point",
        "coordinates": [
          25.941244,
          42.8477749
        ]
      },
      "properties": {
        "id": 10293138300,
        "osm_type": "node",
        "name": "Костови",
        "tourism": "guest_house"
      }
    },
    {
      "type": "Feature",
      "geometry": {
        "type": "Point",
        "coordinates": [
          25.9841151,
          42.9160748
        ]
      },
      "properties": {
        "id": 10293139096,
        "osm_type": "node",
        "name": "Съни",
        "tourism": "guest_house"
      }
    },
    {
      "type": "Feature",
      "geometry": {
        "type": "Point",
        "coordinates": [
          25.8570212,
          42.9081886
        ]
      },
      "properties": {
        "id": 10293139727,
        "osm_type": "node",
        "name": "Машко",
        "tourism": "guest_house"
      }
    },
    {
      "type": "Feature",
      "geometry": {
        "type": "Point",
        "coordinates": [
          25.844519,
          42.9430788
        ]
      },
      "properties": {
        "id": 10293144079,
        "osm_type": "node",
        "name": "Слънчевата къща",
        "tourism": "guest_house"
      }
    },
    {
      "type": "Feature",
      "geometry": {
        "type": "Point",
        "coordinates": [
          25.9466742,
          42.8475492
        ]
      },
      "properties": {
        "id": 10293144116,
        "osm_type": "node",
        "name": "Турлата",
        "tourism": "guest_house"
      }
    },
    {
      "type": "Feature",
      "geometry": {
        "type": "Point",
        "coordinates": [
          25.9846202,
          42.9160077
        ]
      },
      "properties": {
        "id": 10293144118,
        "osm_type": "node",
        "name": "Пашовата къща",
        "tourism": "guest_house"
      }
    },
    {
      "type": "Feature",
      "geometry": {
        "type": "Point",
        "coordinates": [
          25.8770237,
          42.9416383
        ]
      },
      "properties": {
        "id": 10293147913,
        "osm_type": "node",
        "name": "Св. Георги",
        "tourism": "hotel"
      }
    },
    {
      "type": "Feature",
      "geometry": {
        "type": "Point",
        "coordinates": [
          25.877882,
          42.9297793
        ]
      },
      "properties": {
        "id": 10293149591,
        "osm_type": "node",
        "name": "Стефани",
        "tourism": "guest_house"
      }
    },
    {
      "type": "Feature",
      "geometry": {
        "type": "Point",
        "coordinates": [
          25.8342559,
          42.9462673
        ]
      },
      "properties": {
        "id": 10293149592,
        "osm_type": "node",
        "name": "Български рай",
        "tourism": "guest_house"
      }
    },
    {
      "type": "Feature",
      "geometry": {
        "type": "Point",
        "coordinates": [
          25.6382307,
          43.0848162
        ]
      },
      "properties": {
        "id": 11119237975,
        "osm_type": "node",
        "name": "Rooster Hostel",
        "tourism": "hostel",
        "check_date": "2023-08-16"
      }
    },
    {
      "type": "Feature",
      "geometry": {
        "type": "Point",
        "coordinates": [
          25.68779,
          43.1237489
        ]
      },
      "properties": {
        "id": 11145969705,
        "osm_type": "node",
        "tourism": "apartment"
      }
    },
    {
      "type": "Feature",
      "geometry": {
        "type": "Point",
        "coordinates": [
          25.7505162,
          42.9304146
        ]
      },
      "properties": {
        "id": 11930229508,
        "osm_type": "node",
        "name": "Къща за гости \"Душкова къща\"",
        "tourism": "hostel"
      }
    },
    {
      "type": "Feature",
      "geometry": {
        "type": "Point",
        "coordinates": [
          25.7445516,
          42.9309
        ]
      },
      "properties": {
        "id": 11930229509,
        "osm_type": "node",
        "name": "Къща за гости \"Хармония\"",
        "tourism": "hostel",
        "phone": "+359878108442"
      }
    },
    {
      "type": "Feature",
      "geometry": {
        "type": "Point",
        "coordinates": [
          25.74455,
          42.9306178
        ]
      },
      "properties": {
        "id": 11930229510,
        "osm_type": "node",
        "name": "Къща за гости \"Раювски Чифлик\"",
        "tourism": "hostel",
        "phone": "+359878800637",
        "website": "https://pochivka.bg/kashta-rayuvski-chiflik-o20586"
      }
    },
    {
      "type": "Feature",
      "geometry": {
        "type": "Point",
        "coordinates": [
          25.7399476,
          42.9203166
        ]
      },
      "properties": {
        "id": 12141966982,
        "osm_type": "node",
        "name": "Любомировата къща",
        "tourism": "guest_house",
        "contact:phone": "+359 876 332 722",
        "website": "https://lubo-holiday.com/"
      }
    },
    {
      "type": "Feature",
      "geometry": {
        "type": "Point",
        "coordinates": [
          25.6127662,
          43.0809419
        ]
      },
      "properties": {
        "id": 12149770309,
        "osm_type": "node",
        "name": "Стаи за гости \"Натали\"",
        "tourism": "hotel",
        "phone": "+359 88 872 6934",
        "check_date": "2024-11-15"
      }
    },
    {
      "type": "Feature",
      "geometry": {
        "type": "Point",
        "coordinates": [
          25.5984752,
          43.0788315
        ]
      },
      "properties": {
        "id": 12155311602,
        "osm_type": "node",
        "name": "Sky",
        "tourism": "hotel"
      }
    },
    {
      "type": "Feature",
      "geometry": {
        "type": "Point",
        "coordinates": [
          25.8230438,
          42.9405868
        ]
      },
      "properties": {
        "id": 12400064701,
        "osm_type": "node",
        "name": "Български рай 2",
        "tourism": "guest_house",
        "phone": "+359876940093",
        "website": "https://www.bulgarianparadise.com/"
      }
    },
    {
      "type": "Feature",
      "geometry": {
        "type": "Point",
        "coordinates": [
          25.6142072,
          43.0667947
        ]
      },
      "properties": {
        "id": 13202015401,
        "osm_type": "node",
        "name": "Комплекс Болгар",
        "tourism": "hotel",
        "website": "https://bolgarcapital.com/noshtuvki-turnovo/"
      }
    },
    {
      "type": "Feature",
      "geometry": {
        "type": "Point",
        "coordinates": [
          25.7286678,
          42.9101921
        ]
      },
      "properties": {
        "id": 13423549441,
        "osm_type": "node",
        "name": "Мераклийската къща",
        "tourism": "hotel"
      }
    },
    {
      "type": "Feature",
      "geometry": {
        "type": "Point",
        "coordinates": [
          25.9600071,
          42.7867866
        ]
      },
      "properties": {
        "id": 193251023,
        "osm_type": "way",
        "name": "xижа \"Чумерна\"",
        "tourism": "guest_house",
        "contact:phone": "+359 89 669 3169"
      }
    },
    {
      "type": "Feature",
      "geometry": {
        "type": "Point",
        "coordinates": [
          25.9036174,
          42.7894949
        ]
      },
      "properties": {
        "id": 193251033,
        "osm_type": "way",
        "name": "хижа Горски дом Твърдица",
        "tourism": "alpine_hut"
      }
    },
    {
      "type": "Feature",
      "geometry": {
        "type": "Point",
        "coordinates": [
          25.6276141,
          43.0820607
        ]
      },
      "properties": {
        "id": 221756188,
        "osm_type": "way",
        "name": "Зеленка",
        "tourism": "hotel",
        "website": "https://www.hotelzelenka.com/"
      }
    },
    {
      "type": "Feature",
      "geometry": {
        "type": "Point",
        "coordinates": [
          25.6290755,
          43.0809191
        ]
      },
      "properties": {
        "id": 221853819,
        "osm_type": "way",
        "name": "Конкорд",
        "tourism": "hotel",
        "website": "http://hotel-concorde-vt.com/"
      }
    },
    {
      "type": "Feature",
      "geometry": {
        "type": "Point",
        "coordinates": [
          25.6311347,
          43.0826247
        ]
      },
      "properties": {
        "id": 221875190,
        "osm_type": "way",
        "name": "Guest House Priyateli Приятели",
        "tourism": "hotel"
      }
    },
    {
      "type": "Feature",
      "geometry": {
        "type": "Point",
        "coordinates": [
          25.6327276,
          43.0837619
        ]
      },
      "properties": {
        "id": 221881263,
        "osm_type": "way",
        "name": "Премиер",
        "tourism": "hotel",
        "website": "https://www.hotelpremier-bg.com/"
      }
    },
    {
      "type": "Feature",
      "geometry": {
        "type": "Point",
        "coordinates": [
          25.6338137,
          43.0845257
        ]
      },
      "properties": {
        "id": 221894227,
        "osm_type": "way",
        "name": "Къща Гурков",
        "tourism": "guest_house",
        "phone": "+359 89 927 5077"
      }
    },
    {
      "type": "Feature",
      "geometry": {
        "type": "Point",
        "coordinates": [
          25.6368085,
          43.0851996
        ]
      },
      "properties": {
        "id": 221952842,
        "osm_type": "way",
        "name": "Ивановата къща",
        "tourism": "guest_house",
        "website": "http://ivanovata-kashta.com/"
      }
    },
    {
      "type": "Feature",
      "geometry": {
        "type": "Point",
        "coordinates": [
          25.6369284,
          43.0852129
        ]
      },
      "properties": {
        "id": 221971600,
        "osm_type": "way",
        "name": "Варуша",
        "tourism": "hotel",
        "website": "http://hotelvarusha.com"
      }
    },
    {
      "type": "Feature",
      "geometry": {
        "type": "Point",
        "coordinates": [
          25.6397272,
          43.0846463
        ]
      },
      "properties": {
        "id": 221976066,
        "osm_type": "way",
        "name": "Славянска душа",
        "tourism": "hotel",
        "website": "https://slavianska-dusha.com/"
      }
    },
    {
      "type": "Feature",
      "geometry": {
        "type": "Point",
        "coordinates": [
          25.6400163,
          43.0851612
        ]
      },
      "properties": {
        "id": 221976693,
        "osm_type": "way",
        "name": "Двете кукли",
        "tourism": "guest_house",
        "website": "http://dvete-kukli.com/"
      }
    },
    {
      "type": "Feature",
      "geometry": {
        "type": "Point",
        "coordinates": [
          25.640047,
          43.0848364
        ]
      },
      "properties": {
        "id": 221976719,
        "osm_type": "way",
        "name": "Xотел Бела Неда",
        "tourism": "hotel",
        "website": "http://belaneda.com/"
      }
    },
    {
      "type": "Feature",
      "geometry": {
        "type": "Point",
        "coordinates": [
          25.6409102,
          43.0834203
        ]
      },
      "properties": {
        "id": 221998355,
        "osm_type": "way",
        "name": "Гранд Хотел Янтра",
        "tourism": "hotel",
        "website": "https://yantrabg.com/"
      }
    },
    {
      "type": "Feature",
      "geometry": {
        "type": "Point",
        "coordinates": [
          25.6404335,
          43.0851888
        ]
      },
      "properties": {
        "id": 222088671,
        "osm_type": "way",
        "name": "Комфорт",
        "tourism": "hotel",
        "website": "https://hotelcomfortbg.com/"
      }
    },
    {
      "type": "Feature",
      "geometry": {
        "type": "Point",
        "coordinates": [
          25.6421793,
          43.0821974
        ]
      },
      "properties": {
        "id": 222090600,
        "osm_type": "way",
        "name": "Лъки",
        "tourism": "hotel",
        "website": "https://www.hotel-lucky.com/"
      }
    },
    {
      "type": "Feature",
      "geometry": {
        "type": "Point",
        "coordinates": [
          25.6432855,
          43.0808715
        ]
      },
      "properties": {
        "id": 222098748,
        "osm_type": "way",
        "name": "Малкия Интер",
        "tourism": "hotel"
      }
    },
    {
      "type": "Feature",
      "geometry": {
        "type": "Point",
        "coordinates": [
          25.6434256,
          43.0804151
        ]
      },
      "properties": {
        "id": 222113184,
        "osm_type": "way",
        "name": "Бейската къща",
        "tourism": "hotel"
      }
    },
    {
      "type": "Feature",
      "geometry": {
        "type": "Point",
        "coordinates": [
          25.6434417,
          43.0802319
        ]
      },
      "properties": {
        "id": 222113202,
        "osm_type": "way",
        "name": "Силвестър",
        "tourism": "hotel",
        "website": "http://www.fhsilvestar.com/"
      }
    },
    {
      "type": "Feature",
      "geometry": {
        "type": "Point",
        "coordinates": [
          25.641936,
          43.0813907
        ]
      },
      "properties": {
        "id": 222113821,
        "osm_type": "way",
        "name": "Боляри",
        "tourism": "hotel",
        "website": "https://boliarihotel.com/"
      }
    },
    {
      "type": "Feature",
      "geometry": {
        "type": "Point",
        "coordinates": [
          25.6450123,
          43.0798123
        ]
      },
      "properties": {
        "id": 222128890,
        "osm_type": "way",
        "name": "Hostel Mostel",
        "tourism": "hostel",
        "website": "http://www.hostelmostel.com"
      }
    },
    {
      "type": "Feature",
      "geometry": {
        "type": "Point",
        "coordinates": [
          25.6414415,
          43.0804523
        ]
      },
      "properties": {
        "id": 222145848,
        "osm_type": "way",
        "name": "Free Walker Home",
        "tourism": "guest_house"
      }
    },
    {
      "type": "Feature",
      "geometry": {
        "type": "Point",
        "coordinates": [
          25.6417709,
          43.0818263
        ]
      },
      "properties": {
        "id": 222151396,
        "osm_type": "way",
        "name": "Търнава",
        "tourism": "hotel",
        "website": "http://hotel-tarnava.com/"
      }
    },
    {
      "type": "Feature",
      "geometry": {
        "type": "Point",
        "coordinates": [
          25.6408725,
          43.0827341
        ]
      },
      "properties": {
        "id": 222152766,
        "osm_type": "way",
        "name": "Киев",
        "tourism": "hotel",
        "website": "http://hotelkiev.eu/"
      }
    },
    {
      "type": "Feature",
      "geometry": {
        "type": "Point",
        "coordinates": [
          25.6374681,
          43.0845885
        ]
      },
      "properties": {
        "id": 222155016,
        "osm_type": "way",
        "name": "Меридиан Болярски",
        "tourism": "hotel",
        "website": "https://bolyarski.com/"
      }
    },
    {
      "type": "Feature",
      "geometry": {
        "type": "Point",
        "coordinates": [
          25.636673,
          43.0845914
        ]
      },
      "properties": {
        "id": 222157209,
        "osm_type": "way",
        "name": "Панорама",
        "tourism": "hotel",
        "website": "https://www.panorama-vt.bg/"
      }
    },
    {
      "type": "Feature",
      "geometry": {
        "type": "Point",
        "coordinates": [
          25.6366431,
          43.0842941
        ]
      },
      "properties": {
        "id": 222167246,
        "osm_type": "way",
        "name": "Гурко",
        "tourism": "hotel",
        "website": "http://hotel-gurko.com",
        "check_date": "2025-09-12"
      }
    },
    {
      "type": "Feature",
      "geometry": {
        "type": "Point",
        "coordinates": [
          25.6338929,
          43.0825628
        ]
      },
      "properties": {
        "id": 222208123,
        "osm_type": "way",
        "name": "Хотел Централ",
        "tourism": "hotel",
        "website": "https://www.hotelcentral-bg.com/"
      }
    },
    {
      "type": "Feature",
      "geometry": {
        "type": "Point",
        "coordinates": [
          25.6338652,
          43.0829635
        ]
      },
      "properties": {
        "id": 222208137,
        "osm_type": "way",
        "name": "Къща за гости Петра",
        "tourism": "guest_house",
        "website": "http://guesthousepetra.com"
      }
    },
    {
      "type": "Feature",
      "geometry": {
        "type": "Point",
        "coordinates": [
          25.634426,
          43.0822725
        ]
      },
      "properties": {
        "id": 222208144,
        "osm_type": "way",
        "name": "Low Costel Hotel",
        "tourism": "hostel",
        "website": "http://lowcostel.hostel.com"
      }
    },
    {
      "type": "Feature",
      "geometry": {
        "type": "Point",
        "coordinates": [
          25.6338624,
          43.0811888
        ]
      },
      "properties": {
        "id": 222425969,
        "osm_type": "way",
        "name": "Етър",
        "tourism": "hotel",
        "website": "http://hoteletar.com"
      }
    },
    {
      "type": "Feature",
      "geometry": {
        "type": "Point",
        "coordinates": [
          25.632938,
          43.080485
        ]
      },
      "properties": {
        "id": 222427216,
        "osm_type": "way",
        "name": "Аlegro",
        "tourism": "hotel",
        "website": "https://hotelalegro.com/"
      }
    },
    {
      "type": "Feature",
      "geometry": {
        "type": "Point",
        "coordinates": [
          25.6319861,
          43.0782947
        ]
      },
      "properties": {
        "id": 222445175,
        "osm_type": "way",
        "name": "Търново",
        "tourism": "hotel",
        "website": "https://hoteltarnovo.com/"
      }
    },
    {
      "type": "Feature",
      "geometry": {
        "type": "Point",
        "coordinates": [
          25.6337582,
          43.079038
        ]
      },
      "properties": {
        "id": 222459910,
        "osm_type": "way",
        "name": "Tarnovski Dom Guest Rooms",
        "tourism": "guest_house",
        "phone": "+359 89 542 5562"
      }
    },
    {
      "type": "Feature",
      "geometry": {
        "type": "Point",
        "coordinates": [
          25.626544,
          43.0776931
        ]
      },
      "properties": {
        "id": 222560098,
        "osm_type": "way",
        "name": "Аквая",
        "tourism": "hotel",
        "website": "https://akvaya.com/"
      }
    },
    {
      "type": "Feature",
      "geometry": {
        "type": "Point",
        "coordinates": [
          25.6207501,
          43.0785569
        ]
      },
      "properties": {
        "id": 222745344,
        "osm_type": "way",
        "name": "Елена",
        "tourism": "hotel",
        "phone": "+359 62 624 103;+359 88 522 8455",
        "website": "http://complex-elena.com/"
      }
    },
    {
      "type": "Feature",
      "geometry": {
        "type": "Point",
        "coordinates": [
          25.6215451,
          43.0770949
        ]
      },
      "properties": {
        "id": 222753627,
        "osm_type": "way",
        "name": "Арена",
        "tourism": "hotel",
        "website": "http://arenatarnovo.com"
      }
    },
    {
      "type": "Feature",
      "geometry": {
        "type": "Point",
        "coordinates": [
          25.3629155,
          43.6112389
        ]
      },
      "properties": {
        "id": 222762420,
        "osm_type": "way",
        "tourism": "hotel"
      }
    },
    {
      "type": "Feature",
      "geometry": {
        "type": "Point",
        "coordinates": [
          25.6240984,
          43.0735307
        ]
      },
      "properties": {
        "id": 222801043,
        "osm_type": "way",
        "name": "Плама",
        "tourism": "hotel"
      }
    },
    {
      "type": "Feature",
      "geometry": {
        "type": "Point",
        "coordinates": [
          25.6503174,
          43.0851772
        ]
      },
      "properties": {
        "id": 223348611,
        "osm_type": "way",
        "name": "Михаиловата къща",
        "tourism": "guest_house"
      }
    },
    {
      "type": "Feature",
      "geometry": {
        "type": "Point",
        "coordinates": [
          25.6743339,
          43.0830392
        ]
      },
      "properties": {
        "id": 226233763,
        "osm_type": "way",
        "name": "Момина крепост",
        "tourism": "hotel",
        "website": "https://www.momina-krepost.com",
        "check_date": "2025-06-21"
      }
    },
    {
      "type": "Feature",
      "geometry": {
        "type": "Point",
        "coordinates": [
          25.8786835,
          42.9296225
        ]
      },
      "properties": {
        "id": 234170226,
        "osm_type": "way",
        "name": "Хотел \"Елена\"",
        "tourism": "hotel"
      }
    },
    {
      "type": "Feature",
      "geometry": {
        "type": "Point",
        "coordinates": [
          25.8777982,
          42.9305594
        ]
      },
      "properties": {
        "id": 234170236,
        "osm_type": "way",
        "name": "Хотел \"Елени палас\"",
        "tourism": "hotel"
      }
    },
    {
      "type": "Feature",
      "geometry": {
        "type": "Point",
        "coordinates": [
          25.880066,
          42.9297737
        ]
      },
      "properties": {
        "id": 241970616,
        "osm_type": "way",
        "name": "Хотел \"Централ\"",
        "tourism": "hotel"
      }
    },
    {
      "type": "Feature",
      "geometry": {
        "type": "Point",
        "coordinates": [
          25.7416699,
          42.9182443
        ]
      },
      "properties": {
        "id": 242001890,
        "osm_type": "way",
        "name": "Хотелски комплекс \"Еленски ритон\"",
        "tourism": "hotel"
      }
    },
    {
      "type": "Feature",
      "geometry": {
        "type": "Point",
        "coordinates": [
          25.7432271,
          42.9149526
        ]
      },
      "properties": {
        "id": 242001891,
        "osm_type": "way",
        "name": "Хотелски комплекс \"Елица\"",
        "tourism": "hotel"
      }
    },
    {
      "type": "Feature",
      "geometry": {
        "type": "Point",
        "coordinates": [
          25.8797524,
          42.9300652
        ]
      },
      "properties": {
        "id": 242039483,
        "osm_type": "way",
        "name": "Хотел \"Тара\"",
        "tourism": "hotel"
      }
    },
    {
      "type": "Feature",
      "geometry": {
        "type": "Point",
        "coordinates": [
          25.8778613,
          42.9300952
        ]
      },
      "properties": {
        "id": 242042776,
        "osm_type": "way",
        "name": "Къща за гости \"Трухчев\"",
        "tourism": "guest_house",
        "phone": "+359 88 541 4583;+359 88 864 3264",
        "website": "https://www.tru-house.com"
      }
    },
    {
      "type": "Feature",
      "geometry": {
        "type": "Point",
        "coordinates": [
          25.8760441,
          42.9296231
        ]
      },
      "properties": {
        "id": 242044650,
        "osm_type": "way",
        "name": "Хотер \"Перун\"",
        "tourism": "hotel"
      }
    },
    {
      "type": "Feature",
      "geometry": {
        "type": "Point",
        "coordinates": [
          25.6653687,
          43.0979094
        ]
      },
      "properties": {
        "id": 242054611,
        "osm_type": "way",
        "name": "Извора 2",
        "tourism": "hotel"
      }
    },
    {
      "type": "Feature",
      "geometry": {
        "type": "Point",
        "coordinates": [
          25.663588,
          43.0946933
        ]
      },
      "properties": {
        "id": 242066769,
        "osm_type": "way",
        "name": "Арбанаси палас",
        "tourism": "hotel",
        "phone": "+359 62 630 176",
        "website": "http://www.arbanassipalace.bg/"
      }
    },
    {
      "type": "Feature",
      "geometry": {
        "type": "Point",
        "coordinates": [
          25.8807639,
          42.9406993
        ]
      },
      "properties": {
        "id": 242104554,
        "osm_type": "way",
        "name": "Костадиновите къщи",
        "tourism": "guest_house"
      }
    },
    {
      "type": "Feature",
      "geometry": {
        "type": "Point",
        "coordinates": [
          25.6844757,
          43.090367
        ]
      },
      "properties": {
        "id": 242262852,
        "osm_type": "way",
        "name": "Калоянова крепост",
        "tourism": "hotel"
      }
    },
    {
      "type": "Feature",
      "geometry": {
        "type": "Point",
        "coordinates": [
          25.646143,
          43.1231589
        ]
      },
      "properties": {
        "id": 252583307,
        "osm_type": "way",
        "name": "Хижа Божур",
        "tourism": "alpine_hut"
      }
    },
    {
      "type": "Feature",
      "geometry": {
        "type": "Point",
        "coordinates": [
          25.6458392,
          43.1233796
        ]
      },
      "properties": {
        "id": 252698031,
        "osm_type": "way",
        "tourism": "alpine_hut"
      }
    },
    {
      "type": "Feature",
      "geometry": {
        "type": "Point",
        "coordinates": [
          25.6891412,
          43.1215746
        ]
      },
      "properties": {
        "id": 252700305,
        "osm_type": "way",
        "name": "х-л Раховец",
        "tourism": "hotel"
      }
    },
    {
      "type": "Feature",
      "geometry": {
        "type": "Point",
        "coordinates": [
          25.6393595,
          43.0858194
        ]
      },
      "properties": {
        "id": 255149454,
        "osm_type": "way",
        "name": "Harmony Guest House",
        "tourism": "guest_house"
      }
    },
    {
      "type": "Feature",
      "geometry": {
        "type": "Point",
        "coordinates": [
          25.3464223,
          43.6216251
        ]
      },
      "properties": {
        "id": 258068563,
        "osm_type": "way",
        "name": "Хотел \"Калето\"",
        "tourism": "hotel"
      }
    },
    {
      "type": "Feature",
      "geometry": {
        "type": "Point",
        "coordinates": [
          25.5478471,
          43.1521533
        ]
      },
      "properties": {
        "id": 289441858,
        "osm_type": "way",
        "name": "Honey House Hotnitsa",
        "tourism": "guest_house",
        "website": "https://www.honeyhousestables.com/"
      }
    },
    {
      "type": "Feature",
      "geometry": {
        "type": "Point",
        "coordinates": [
          25.5813496,
          43.1255266
        ]
      },
      "properties": {
        "id": 304941915,
        "osm_type": "way",
        "tourism": "chalet"
      }
    },
    {
      "type": "Feature",
      "geometry": {
        "type": "Point",
        "coordinates": [
          25.6491979,
          43.0712528
        ]
      },
      "properties": {
        "id": 371530434,
        "osm_type": "way",
        "tourism": "hotel"
      }
    },
    {
      "type": "Feature",
      "geometry": {
        "type": "Point",
        "coordinates": [
          25.7099599,
          43.1004241
        ]
      },
      "properties": {
        "id": 443651745,
        "osm_type": "way",
        "name": "хотел Светицата",
        "tourism": "hotel"
      }
    },
    {
      "type": "Feature",
      "geometry": {
        "type": "Point",
        "coordinates": [
          25.8740523,
          42.9317405
        ]
      },
      "properties": {
        "id": 461924300,
        "osm_type": "way",
        "name": "Дядовата къща",
        "tourism": "guest_house"
      }
    },
    {
      "type": "Feature",
      "geometry": {
        "type": "Point",
        "coordinates": [
          25.9276972,
          43.3126419
        ]
      },
      "properties": {
        "id": 496448819,
        "osm_type": "way",
        "name": "Чаир",
        "tourism": "hotel"
      }
    },
    {
      "type": "Feature",
      "geometry": {
        "type": "Point",
        "coordinates": [
          25.8797711,
          42.9279204
        ]
      },
      "properties": {
        "id": 508164909,
        "osm_type": "way",
        "name": "Хижа Калето",
        "tourism": "alpine_hut"
      }
    },
    {
      "type": "Feature",
      "geometry": {
        "type": "Point",
        "coordinates": [
          25.8794684,
          42.9231256
        ]
      },
      "properties": {
        "id": 508170834,
        "osm_type": "way",
        "name": "Комплекс Тихия кът",
        "tourism": "hotel"
      }
    },
    {
      "type": "Feature",
      "geometry": {
        "type": "Point",
        "coordinates": [
          25.8897742,
          42.9308415
        ]
      },
      "properties": {
        "id": 508362350,
        "osm_type": "way",
        "name": "Свети Павлос",
        "tourism": "guest_house",
        "phone": "+359886757118"
      }
    },
    {
      "type": "Feature",
      "geometry": {
        "type": "Point",
        "coordinates": [
          26.0582152,
          43.2110143
        ]
      },
      "properties": {
        "id": 674869674,
        "osm_type": "way",
        "name": "Старата лоза",
        "tourism": "guest_house"
      }
    },
    {
      "type": "Feature",
      "geometry": {
        "type": "Point",
        "coordinates": [
          25.5640585,
          43.2717783
        ]
      },
      "properties": {
        "id": 703461746,
        "osm_type": "way",
        "name": "Sunflower Guest House",
        "tourism": "guest_house"
      }
    },
    {
      "type": "Feature",
      "geometry": {
        "type": "Point",
        "coordinates": [
          25.7458856,
          42.9768971
        ]
      },
      "properties": {
        "id": 971652173,
        "osm_type": "way",
        "tourism": "caravan_site"
      }
    },
    {
      "type": "Feature",
      "geometry": {
        "type": "Point",
        "coordinates": [
          25.6231932,
          43.1457338
        ]
      },
      "properties": {
        "id": 1208521793,
        "osm_type": "way",
        "name": "Trinity Rocks Farm",
        "tourism": "camp_site",
        "phone": "+359 88 901 9488",
        "website": "http://www.trinityrocksfarm.com/"
      }
    },
    {
      "type": "Feature",
      "geometry": {
        "type": "Point",
        "coordinates": [
          25.6455743,
          43.1232606
        ]
      },
      "properties": {
        "id": 1209071359,
        "osm_type": "way",
        "tourism": "camp_site"
      }
    },
    {
      "type": "Feature",
      "geometry": {
        "type": "Point",
        "coordinates": [
          25.6775758,
          43.066514
        ]
      },
      "properties": {
        "id": 1238297735,
        "osm_type": "way",
        "name": "Чамурковата къща",
        "tourism": "guest_house"
      }
    },
    {
      "type": "Feature",
      "geometry": {
        "type": "Point",
        "coordinates": [
          25.6687467,
          42.8797127
        ]
      },
      "properties": {
        "id": 1434877414,
        "osm_type": "way",
        "tourism": "guest_house"
      }
    },
    {
      "type": "Feature",
      "geometry": {
        "type": "Point",
        "coordinates": [
          25.6685688,
          42.8796243
        ]
      },
      "properties": {
        "id": 1434877416,
        "osm_type": "way",
        "tourism": "guest_house"
      }
    },
    {
      "type": "Feature",
      "geometry": {
        "type": "Point",
        "coordinates": [
          25.669213,
          42.8802771
        ]
      },
      "properties": {
        "id": 1434877417,
        "osm_type": "way",
        "tourism": "guest_house"
      }
    },
    {
      "type": "Feature",
      "geometry": {
        "type": "Point",
        "coordinates": [
          25.6765934,
          42.8804412
        ]
      },
      "properties": {
        "id": 1434877453,
        "osm_type": "way",
        "tourism": "guest_house"
      }
    },
    {
      "type": "Feature",
      "geometry": {
        "type": "Point",
        "coordinates": [
          25.3440256,
          43.6147505
        ]
      },
      "properties": {
        "id": 1500651340,
        "osm_type": "way",
        "name": "Ivanoff",
        "tourism": "hotel"
      }
    },
    {
      "type": "Feature",
      "geometry": {
        "type": "Point",
        "coordinates": [
          25.8786835,
          42.9296225
        ]
      },
      "properties": {
        "id": 3266144,
        "osm_type": "relation",
        "name": "Хотел \"Елена\"",
        "tourism": "hotel"
      }
    },
    {
      "type": "Feature",
      "geometry": {
        "type": "Point",
        "coordinates": [
          25.8594961,
          42.9047697
        ]
      },
      "properties": {
        "id": 3273040,
        "osm_type": "relation",
        "tourism": "hotel"
      }
    }
  ]
}