{
  "type": "FeatureCollection",
  "features": [
    {
      "type": "Feature",
      "geometry": {
        "type": "Point",
        "coordinates": [
          25.331368,
          43.9690641
        ]
      },
      "properties": {
        "id": 1157457008,
        "osm_type": "node",
        "name": "Hotel Parc",
        "tourism": "hotel"
      }
    },
    {
      "type": "Feature",
      "geometry": {
        "type": "Point",
        "coordinates": [
          25.1904781,
          43.7031845
        ]
      },
      "properties": {
        "id": 2552267980,
        "osm_type": "node",
        "name": "Hotel Plutitor Danubius Pontic",
        "tourism": "hotel",
        "opening_hours": "24/7",
        "phone": "+40 740 200 397",
        "website": "http://www.plutitor-danubiuspontic.ro"
      }
    },
    {
      "type": "Feature",
      "geometry": {
        "type": "Point",
        "coordinates": [
          25.3655964,
          43.6548252
        ]
      },
      "properties": {
        "id": 2552348411,
        "osm_type": "node",
        "name": "Hotel Inter",
        "tourism": "hotel",
        "opening_hours": "24/7",
        "phone": "+40 247 367 133",
        "website": "http://hotelinter.ro/zimnicea/"
      }
    },
    {
      "type": "Feature",
      "geometry": {
        "type": "Point",
        "coordinates": [
          25.0069439,
          44.0824321
        ]
      },
      "properties": {
        "id": 2917909489,
        "osm_type": "node",
        "name": "Hanul Roșiori ( desființat)",
        "tourism": "guest_house"
      }
    },
    {
      "type": "Feature",
      "geometry": {
        "type": "Point",
        "coordinates": [
          24.9339905,
          43.7596904
        ]
      },
      "properties": {
        "id": 4714720191,
        "osm_type": "node",
        "name": "Petre",
        "tourism": "guest_house"
      }
    },
    {
      "type": "Feature",
      "geometry": {
        "type": "Point",
        "coordinates": [
          24.9901354,
          44.1121385
        ]
      },
      "properties": {
        "id": 4715978489,
        "osm_type": "node",
        "name": "Hotel Vedea",
        "tourism": "hotel"
      }
    },
    {
      "type": "Feature",
      "geometry": {
        "type": "Point",
        "coordinates": [
          25.4178824,
          44.0117474
        ]
      },
      "properties": {
        "id": 4829137420,
        "osm_type": "node",
        "name": "Hanul Cocoșul",
        "tourism": "motel"
      }
    },
    {
      "type": "Feature",
      "geometry": {
        "type": "Point",
        "coordinates": [
          25.2949763,
          43.7186792
        ]
      },
      "properties": {
        "id": 4867288702,
        "osm_type": "node",
        "name": "Pensiunea La Nasu",
        "tourism": "guest_house"
      }
    },
    {
      "type": "Feature",
      "geometry": {
        "type": "Point",
        "coordinates": [
          25.3888642,
          44.368682
        ]
      },
      "properties": {
        "id": 4929546921,
        "osm_type": "node",
        "name": "Casdealulua familiei",
        "tourism": "chalet"
      }
    },
    {
      "type": "Feature",
      "geometry": {
        "type": "Point",
        "coordinates": [
          24.9145511,
          44.1191298
        ]
      },
      "properties": {
        "id": 5678420642,
        "osm_type": "node",
        "name": "Popasul Ciobănașul",
        "tourism": "motel"
      }
    },
    {
      "type": "Feature",
      "geometry": {
        "type": "Point",
        "coordinates": [
          25.2407939,
          43.7427684
        ]
      },
      "properties": {
        "id": 5876200686,
        "osm_type": "node",
        "name": "Edelweiss",
        "tourism": "guest_house",
        "opening_hours": "24/7",
        "phone": "+40722178689",
        "website": "https://www.booking.com/hotel/edelweiss-com-suhaia.ro.html"
      }
    },
    {
      "type": "Feature",
      "geometry": {
        "type": "Point",
        "coordinates": [
          25.3092828,
          43.9817622
        ]
      },
      "properties": {
        "id": 5929485487,
        "osm_type": "node",
        "name": "Hotel Edma",
        "tourism": "hotel"
      }
    },
    {
      "type": "Feature",
      "geometry": {
        "type": "Point",
        "coordinates": [
          25.2408639,
          43.7425442
        ]
      },
      "properties": {
        "id": 9980158373,
        "osm_type": "node",
        "name": "Edelweiss glamping and camping",
        "tourism": "camp_site",
        "tents": "yes",
        "phone": "+40 722 178689"
      }
    },
    {
      "type": "Feature",
      "geometry": {
        "type": "Point",
        "coordinates": [
          24.7705578,
          43.7134552
        ]
      },
      "properties": {
        "id": 10963043249,
        "osm_type": "node",
        "name": "Pensiunea Giulia",
        "tourism": "guest_house"
      }
    },
    {
      "type": "Feature",
      "geometry": {
        "type": "Point",
        "coordinates": [
          24.8690963,
          43.7583286
        ]
      },
      "properties": {
        "id": 12466897901,
        "osm_type": "node",
        "name": "Codrea company",
        "tourism": "apartment"
      }
    },
    {
      "type": "Feature",
      "geometry": {
        "type": "Point",
        "coordinates": [
          25.3335725,
          43.9763345
        ]
      },
      "properties": {
        "id": 12753665306,
        "osm_type": "node",
        "name": "Red Confort Hotel",
        "tourism": "hotel"
      }
    },
    {
      "type": "Feature",
      "geometry": {
        "type": "Point",
        "coordinates": [
          24.8700009,
          43.7476667
        ]
      },
      "properties": {
        "id": 489557873,
        "osm_type": "way",
        "name": "Hotel Turris",
        "tourism": "hotel"
      }
    },
    {
      "type": "Feature",
      "geometry": {
        "type": "Point",
        "coordinates": [
          25.3142001,
          43.9819981
        ]
      },
      "properties": {
        "id": 1424064905,
        "osm_type": "way",
        "name": "Motel Restaurant Mara",
        "tourism": "motel"
      }
    }
  ]
}