{
  "type": "FeatureCollection",
  "features": [
    {
      "type": "Feature",
      "geometry": {
        "type": "Point",
        "coordinates": [
          18.7367454,
          47.7086879
        ]
      },
      "properties": {
        "id": 383944131,
        "osm_type": "node",
        "tourism": "guest_house"
      }
    },
    {
      "type": "Feature",
      "geometry": {
        "type": "Point",
        "coordinates": [
          18.806474,
          47.7137161
        ]
      },
      "properties": {
        "id": 387446843,
        "osm_type": "node",
        "name": "Kostel Vendégház",
        "tourism": "guest_house",
        "contact:phone": "+36 30 487 1965",
        "contact:website": "http://www.kostel.hu/"
      }
    },
    {
      "type": "Feature",
      "geometry": {
        "type": "Point",
        "coordinates": [
          18.7252288,
          47.6956238
        ]
      },
      "properties": {
        "id": 409783081,
        "osm_type": "node",
        "name": "Pollushof Panzió és étterem",
        "tourism": "guest_house"
      }
    },
    {
      "type": "Feature",
      "geometry": {
        "type": "Point",
        "coordinates": [
          18.1282448,
          47.7438488
        ]
      },
      "properties": {
        "id": 907872411,
        "osm_type": "node",
        "name": "Forrás",
        "tourism": "hotel",
        "check_date": "2024-05-20"
      }
    },
    {
      "type": "Feature",
      "geometry": {
        "type": "Point",
        "coordinates": [
          18.6463665,
          47.5919928
        ]
      },
      "properties": {
        "id": 1156549681,
        "osm_type": "node",
        "name": "Palota Panzió",
        "tourism": "hotel"
      }
    },
    {
      "type": "Feature",
      "geometry": {
        "type": "Point",
        "coordinates": [
          18.3430816,
          47.6375975
        ]
      },
      "properties": {
        "id": 1223110470,
        "osm_type": "node",
        "tourism": "hostel",
        "contact:website": "https://oregtohotel.hu/hu/kapcsolat"
      }
    },
    {
      "type": "Feature",
      "geometry": {
        "type": "Point",
        "coordinates": [
          18.3423193,
          47.6375035
        ]
      },
      "properties": {
        "id": 1223142059,
        "osm_type": "node",
        "tourism": "guest_house"
      }
    },
    {
      "type": "Feature",
      "geometry": {
        "type": "Point",
        "coordinates": [
          18.1311269,
          47.7438355
        ]
      },
      "properties": {
        "id": 1373749670,
        "osm_type": "node",
        "name": "Solaris Kemping és Üdülőházak",
        "tourism": "camp_site",
        "tents": "yes",
        "website": "http://www.komthermal.hu/szallas/solaris-kemping-es-udulohazak"
      }
    },
    {
      "type": "Feature",
      "geometry": {
        "type": "Point",
        "coordinates": [
          18.1958692,
          47.7329114
        ]
      },
      "properties": {
        "id": 1637395323,
        "osm_type": "node",
        "name": "Hotel Carrier",
        "tourism": "hotel"
      }
    },
    {
      "type": "Feature",
      "geometry": {
        "type": "Point",
        "coordinates": [
          18.3248753,
          47.6603731
        ]
      },
      "properties": {
        "id": 1769704185,
        "osm_type": "node",
        "name": "Kiss",
        "tourism": "hotel"
      }
    },
    {
      "type": "Feature",
      "geometry": {
        "type": "Point",
        "coordinates": [
          18.7443966,
          47.8016715
        ]
      },
      "properties": {
        "id": 1836582570,
        "osm_type": "node",
        "name": "Szent Kristóf Panzió",
        "tourism": "guest_house",
        "contact:website": "https://www.szentkristofpanzio.com/"
      }
    },
    {
      "type": "Feature",
      "geometry": {
        "type": "Point",
        "coordinates": [
          18.3269358,
          47.6499464
        ]
      },
      "properties": {
        "id": 1838947474,
        "osm_type": "node",
        "name": "Kristály Imperial Hotel",
        "tourism": "hotel",
        "phone": "+36 34 383 614",
        "website": "https://hotelkristaly.eu/"
      }
    },
    {
      "type": "Feature",
      "geometry": {
        "type": "Point",
        "coordinates": [
          18.5167957,
          47.6864987
        ]
      },
      "properties": {
        "id": 2274350287,
        "osm_type": "node",
        "name": "Rancs Fogadó",
        "tourism": "guest_house",
        "contact:phone": "+36 20 328 1243;+36 20 964 8257"
      }
    },
    {
      "type": "Feature",
      "geometry": {
        "type": "Point",
        "coordinates": [
          18.4464099,
          47.6654615
        ]
      },
      "properties": {
        "id": 2277499688,
        "osm_type": "node",
        "name": "Önkormányzat Vendégháza",
        "tourism": "guest_house",
        "phone": "+36 34 351 413"
      }
    },
    {
      "type": "Feature",
      "geometry": {
        "type": "Point",
        "coordinates": [
          18.4510328,
          47.6646915
        ]
      },
      "properties": {
        "id": 2279297216,
        "osm_type": "node",
        "name": "Vitéz vendégház",
        "tourism": "guest_house"
      }
    },
    {
      "type": "Feature",
      "geometry": {
        "type": "Point",
        "coordinates": [
          18.3988076,
          47.5840878
        ]
      },
      "properties": {
        "id": 2357498430,
        "osm_type": "node",
        "name": "Hotel Árpád",
        "tourism": "hotel",
        "phone": "+36 34 310 299",
        "website": "https://www.hotelarpad.hu/"
      }
    },
    {
      "type": "Feature",
      "geometry": {
        "type": "Point",
        "coordinates": [
          18.7393449,
          47.7966128
        ]
      },
      "properties": {
        "id": 2377504280,
        "osm_type": "node",
        "name": "Alabárdos Panzió",
        "tourism": "hotel"
      }
    },
    {
      "type": "Feature",
      "geometry": {
        "type": "Point",
        "coordinates": [
          18.3275271,
          47.6473387
        ]
      },
      "properties": {
        "id": 2443304597,
        "osm_type": "node",
        "name": "Lakeside Apartment in Tata",
        "tourism": "apartment",
        "website": "https://www.airbnb.hu/rooms/1434792"
      }
    },
    {
      "type": "Feature",
      "geometry": {
        "type": "Point",
        "coordinates": [
          18.3181395,
          47.6433772
        ]
      },
      "properties": {
        "id": 2509911721,
        "osm_type": "node",
        "name": "Arnold Panzió",
        "tourism": "guest_house"
      }
    },
    {
      "type": "Feature",
      "geometry": {
        "type": "Point",
        "coordinates": [
          18.7411014,
          47.7957231
        ]
      },
      "properties": {
        "id": 2518268551,
        "osm_type": "node",
        "name": "Átrium House Panzió",
        "tourism": "hotel"
      }
    },
    {
      "type": "Feature",
      "geometry": {
        "type": "Point",
        "coordinates": [
          18.3361101,
          47.6435946
        ]
      },
      "properties": {
        "id": 2774661395,
        "osm_type": "node",
        "name": "Mónika Panzió",
        "tourism": "guest_house"
      }
    },
    {
      "type": "Feature",
      "geometry": {
        "type": "Point",
        "coordinates": [
          18.3433994,
          47.6372515
        ]
      },
      "properties": {
        "id": 2774662136,
        "osm_type": "node",
        "tourism": "hotel"
      }
    },
    {
      "type": "Feature",
      "geometry": {
        "type": "Point",
        "coordinates": [
          18.3245056,
          47.6535111
        ]
      },
      "properties": {
        "id": 2847386386,
        "osm_type": "node",
        "name": "Kalóz Fregatt Hotel",
        "tourism": "hotel"
      }
    },
    {
      "type": "Feature",
      "geometry": {
        "type": "Point",
        "coordinates": [
          18.3376988,
          47.496693
        ]
      },
      "properties": {
        "id": 2886845029,
        "osm_type": "node",
        "name": "Kolostor szálló",
        "tourism": "hotel",
        "contact:website": "https://majkiremeteseg.hu/"
      }
    },
    {
      "type": "Feature",
      "geometry": {
        "type": "Point",
        "coordinates": [
          18.5021705,
          47.7427632
        ]
      },
      "properties": {
        "id": 2913566892,
        "osm_type": "node",
        "name": "Kvint Vendégház",
        "tourism": "guest_house"
      }
    },
    {
      "type": "Feature",
      "geometry": {
        "type": "Point",
        "coordinates": [
          18.3038279,
          47.5256952
        ]
      },
      "properties": {
        "id": 3187699031,
        "osm_type": "node",
        "name": "Kati vendégház",
        "tourism": "hotel"
      }
    },
    {
      "type": "Feature",
      "geometry": {
        "type": "Point",
        "coordinates": [
          18.7461546,
          47.7955237
        ]
      },
      "properties": {
        "id": 3422276560,
        "osm_type": "node",
        "name": "Szent István Fogadó",
        "tourism": "hotel"
      }
    },
    {
      "type": "Feature",
      "geometry": {
        "type": "Point",
        "coordinates": [
          18.9107248,
          47.7639744
        ]
      },
      "properties": {
        "id": 3454414992,
        "osm_type": "node",
        "name": "Szállás a plébánián",
        "tourism": "chalet"
      }
    },
    {
      "type": "Feature",
      "geometry": {
        "type": "Point",
        "coordinates": [
          18.7325632,
          47.7897502
        ]
      },
      "properties": {
        "id": 3454422366,
        "osm_type": "node",
        "name": "Gran-Camping & Bungalow",
        "tourism": "camp_site",
        "tents": "yes",
        "phone": "+36 33 311 327"
      }
    },
    {
      "type": "Feature",
      "geometry": {
        "type": "Point",
        "coordinates": [
          18.5621276,
          47.7367632
        ]
      },
      "properties": {
        "id": 3454423028,
        "osm_type": "node",
        "name": "Kőszegi Sándor falusi vendéglátó",
        "tourism": "guest_house",
        "phone": "+36 30 357 0579"
      }
    },
    {
      "type": "Feature",
      "geometry": {
        "type": "Point",
        "coordinates": [
          18.6547447,
          47.7185558
        ]
      },
      "properties": {
        "id": 3454423072,
        "osm_type": "node",
        "name": "Plébánia, zarándokszállás",
        "tourism": "guest_house"
      }
    },
    {
      "type": "Feature",
      "geometry": {
        "type": "Point",
        "coordinates": [
          18.36495,
          47.512383
        ]
      },
      "properties": {
        "id": 3468026229,
        "osm_type": "node",
        "name": "Margó Panzió",
        "tourism": "guest_house"
      }
    },
    {
      "type": "Feature",
      "geometry": {
        "type": "Point",
        "coordinates": [
          18.5039474,
          47.6087068
        ]
      },
      "properties": {
        "id": 3468026241,
        "osm_type": "node",
        "name": "Sziget Panzió és Vendéglő",
        "tourism": "guest_house",
        "phone": "+36 34 372 910",
        "website": "http://www.sziget-panzio.hu"
      }
    },
    {
      "type": "Feature",
      "geometry": {
        "type": "Point",
        "coordinates": [
          18.413708,
          47.578118
        ]
      },
      "properties": {
        "id": 3470067936,
        "osm_type": "node",
        "name": "Panoráma panzió és étterem",
        "tourism": "guest_house"
      }
    },
    {
      "type": "Feature",
      "geometry": {
        "type": "Point",
        "coordinates": [
          18.38385,
          47.702633
        ]
      },
      "properties": {
        "id": 3470078678,
        "osm_type": "node",
        "name": "Molnár porta",
        "tourism": "guest_house"
      }
    },
    {
      "type": "Feature",
      "geometry": {
        "type": "Point",
        "coordinates": [
          18.3788171,
          47.7081363
        ]
      },
      "properties": {
        "id": 3470078686,
        "osm_type": "node",
        "name": "Panorama Residence Duna",
        "tourism": "guest_house"
      }
    },
    {
      "type": "Feature",
      "geometry": {
        "type": "Point",
        "coordinates": [
          18.402776,
          47.662416
        ]
      },
      "properties": {
        "id": 3470078912,
        "osm_type": "node",
        "name": "Zarándokház",
        "tourism": "guest_house"
      }
    },
    {
      "type": "Feature",
      "geometry": {
        "type": "Point",
        "coordinates": [
          17.97838,
          47.378834
        ]
      },
      "properties": {
        "id": 3470096855,
        "osm_type": "node",
        "name": "Mária-lak",
        "tourism": "guest_house"
      }
    },
    {
      "type": "Feature",
      "geometry": {
        "type": "Point",
        "coordinates": [
          18.02382,
          47.748317
        ]
      },
      "properties": {
        "id": 3471787653,
        "osm_type": "node",
        "name": "Fenyves Tábor",
        "tourism": "camp_site"
      }
    },
    {
      "type": "Feature",
      "geometry": {
        "type": "Point",
        "coordinates": [
          17.913783,
          47.648667
        ]
      },
      "properties": {
        "id": 3471787658,
        "osm_type": "node",
        "name": "Hilda Panzió",
        "tourism": "guest_house"
      }
    },
    {
      "type": "Feature",
      "geometry": {
        "type": "Point",
        "coordinates": [
          18.0396,
          47.723067
        ]
      },
      "properties": {
        "id": 3471787675,
        "osm_type": "node",
        "name": "Natura Kemping",
        "tourism": "camp_site",
        "phone": "+36 30 946 7361"
      }
    },
    {
      "type": "Feature",
      "geometry": {
        "type": "Point",
        "coordinates": [
          18.2057705,
          47.6749299
        ]
      },
      "properties": {
        "id": 3471787678,
        "osm_type": "node",
        "name": "Oázis Szabadidőpark",
        "tourism": "camp_site",
        "phone": "+36 20 942 4894"
      }
    },
    {
      "type": "Feature",
      "geometry": {
        "type": "Point",
        "coordinates": [
          18.3154,
          47.483967
        ]
      },
      "properties": {
        "id": 3487700665,
        "osm_type": "node",
        "name": "Beatrix vendégház",
        "tourism": "guest_house"
      }
    },
    {
      "type": "Feature",
      "geometry": {
        "type": "Point",
        "coordinates": [
          18.20433,
          47.48058
        ]
      },
      "properties": {
        "id": 3487700666,
        "osm_type": "node",
        "name": "Bokodi vadászház.",
        "tourism": "guest_house",
        "website": "https://www.bokodivadaszhaz.hu/"
      }
    },
    {
      "type": "Feature",
      "geometry": {
        "type": "Point",
        "coordinates": [
          18.3187,
          47.489933
        ]
      },
      "properties": {
        "id": 3487700669,
        "osm_type": "node",
        "name": "Czermann Panzió és étterem",
        "tourism": "guest_house"
      }
    },
    {
      "type": "Feature",
      "geometry": {
        "type": "Point",
        "coordinates": [
          18.1334734,
          47.7425524
        ]
      },
      "properties": {
        "id": 3720431451,
        "osm_type": "node",
        "name": "Hotel Thermál",
        "tourism": "hotel"
      }
    },
    {
      "type": "Feature",
      "geometry": {
        "type": "Point",
        "coordinates": [
          18.1287495,
          47.7437297
        ]
      },
      "properties": {
        "id": 3806571877,
        "osm_type": "node",
        "name": "Aqua",
        "tourism": "hotel"
      }
    },
    {
      "type": "Feature",
      "geometry": {
        "type": "Point",
        "coordinates": [
          18.0337687,
          47.505111
        ]
      },
      "properties": {
        "id": 4640556282,
        "osm_type": "node",
        "tourism": "hostel"
      }
    },
    {
      "type": "Feature",
      "geometry": {
        "type": "Point",
        "coordinates": [
          18.89721,
          47.7979986
        ]
      },
      "properties": {
        "id": 4939175894,
        "osm_type": "node",
        "name": "Duna-liget üdülő",
        "tourism": "hotel"
      }
    },
    {
      "type": "Feature",
      "geometry": {
        "type": "Point",
        "coordinates": [
          18.3358009,
          47.643691
        ]
      },
      "properties": {
        "id": 5027054321,
        "osm_type": "node",
        "name": "Sirály Panzió",
        "tourism": "hotel",
        "phone": "+36 30 313 2284",
        "contact:website": "http://siralypanziotopart.hu/index_siraly.html"
      }
    },
    {
      "type": "Feature",
      "geometry": {
        "type": "Point",
        "coordinates": [
          18.8432173,
          47.7314312
        ]
      },
      "properties": {
        "id": 5229662904,
        "osm_type": "node",
        "name": "Szállás Semper Serviens",
        "tourism": "guest_house",
        "phone": "+36 20 947 5354"
      }
    },
    {
      "type": "Feature",
      "geometry": {
        "type": "Point",
        "coordinates": [
          17.9896135,
          47.6392955
        ]
      },
      "properties": {
        "id": 5236039052,
        "osm_type": "node",
        "name": "Park Hotel",
        "tourism": "hotel",
        "contact:phone": "+36 34 569 069",
        "contact:website": "http://www.ikr.hu"
      }
    },
    {
      "type": "Feature",
      "geometry": {
        "type": "Point",
        "coordinates": [
          18.0289146,
          47.3626228
        ]
      },
      "properties": {
        "id": 5345566435,
        "osm_type": "node",
        "name": "Kokastanya",
        "tourism": "guest_house"
      }
    },
    {
      "type": "Feature",
      "geometry": {
        "type": "Point",
        "coordinates": [
          18.028473,
          47.3703294
        ]
      },
      "properties": {
        "id": 5345605495,
        "osm_type": "node",
        "name": "Evangélikus vendégház",
        "tourism": "guest_house"
      }
    },
    {
      "type": "Feature",
      "geometry": {
        "type": "Point",
        "coordinates": [
          18.0232178,
          47.3683395
        ]
      },
      "properties": {
        "id": 5345613521,
        "osm_type": "node",
        "name": "Békesség Szigete Hitmélyítő Tábor",
        "tourism": "guest_house"
      }
    },
    {
      "type": "Feature",
      "geometry": {
        "type": "Point",
        "coordinates": [
          18.739448,
          47.8029947
        ]
      },
      "properties": {
        "id": 5691810753,
        "osm_type": "node",
        "name": "Sasi Panzió 1.",
        "tourism": "guest_house",
        "contact:website": "https://sasipanzio.hu/"
      }
    },
    {
      "type": "Feature",
      "geometry": {
        "type": "Point",
        "coordinates": [
          18.9180672,
          47.7619033
        ]
      },
      "properties": {
        "id": 5904818287,
        "osm_type": "node",
        "name": "Dunazug Apartmanház Dömös",
        "tourism": "apartment",
        "contact:phone": "+36 30 515 4671",
        "contact:website": "https://dunazugapartmanhaz.hu/"
      }
    },
    {
      "type": "Feature",
      "geometry": {
        "type": "Point",
        "coordinates": [
          18.7371223,
          47.781474
        ]
      },
      "properties": {
        "id": 6088772160,
        "osm_type": "node",
        "name": "Waller Apartman",
        "tourism": "apartment",
        "phone": "+36 20 260 0725"
      }
    },
    {
      "type": "Feature",
      "geometry": {
        "type": "Point",
        "coordinates": [
          18.7322279,
          47.7408547
        ]
      },
      "properties": {
        "id": 6273062041,
        "osm_type": "node",
        "name": "Boszitanya",
        "tourism": "apartment"
      }
    },
    {
      "type": "Feature",
      "geometry": {
        "type": "Point",
        "coordinates": [
          18.7364613,
          47.7322583
        ]
      },
      "properties": {
        "id": 6292048330,
        "osm_type": "node",
        "name": "Rózsa Söröző & Panzió",
        "tourism": "apartment"
      }
    },
    {
      "type": "Feature",
      "geometry": {
        "type": "Point",
        "coordinates": [
          18.3182833,
          47.6478817
        ]
      },
      "properties": {
        "id": 6567313159,
        "osm_type": "node",
        "name": "Platán Várárok Vendégház",
        "tourism": "guest_house"
      }
    },
    {
      "type": "Feature",
      "geometry": {
        "type": "Point",
        "coordinates": [
          18.0580567,
          47.7513804
        ]
      },
      "properties": {
        "id": 6755198089,
        "osm_type": "node",
        "tourism": "guest_house"
      }
    },
    {
      "type": "Feature",
      "geometry": {
        "type": "Point",
        "coordinates": [
          18.3210406,
          47.4781035
        ]
      },
      "properties": {
        "id": 6838774692,
        "osm_type": "node",
        "name": "Kata panzió",
        "tourism": "motel"
      }
    },
    {
      "type": "Feature",
      "geometry": {
        "type": "Point",
        "coordinates": [
          18.8062462,
          47.8029673
        ]
      },
      "properties": {
        "id": 7214806759,
        "osm_type": "node",
        "name": "Kerektó Vadászház és Vendégház",
        "tourism": "guest_house",
        "website": "http://www.kerektovadaszhaz.hu"
      }
    },
    {
      "type": "Feature",
      "geometry": {
        "type": "Point",
        "coordinates": [
          18.751952,
          47.801491
        ]
      },
      "properties": {
        "id": 7216850985,
        "osm_type": "node",
        "name": "Márta Panzió",
        "tourism": "apartment"
      }
    },
    {
      "type": "Feature",
      "geometry": {
        "type": "Point",
        "coordinates": [
          18.7319054,
          47.7539394
        ]
      },
      "properties": {
        "id": 7235446599,
        "osm_type": "node",
        "name": "Grante Hotel",
        "tourism": "hotel"
      }
    },
    {
      "type": "Feature",
      "geometry": {
        "type": "Point",
        "coordinates": [
          18.743357,
          47.7925217
        ]
      },
      "properties": {
        "id": 7237290478,
        "osm_type": "node",
        "name": "Arany Elefánt Panzió",
        "tourism": "motel"
      }
    },
    {
      "type": "Feature",
      "geometry": {
        "type": "Point",
        "coordinates": [
          18.7393949,
          47.7790786
        ]
      },
      "properties": {
        "id": 7258932308,
        "osm_type": "node",
        "name": "SASI Panzió 2.",
        "tourism": "apartment"
      }
    },
    {
      "type": "Feature",
      "geometry": {
        "type": "Point",
        "coordinates": [
          18.7414566,
          47.7804065
        ]
      },
      "properties": {
        "id": 7260669116,
        "osm_type": "node",
        "name": "Strigónia Apartman",
        "tourism": "apartment"
      }
    },
    {
      "type": "Feature",
      "geometry": {
        "type": "Point",
        "coordinates": [
          18.7517538,
          47.792623
        ]
      },
      "properties": {
        "id": 7261433458,
        "osm_type": "node",
        "name": "Panoráma Apartmanház",
        "tourism": "apartment"
      }
    },
    {
      "type": "Feature",
      "geometry": {
        "type": "Point",
        "coordinates": [
          18.7480254,
          47.7914874
        ]
      },
      "properties": {
        "id": 7261470607,
        "osm_type": "node",
        "name": "Decsi család vendégháza",
        "tourism": "guest_house"
      }
    },
    {
      "type": "Feature",
      "geometry": {
        "type": "Point",
        "coordinates": [
          18.7469284,
          47.7609737
        ]
      },
      "properties": {
        "id": 7342568111,
        "osm_type": "node",
        "name": "Lovasliget Panzió",
        "tourism": "guest_house",
        "contact:website": "http://lovasliget.hu/"
      }
    },
    {
      "type": "Feature",
      "geometry": {
        "type": "Point",
        "coordinates": [
          18.740058,
          47.7976576
        ]
      },
      "properties": {
        "id": 7435011839,
        "osm_type": "node",
        "name": "Ria Panzio",
        "tourism": "apartment"
      }
    },
    {
      "type": "Feature",
      "geometry": {
        "type": "Point",
        "coordinates": [
          18.7397506,
          47.797377
        ]
      },
      "properties": {
        "id": 7435023738,
        "osm_type": "node",
        "tourism": "apartment"
      }
    },
    {
      "type": "Feature",
      "geometry": {
        "type": "Point",
        "coordinates": [
          18.3076336,
          47.5722528
        ]
      },
      "properties": {
        "id": 7594625772,
        "osm_type": "node",
        "name": "Vitéz Dinnyés Zsigmond Református Konferenciatelep",
        "tourism": "hostel",
        "contact:phone": "+36 34 473 629",
        "contact:website": "http://www.refdunantul.hu/turisztika/informacio/mutat/24/"
      }
    },
    {
      "type": "Feature",
      "geometry": {
        "type": "Point",
        "coordinates": [
          18.7614595,
          47.8059649
        ]
      },
      "properties": {
        "id": 8185098642,
        "osm_type": "node",
        "name": "Levendula vendégház",
        "tourism": "guest_house"
      }
    },
    {
      "type": "Feature",
      "geometry": {
        "type": "Point",
        "coordinates": [
          18.7635062,
          47.8043923
        ]
      },
      "properties": {
        "id": 8185307657,
        "osm_type": "node",
        "name": "Santál Vendégház",
        "tourism": "guest_house"
      }
    },
    {
      "type": "Feature",
      "geometry": {
        "type": "Point",
        "coordinates": [
          18.8735851,
          47.7831599
        ]
      },
      "properties": {
        "id": 8398175392,
        "osm_type": "node",
        "name": "Kishíd Vendégház Pilismarót",
        "tourism": "guest_house",
        "phone": "+36 30 905 7266",
        "website": "https://kishidvendeghaz.business.site/"
      }
    },
    {
      "type": "Feature",
      "geometry": {
        "type": "Point",
        "coordinates": [
          18.7365527,
          47.802336
        ]
      },
      "properties": {
        "id": 8701041947,
        "osm_type": "node",
        "name": "Medúza Ház",
        "tourism": "guest_house"
      }
    },
    {
      "type": "Feature",
      "geometry": {
        "type": "Point",
        "coordinates": [
          18.8994083,
          47.7969563
        ]
      },
      "properties": {
        "id": 8757980211,
        "osm_type": "node",
        "name": "Alexandra Vendégház (Bezárt)",
        "tourism": "guest_house"
      }
    },
    {
      "type": "Feature",
      "geometry": {
        "type": "Point",
        "coordinates": [
          18.3356859,
          47.6582432
        ]
      },
      "properties": {
        "id": 8971409717,
        "osm_type": "node",
        "name": "Szallo",
        "tourism": "hostel"
      }
    },
    {
      "type": "Feature",
      "geometry": {
        "type": "Point",
        "coordinates": [
          18.5204816,
          47.6872984
        ]
      },
      "properties": {
        "id": 8993483894,
        "osm_type": "node",
        "name": "Marót-hegyi Sólyomfészek",
        "tourism": "hostel"
      }
    },
    {
      "type": "Feature",
      "geometry": {
        "type": "Point",
        "coordinates": [
          18.7403714,
          47.7841277
        ]
      },
      "properties": {
        "id": 9191318462,
        "osm_type": "node",
        "name": "Szent Anna Panzió",
        "tourism": "guest_house"
      }
    },
    {
      "type": "Feature",
      "geometry": {
        "type": "Point",
        "coordinates": [
          18.9028905,
          47.7657651
        ]
      },
      "properties": {
        "id": 9420040003,
        "osm_type": "node",
        "name": "Mandala Apartman Dömös",
        "tourism": "apartment",
        "contact:phone": "+36 30 200 3028"
      }
    },
    {
      "type": "Feature",
      "geometry": {
        "type": "Point",
        "coordinates": [
          18.9063621,
          47.7648713
        ]
      },
      "properties": {
        "id": 9426322445,
        "osm_type": "node",
        "name": "Panoráma vendégház",
        "tourism": "guest_house",
        "contact:phone": "+36 20 984 6073;+36 30 215 5756"
      }
    },
    {
      "type": "Feature",
      "geometry": {
        "type": "Point",
        "coordinates": [
          18.917862,
          47.7619547
        ]
      },
      "properties": {
        "id": 9431853178,
        "osm_type": "node",
        "name": "Dunazug Plusz Luxus Apartman Dömös",
        "tourism": "apartment"
      }
    },
    {
      "type": "Feature",
      "geometry": {
        "type": "Point",
        "coordinates": [
          18.3211444,
          47.7276719
        ]
      },
      "properties": {
        "id": 9759221341,
        "osm_type": "node",
        "tourism": "guest_house"
      }
    },
    {
      "type": "Feature",
      "geometry": {
        "type": "Point",
        "coordinates": [
          18.4181055,
          47.5719907
        ]
      },
      "properties": {
        "id": 9894046306,
        "osm_type": "node",
        "tourism": "hotel"
      }
    },
    {
      "type": "Feature",
      "geometry": {
        "type": "Point",
        "coordinates": [
          18.8742905,
          47.7849293
        ]
      },
      "properties": {
        "id": 9964539239,
        "osm_type": "node",
        "name": "Patakparti Vendégház (Benkovics Ház) Pilismarót",
        "tourism": "guest_house"
      }
    },
    {
      "type": "Feature",
      "geometry": {
        "type": "Point",
        "coordinates": [
          18.3224886,
          47.6964853
        ]
      },
      "properties": {
        "id": 9965845918,
        "osm_type": "node",
        "name": "Leshegy Vendégház",
        "tourism": "guest_house"
      }
    },
    {
      "type": "Feature",
      "geometry": {
        "type": "Point",
        "coordinates": [
          18.6022621,
          47.7249929
        ]
      },
      "properties": {
        "id": 9995126552,
        "osm_type": "node",
        "name": "Szalma vendégház",
        "tourism": "guest_house"
      }
    },
    {
      "type": "Feature",
      "geometry": {
        "type": "Point",
        "coordinates": [
          18.9057679,
          47.7747812
        ]
      },
      "properties": {
        "id": 10866804605,
        "osm_type": "node",
        "name": "vízmű vadkemping",
        "tourism": "camp_site"
      }
    },
    {
      "type": "Feature",
      "geometry": {
        "type": "Point",
        "coordinates": [
          18.6326596,
          47.749237
        ]
      },
      "properties": {
        "id": 10873866366,
        "osm_type": "node",
        "name": "Öreg halász fogado",
        "tourism": "guest_house"
      }
    },
    {
      "type": "Feature",
      "geometry": {
        "type": "Point",
        "coordinates": [
          18.3249857,
          47.7309022
        ]
      },
      "properties": {
        "id": 11084386199,
        "osm_type": "node",
        "tourism": "apartment"
      }
    },
    {
      "type": "Feature",
      "geometry": {
        "type": "Point",
        "coordinates": [
          18.4487468,
          47.7575391
        ]
      },
      "properties": {
        "id": 11192470567,
        "osm_type": "node",
        "name": "Ica Vendégház",
        "tourism": "guest_house",
        "phone": "+36 20 378 3700"
      }
    },
    {
      "type": "Feature",
      "geometry": {
        "type": "Point",
        "coordinates": [
          18.8732287,
          47.7788885
        ]
      },
      "properties": {
        "id": 11277807554,
        "osm_type": "node",
        "name": "Kék Lámpás Vendégház",
        "tourism": "guest_house",
        "website": "https://keklampasvendeghaz.hu/"
      }
    },
    {
      "type": "Feature",
      "geometry": {
        "type": "Point",
        "coordinates": [
          18.7639406,
          47.7962279
        ]
      },
      "properties": {
        "id": 11426714603,
        "osm_type": "node",
        "name": "Panoráma apartman",
        "tourism": "apartment",
        "website": "http://www.panoramaapartmanesztergom.hu/"
      }
    },
    {
      "type": "Feature",
      "geometry": {
        "type": "Point",
        "coordinates": [
          18.6564445,
          47.7204974
        ]
      },
      "properties": {
        "id": 11494094971,
        "osm_type": "node",
        "name": "Alkotóház szobák",
        "tourism": "motel"
      }
    },
    {
      "type": "Feature",
      "geometry": {
        "type": "Point",
        "coordinates": [
          18.1137621,
          47.7453644
        ]
      },
      "properties": {
        "id": 11792912501,
        "osm_type": "node",
        "name": "Aranytál Panzió",
        "tourism": "hotel",
        "contact:website": "https://www.aranytal.hu/aranytal-panzio/"
      }
    },
    {
      "type": "Feature",
      "geometry": {
        "type": "Point",
        "coordinates": [
          17.9916693,
          47.512554
        ]
      },
      "properties": {
        "id": 12108501646,
        "osm_type": "node",
        "name": "Petőcz Vendégház",
        "tourism": "guest_house",
        "contact:phone": "+36 30 411 3912",
        "contact:website": "https://petocz.hu/"
      }
    },
    {
      "type": "Feature",
      "geometry": {
        "type": "Point",
        "coordinates": [
          18.5171449,
          47.6028409
        ]
      },
      "properties": {
        "id": 13042773283,
        "osm_type": "node",
        "name": "Kenderesi szállás",
        "tourism": "guest_house"
      }
    },
    {
      "type": "Feature",
      "geometry": {
        "type": "Point",
        "coordinates": [
          18.5114519,
          47.6110446
        ]
      },
      "properties": {
        "id": 13042773288,
        "osm_type": "node",
        "name": "Lindenhof Apartman",
        "tourism": "guest_house"
      }
    },
    {
      "type": "Feature",
      "geometry": {
        "type": "Point",
        "coordinates": [
          18.5057576,
          47.6102616
        ]
      },
      "properties": {
        "id": 13042773290,
        "osm_type": "node",
        "name": "Bodzaház Apartman",
        "tourism": "guest_house"
      }
    },
    {
      "type": "Feature",
      "geometry": {
        "type": "Point",
        "coordinates": [
          18.5075936,
          47.6056522
        ]
      },
      "properties": {
        "id": 13042773292,
        "osm_type": "node",
        "name": "Rózsa Strasse",
        "tourism": "guest_house"
      }
    },
    {
      "type": "Feature",
      "geometry": {
        "type": "Point",
        "coordinates": [
          18.4548593,
          47.6272254
        ]
      },
      "properties": {
        "id": 13048441542,
        "osm_type": "node",
        "name": "Csillavirág vendégház",
        "tourism": "guest_house",
        "contact:website": "http://www.csillagviragvendeghaz.hu/"
      }
    },
    {
      "type": "Feature",
      "geometry": {
        "type": "Point",
        "coordinates": [
          18.4544402,
          47.6275566
        ]
      },
      "properties": {
        "id": 13048441555,
        "osm_type": "node",
        "name": "Szent Antal Zarándokszállás",
        "tourism": "guest_house"
      }
    },
    {
      "type": "Feature",
      "geometry": {
        "type": "Point",
        "coordinates": [
          18.3811516,
          47.6207038
        ]
      },
      "properties": {
        "id": 13057822839,
        "osm_type": "node",
        "name": "Szoba kiadó",
        "tourism": "guest_house"
      }
    },
    {
      "type": "Feature",
      "geometry": {
        "type": "Point",
        "coordinates": [
          18.377599,
          47.6244989
        ]
      },
      "properties": {
        "id": 13061877991,
        "osm_type": "node",
        "name": "Katalin vendégház",
        "tourism": "guest_house"
      }
    },
    {
      "type": "Feature",
      "geometry": {
        "type": "Point",
        "coordinates": [
          18.447331,
          47.6341099
        ]
      },
      "properties": {
        "id": 13442734538,
        "osm_type": "node",
        "name": "Vendégház",
        "tourism": "guest_house"
      }
    },
    {
      "type": "Feature",
      "geometry": {
        "type": "Point",
        "coordinates": [
          18.3203311,
          47.6498766
        ]
      },
      "properties": {
        "id": 13470957848,
        "osm_type": "node",
        "name": "Váralja vendégház",
        "tourism": "guest_house",
        "contact:phone": "+36-20-992-1432; +36-20-424-1369",
        "contact:website": "https://varaljatata.hu/"
      }
    },
    {
      "type": "Feature",
      "geometry": {
        "type": "Point",
        "coordinates": [
          18.3167095,
          47.6479928
        ]
      },
      "properties": {
        "id": 13473358246,
        "osm_type": "node",
        "name": "Várkanyar apartmanok",
        "tourism": "guest_house"
      }
    },
    {
      "type": "Feature",
      "geometry": {
        "type": "Point",
        "coordinates": [
          18.3138013,
          47.6421795
        ]
      },
      "properties": {
        "id": 13478933899,
        "osm_type": "node",
        "name": "K4 Vendégház",
        "tourism": "guest_house",
        "contact:website": "https://k4vendeghaz.webnode.hu/"
      }
    },
    {
      "type": "Feature",
      "geometry": {
        "type": "Point",
        "coordinates": [
          18.7197745,
          47.7422402
        ]
      },
      "properties": {
        "id": 33607295,
        "osm_type": "way",
        "name": "Oktáv Hotel",
        "tourism": "hotel"
      }
    },
    {
      "type": "Feature",
      "geometry": {
        "type": "Point",
        "coordinates": [
          18.4453124,
          47.5602042
        ]
      },
      "properties": {
        "id": 114984683,
        "osm_type": "way",
        "name": "Start szálló",
        "tourism": "motel",
        "phone": "+36 34 324 893",
        "website": "http://milla.hu"
      }
    },
    {
      "type": "Feature",
      "geometry": {
        "type": "Point",
        "coordinates": [
          18.4269144,
          47.5709135
        ]
      },
      "properties": {
        "id": 120227700,
        "osm_type": "way",
        "name": "Romantik Étterem & Panzió",
        "tourism": "motel"
      }
    },
    {
      "type": "Feature",
      "geometry": {
        "type": "Point",
        "coordinates": [
          18.4250482,
          47.5727627
        ]
      },
      "properties": {
        "id": 120654055,
        "osm_type": "way",
        "name": "Nomád Camping",
        "tourism": "camp_site"
      }
    },
    {
      "type": "Feature",
      "geometry": {
        "type": "Point",
        "coordinates": [
          18.1130587,
          47.7456757
        ]
      },
      "properties": {
        "id": 134164060,
        "osm_type": "way",
        "name": "Hotel Corner",
        "tourism": "hotel",
        "website": "http://www.hotelcorner.hu/"
      }
    },
    {
      "type": "Feature",
      "geometry": {
        "type": "Point",
        "coordinates": [
          18.3465707,
          47.617173
        ]
      },
      "properties": {
        "id": 147880049,
        "osm_type": "way",
        "name": "Old Lake Golf Hotel & Club",
        "tourism": "hotel"
      }
    },
    {
      "type": "Feature",
      "geometry": {
        "type": "Point",
        "coordinates": [
          18.4535957,
          47.5849644
        ]
      },
      "properties": {
        "id": 217369667,
        "osm_type": "way",
        "name": "Vadászház",
        "tourism": "guest_house"
      }
    },
    {
      "type": "Feature",
      "geometry": {
        "type": "Point",
        "coordinates": [
          18.3057024,
          47.6706268
        ]
      },
      "properties": {
        "id": 228943716,
        "osm_type": "way",
        "name": "Fényes Kemping",
        "tourism": "camp_site",
        "tents": "yes"
      }
    },
    {
      "type": "Feature",
      "geometry": {
        "type": "Point",
        "coordinates": [
          18.3382277,
          47.4227964
        ]
      },
      "properties": {
        "id": 231677519,
        "osm_type": "way",
        "name": "Mindszenti turistaház",
        "tourism": "guest_house",
        "contact:phone": "+36 20 399 7873;+36 20 473 2638",
        "website": "http://www.falusivendegvaro.com/index.php?menuid=71&id=4522"
      }
    },
    {
      "type": "Feature",
      "geometry": {
        "type": "Point",
        "coordinates": [
          18.3335383,
          47.6455196
        ]
      },
      "properties": {
        "id": 233400860,
        "osm_type": "way",
        "name": "Tata Panzió",
        "tourism": "hotel",
        "phone": "+36 20 447 3423",
        "website": "http://www.tatapanzio.com"
      }
    },
    {
      "type": "Feature",
      "geometry": {
        "type": "Point",
        "coordinates": [
          18.3778687,
          47.6645582
        ]
      },
      "properties": {
        "id": 256517559,
        "osm_type": "way",
        "name": "Hotel Melitta Villa",
        "tourism": "hotel",
        "contact:phone": "+36 30-549-0360",
        "website": "http://www.melittavilla.hu"
      }
    },
    {
      "type": "Feature",
      "geometry": {
        "type": "Point",
        "coordinates": [
          18.4061091,
          47.7449682
        ]
      },
      "properties": {
        "id": 257822859,
        "osm_type": "way",
        "name": "Éden Camping",
        "tourism": "camp_site",
        "tents": "yes",
        "phone": "+36 33 474 183",
        "website": "https://www.edencamping.com/"
      }
    },
    {
      "type": "Feature",
      "geometry": {
        "type": "Point",
        "coordinates": [
          18.3419045,
          47.6159988
        ]
      },
      "properties": {
        "id": 270496505,
        "osm_type": "way",
        "name": "Sylvia Panzió",
        "tourism": "motel"
      }
    },
    {
      "type": "Feature",
      "geometry": {
        "type": "Point",
        "coordinates": [
          18.3349958,
          47.644214
        ]
      },
      "properties": {
        "id": 272530778,
        "osm_type": "way",
        "name": "Casablanca Panzió",
        "tourism": "hotel",
        "phone": "+36 34 489 586",
        "contact:website": "https://casablancapanziotata.hu/"
      }
    },
    {
      "type": "Feature",
      "geometry": {
        "type": "Point",
        "coordinates": [
          18.4898616,
          47.7495021
        ]
      },
      "properties": {
        "id": 284467730,
        "osm_type": "way",
        "name": "Forest vendégház",
        "tourism": "guest_house"
      }
    },
    {
      "type": "Feature",
      "geometry": {
        "type": "Point",
        "coordinates": [
          18.4967078,
          47.7479373
        ]
      },
      "properties": {
        "id": 284471603,
        "osm_type": "way",
        "name": "Kilátó vendégház",
        "tourism": "apartment",
        "phone": "+36 30 984 5110",
        "website": "http://kilatovendeghaz.hupont.hu/"
      }
    },
    {
      "type": "Feature",
      "geometry": {
        "type": "Point",
        "coordinates": [
          18.4395434,
          47.6726994
        ]
      },
      "properties": {
        "id": 287775900,
        "osm_type": "way",
        "tourism": "guest_house"
      }
    },
    {
      "type": "Feature",
      "geometry": {
        "type": "Point",
        "coordinates": [
          18.3289079,
          47.6507182
        ]
      },
      "properties": {
        "id": 288127207,
        "osm_type": "way",
        "name": "Hotel Arnold",
        "tourism": "hotel",
        "contact:phone": "+36 34 588 028",
        "contact:website": "https://www.hotelarnold.hu/"
      }
    },
    {
      "type": "Feature",
      "geometry": {
        "type": "Point",
        "coordinates": [
          18.0628109,
          47.5702625
        ]
      },
      "properties": {
        "id": 291845891,
        "osm_type": "way",
        "name": "Szeber Panzio Restaurant",
        "tourism": "motel",
        "opening_hours": "closed"
      }
    },
    {
      "type": "Feature",
      "geometry": {
        "type": "Point",
        "coordinates": [
          18.3186971,
          47.6457166
        ]
      },
      "properties": {
        "id": 300915462,
        "osm_type": "way",
        "name": "Czérna vendégház",
        "tourism": "motel"
      }
    },
    {
      "type": "Feature",
      "geometry": {
        "type": "Point",
        "coordinates": [
          18.9118141,
          47.757456
        ]
      },
      "properties": {
        "id": 329660439,
        "osm_type": "way",
        "name": "Malom vendégház",
        "tourism": "chalet",
        "contact:website": "https://domosvendeghaz.hu/"
      }
    },
    {
      "type": "Feature",
      "geometry": {
        "type": "Point",
        "coordinates": [
          18.9058382,
          47.7543757
        ]
      },
      "properties": {
        "id": 329660452,
        "osm_type": "way",
        "name": "Moha és Páfrány kabinház a Rámnál",
        "tourism": "guest_house"
      }
    },
    {
      "type": "Feature",
      "geometry": {
        "type": "Point",
        "coordinates": [
          18.2155532,
          47.6060002
        ]
      },
      "properties": {
        "id": 338163539,
        "osm_type": "way",
        "name": "Henzer fogadó",
        "tourism": "motel"
      }
    },
    {
      "type": "Feature",
      "geometry": {
        "type": "Point",
        "coordinates": [
          18.5863941,
          47.7088738
        ]
      },
      "properties": {
        "id": 368347056,
        "osm_type": "way",
        "name": "Szalézi Ifjusági Ház",
        "tourism": "hostel",
        "website": "https://www.pelifoldszentkereszt.hu/lelkigyakorlatos-haz/szallas-es-ellatas/"
      }
    },
    {
      "type": "Feature",
      "geometry": {
        "type": "Point",
        "coordinates": [
          18.4946686,
          47.5925953
        ]
      },
      "properties": {
        "id": 370533321,
        "osm_type": "way",
        "tourism": "chalet"
      }
    },
    {
      "type": "Feature",
      "geometry": {
        "type": "Point",
        "coordinates": [
          18.4948742,
          47.5925977
        ]
      },
      "properties": {
        "id": 370533322,
        "osm_type": "way",
        "tourism": "chalet"
      }
    },
    {
      "type": "Feature",
      "geometry": {
        "type": "Point",
        "coordinates": [
          18.4950482,
          47.5925216
        ]
      },
      "properties": {
        "id": 370533323,
        "osm_type": "way",
        "tourism": "chalet"
      }
    },
    {
      "type": "Feature",
      "geometry": {
        "type": "Point",
        "coordinates": [
          18.495026,
          47.5923866
        ]
      },
      "properties": {
        "id": 370533324,
        "osm_type": "way",
        "tourism": "chalet"
      }
    },
    {
      "type": "Feature",
      "geometry": {
        "type": "Point",
        "coordinates": [
          18.4948904,
          47.5922859
        ]
      },
      "properties": {
        "id": 370533325,
        "osm_type": "way",
        "tourism": "chalet"
      }
    },
    {
      "type": "Feature",
      "geometry": {
        "type": "Point",
        "coordinates": [
          18.5878568,
          47.7088975
        ]
      },
      "properties": {
        "id": 373426743,
        "osm_type": "way",
        "name": "Szalézi Rendház",
        "tourism": "guest_house",
        "website": "https://www.szentkereszt.szaleziak.hu/"
      }
    },
    {
      "type": "Feature",
      "geometry": {
        "type": "Point",
        "coordinates": [
          18.7397312,
          47.7983343
        ]
      },
      "properties": {
        "id": 392733042,
        "osm_type": "way",
        "name": "Adalbert Hotel Szent Tamás ház",
        "tourism": "hotel"
      }
    },
    {
      "type": "Feature",
      "geometry": {
        "type": "Point",
        "coordinates": [
          18.7449643,
          47.774763
        ]
      },
      "properties": {
        "id": 393267991,
        "osm_type": "way",
        "name": "Schweidel Szálló",
        "tourism": "hotel"
      }
    },
    {
      "type": "Feature",
      "geometry": {
        "type": "Point",
        "coordinates": [
          18.7330131,
          47.7930927
        ]
      },
      "properties": {
        "id": 393272001,
        "osm_type": "way",
        "name": "Rugby Clubhotel",
        "tourism": "hotel"
      }
    },
    {
      "type": "Feature",
      "geometry": {
        "type": "Point",
        "coordinates": [
          18.7373901,
          47.7937716
        ]
      },
      "properties": {
        "id": 393274625,
        "osm_type": "way",
        "name": "Grand Hotel Esztergom",
        "tourism": "hotel",
        "contact:website": "https://grandhotelesztergom.hu"
      }
    },
    {
      "type": "Feature",
      "geometry": {
        "type": "Point",
        "coordinates": [
          18.7333792,
          47.7808619
        ]
      },
      "properties": {
        "id": 393580132,
        "osm_type": "way",
        "name": "Egom Medhotel",
        "tourism": "hotel"
      }
    },
    {
      "type": "Feature",
      "geometry": {
        "type": "Point",
        "coordinates": [
          18.7347457,
          47.7955922
        ]
      },
      "properties": {
        "id": 393900696,
        "osm_type": "way",
        "name": "Hotel Esztergom",
        "tourism": "hotel"
      }
    },
    {
      "type": "Feature",
      "geometry": {
        "type": "Point",
        "coordinates": [
          18.5059652,
          47.6046171
        ]
      },
      "properties": {
        "id": 398933240,
        "osm_type": "way",
        "name": "Blanka apartan és Szent Jakab zarándokszállás",
        "tourism": "guest_house"
      }
    },
    {
      "type": "Feature",
      "geometry": {
        "type": "Point",
        "coordinates": [
          18.5109358,
          47.6067926
        ]
      },
      "properties": {
        "id": 398933305,
        "osm_type": "way",
        "name": "Werli Residenz",
        "tourism": "hotel",
        "website": "http://www.residenz-werli.hu/"
      }
    },
    {
      "type": "Feature",
      "geometry": {
        "type": "Point",
        "coordinates": [
          18.8065287,
          47.7142547
        ]
      },
      "properties": {
        "id": 405814836,
        "osm_type": "way",
        "name": "Vitek vendégház",
        "tourism": "guest_house",
        "contact:phone": "+36-30-258-8316"
      }
    },
    {
      "type": "Feature",
      "geometry": {
        "type": "Point",
        "coordinates": [
          18.7937952,
          47.7131546
        ]
      },
      "properties": {
        "id": 405891105,
        "osm_type": "way",
        "name": "Kesztölci Erdészház",
        "tourism": "hostel"
      }
    },
    {
      "type": "Feature",
      "geometry": {
        "type": "Point",
        "coordinates": [
          18.7717767,
          47.7869367
        ]
      },
      "properties": {
        "id": 419777465,
        "osm_type": "way",
        "name": "Brilli Gyula menedékház",
        "tourism": "alpine_hut",
        "phone": "+36 30 335 3325",
        "website": "https://www.vaskapuesztergom.hu/"
      }
    },
    {
      "type": "Feature",
      "geometry": {
        "type": "Point",
        "coordinates": [
          18.736604,
          47.8014423
        ]
      },
      "properties": {
        "id": 432563148,
        "osm_type": "way",
        "name": "Hotel Adalbert - Boldog Meszlényi Zoltán Ház",
        "tourism": "hotel",
        "contact:phone": "+36 33 541 972",
        "contact:website": "http://www.szentadalbert.hu/hotel.php"
      }
    },
    {
      "type": "Feature",
      "geometry": {
        "type": "Point",
        "coordinates": [
          18.7375265,
          47.7971079
        ]
      },
      "properties": {
        "id": 433294577,
        "osm_type": "way",
        "name": "Kaleidoszkóp ház",
        "tourism": "hostel",
        "website": "http://kaleidoszkophaz.hu/index.php/hu/hostel"
      }
    },
    {
      "type": "Feature",
      "geometry": {
        "type": "Point",
        "coordinates": [
          18.4473475,
          47.705395
        ]
      },
      "properties": {
        "id": 460052507,
        "osm_type": "way",
        "name": "Alsóvadácsi vadászház",
        "tourism": "guest_house"
      }
    },
    {
      "type": "Feature",
      "geometry": {
        "type": "Point",
        "coordinates": [
          18.7414796,
          47.7128803
        ]
      },
      "properties": {
        "id": 464981290,
        "osm_type": "way",
        "name": "Apartmanház Dorog",
        "tourism": "apartment"
      }
    },
    {
      "type": "Feature",
      "geometry": {
        "type": "Point",
        "coordinates": [
          18.8759738,
          47.7806805
        ]
      },
      "properties": {
        "id": 477355125,
        "osm_type": "way",
        "name": "Vár-Lak Vendégház",
        "tourism": "guest_house",
        "website": "https://xn--vr-lakpilismart-njb33a.hu/"
      }
    },
    {
      "type": "Feature",
      "geometry": {
        "type": "Point",
        "coordinates": [
          18.8296216,
          47.6735321
        ]
      },
      "properties": {
        "id": 482989091,
        "osm_type": "way",
        "name": "Kelemen Majorság Holiday Home",
        "tourism": "guest_house",
        "phone": "+36 20 915 4715",
        "website": "https://kelemenmajorsag.hu/"
      }
    },
    {
      "type": "Feature",
      "geometry": {
        "type": "Point",
        "coordinates": [
          18.7548716,
          47.8045255
        ]
      },
      "properties": {
        "id": 483099811,
        "osm_type": "way",
        "name": "Lila Akác Panzió",
        "tourism": "motel"
      }
    },
    {
      "type": "Feature",
      "geometry": {
        "type": "Point",
        "coordinates": [
          18.910736,
          47.7635232
        ]
      },
      "properties": {
        "id": 483285525,
        "osm_type": "way",
        "name": "Dunakanyar Panzió",
        "tourism": "motel"
      }
    },
    {
      "type": "Feature",
      "geometry": {
        "type": "Point",
        "coordinates": [
          18.9141878,
          47.7648363
        ]
      },
      "properties": {
        "id": 484189539,
        "osm_type": "way",
        "name": "Dömös Camping",
        "tourism": "camp_site",
        "opening_hours": "May 01-Sep 15 00:00-23:59",
        "phone": "+36 33 482 800",
        "website": "http://www.domoscamping.hu"
      }
    },
    {
      "type": "Feature",
      "geometry": {
        "type": "Point",
        "coordinates": [
          18.913077,
          47.7613494
        ]
      },
      "properties": {
        "id": 485538019,
        "osm_type": "way",
        "name": "Héder vendégház",
        "tourism": "guest_house"
      }
    },
    {
      "type": "Feature",
      "geometry": {
        "type": "Point",
        "coordinates": [
          18.4655109,
          47.5121124
        ]
      },
      "properties": {
        "id": 494865560,
        "osm_type": "way",
        "name": "Vadmacska Vadászház",
        "tourism": "guest_house",
        "phone": "+36 30 983 8731",
        "website": "http://vadmacskavadaszhaz.hu"
      }
    },
    {
      "type": "Feature",
      "geometry": {
        "type": "Point",
        "coordinates": [
          18.7358186,
          47.781193
        ]
      },
      "properties": {
        "id": 499927579,
        "osm_type": "way",
        "name": "Róza Hotel",
        "tourism": "hotel",
        "phone": "+36 33 630 005"
      }
    },
    {
      "type": "Feature",
      "geometry": {
        "type": "Point",
        "coordinates": [
          18.401257,
          47.4717249
        ]
      },
      "properties": {
        "id": 504380021,
        "osm_type": "way",
        "name": "Várgesztesi Vadászház",
        "tourism": "guest_house",
        "contact:phone": "+36 34 494 006",
        "contact:website": "http://vvadaszhaz.atw.hu/",
        "check_date": "2024-08-31"
      }
    },
    {
      "type": "Feature",
      "geometry": {
        "type": "Point",
        "coordinates": [
          18.3009833,
          47.4442025
        ]
      },
      "properties": {
        "id": 504403299,
        "osm_type": "way",
        "tourism": "chalet"
      }
    },
    {
      "type": "Feature",
      "geometry": {
        "type": "Point",
        "coordinates": [
          18.0392493,
          47.7237922
        ]
      },
      "properties": {
        "id": 508269084,
        "osm_type": "way",
        "tourism": "camp_site"
      }
    },
    {
      "type": "Feature",
      "geometry": {
        "type": "Point",
        "coordinates": [
          18.5016418,
          47.6118252
        ]
      },
      "properties": {
        "id": 512395864,
        "osm_type": "way",
        "name": "Sancho",
        "tourism": "hostel"
      }
    },
    {
      "type": "Feature",
      "geometry": {
        "type": "Point",
        "coordinates": [
          18.859004,
          47.7358375
        ]
      },
      "properties": {
        "id": 515039933,
        "osm_type": "way",
        "name": "Hoffmann Kunyhó-Vadászház",
        "tourism": "guest_house",
        "website": "http://hunting.parkerdo.hu/hu/?portfolio-item=498"
      }
    },
    {
      "type": "Feature",
      "geometry": {
        "type": "Point",
        "coordinates": [
          18.8063036,
          47.8140204
        ]
      },
      "properties": {
        "id": 550401561,
        "osm_type": "way",
        "name": "Hotel Bellevue",
        "tourism": "hotel",
        "contact:phone": "+36 33 510 810"
      }
    },
    {
      "type": "Feature",
      "geometry": {
        "type": "Point",
        "coordinates": [
          18.5190537,
          47.643447
        ]
      },
      "properties": {
        "id": 561001709,
        "osm_type": "way",
        "name": "Sport Hotel",
        "tourism": "motel",
        "website": "http://www.sportvendeglo.hu"
      }
    },
    {
      "type": "Feature",
      "geometry": {
        "type": "Point",
        "coordinates": [
          18.7563932,
          47.7792443
        ]
      },
      "properties": {
        "id": 561845299,
        "osm_type": "way",
        "name": "Galagonyás Vendégház",
        "tourism": "guest_house"
      }
    },
    {
      "type": "Feature",
      "geometry": {
        "type": "Point",
        "coordinates": [
          18.8374042,
          47.7591544
        ]
      },
      "properties": {
        "id": 568791978,
        "osm_type": "way",
        "name": "Hamvaskői Vadászház",
        "tourism": "guest_house",
        "contact:phone": "+36 20 984 6073"
      }
    },
    {
      "type": "Feature",
      "geometry": {
        "type": "Point",
        "coordinates": [
          18.7325385,
          47.7921419
        ]
      },
      "properties": {
        "id": 570542917,
        "osm_type": "way",
        "name": "Szalma Panzió",
        "tourism": "guest_house",
        "website": "https://szalmapanzio.hu/"
      }
    },
    {
      "type": "Feature",
      "geometry": {
        "type": "Point",
        "coordinates": [
          18.3843939,
          47.6074867
        ]
      },
      "properties": {
        "id": 614465587,
        "osm_type": "way",
        "name": "Top Hotel",
        "tourism": "hotel",
        "phone": "+36 30 172 3562",
        "website": "https://hoteltop.hu"
      }
    },
    {
      "type": "Feature",
      "geometry": {
        "type": "Point",
        "coordinates": [
          18.3780052,
          47.7254346
        ]
      },
      "properties": {
        "id": 621800815,
        "osm_type": "way",
        "tourism": "hotel",
        "phone": "+36 70 774 6663",
        "website": "https://hilltopborbirtok.hu/szallas/"
      }
    },
    {
      "type": "Feature",
      "geometry": {
        "type": "Point",
        "coordinates": [
          18.3778959,
          47.7063916
        ]
      },
      "properties": {
        "id": 621806861,
        "osm_type": "way",
        "tourism": "apartment"
      }
    },
    {
      "type": "Feature",
      "geometry": {
        "type": "Point",
        "coordinates": [
          18.379395,
          47.7078446
        ]
      },
      "properties": {
        "id": 621806862,
        "osm_type": "way",
        "tourism": "apartment"
      }
    },
    {
      "type": "Feature",
      "geometry": {
        "type": "Point",
        "coordinates": [
          18.3793024,
          47.7081296
        ]
      },
      "properties": {
        "id": 621807341,
        "osm_type": "way",
        "tourism": "apartment"
      }
    },
    {
      "type": "Feature",
      "geometry": {
        "type": "Point",
        "coordinates": [
          18.379215,
          47.7084142
        ]
      },
      "properties": {
        "id": 621807342,
        "osm_type": "way",
        "tourism": "apartment"
      }
    },
    {
      "type": "Feature",
      "geometry": {
        "type": "Point",
        "coordinates": [
          18.3787934,
          47.7081906
        ]
      },
      "properties": {
        "id": 621807343,
        "osm_type": "way",
        "tourism": "apartment"
      }
    },
    {
      "type": "Feature",
      "geometry": {
        "type": "Point",
        "coordinates": [
          18.3787433,
          47.7078647
        ]
      },
      "properties": {
        "id": 621808273,
        "osm_type": "way",
        "tourism": "apartment"
      }
    },
    {
      "type": "Feature",
      "geometry": {
        "type": "Point",
        "coordinates": [
          18.3785422,
          47.7075997
        ]
      },
      "properties": {
        "id": 621808274,
        "osm_type": "way",
        "tourism": "apartment"
      }
    },
    {
      "type": "Feature",
      "geometry": {
        "type": "Point",
        "coordinates": [
          18.3783159,
          47.7071876
        ]
      },
      "properties": {
        "id": 621808275,
        "osm_type": "way",
        "tourism": "apartment"
      }
    },
    {
      "type": "Feature",
      "geometry": {
        "type": "Point",
        "coordinates": [
          18.3782019,
          47.7069152
        ]
      },
      "properties": {
        "id": 621808276,
        "osm_type": "way",
        "tourism": "apartment"
      }
    },
    {
      "type": "Feature",
      "geometry": {
        "type": "Point",
        "coordinates": [
          18.3780964,
          47.7066416
        ]
      },
      "properties": {
        "id": 621808277,
        "osm_type": "way",
        "tourism": "apartment"
      }
    },
    {
      "type": "Feature",
      "geometry": {
        "type": "Point",
        "coordinates": [
          18.3780303,
          47.7076641
        ]
      },
      "properties": {
        "id": 621809159,
        "osm_type": "way",
        "tourism": "apartment"
      }
    },
    {
      "type": "Feature",
      "geometry": {
        "type": "Point",
        "coordinates": [
          18.3781969,
          47.7079379
        ]
      },
      "properties": {
        "id": 621809160,
        "osm_type": "way",
        "tourism": "apartment"
      }
    },
    {
      "type": "Feature",
      "geometry": {
        "type": "Point",
        "coordinates": [
          18.3783628,
          47.7082575
        ]
      },
      "properties": {
        "id": 621809161,
        "osm_type": "way",
        "tourism": "apartment"
      }
    },
    {
      "type": "Feature",
      "geometry": {
        "type": "Point",
        "coordinates": [
          18.3784507,
          47.7085505
        ]
      },
      "properties": {
        "id": 621809162,
        "osm_type": "way",
        "tourism": "apartment"
      }
    },
    {
      "type": "Feature",
      "geometry": {
        "type": "Point",
        "coordinates": [
          18.3781155,
          47.7086903
        ]
      },
      "properties": {
        "id": 621809164,
        "osm_type": "way",
        "tourism": "apartment"
      }
    },
    {
      "type": "Feature",
      "geometry": {
        "type": "Point",
        "coordinates": [
          18.3774612,
          47.7073002
        ]
      },
      "properties": {
        "id": 621809668,
        "osm_type": "way",
        "tourism": "apartment"
      }
    },
    {
      "type": "Feature",
      "geometry": {
        "type": "Point",
        "coordinates": [
          18.3780354,
          47.7084129
        ]
      },
      "properties": {
        "id": 622106921,
        "osm_type": "way",
        "tourism": "apartment"
      }
    },
    {
      "type": "Feature",
      "geometry": {
        "type": "Point",
        "coordinates": [
          18.3779105,
          47.7081218
        ]
      },
      "properties": {
        "id": 622106922,
        "osm_type": "way",
        "tourism": "apartment"
      }
    },
    {
      "type": "Feature",
      "geometry": {
        "type": "Point",
        "coordinates": [
          18.3777383,
          47.7078552
        ]
      },
      "properties": {
        "id": 622106923,
        "osm_type": "way",
        "tourism": "apartment"
      }
    },
    {
      "type": "Feature",
      "geometry": {
        "type": "Point",
        "coordinates": [
          18.3775839,
          47.7075801
        ]
      },
      "properties": {
        "id": 622106924,
        "osm_type": "way",
        "tourism": "apartment"
      }
    },
    {
      "type": "Feature",
      "geometry": {
        "type": "Point",
        "coordinates": [
          18.7172294,
          47.6937798
        ]
      },
      "properties": {
        "id": 630033280,
        "osm_type": "way",
        "name": "Ladislaus Schnaps-Haus Falusi Vendégház",
        "tourism": "apartment"
      }
    },
    {
      "type": "Feature",
      "geometry": {
        "type": "Point",
        "coordinates": [
          18.114326,
          47.6738816
        ]
      },
      "properties": {
        "id": 660754076,
        "osm_type": "way",
        "name": "Laczházy Panzió Restaurant",
        "tourism": "hotel"
      }
    },
    {
      "type": "Feature",
      "geometry": {
        "type": "Point",
        "coordinates": [
          18.1137308,
          47.6728425
        ]
      },
      "properties": {
        "id": 660754084,
        "osm_type": "way",
        "name": "Laczházy Panzió Restaurant",
        "tourism": "hotel"
      }
    },
    {
      "type": "Feature",
      "geometry": {
        "type": "Point",
        "coordinates": [
          18.3323369,
          47.6270468
        ]
      },
      "properties": {
        "id": 712245513,
        "osm_type": "way",
        "name": "Hotel Gottwald",
        "tourism": "hotel",
        "phone": "+36 34 586 114",
        "website": "https://hotelgottwald.hu/"
      }
    },
    {
      "type": "Feature",
      "geometry": {
        "type": "Point",
        "coordinates": [
          18.3270405,
          47.6481099
        ]
      },
      "properties": {
        "id": 718984382,
        "osm_type": "way",
        "name": "Malom és Kacsa",
        "tourism": "hotel",
        "phone": "+36203214664",
        "website": "https://malomeskacsa.hu"
      }
    },
    {
      "type": "Feature",
      "geometry": {
        "type": "Point",
        "coordinates": [
          18.3397542,
          47.6441506
        ]
      },
      "properties": {
        "id": 735139696,
        "osm_type": "way",
        "name": "Apartman-Tata",
        "tourism": "apartment",
        "phone": "+36 30 116 4516",
        "website": "http://apartman-tata.hu/"
      }
    },
    {
      "type": "Feature",
      "geometry": {
        "type": "Point",
        "coordinates": [
          18.5879609,
          47.7091614
        ]
      },
      "properties": {
        "id": 823220610,
        "osm_type": "way",
        "name": "Don Bosco Ház",
        "tourism": "guest_house",
        "website": "https://www.szentkereszt.szaleziak.hu/"
      }
    },
    {
      "type": "Feature",
      "geometry": {
        "type": "Point",
        "coordinates": [
          18.735383,
          47.7945759
        ]
      },
      "properties": {
        "id": 920258676,
        "osm_type": "way",
        "name": "Mediterraneo Luxury Room Panzió",
        "tourism": "apartment"
      }
    },
    {
      "type": "Feature",
      "geometry": {
        "type": "Point",
        "coordinates": [
          18.5212886,
          47.6870105
        ]
      },
      "properties": {
        "id": 971677949,
        "osm_type": "way",
        "tourism": "camp_site"
      }
    },
    {
      "type": "Feature",
      "geometry": {
        "type": "Point",
        "coordinates": [
          18.3558506,
          47.7366993
        ]
      },
      "properties": {
        "id": 1082283843,
        "osm_type": "way",
        "name": "Neszmély hajó",
        "tourism": "hostel",
        "website": "http://www.hajoskanzen.hu/szaacutellaacutes.html"
      }
    },
    {
      "type": "Feature",
      "geometry": {
        "type": "Point",
        "coordinates": [
          18.3653013,
          47.5102165
        ]
      },
      "properties": {
        "id": 1165308984,
        "osm_type": "way",
        "name": "Gubicza Vendégház",
        "tourism": "guest_house",
        "contact:website": "https://www.gubiczavendeghaz.hu/"
      }
    },
    {
      "type": "Feature",
      "geometry": {
        "type": "Point",
        "coordinates": [
          18.3361557,
          47.6227429
        ]
      },
      "properties": {
        "id": 1288845647,
        "osm_type": "way",
        "name": "Zöld Kocsi Vendégház",
        "tourism": "guest_house"
      }
    },
    {
      "type": "Feature",
      "geometry": {
        "type": "Point",
        "coordinates": [
          18.3362458,
          47.6225838
        ]
      },
      "properties": {
        "id": 1288846602,
        "osm_type": "way",
        "name": "Zöld Kocsi Apartman",
        "tourism": "apartment"
      }
    },
    {
      "type": "Feature",
      "geometry": {
        "type": "Point",
        "coordinates": [
          18.0678608,
          47.7536562
        ]
      },
      "properties": {
        "id": 1310885335,
        "osm_type": "way",
        "name": "Kajak-kenu pont Komárom",
        "tourism": "camp_site"
      }
    },
    {
      "type": "Feature",
      "geometry": {
        "type": "Point",
        "coordinates": [
          18.341365,
          47.6423494
        ]
      },
      "properties": {
        "id": 1317349461,
        "osm_type": "way",
        "name": "Orchidea Apartman Tata",
        "tourism": "apartment",
        "phone": "+36 30 787 7750",
        "website": "https://orchideaapartmantata.hu/"
      }
    },
    {
      "type": "Feature",
      "geometry": {
        "type": "Point",
        "coordinates": [
          18.3440292,
          47.6370754
        ]
      },
      "properties": {
        "id": 1317349691,
        "osm_type": "way",
        "name": "The Corner House panzió",
        "tourism": "guest_house",
        "contact:website": "https://cornerpanzio.hu/"
      }
    },
    {
      "type": "Feature",
      "geometry": {
        "type": "Point",
        "coordinates": [
          18.4444974,
          47.5440782
        ]
      },
      "properties": {
        "id": 1352622062,
        "osm_type": "way",
        "name": "Gréta pihenőház",
        "tourism": "guest_house"
      }
    },
    {
      "type": "Feature",
      "geometry": {
        "type": "Point",
        "coordinates": [
          18.395984,
          47.4757276
        ]
      },
      "properties": {
        "id": 1352622071,
        "osm_type": "way",
        "name": "Gesztesi vendégház",
        "tourism": "guest_house"
      }
    },
    {
      "type": "Feature",
      "geometry": {
        "type": "Point",
        "coordinates": [
          18.3266109,
          47.6481737
        ]
      },
      "properties": {
        "id": 1422249016,
        "osm_type": "way",
        "name": "Malom és Kacsa boutique hotel",
        "tourism": "hotel"
      }
    },
    {
      "type": "Feature",
      "geometry": {
        "type": "Point",
        "coordinates": [
          18.1462601,
          47.7230517
        ]
      },
      "properties": {
        "id": 3120722,
        "osm_type": "relation",
        "name": "WF - Szabadidőpark",
        "tourism": "camp_site",
        "phone": "+36 34 347 235;+36 30 664 9227",
        "website": "https://wfpark.hu/"
      }
    },
    {
      "type": "Feature",
      "geometry": {
        "type": "Point",
        "coordinates": [
          18.3893066,
          47.4868915
        ]
      },
      "properties": {
        "id": 3428522,
        "osm_type": "relation",
        "name": "Villapark Várgesztes",
        "tourism": "chalet",
        "website": "https://www.villapark.hu/"
      }
    },
    {
      "type": "Feature",
      "geometry": {
        "type": "Point",
        "coordinates": [
          18.4705794,
          47.7530825
        ]
      },
      "properties": {
        "id": 3744577,
        "osm_type": "relation",
        "name": "Piszke Papír Vendégház",
        "tourism": "guest_house",
        "website": "https://szallas.hu/piszke-papir-vendeghaz-labatlan"
      }
    },
    {
      "type": "Feature",
      "geometry": {
        "type": "Point",
        "coordinates": [
          18.8994673,
          47.7977738
        ]
      },
      "properties": {
        "id": 6818812,
        "osm_type": "relation",
        "name": "Pilismarót Dunapart Vadkemping",
        "tourism": "camp_site",
        "phone": "+36 20 351 0546"
      }
    },
    {
      "type": "Feature",
      "geometry": {
        "type": "Point",
        "coordinates": [
          18.1332209,
          47.7435682
        ]
      },
      "properties": {
        "id": 11657640,
        "osm_type": "relation",
        "name": "Thermál Hotel ** & Camping***",
        "tourism": "camp_site",
        "tents": "yes",
        "website": "http://www.komthermal.hu/home/"
      }
    },
    {
      "type": "Feature",
      "geometry": {
        "type": "Point",
        "coordinates": [
          18.4941818,
          47.5923092
        ]
      },
      "properties": {
        "id": 19411193,
        "osm_type": "relation",
        "name": "Baglyas Park",
        "tourism": "camp_site",
        "contact:phone": "+36 29 173 189"
      }
    }
  ]
}