{
  "type": "FeatureCollection",
  "features": [
    {
      "type": "Feature",
      "geometry": {
        "type": "Point",
        "coordinates": [
          25.9903887,
          42.5789323
        ]
      },
      "properties": {
        "id": 1134209485,
        "osm_type": "node",
        "name": "100 бора",
        "tourism": "chalet"
      }
    },
    {
      "type": "Feature",
      "geometry": {
        "type": "Point",
        "coordinates": [
          26.5133653,
          42.8074359
        ]
      },
      "properties": {
        "id": 1452216597,
        "osm_type": "node",
        "name": "Екокомплекс \"Катунище\"",
        "tourism": "hotel"
      }
    },
    {
      "type": "Feature",
      "geometry": {
        "type": "Point",
        "coordinates": [
          26.5515404,
          42.8496789
        ]
      },
      "properties": {
        "id": 1452347539,
        "osm_type": "node",
        "name": "Eкоселище „Синия вир”",
        "tourism": "hotel"
      }
    },
    {
      "type": "Feature",
      "geometry": {
        "type": "Point",
        "coordinates": [
          26.3424689,
          42.6867841
        ]
      },
      "properties": {
        "id": 2343400736,
        "osm_type": "node",
        "name": "Брилянтин",
        "tourism": "hotel"
      }
    },
    {
      "type": "Feature",
      "geometry": {
        "type": "Point",
        "coordinates": [
          26.3357103,
          42.6887933
        ]
      },
      "properties": {
        "id": 2343413432,
        "osm_type": "node",
        "name": "Атлантик",
        "tourism": "hotel"
      }
    },
    {
      "type": "Feature",
      "geometry": {
        "type": "Point",
        "coordinates": [
          25.9515746,
          42.5967999
        ]
      },
      "properties": {
        "id": 2837301948,
        "osm_type": "node",
        "name": "Бялата къща",
        "tourism": "hotel"
      }
    },
    {
      "type": "Feature",
      "geometry": {
        "type": "Point",
        "coordinates": [
          26.3213557,
          42.676854
        ]
      },
      "properties": {
        "id": 2939276751,
        "osm_type": "node",
        "name": "Хотел Рикас",
        "tourism": "hotel"
      }
    },
    {
      "type": "Feature",
      "geometry": {
        "type": "Point",
        "coordinates": [
          26.3564689,
          42.6972135
        ]
      },
      "properties": {
        "id": 2949127690,
        "osm_type": "node",
        "name": "Харизма",
        "tourism": "hotel"
      }
    },
    {
      "type": "Feature",
      "geometry": {
        "type": "Point",
        "coordinates": [
          26.357759,
          42.6956404
        ]
      },
      "properties": {
        "id": 2949127851,
        "osm_type": "node",
        "name": "Св. Константин",
        "tourism": "hotel"
      }
    },
    {
      "type": "Feature",
      "geometry": {
        "type": "Point",
        "coordinates": [
          26.3504714,
          42.6948814
        ]
      },
      "properties": {
        "id": 2949128780,
        "osm_type": "node",
        "name": "Monte Vedetta ***",
        "tourism": "hotel"
      }
    },
    {
      "type": "Feature",
      "geometry": {
        "type": "Point",
        "coordinates": [
          26.3262672,
          42.6782764
        ]
      },
      "properties": {
        "id": 2949207984,
        "osm_type": "node",
        "name": "Военен хотел",
        "tourism": "hotel",
        "check_date": "2025-07-11"
      }
    },
    {
      "type": "Feature",
      "geometry": {
        "type": "Point",
        "coordinates": [
          26.3389544,
          42.6898838
        ]
      },
      "properties": {
        "id": 3473415234,
        "osm_type": "node",
        "name": "Мечта",
        "tourism": "hotel"
      }
    },
    {
      "type": "Feature",
      "geometry": {
        "type": "Point",
        "coordinates": [
          26.2409763,
          42.8944462
        ]
      },
      "properties": {
        "id": 3624773630,
        "osm_type": "node",
        "name": "Александрина",
        "tourism": "hotel",
        "website": "http://hotelkipilovo.com/"
      }
    },
    {
      "type": "Feature",
      "geometry": {
        "type": "Point",
        "coordinates": [
          25.9962737,
          42.4885152
        ]
      },
      "properties": {
        "id": 4222913489,
        "osm_type": "node",
        "tourism": "guest_house"
      }
    },
    {
      "type": "Feature",
      "geometry": {
        "type": "Point",
        "coordinates": [
          26.013037,
          42.4930195
        ]
      },
      "properties": {
        "id": 4290250990,
        "osm_type": "node",
        "name": "Хотел \"Яница\"",
        "tourism": "hotel"
      }
    },
    {
      "type": "Feature",
      "geometry": {
        "type": "Point",
        "coordinates": [
          26.4566952,
          42.8343563
        ]
      },
      "properties": {
        "id": 4424056189,
        "osm_type": "node",
        "name": "ИВ 2",
        "tourism": "guest_house"
      }
    },
    {
      "type": "Feature",
      "geometry": {
        "type": "Point",
        "coordinates": [
          25.9947728,
          42.5475533
        ]
      },
      "properties": {
        "id": 5013839622,
        "osm_type": "node",
        "tourism": "guest_house"
      }
    },
    {
      "type": "Feature",
      "geometry": {
        "type": "Point",
        "coordinates": [
          26.5247029,
          42.7854626
        ]
      },
      "properties": {
        "id": 5239617234,
        "osm_type": "node",
        "name": "Караджейката",
        "tourism": "hotel"
      }
    },
    {
      "type": "Feature",
      "geometry": {
        "type": "Point",
        "coordinates": [
          26.217193,
          42.6093213
        ]
      },
      "properties": {
        "id": 6111161748,
        "osm_type": "node",
        "name": "Windy Hills",
        "tourism": "hotel"
      }
    },
    {
      "type": "Feature",
      "geometry": {
        "type": "Point",
        "coordinates": [
          26.3731495,
          42.7176044
        ]
      },
      "properties": {
        "id": 6817495286,
        "osm_type": "node",
        "name": "Комплекс Сините камъни",
        "tourism": "hotel",
        "website": "https://sinitekamani.bg/"
      }
    },
    {
      "type": "Feature",
      "geometry": {
        "type": "Point",
        "coordinates": [
          26.5576176,
          42.8424746
        ]
      },
      "properties": {
        "id": 7825582986,
        "osm_type": "node",
        "name": "Орлица",
        "tourism": "guest_house"
      }
    },
    {
      "type": "Feature",
      "geometry": {
        "type": "Point",
        "coordinates": [
          26.4445063,
          42.7635479
        ]
      },
      "properties": {
        "id": 7851348024,
        "osm_type": "node",
        "name": "Етнокомплекс \"Дивеците\"",
        "tourism": "hotel",
        "check_date": "2024-08-01"
      }
    },
    {
      "type": "Feature",
      "geometry": {
        "type": "Point",
        "coordinates": [
          26.4266015,
          42.8700288
        ]
      },
      "properties": {
        "id": 8150858306,
        "osm_type": "node",
        "name": "Вила Адонай - гр.Котел",
        "tourism": "guest_house",
        "phone": "+359 87 707 8840",
        "website": "https://www.hoteladonai.com/"
      }
    },
    {
      "type": "Feature",
      "geometry": {
        "type": "Point",
        "coordinates": [
          26.4437525,
          42.8892227
        ]
      },
      "properties": {
        "id": 8882827717,
        "osm_type": "node",
        "name": "Ambrozia",
        "tourism": "hotel"
      }
    },
    {
      "type": "Feature",
      "geometry": {
        "type": "Point",
        "coordinates": [
          26.444182,
          42.8896185
        ]
      },
      "properties": {
        "id": 8894976813,
        "osm_type": "node",
        "name": "Лефтерова",
        "tourism": "guest_house"
      }
    },
    {
      "type": "Feature",
      "geometry": {
        "type": "Point",
        "coordinates": [
          26.4560857,
          42.832351
        ]
      },
      "properties": {
        "id": 10842086660,
        "osm_type": "node",
        "name": "Имало едно време",
        "tourism": "guest_house"
      }
    },
    {
      "type": "Feature",
      "geometry": {
        "type": "Point",
        "coordinates": [
          26.0127175,
          42.7911063
        ]
      },
      "properties": {
        "id": 10842094355,
        "osm_type": "node",
        "name": "Хижа Бяла паланка",
        "tourism": "alpine_hut"
      }
    },
    {
      "type": "Feature",
      "geometry": {
        "type": "Point",
        "coordinates": [
          26.4477553,
          42.8882949
        ]
      },
      "properties": {
        "id": 10842095224,
        "osm_type": "node",
        "name": "Анастасия",
        "tourism": "guest_house"
      }
    },
    {
      "type": "Feature",
      "geometry": {
        "type": "Point",
        "coordinates": [
          26.5123829,
          42.8071671
        ]
      },
      "properties": {
        "id": 10842098186,
        "osm_type": "node",
        "name": "Света Неделя",
        "tourism": "guest_house"
      }
    },
    {
      "type": "Feature",
      "geometry": {
        "type": "Point",
        "coordinates": [
          26.1910185,
          42.7299888
        ]
      },
      "properties": {
        "id": 10842100584,
        "osm_type": "node",
        "name": "Балкански рай",
        "tourism": "guest_house"
      }
    },
    {
      "type": "Feature",
      "geometry": {
        "type": "Point",
        "coordinates": [
          26.4615112,
          42.8340858
        ]
      },
      "properties": {
        "id": 10842108200,
        "osm_type": "node",
        "name": "Йовина къща",
        "tourism": "guest_house"
      }
    },
    {
      "type": "Feature",
      "geometry": {
        "type": "Point",
        "coordinates": [
          26.5125504,
          42.8066049
        ]
      },
      "properties": {
        "id": 10842108588,
        "osm_type": "node",
        "name": "Крумовата къща",
        "tourism": "guest_house"
      }
    },
    {
      "type": "Feature",
      "geometry": {
        "type": "Point",
        "coordinates": [
          26.4492832,
          42.883726
        ]
      },
      "properties": {
        "id": 10842108760,
        "osm_type": "node",
        "name": "Водолей",
        "tourism": "guest_house"
      }
    },
    {
      "type": "Feature",
      "geometry": {
        "type": "Point",
        "coordinates": [
          26.4445967,
          42.8888536
        ]
      },
      "properties": {
        "id": 10842110512,
        "osm_type": "node",
        "name": "Констанс",
        "tourism": "hotel"
      }
    },
    {
      "type": "Feature",
      "geometry": {
        "type": "Point",
        "coordinates": [
          26.4600459,
          42.8335007
        ]
      },
      "properties": {
        "id": 10842112756,
        "osm_type": "node",
        "name": "Зерова",
        "tourism": "guest_house"
      }
    },
    {
      "type": "Feature",
      "geometry": {
        "type": "Point",
        "coordinates": [
          26.4601257,
          42.8341685
        ]
      },
      "properties": {
        "id": 10842113051,
        "osm_type": "node",
        "name": "Никула Чорбаджи",
        "tourism": "guest_house"
      }
    },
    {
      "type": "Feature",
      "geometry": {
        "type": "Point",
        "coordinates": [
          26.3152631,
          42.6841459
        ]
      },
      "properties": {
        "id": 11300319258,
        "osm_type": "node",
        "name": "Тома",
        "tourism": "hotel"
      }
    },
    {
      "type": "Feature",
      "geometry": {
        "type": "Point",
        "coordinates": [
          26.4346952,
          42.8835814
        ]
      },
      "properties": {
        "id": 11983419150,
        "osm_type": "node",
        "name": "Вилно селище Мираж",
        "tourism": "hotel",
        "phone": "0896662868",
        "website": "https://miragekotel.com"
      }
    },
    {
      "type": "Feature",
      "geometry": {
        "type": "Point",
        "coordinates": [
          26.4365727,
          42.8884686
        ]
      },
      "properties": {
        "id": 11983456414,
        "osm_type": "node",
        "name": "Хотелски комплекс Елпида",
        "tourism": "hotel"
      }
    },
    {
      "type": "Feature",
      "geometry": {
        "type": "Point",
        "coordinates": [
          26.4296273,
          42.8811539
        ]
      },
      "properties": {
        "id": 11984814188,
        "osm_type": "node",
        "name": "Вилно селище Котел",
        "tourism": "chalet"
      }
    },
    {
      "type": "Feature",
      "geometry": {
        "type": "Point",
        "coordinates": [
          26.4330518,
          42.8834939
        ]
      },
      "properties": {
        "id": 11985732768,
        "osm_type": "node",
        "name": "Хотел ресторант Котел",
        "tourism": "hotel"
      }
    },
    {
      "type": "Feature",
      "geometry": {
        "type": "Point",
        "coordinates": [
          26.4498558,
          42.7638942
        ]
      },
      "properties": {
        "id": 12089189536,
        "osm_type": "node",
        "name": "Ивановата къща",
        "tourism": "guest_house"
      }
    },
    {
      "type": "Feature",
      "geometry": {
        "type": "Point",
        "coordinates": [
          26.4477723,
          42.7639731
        ]
      },
      "properties": {
        "id": 12089243104,
        "osm_type": "node",
        "name": "Стера",
        "tourism": "guest_house"
      }
    },
    {
      "type": "Feature",
      "geometry": {
        "type": "Point",
        "coordinates": [
          26.447162,
          42.7639988
        ]
      },
      "properties": {
        "id": 12089243106,
        "osm_type": "node",
        "name": "хаджи жекови къщи",
        "tourism": "guest_house"
      }
    },
    {
      "type": "Feature",
      "geometry": {
        "type": "Point",
        "coordinates": [
          26.4486393,
          42.7647469
        ]
      },
      "properties": {
        "id": 12089352092,
        "osm_type": "node",
        "name": "Букорка",
        "tourism": "guest_house"
      }
    },
    {
      "type": "Feature",
      "geometry": {
        "type": "Point",
        "coordinates": [
          26.4516647,
          42.7654354
        ]
      },
      "properties": {
        "id": 12089354489,
        "osm_type": "node",
        "name": "Вила Персиана",
        "tourism": "guest_house"
      }
    },
    {
      "type": "Feature",
      "geometry": {
        "type": "Point",
        "coordinates": [
          26.456463,
          42.8346756
        ]
      },
      "properties": {
        "id": 13167507088,
        "osm_type": "node",
        "name": "Заркова къща",
        "tourism": "guest_house",
        "website": "https://zarkovata.com/"
      }
    },
    {
      "type": "Feature",
      "geometry": {
        "type": "Point",
        "coordinates": [
          26.4555559,
          42.8331368
        ]
      },
      "properties": {
        "id": 13167720207,
        "osm_type": "node",
        "name": "Къщата на художника",
        "tourism": "guest_house"
      }
    },
    {
      "type": "Feature",
      "geometry": {
        "type": "Point",
        "coordinates": [
          26.3863829,
          42.7163822
        ]
      },
      "properties": {
        "id": 13430362006,
        "osm_type": "node",
        "name": "Кафеджийски кайнак",
        "tourism": "alpine_hut"
      }
    },
    {
      "type": "Feature",
      "geometry": {
        "type": "Point",
        "coordinates": [
          26.3509844,
          42.7020038
        ]
      },
      "properties": {
        "id": 93545685,
        "osm_type": "way",
        "name": "Шато Алпиа",
        "tourism": "hotel"
      }
    },
    {
      "type": "Feature",
      "geometry": {
        "type": "Point",
        "coordinates": [
          25.9182347,
          42.5803189
        ]
      },
      "properties": {
        "id": 108756938,
        "osm_type": "way",
        "name": "Хотел Жребчево",
        "tourism": "hotel"
      }
    },
    {
      "type": "Feature",
      "geometry": {
        "type": "Point",
        "coordinates": [
          26.4368947,
          42.8894677
        ]
      },
      "properties": {
        "id": 183550331,
        "osm_type": "way",
        "name": "Хотелски комплекс Ажур",
        "tourism": "hotel"
      }
    },
    {
      "type": "Feature",
      "geometry": {
        "type": "Point",
        "coordinates": [
          25.959194,
          42.7856891
        ]
      },
      "properties": {
        "id": 193251022,
        "osm_type": "way",
        "tourism": "chalet"
      }
    },
    {
      "type": "Feature",
      "geometry": {
        "type": "Point",
        "coordinates": [
          25.9600071,
          42.7867866
        ]
      },
      "properties": {
        "id": 193251023,
        "osm_type": "way",
        "name": "xижа \"Чумерна\"",
        "tourism": "guest_house",
        "contact:phone": "+359 89 669 3169"
      }
    },
    {
      "type": "Feature",
      "geometry": {
        "type": "Point",
        "coordinates": [
          25.9592852,
          42.7856084
        ]
      },
      "properties": {
        "id": 193251027,
        "osm_type": "way",
        "tourism": "chalet"
      }
    },
    {
      "type": "Feature",
      "geometry": {
        "type": "Point",
        "coordinates": [
          25.9593826,
          42.785531
        ]
      },
      "properties": {
        "id": 193251028,
        "osm_type": "way",
        "tourism": "chalet"
      }
    },
    {
      "type": "Feature",
      "geometry": {
        "type": "Point",
        "coordinates": [
          25.9594997,
          42.7854313
        ]
      },
      "properties": {
        "id": 193251032,
        "osm_type": "way",
        "tourism": "chalet"
      }
    },
    {
      "type": "Feature",
      "geometry": {
        "type": "Point",
        "coordinates": [
          25.9036174,
          42.7894949
        ]
      },
      "properties": {
        "id": 193251033,
        "osm_type": "way",
        "name": "хижа Горски дом Твърдица",
        "tourism": "alpine_hut"
      }
    },
    {
      "type": "Feature",
      "geometry": {
        "type": "Point",
        "coordinates": [
          25.9592771,
          42.7857462
        ]
      },
      "properties": {
        "id": 193251034,
        "osm_type": "way",
        "tourism": "chalet"
      }
    },
    {
      "type": "Feature",
      "geometry": {
        "type": "Point",
        "coordinates": [
          25.8977926,
          42.705104
        ]
      },
      "properties": {
        "id": 193305248,
        "osm_type": "way",
        "name": "Панорама",
        "tourism": "guest_house",
        "phone": "+359 88 860 4068",
        "website": "http://www.panorama-tvarditsa.com/"
      }
    },
    {
      "type": "Feature",
      "geometry": {
        "type": "Point",
        "coordinates": [
          25.8988456,
          42.704378
        ]
      },
      "properties": {
        "id": 193387857,
        "osm_type": "way",
        "name": "Росана",
        "tourism": "guest_house",
        "contact:phone": "+359 454 43 122",
        "contact:website": "http://www.rosana-house.com/"
      }
    },
    {
      "type": "Feature",
      "geometry": {
        "type": "Point",
        "coordinates": [
          25.9055924,
          42.7008249
        ]
      },
      "properties": {
        "id": 194159415,
        "osm_type": "way",
        "name": "Ивановата къща",
        "tourism": "guest_house",
        "phone": "+359 87 944 1423",
        "website": "https://www.ivanovatakashta.com/"
      }
    },
    {
      "type": "Feature",
      "geometry": {
        "type": "Point",
        "coordinates": [
          25.9055286,
          42.700869
        ]
      },
      "properties": {
        "id": 194159416,
        "osm_type": "way",
        "name": "Ивановата къща",
        "tourism": "guest_house",
        "phone": "+359 87 944 1423",
        "website": "https://www.ivanovatakashta.com/"
      }
    },
    {
      "type": "Feature",
      "geometry": {
        "type": "Point",
        "coordinates": [
          25.9038379,
          42.6983058
        ]
      },
      "properties": {
        "id": 194299307,
        "osm_type": "way",
        "name": "Къща Квел",
        "tourism": "guest_house",
        "phone": "+359 87 889 8765",
        "website": "http://www.kvel-house.com/"
      }
    },
    {
      "type": "Feature",
      "geometry": {
        "type": "Point",
        "coordinates": [
          25.8987974,
          42.7849575
        ]
      },
      "properties": {
        "id": 297929851,
        "osm_type": "way",
        "name": "хижа Хайдушка песен",
        "tourism": "alpine_hut",
        "phone": "+359 454 42 253",
        "website": "http://bukovets.bg/%D1%85%D0%B8%D0%B6%D0%B0/"
      }
    },
    {
      "type": "Feature",
      "geometry": {
        "type": "Point",
        "coordinates": [
          26.3718796,
          42.7269018
        ]
      },
      "properties": {
        "id": 311593395,
        "osm_type": "way",
        "name": "Почивна станция Декотекс",
        "tourism": "hotel"
      }
    },
    {
      "type": "Feature",
      "geometry": {
        "type": "Point",
        "coordinates": [
          26.3693788,
          42.7181852
        ]
      },
      "properties": {
        "id": 327425835,
        "osm_type": "way",
        "name": "Карандила",
        "tourism": "alpine_hut",
        "phone": "+359 89 850 8612",
        "website": "http://www.hijakarandila.com/"
      }
    },
    {
      "type": "Feature",
      "geometry": {
        "type": "Point",
        "coordinates": [
          26.430791,
          42.8873682
        ]
      },
      "properties": {
        "id": 332485442,
        "osm_type": "way",
        "name": "Бунгала БургасБус",
        "tourism": "chalet"
      }
    },
    {
      "type": "Feature",
      "geometry": {
        "type": "Point",
        "coordinates": [
          26.4359711,
          42.8894423
        ]
      },
      "properties": {
        "id": 334633228,
        "osm_type": "way",
        "name": "Парк хотел и СПА Изворите",
        "tourism": "hotel",
        "website": "https://www.parkhotelizvorite.bg/"
      }
    },
    {
      "type": "Feature",
      "geometry": {
        "type": "Point",
        "coordinates": [
          26.3135653,
          42.6809865
        ]
      },
      "properties": {
        "id": 340847534,
        "osm_type": "way",
        "name": "Сливен",
        "tourism": "chalet"
      }
    },
    {
      "type": "Feature",
      "geometry": {
        "type": "Point",
        "coordinates": [
          26.3156563,
          42.6801691
        ]
      },
      "properties": {
        "id": 340853191,
        "osm_type": "way",
        "name": "БГ H Парк Централ, Сливен",
        "tourism": "hotel"
      }
    },
    {
      "type": "Feature",
      "geometry": {
        "type": "Point",
        "coordinates": [
          26.3154201,
          42.6844716
        ]
      },
      "properties": {
        "id": 341464255,
        "osm_type": "way",
        "name": "хотел Национал палас",
        "tourism": "hotel"
      }
    },
    {
      "type": "Feature",
      "geometry": {
        "type": "Point",
        "coordinates": [
          26.3156563,
          42.6801883
        ]
      },
      "properties": {
        "id": 548734342,
        "osm_type": "way",
        "name": "БГ H Парк Централ, Сливен",
        "tourism": "hotel"
      }
    },
    {
      "type": "Feature",
      "geometry": {
        "type": "Point",
        "coordinates": [
          26.3052144,
          42.6411044
        ]
      },
      "properties": {
        "id": 548753785,
        "osm_type": "way",
        "name": "Хотелски комплекс Свети Никола",
        "tourism": "hotel"
      }
    },
    {
      "type": "Feature",
      "geometry": {
        "type": "Point",
        "coordinates": [
          26.4264818,
          42.8699798
        ]
      },
      "properties": {
        "id": 875837969,
        "osm_type": "way",
        "name": "Вила Адонай",
        "tourism": "guest_house"
      }
    },
    {
      "type": "Feature",
      "geometry": {
        "type": "Point",
        "coordinates": [
          26.3504661,
          42.6949152
        ]
      },
      "properties": {
        "id": 1218476465,
        "osm_type": "way",
        "tourism": "hotel"
      }
    },
    {
      "type": "Feature",
      "geometry": {
        "type": "Point",
        "coordinates": [
          26.3151913,
          42.6844157
        ]
      },
      "properties": {
        "id": 1219561571,
        "osm_type": "way",
        "tourism": "hotel"
      }
    },
    {
      "type": "Feature",
      "geometry": {
        "type": "Point",
        "coordinates": [
          26.2971666,
          42.6862336
        ]
      },
      "properties": {
        "id": 1219695522,
        "osm_type": "way",
        "name": "комплекс Горски кът",
        "tourism": "guest_house"
      }
    },
    {
      "type": "Feature",
      "geometry": {
        "type": "Point",
        "coordinates": [
          26.3212409,
          42.757453
        ]
      },
      "properties": {
        "id": 1245007008,
        "osm_type": "way",
        "name": "Бутик Хотел \"Даулите\"",
        "tourism": "hotel",
        "website": "https://daulite.bg/"
      }
    },
    {
      "type": "Feature",
      "geometry": {
        "type": "Point",
        "coordinates": [
          26.3488427,
          42.6939251
        ]
      },
      "properties": {
        "id": 1395715975,
        "osm_type": "way",
        "tourism": "hotel"
      }
    },
    {
      "type": "Feature",
      "geometry": {
        "type": "Point",
        "coordinates": [
          26.3655233,
          42.7177492
        ]
      },
      "properties": {
        "id": 1409195005,
        "osm_type": "way",
        "name": "Хаджи Димитър",
        "tourism": "guest_house",
        "phone": "+359887797026"
      }
    },
    {
      "type": "Feature",
      "geometry": {
        "type": "Point",
        "coordinates": [
          26.3745785,
          42.7232311
        ]
      },
      "properties": {
        "id": 1409195013,
        "osm_type": "way",
        "name": "Хотел Стелит",
        "tourism": "hotel",
        "phone": "+35944667416"
      }
    },
    {
      "type": "Feature",
      "geometry": {
        "type": "Point",
        "coordinates": [
          26.3702301,
          42.7168176
        ]
      },
      "properties": {
        "id": 1409195025,
        "osm_type": "way",
        "name": "х.Бяла мечка",
        "tourism": "hotel"
      }
    },
    {
      "type": "Feature",
      "geometry": {
        "type": "Point",
        "coordinates": [
          26.3696062,
          42.7175463
        ]
      },
      "properties": {
        "id": 1409195081,
        "osm_type": "way",
        "name": "Хижа \"Карандила\" 2",
        "tourism": "alpine_hut"
      }
    },
    {
      "type": "Feature",
      "geometry": {
        "type": "Point",
        "coordinates": [
          26.3741204,
          42.7240548
        ]
      },
      "properties": {
        "id": 1409195095,
        "osm_type": "way",
        "name": "Къща за гости \"Вила Карандила\"",
        "tourism": "guest_house"
      }
    },
    {
      "type": "Feature",
      "geometry": {
        "type": "Point",
        "coordinates": [
          26.238231,
          42.610378
        ]
      },
      "properties": {
        "id": 1475198673,
        "osm_type": "way",
        "name": "Омега",
        "tourism": "hotel"
      }
    },
    {
      "type": "Feature",
      "geometry": {
        "type": "Point",
        "coordinates": [
          26.2388359,
          42.6112087
        ]
      },
      "properties": {
        "id": 1475198735,
        "osm_type": "way",
        "name": "Калина",
        "tourism": "hotel"
      }
    },
    {
      "type": "Feature",
      "geometry": {
        "type": "Point",
        "coordinates": [
          26.2285295,
          42.6089544
        ]
      },
      "properties": {
        "id": 1475198796,
        "osm_type": "way",
        "name": "Флоранс",
        "tourism": "hotel"
      }
    }
  ]
}