{
  "type": "FeatureCollection",
  "features": [
    {
      "type": "Feature",
      "geometry": {
        "type": "Point",
        "coordinates": [
          33.4575168,
          39.8721754
        ]
      },
      "properties": {
        "id": 5313941083,
        "osm_type": "node",
        "tourism": "apartment"
      }
    },
    {
      "type": "Feature",
      "geometry": {
        "type": "Point",
        "coordinates": [
          33.4579097,
          39.8720506
        ]
      },
      "properties": {
        "id": 5313941084,
        "osm_type": "node",
        "tourism": "apartment"
      }
    },
    {
      "type": "Feature",
      "geometry": {
        "type": "Point",
        "coordinates": [
          33.4982723,
          39.8420639
        ]
      },
      "properties": {
        "id": 6918255186,
        "osm_type": "node",
        "name": "Yaylacık",
        "tourism": "apartment",
        "phone": "+90 535 342 72 94"
      }
    },
    {
      "type": "Feature",
      "geometry": {
        "type": "Point",
        "coordinates": [
          33.4905125,
          39.8503267
        ]
      },
      "properties": {
        "id": 7793600725,
        "osm_type": "node",
        "name": "Kırıkkale Polisevi",
        "tourism": "guest_house",
        "website": "https://www.polisevi.com/kirikkale-polisevi/"
      }
    },
    {
      "type": "Feature",
      "geometry": {
        "type": "Point",
        "coordinates": [
          33.5019829,
          39.8391915
        ]
      },
      "properties": {
        "id": 7900485264,
        "osm_type": "node",
        "name": "Carmine Hotel",
        "tourism": "hotel",
        "phone": "+903183330555",
        "website": "https://hotelcarmine.com"
      }
    },
    {
      "type": "Feature",
      "geometry": {
        "type": "Point",
        "coordinates": [
          33.4810312,
          39.8456763
        ]
      },
      "properties": {
        "id": 10119705307,
        "osm_type": "node",
        "name": "Asude Park Konutları",
        "tourism": "hostel"
      }
    },
    {
      "type": "Feature",
      "geometry": {
        "type": "Point",
        "coordinates": [
          33.5069283,
          39.8401583
        ]
      },
      "properties": {
        "id": 547715556,
        "osm_type": "way",
        "tourism": "hotel"
      }
    },
    {
      "type": "Feature",
      "geometry": {
        "type": "Point",
        "coordinates": [
          33.4719513,
          39.820618
        ]
      },
      "properties": {
        "id": 657420444,
        "osm_type": "way",
        "tourism": "hotel"
      }
    },
    {
      "type": "Feature",
      "geometry": {
        "type": "Point",
        "coordinates": [
          33.4864434,
          39.8665387
        ]
      },
      "properties": {
        "id": 660497297,
        "osm_type": "way",
        "name": "OGM Misafirhane",
        "tourism": "guest_house"
      }
    },
    {
      "type": "Feature",
      "geometry": {
        "type": "Point",
        "coordinates": [
          33.7170919,
          40.1584809
        ]
      },
      "properties": {
        "id": 1239484686,
        "osm_type": "way",
        "tourism": "guest_house"
      }
    },
    {
      "type": "Feature",
      "geometry": {
        "type": "Point",
        "coordinates": [
          33.86588,
          39.938895
        ]
      },
      "properties": {
        "id": 18898467,
        "osm_type": "relation",
        "name": "TŞOF Delice Dinlenme Tesisleri",
        "tourism": "motel"
      }
    }
  ]
}