{
  "type": "FeatureCollection",
  "features": [
    {
      "type": "Feature",
      "geometry": {
        "type": "Point",
        "coordinates": [
          36.175291,
          36.5899663
        ]
      },
      "properties": {
        "id": 1283933469,
        "osm_type": "node",
        "name": "Hatayli Hotel",
        "tourism": "hotel"
      }
    },
    {
      "type": "Feature",
      "geometry": {
        "type": "Point",
        "coordinates": [
          35.8315319,
          36.3580928
        ]
      },
      "properties": {
        "id": 1519694407,
        "osm_type": "node",
        "name": "Orient Camping",
        "tourism": "caravan_site"
      }
    },
    {
      "type": "Feature",
      "geometry": {
        "type": "Point",
        "coordinates": [
          35.8315319,
          36.3585075
        ]
      },
      "properties": {
        "id": 1519694410,
        "osm_type": "node",
        "name": "Orient Camping",
        "tourism": "camp_site",
        "phone": "+90 531 5980100",
        "website": "http://www.orientcamping.com"
      }
    },
    {
      "type": "Feature",
      "geometry": {
        "type": "Point",
        "coordinates": [
          36.1609803,
          36.2009478
        ]
      },
      "properties": {
        "id": 1782818948,
        "osm_type": "node",
        "tourism": "hotel"
      }
    },
    {
      "type": "Feature",
      "geometry": {
        "type": "Point",
        "coordinates": [
          36.1623825,
          36.2041892
        ]
      },
      "properties": {
        "id": 1782818954,
        "osm_type": "node",
        "tourism": "hotel"
      }
    },
    {
      "type": "Feature",
      "geometry": {
        "type": "Point",
        "coordinates": [
          36.1519076,
          36.5877871
        ]
      },
      "properties": {
        "id": 1853981639,
        "osm_type": "node",
        "name": "Sahillioglu Apartmanı",
        "tourism": "guest_house"
      }
    },
    {
      "type": "Feature",
      "geometry": {
        "type": "Point",
        "coordinates": [
          36.1607153,
          36.2035303
        ]
      },
      "properties": {
        "id": 2791330341,
        "osm_type": "node",
        "name": "The Great Antakya Hotel",
        "tourism": "hotel"
      }
    },
    {
      "type": "Feature",
      "geometry": {
        "type": "Point",
        "coordinates": [
          36.1631693,
          36.1997094
        ]
      },
      "properties": {
        "id": 3718700163,
        "osm_type": "node",
        "name": "Sister Barbara",
        "tourism": "guest_house"
      }
    },
    {
      "type": "Feature",
      "geometry": {
        "type": "Point",
        "coordinates": [
          36.1666642,
          36.0078961
        ]
      },
      "properties": {
        "id": 4345706189,
        "osm_type": "node",
        "name": "Cilli Guesthouse",
        "tourism": "guest_house",
        "phone": "+905354315063"
      }
    },
    {
      "type": "Feature",
      "geometry": {
        "type": "Point",
        "coordinates": [
          36.2078417,
          36.7133942
        ]
      },
      "properties": {
        "id": 4512628191,
        "osm_type": "node",
        "name": "İsdemir Misafirhane",
        "tourism": "guest_house"
      }
    },
    {
      "type": "Feature",
      "geometry": {
        "type": "Point",
        "coordinates": [
          36.160881,
          36.1983987
        ]
      },
      "properties": {
        "id": 4738565525,
        "osm_type": "node",
        "name": "Fi Hostel",
        "tourism": "hostel",
        "phone": "+903262162006",
        "website": "https://www.fihostel.com/"
      }
    },
    {
      "type": "Feature",
      "geometry": {
        "type": "Point",
        "coordinates": [
          35.8860941,
          36.4124656
        ]
      },
      "properties": {
        "id": 5853557886,
        "osm_type": "node",
        "name": "Yunus Otel",
        "tourism": "hotel",
        "opening_hours": "24/7"
      }
    },
    {
      "type": "Feature",
      "geometry": {
        "type": "Point",
        "coordinates": [
          36.1717806,
          36.5876265
        ]
      },
      "properties": {
        "id": 6761512385,
        "osm_type": "node",
        "tourism": "hotel"
      }
    },
    {
      "type": "Feature",
      "geometry": {
        "type": "Point",
        "coordinates": [
          36.1628589,
          36.221562
        ]
      },
      "properties": {
        "id": 7764851107,
        "osm_type": "node",
        "name": "Hatay Polis evi",
        "tourism": "guest_house",
        "website": "https://www.polisevi.com/hatay-polisevi/"
      }
    },
    {
      "type": "Feature",
      "geometry": {
        "type": "Point",
        "coordinates": [
          36.1611262,
          36.1997741
        ]
      },
      "properties": {
        "id": 9700147688,
        "osm_type": "node",
        "name": "Ranjous Otel",
        "tourism": "hotel",
        "phone": "+905302348008",
        "website": "www.ranjousotel.com"
      }
    },
    {
      "type": "Feature",
      "geometry": {
        "type": "Point",
        "coordinates": [
          36.177846,
          36.5890893
        ]
      },
      "properties": {
        "id": 9934187508,
        "osm_type": "node",
        "name": "Ramada İskenderun",
        "tourism": "hotel",
        "website": "https://www.wyndhamhotels.com/tr-tr/ramada/hatay-turkey/ramada-iskenderun/overview"
      }
    },
    {
      "type": "Feature",
      "geometry": {
        "type": "Point",
        "coordinates": [
          35.9048377,
          36.4214205
        ]
      },
      "properties": {
        "id": 10010084317,
        "osm_type": "node",
        "tourism": "hostel"
      }
    },
    {
      "type": "Feature",
      "geometry": {
        "type": "Point",
        "coordinates": [
          36.1608371,
          36.1984681
        ]
      },
      "properties": {
        "id": 10044705276,
        "osm_type": "node",
        "name": "Voyage Elegante Antakya",
        "tourism": "hotel",
        "phone": "+90 532 410 31 03",
        "website": "https://voyageelegante.com.tr"
      }
    },
    {
      "type": "Feature",
      "geometry": {
        "type": "Point",
        "coordinates": [
          36.2149973,
          36.7513256
        ]
      },
      "properties": {
        "id": 10285210901,
        "osm_type": "node",
        "name": "SARAÇ OTEL",
        "tourism": "hotel",
        "phone": "+903267558284"
      }
    },
    {
      "type": "Feature",
      "geometry": {
        "type": "Point",
        "coordinates": [
          36.1306549,
          36.5752922
        ]
      },
      "properties": {
        "id": 11089180475,
        "osm_type": "node",
        "name": "Aremsis Holiday Resort",
        "tourism": "hotel",
        "phone": "+90 530 473 40 09",
        "website": "https://aremsisresort.com/"
      }
    },
    {
      "type": "Feature",
      "geometry": {
        "type": "Point",
        "coordinates": [
          36.1343781,
          36.1729443
        ]
      },
      "properties": {
        "id": 11274667994,
        "osm_type": "node",
        "name": "Eren By Hotel",
        "tourism": "hotel",
        "phone": "+905323040096"
      }
    },
    {
      "type": "Feature",
      "geometry": {
        "type": "Point",
        "coordinates": [
          36.2139686,
          36.7533788
        ]
      },
      "properties": {
        "id": 11279773580,
        "osm_type": "node",
        "name": "HB Royal Hotel",
        "tourism": "hotel",
        "phone": "+90 326 7553737"
      }
    },
    {
      "type": "Feature",
      "geometry": {
        "type": "Point",
        "coordinates": [
          35.9769921,
          36.0242606
        ]
      },
      "properties": {
        "id": 11290138669,
        "osm_type": "node",
        "name": "Marina Konaklama",
        "tourism": "chalet"
      }
    },
    {
      "type": "Feature",
      "geometry": {
        "type": "Point",
        "coordinates": [
          36.1500589,
          36.135657
        ]
      },
      "properties": {
        "id": 11370496476,
        "osm_type": "node",
        "name": "Asya Garden Otel",
        "tourism": "hotel"
      }
    },
    {
      "type": "Feature",
      "geometry": {
        "type": "Point",
        "coordinates": [
          36.2003859,
          36.335084
        ]
      },
      "properties": {
        "id": 11371254716,
        "osm_type": "node",
        "name": "Premium Otel",
        "tourism": "hotel"
      }
    },
    {
      "type": "Feature",
      "geometry": {
        "type": "Point",
        "coordinates": [
          36.1543205,
          36.1885276
        ]
      },
      "properties": {
        "id": 11373116533,
        "osm_type": "node",
        "name": "Saadet Grand Otel",
        "tourism": "hotel"
      }
    },
    {
      "type": "Feature",
      "geometry": {
        "type": "Point",
        "coordinates": [
          36.1438009,
          36.1308912
        ]
      },
      "properties": {
        "id": 11379009149,
        "osm_type": "node",
        "name": "Boğaziçi Otel",
        "tourism": "hotel"
      }
    },
    {
      "type": "Feature",
      "geometry": {
        "type": "Point",
        "coordinates": [
          36.1977382,
          36.326888
        ]
      },
      "properties": {
        "id": 11459516069,
        "osm_type": "node",
        "name": "Kampüs/Lojman",
        "tourism": "guest_house"
      }
    },
    {
      "type": "Feature",
      "geometry": {
        "type": "Point",
        "coordinates": [
          36.148167,
          36.5298414
        ]
      },
      "properties": {
        "id": 12215124906,
        "osm_type": "node",
        "name": "Melike Konakları",
        "tourism": "alpine_hut",
        "phone": "+90 505 016 61 80"
      }
    },
    {
      "type": "Feature",
      "geometry": {
        "type": "Point",
        "coordinates": [
          36.1221817,
          36.1522785
        ]
      },
      "properties": {
        "id": 13175194662,
        "osm_type": "node",
        "name": "Simurg Tepesi",
        "tourism": "hotel",
        "phone": "+90 531 230 69 91",
        "website": "https://simurgtepesikonaklama.com.tr/"
      }
    },
    {
      "type": "Feature",
      "geometry": {
        "type": "Point",
        "coordinates": [
          35.9213782,
          36.4290472
        ]
      },
      "properties": {
        "id": 13597876115,
        "osm_type": "node",
        "name": "Sedef's Bungalov & Suites",
        "tourism": "hotel",
        "phone": "+90 543 646 31 31",
        "website": "https://www.sedefsbungalovsuites.com/"
      }
    },
    {
      "type": "Feature",
      "geometry": {
        "type": "Point",
        "coordinates": [
          35.9212987,
          36.1222133
        ]
      },
      "properties": {
        "id": 339344998,
        "osm_type": "way",
        "name": "E&N Butik Otel",
        "tourism": "hotel",
        "website": "https://www.enbutikotel.com.tr"
      }
    },
    {
      "type": "Feature",
      "geometry": {
        "type": "Point",
        "coordinates": [
          35.9187656,
          36.1251571
        ]
      },
      "properties": {
        "id": 462871792,
        "osm_type": "way",
        "name": "Ögretmenevi",
        "tourism": "hotel"
      }
    },
    {
      "type": "Feature",
      "geometry": {
        "type": "Point",
        "coordinates": [
          35.9393439,
          36.0932641
        ]
      },
      "properties": {
        "id": 491592148,
        "osm_type": "way",
        "name": "TUGAY HİŞMİ MOTEL",
        "tourism": "motel"
      }
    },
    {
      "type": "Feature",
      "geometry": {
        "type": "Point",
        "coordinates": [
          36.1554841,
          36.2044604
        ]
      },
      "properties": {
        "id": 541830177,
        "osm_type": "way",
        "name": "Antakya Öğretmen Evi",
        "tourism": "guest_house"
      }
    },
    {
      "type": "Feature",
      "geometry": {
        "type": "Point",
        "coordinates": [
          35.9269633,
          36.114165
        ]
      },
      "properties": {
        "id": 694956506,
        "osm_type": "way",
        "name": "Almina Apart Hotel",
        "tourism": "hotel"
      }
    },
    {
      "type": "Feature",
      "geometry": {
        "type": "Point",
        "coordinates": [
          36.1610353,
          36.1991908
        ]
      },
      "properties": {
        "id": 1070847170,
        "osm_type": "way",
        "name": "Shahut Hotel",
        "tourism": "hotel",
        "phone": "+90 326 213 33 03",
        "website": "https://www.theshahuthotel.com"
      }
    },
    {
      "type": "Feature",
      "geometry": {
        "type": "Point",
        "coordinates": [
          36.1482814,
          36.5295873
        ]
      },
      "properties": {
        "id": 1320045910,
        "osm_type": "way",
        "name": "Melike Konakları",
        "tourism": "alpine_hut",
        "phone": "+90 505 016 61 80"
      }
    },
    {
      "type": "Feature",
      "geometry": {
        "type": "Point",
        "coordinates": [
          36.0252713,
          36.1013632
        ]
      },
      "properties": {
        "id": 1355114040,
        "osm_type": "way",
        "name": "Simon Aqua Park Hotel",
        "tourism": "hotel"
      }
    },
    {
      "type": "Feature",
      "geometry": {
        "type": "Point",
        "coordinates": [
          35.863709,
          36.3818827
        ]
      },
      "properties": {
        "id": 1429997795,
        "osm_type": "way",
        "name": "Arsuz Bungalov & Tiny Houses",
        "tourism": "hotel",
        "phone": "+90 535 979 34 01",
        "website": "https://arsuz-bungalov-tiny-houses.hotelrunner.com/"
      }
    },
    {
      "type": "Feature",
      "geometry": {
        "type": "Point",
        "coordinates": [
          35.9214439,
          36.4290596
        ]
      },
      "properties": {
        "id": 1482864561,
        "osm_type": "way",
        "name": "Sedef's Bungalov & Suites",
        "tourism": "hotel",
        "phone": "+90 543 646 31 31",
        "website": "https://www.sedefsbungalovsuites.com/"
      }
    }
  ]
}