{
  "type": "FeatureCollection",
  "features": [
    {
      "type": "Feature",
      "geometry": {
        "type": "Point",
        "coordinates": [
          26.5222357,
          43.5221198
        ]
      },
      "properties": {
        "id": 278404095,
        "osm_type": "node",
        "name": "Хотел Разград",
        "tourism": "hotel"
      }
    },
    {
      "type": "Feature",
      "geometry": {
        "type": "Point",
        "coordinates": [
          26.5310955,
          43.5326507
        ]
      },
      "properties": {
        "id": 2397423035,
        "osm_type": "node",
        "tourism": "hotel"
      }
    },
    {
      "type": "Feature",
      "geometry": {
        "type": "Point",
        "coordinates": [
          26.5127546,
          43.5240823
        ]
      },
      "properties": {
        "id": 2397423036,
        "osm_type": "node",
        "name": "Акцент",
        "tourism": "hotel"
      }
    },
    {
      "type": "Feature",
      "geometry": {
        "type": "Point",
        "coordinates": [
          26.519317,
          43.530405
        ]
      },
      "properties": {
        "id": 2505346086,
        "osm_type": "node",
        "name": "Интеррум",
        "tourism": "hotel"
      }
    },
    {
      "type": "Feature",
      "geometry": {
        "type": "Point",
        "coordinates": [
          26.5197437,
          43.5454611
        ]
      },
      "properties": {
        "id": 2633464643,
        "osm_type": "node",
        "name": "Пътна среща",
        "tourism": "motel"
      }
    },
    {
      "type": "Feature",
      "geometry": {
        "type": "Point",
        "coordinates": [
          26.5142004,
          43.5294988
        ]
      },
      "properties": {
        "id": 4472279489,
        "osm_type": "node",
        "tourism": "guest_house"
      }
    },
    {
      "type": "Feature",
      "geometry": {
        "type": "Point",
        "coordinates": [
          26.8290095,
          43.7146176
        ]
      },
      "properties": {
        "id": 5798862415,
        "osm_type": "node",
        "name": "Hotel Edelis",
        "tourism": "hotel",
        "website": "https://www.hoteledilis.com/"
      }
    },
    {
      "type": "Feature",
      "geometry": {
        "type": "Point",
        "coordinates": [
          26.5001768,
          43.5299272
        ]
      },
      "properties": {
        "id": 12179788733,
        "osm_type": "node",
        "name": "Villa Della Rosa",
        "tourism": "hotel",
        "website": "https://villarosa-bg.com"
      }
    },
    {
      "type": "Feature",
      "geometry": {
        "type": "Point",
        "coordinates": [
          26.4798949,
          43.4648643
        ]
      },
      "properties": {
        "id": 234943298,
        "osm_type": "way",
        "name": "х. Пчелина",
        "tourism": "alpine_hut"
      }
    },
    {
      "type": "Feature",
      "geometry": {
        "type": "Point",
        "coordinates": [
          26.5255611,
          43.5338808
        ]
      },
      "properties": {
        "id": 235475087,
        "osm_type": "way",
        "name": "Мимоза",
        "tourism": "hotel"
      }
    },
    {
      "type": "Feature",
      "geometry": {
        "type": "Point",
        "coordinates": [
          26.7531256,
          43.7351596
        ]
      },
      "properties": {
        "id": 375730417,
        "osm_type": "way",
        "name": "хижа Ахинора",
        "tourism": "alpine_hut"
      }
    },
    {
      "type": "Feature",
      "geometry": {
        "type": "Point",
        "coordinates": [
          26.5204182,
          43.5240952
        ]
      },
      "properties": {
        "id": 660591864,
        "osm_type": "way",
        "name": "GabriSa",
        "tourism": "hotel"
      }
    },
    {
      "type": "Feature",
      "geometry": {
        "type": "Point",
        "coordinates": [
          26.5983628,
          43.3711339
        ]
      },
      "properties": {
        "id": 1484901313,
        "osm_type": "way",
        "tourism": "hotel"
      }
    },
    {
      "type": "Feature",
      "geometry": {
        "type": "Point",
        "coordinates": [
          26.522015,
          43.5282212
        ]
      },
      "properties": {
        "id": 2451056,
        "osm_type": "relation",
        "name": "Хотел Централ",
        "tourism": "hotel"
      }
    }
  ]
}