{
  "type": "FeatureCollection",
  "features": [
    {
      "type": "Feature",
      "geometry": {
        "type": "Point",
        "coordinates": [
          16.6144356,
          46.3368429
        ]
      },
      "properties": {
        "id": 718144127,
        "osm_type": "node",
        "name": "Hotel Prelog",
        "tourism": "hotel",
        "website": "https://www.hotel-prelog.com/"
      }
    },
    {
      "type": "Feature",
      "geometry": {
        "type": "Point",
        "coordinates": [
          16.4322088,
          46.3920624
        ]
      },
      "properties": {
        "id": 1568932161,
        "osm_type": "node",
        "name": "Rooms Aurora",
        "tourism": "guest_house"
      }
    },
    {
      "type": "Feature",
      "geometry": {
        "type": "Point",
        "coordinates": [
          16.3899377,
          46.3811501
        ]
      },
      "properties": {
        "id": 4347910089,
        "osm_type": "node",
        "name": "Hotel Aton",
        "tourism": "hostel",
        "phone": "+38540821990",
        "website": "https://www.sgc-aton.hr/"
      }
    },
    {
      "type": "Feature",
      "geometry": {
        "type": "Point",
        "coordinates": [
          16.363069,
          46.5254778
        ]
      },
      "properties": {
        "id": 5684586308,
        "osm_type": "node",
        "name": "Apartman Polanec",
        "tourism": "guest_house"
      }
    },
    {
      "type": "Feature",
      "geometry": {
        "type": "Point",
        "coordinates": [
          16.3404532,
          46.4950535
        ]
      },
      "properties": {
        "id": 6157621985,
        "osm_type": "node",
        "name": "Life Clas Terme Sveti Martin na Muri",
        "tourism": "hotel"
      }
    },
    {
      "type": "Feature",
      "geometry": {
        "type": "Point",
        "coordinates": [
          16.4359268,
          46.5148713
        ]
      },
      "properties": {
        "id": 6272261473,
        "osm_type": "node",
        "name": "Pansion Ilonka",
        "tourism": "guest_house",
        "website": "https://www.ilonka.hr/"
      }
    },
    {
      "type": "Feature",
      "geometry": {
        "type": "Point",
        "coordinates": [
          16.4370545,
          46.3901681
        ]
      },
      "properties": {
        "id": 6489430328,
        "osm_type": "node",
        "name": "Center Apartment Čakovec",
        "tourism": "guest_house",
        "phone": "+385 98 552 992"
      }
    },
    {
      "type": "Feature",
      "geometry": {
        "type": "Point",
        "coordinates": [
          16.427435,
          46.3891394
        ]
      },
      "properties": {
        "id": 6498550848,
        "osm_type": "node",
        "name": "Hotel Park",
        "tourism": "hotel",
        "phone": "+385 40 311 255",
        "website": "https://hotelpark.hr/"
      }
    },
    {
      "type": "Feature",
      "geometry": {
        "type": "Point",
        "coordinates": [
          16.4325528,
          46.3868791
        ]
      },
      "properties": {
        "id": 6613020651,
        "osm_type": "node",
        "name": "Castellum",
        "tourism": "hotel",
        "phone": "+385 40 304 200",
        "website": "https://castellum-cakovec.com/"
      }
    },
    {
      "type": "Feature",
      "geometry": {
        "type": "Point",
        "coordinates": [
          16.447126,
          46.3886959
        ]
      },
      "properties": {
        "id": 6710847910,
        "osm_type": "node",
        "name": "Apartman 111",
        "tourism": "apartment",
        "phone": "+385 99 737 65 7"
      }
    },
    {
      "type": "Feature",
      "geometry": {
        "type": "Point",
        "coordinates": [
          16.6044563,
          46.3241457
        ]
      },
      "properties": {
        "id": 6765147031,
        "osm_type": "node",
        "tourism": "camp_site"
      }
    },
    {
      "type": "Feature",
      "geometry": {
        "type": "Point",
        "coordinates": [
          16.7815072,
          46.3219595
        ]
      },
      "properties": {
        "id": 6948340930,
        "osm_type": "node",
        "name": "Hotel Golf",
        "tourism": "hotel"
      }
    },
    {
      "type": "Feature",
      "geometry": {
        "type": "Point",
        "coordinates": [
          16.4378648,
          46.3954297
        ]
      },
      "properties": {
        "id": 12183972928,
        "osm_type": "node",
        "name": "Apartman \"Santosha\"",
        "tourism": "apartment",
        "website": "https://www.booking.com/hotel/hr/apartman-santosha"
      }
    },
    {
      "type": "Feature",
      "geometry": {
        "type": "Point",
        "coordinates": [
          16.4318852,
          46.3825085
        ]
      },
      "properties": {
        "id": 12184005677,
        "osm_type": "node",
        "name": "Apartman \"Terra\"",
        "tourism": "apartment",
        "phone": "+385 95 905 9602"
      }
    },
    {
      "type": "Feature",
      "geometry": {
        "type": "Point",
        "coordinates": [
          16.4356317,
          46.4046331
        ]
      },
      "properties": {
        "id": 12184062653,
        "osm_type": "node",
        "name": "Apartman \"Urban Apartment 5\"",
        "tourism": "apartment",
        "phone": "+385 95 199 6057"
      }
    },
    {
      "type": "Feature",
      "geometry": {
        "type": "Point",
        "coordinates": [
          16.440033,
          46.3916897
        ]
      },
      "properties": {
        "id": 12184066783,
        "osm_type": "node",
        "name": "Apartman \"Cvjetnjak\"",
        "tourism": "apartment",
        "phone": "+385 99 427 9942"
      }
    },
    {
      "type": "Feature",
      "geometry": {
        "type": "Point",
        "coordinates": [
          16.4272226,
          46.3871503
        ]
      },
      "properties": {
        "id": 12184074906,
        "osm_type": "node",
        "name": "Apartman \"Close2park\"",
        "tourism": "apartment"
      }
    },
    {
      "type": "Feature",
      "geometry": {
        "type": "Point",
        "coordinates": [
          16.437336,
          46.3891384
        ]
      },
      "properties": {
        "id": 12184082142,
        "osm_type": "node",
        "name": "Apartman \"Lux\"",
        "tourism": "apartment"
      }
    },
    {
      "type": "Feature",
      "geometry": {
        "type": "Point",
        "coordinates": [
          16.4355637,
          46.4046096
        ]
      },
      "properties": {
        "id": 12184082218,
        "osm_type": "node",
        "name": "Studio apartman \"Urban Studio 5\"",
        "tourism": "apartment",
        "phone": "+385 95 199 6057"
      }
    },
    {
      "type": "Feature",
      "geometry": {
        "type": "Point",
        "coordinates": [
          16.4291597,
          46.3866377
        ]
      },
      "properties": {
        "id": 12184131067,
        "osm_type": "node",
        "name": "Apartman \"City Break\"",
        "tourism": "apartment"
      }
    },
    {
      "type": "Feature",
      "geometry": {
        "type": "Point",
        "coordinates": [
          16.4379652,
          46.3953993
        ]
      },
      "properties": {
        "id": 12184131145,
        "osm_type": "node",
        "name": "Apartman \"Azul\"",
        "tourism": "apartment",
        "phone": "+385 91 341 1883"
      }
    },
    {
      "type": "Feature",
      "geometry": {
        "type": "Point",
        "coordinates": [
          16.4285877,
          46.3942798
        ]
      },
      "properties": {
        "id": 12184140519,
        "osm_type": "node",
        "name": "Apartman \"BLUE SKY\"",
        "tourism": "apartment",
        "phone": "+385 95 844 9401"
      }
    },
    {
      "type": "Feature",
      "geometry": {
        "type": "Point",
        "coordinates": [
          16.4399804,
          46.3968836
        ]
      },
      "properties": {
        "id": 12184140888,
        "osm_type": "node",
        "name": "Apartman City Luxe",
        "tourism": "apartment"
      }
    },
    {
      "type": "Feature",
      "geometry": {
        "type": "Point",
        "coordinates": [
          16.4370736,
          46.3880695
        ]
      },
      "properties": {
        "id": 12184145142,
        "osm_type": "node",
        "name": "Apartman \"Lumi\"",
        "tourism": "apartment",
        "phone": "+38598426555"
      }
    },
    {
      "type": "Feature",
      "geometry": {
        "type": "Point",
        "coordinates": [
          16.4467062,
          46.3879961
        ]
      },
      "properties": {
        "id": 12184172385,
        "osm_type": "node",
        "name": "Apartman \"Day\"",
        "tourism": "apartment",
        "phone": "+385 91 540 7250"
      }
    },
    {
      "type": "Feature",
      "geometry": {
        "type": "Point",
        "coordinates": [
          16.4394705,
          46.3888659
        ]
      },
      "properties": {
        "id": 12184186842,
        "osm_type": "node",
        "name": "Apartman \"MAXIMUS\"",
        "tourism": "apartment",
        "phone": "+385 91 505 8058"
      }
    },
    {
      "type": "Feature",
      "geometry": {
        "type": "Point",
        "coordinates": [
          16.4268241,
          46.3898501
        ]
      },
      "properties": {
        "id": 12184217025,
        "osm_type": "node",
        "name": "Apartman \"Moonlite\"",
        "tourism": "apartment",
        "phone": "+385 95 490 0756"
      }
    },
    {
      "type": "Feature",
      "geometry": {
        "type": "Point",
        "coordinates": [
          16.4478378,
          46.3947209
        ]
      },
      "properties": {
        "id": 12184221989,
        "osm_type": "node",
        "name": "Studio Apartman \"REST NEST\"",
        "tourism": "apartment"
      }
    },
    {
      "type": "Feature",
      "geometry": {
        "type": "Point",
        "coordinates": [
          16.43319,
          46.3826113
        ]
      },
      "properties": {
        "id": 12184236821,
        "osm_type": "node",
        "name": "Apartman \"Matulica\"",
        "tourism": "apartment",
        "phone": "+385 91 887 4474"
      }
    },
    {
      "type": "Feature",
      "geometry": {
        "type": "Point",
        "coordinates": [
          16.3044454,
          46.5086943
        ]
      },
      "properties": {
        "id": 12376787776,
        "osm_type": "node",
        "name": "Vincekov muzej",
        "tourism": "guest_house",
        "phone": "+386 51 239 697"
      }
    },
    {
      "type": "Feature",
      "geometry": {
        "type": "Point",
        "coordinates": [
          16.4079806,
          46.3857358
        ]
      },
      "properties": {
        "id": 12511954989,
        "osm_type": "node",
        "tourism": "hostel",
        "contact:website": "https://medjimurjepress.net/vijesti/novi-hostel-industrial-u-cakovcu/"
      }
    },
    {
      "type": "Feature",
      "geometry": {
        "type": "Point",
        "coordinates": [
          16.4216554,
          46.3835589
        ]
      },
      "properties": {
        "id": 104290396,
        "osm_type": "way",
        "name": "Royal",
        "tourism": "motel"
      }
    },
    {
      "type": "Feature",
      "geometry": {
        "type": "Point",
        "coordinates": [
          16.7341232,
          46.3200887
        ]
      },
      "properties": {
        "id": 122131601,
        "osm_type": "way",
        "tourism": "camp_site"
      }
    },
    {
      "type": "Feature",
      "geometry": {
        "type": "Point",
        "coordinates": [
          16.3396407,
          46.4947167
        ]
      },
      "properties": {
        "id": 238304329,
        "osm_type": "way",
        "name": "Terme Sveti Martin",
        "tourism": "hotel",
        "phone": "+385 40 371 111",
        "website": "https://www.termesvetimartin.com/hr/"
      }
    },
    {
      "type": "Feature",
      "geometry": {
        "type": "Point",
        "coordinates": [
          16.3900365,
          46.3806489
        ]
      },
      "properties": {
        "id": 296188127,
        "osm_type": "way",
        "name": "ATON Hostel",
        "tourism": "motel"
      }
    },
    {
      "type": "Feature",
      "geometry": {
        "type": "Point",
        "coordinates": [
          16.3620084,
          46.3476981
        ]
      },
      "properties": {
        "id": 310191340,
        "osm_type": "way",
        "name": "MAMICA",
        "tourism": "motel"
      }
    },
    {
      "type": "Feature",
      "geometry": {
        "type": "Point",
        "coordinates": [
          16.3913052,
          46.3811273
        ]
      },
      "properties": {
        "id": 352139538,
        "osm_type": "way",
        "name": "Hostel",
        "tourism": "hotel"
      }
    },
    {
      "type": "Feature",
      "geometry": {
        "type": "Point",
        "coordinates": [
          16.6406058,
          46.357057
        ]
      },
      "properties": {
        "id": 378377141,
        "osm_type": "way",
        "name": "Hotel Kralj",
        "tourism": "hotel"
      }
    },
    {
      "type": "Feature",
      "geometry": {
        "type": "Point",
        "coordinates": [
          16.3358944,
          46.4920956
        ]
      },
      "properties": {
        "id": 438498784,
        "osm_type": "way",
        "name": "Apartmani Lapaž",
        "tourism": "guest_house",
        "website": "http://apartmani-lapaz.com/"
      }
    },
    {
      "type": "Feature",
      "geometry": {
        "type": "Point",
        "coordinates": [
          16.336021,
          46.4918778
        ]
      },
      "properties": {
        "id": 438498785,
        "osm_type": "way",
        "tourism": "apartment"
      }
    },
    {
      "type": "Feature",
      "geometry": {
        "type": "Point",
        "coordinates": [
          16.3341829,
          46.4935035
        ]
      },
      "properties": {
        "id": 438499154,
        "osm_type": "way",
        "name": "Kuća za odmor Novak",
        "tourism": "guest_house",
        "website": "http://www.apartmanisvetimartin.com/index.php"
      }
    },
    {
      "type": "Feature",
      "geometry": {
        "type": "Point",
        "coordinates": [
          16.3141787,
          46.4960515
        ]
      },
      "properties": {
        "id": 439482078,
        "osm_type": "way",
        "name": "Arena",
        "tourism": "guest_house"
      }
    },
    {
      "type": "Feature",
      "geometry": {
        "type": "Point",
        "coordinates": [
          16.298873,
          46.4948933
        ]
      },
      "properties": {
        "id": 445010901,
        "osm_type": "way",
        "name": "Rojko",
        "tourism": "guest_house"
      }
    },
    {
      "type": "Feature",
      "geometry": {
        "type": "Point",
        "coordinates": [
          16.2588453,
          46.4927714
        ]
      },
      "properties": {
        "id": 473554230,
        "osm_type": "way",
        "name": "Mađerka",
        "tourism": "guest_house"
      }
    },
    {
      "type": "Feature",
      "geometry": {
        "type": "Point",
        "coordinates": [
          16.3618187,
          46.5245866
        ]
      },
      "properties": {
        "id": 474029289,
        "osm_type": "way",
        "name": "Apartman Bogdan",
        "tourism": "guest_house"
      }
    },
    {
      "type": "Feature",
      "geometry": {
        "type": "Point",
        "coordinates": [
          16.3578347,
          46.5243299
        ]
      },
      "properties": {
        "id": 477910520,
        "osm_type": "way",
        "name": "Apartmani Anna",
        "tourism": "guest_house"
      }
    },
    {
      "type": "Feature",
      "geometry": {
        "type": "Point",
        "coordinates": [
          16.3188024,
          46.5023747
        ]
      },
      "properties": {
        "id": 479555471,
        "osm_type": "way",
        "name": "Fijolica",
        "tourism": "guest_house",
        "website": "https://fijolicainfo.wixsite.com/sokac"
      }
    },
    {
      "type": "Feature",
      "geometry": {
        "type": "Point",
        "coordinates": [
          16.3193113,
          46.4995758
        ]
      },
      "properties": {
        "id": 479560805,
        "osm_type": "way",
        "name": "Villa Addl",
        "tourism": "apartment",
        "phone": "+385 98354270"
      }
    },
    {
      "type": "Feature",
      "geometry": {
        "type": "Point",
        "coordinates": [
          16.3191326,
          46.4949316
        ]
      },
      "properties": {
        "id": 484086258,
        "osm_type": "way",
        "name": "Elizabeta",
        "tourism": "guest_house"
      }
    },
    {
      "type": "Feature",
      "geometry": {
        "type": "Point",
        "coordinates": [
          16.3007972,
          46.4877007
        ]
      },
      "properties": {
        "id": 485729976,
        "osm_type": "way",
        "name": "Brežni cukorek",
        "tourism": "guest_house"
      }
    },
    {
      "type": "Feature",
      "geometry": {
        "type": "Point",
        "coordinates": [
          16.3161544,
          46.475731
        ]
      },
      "properties": {
        "id": 515138983,
        "osm_type": "way",
        "name": "Pansion Monika",
        "tourism": "guest_house"
      }
    },
    {
      "type": "Feature",
      "geometry": {
        "type": "Point",
        "coordinates": [
          16.3779436,
          46.5220063
        ]
      },
      "properties": {
        "id": 538777002,
        "osm_type": "way",
        "name": "Apartman Polanec 2",
        "tourism": "guest_house"
      }
    },
    {
      "type": "Feature",
      "geometry": {
        "type": "Point",
        "coordinates": [
          16.8126393,
          46.3528855
        ]
      },
      "properties": {
        "id": 560113325,
        "osm_type": "way",
        "tourism": "apartment"
      }
    },
    {
      "type": "Feature",
      "geometry": {
        "type": "Point",
        "coordinates": [
          16.3550337,
          46.5228084
        ]
      },
      "properties": {
        "id": 614247056,
        "osm_type": "way",
        "name": "Apartmani i sobe Rea",
        "tourism": "guest_house"
      }
    },
    {
      "type": "Feature",
      "geometry": {
        "type": "Point",
        "coordinates": [
          16.3436561,
          46.5015796
        ]
      },
      "properties": {
        "id": 623430159,
        "osm_type": "way",
        "name": "Four Seasons",
        "tourism": "guest_house"
      }
    },
    {
      "type": "Feature",
      "geometry": {
        "type": "Point",
        "coordinates": [
          16.3492354,
          46.4982544
        ]
      },
      "properties": {
        "id": 653136147,
        "osm_type": "way",
        "name": "Međimurski ceker",
        "tourism": "guest_house",
        "website": "https://medimurskiceker.com"
      }
    },
    {
      "type": "Feature",
      "geometry": {
        "type": "Point",
        "coordinates": [
          16.3585052,
          46.493053
        ]
      },
      "properties": {
        "id": 657057870,
        "osm_type": "way",
        "name": "Kuća Dobranić",
        "tourism": "guest_house",
        "website": "https://www.dobranic.com/"
      }
    },
    {
      "type": "Feature",
      "geometry": {
        "type": "Point",
        "coordinates": [
          16.3598631,
          46.4952821
        ]
      },
      "properties": {
        "id": 657834866,
        "osm_type": "way",
        "name": "Kuća za odmor Dika",
        "tourism": "guest_house"
      }
    },
    {
      "type": "Feature",
      "geometry": {
        "type": "Point",
        "coordinates": [
          16.366068,
          46.5026317
        ]
      },
      "properties": {
        "id": 660261141,
        "osm_type": "way",
        "name": "Holiday Home Otium",
        "tourism": "guest_house"
      }
    },
    {
      "type": "Feature",
      "geometry": {
        "type": "Point",
        "coordinates": [
          16.4471679,
          46.3887126
        ]
      },
      "properties": {
        "id": 713774506,
        "osm_type": "way",
        "tourism": "apartment"
      }
    },
    {
      "type": "Feature",
      "geometry": {
        "type": "Point",
        "coordinates": [
          16.330094,
          46.4988392
        ]
      },
      "properties": {
        "id": 940948060,
        "osm_type": "way",
        "name": "Vinski kamp Hažić",
        "tourism": "camp_site",
        "website": "https://opg-hazic.com/"
      }
    },
    {
      "type": "Feature",
      "geometry": {
        "type": "Point",
        "coordinates": [
          16.3329629,
          46.4980532
        ]
      },
      "properties": {
        "id": 941010989,
        "osm_type": "way",
        "name": "Apartmani Dora",
        "tourism": "apartment"
      }
    }
  ]
}