{
  "type": "FeatureCollection",
  "features": [
    {
      "type": "Feature",
      "geometry": {
        "type": "Point",
        "coordinates": [
          10.4843852,
          59.4256481
        ]
      },
      "properties": {
        "id": 23623002,
        "osm_type": "node",
        "name": "scoala",
        "tourism": "guest_house"
      }
    },
    {
      "type": "Feature",
      "geometry": {
        "type": "Point",
        "coordinates": [
          10.4484916,
          59.0808843
        ]
      },
      "properties": {
        "id": 410660649,
        "osm_type": "node",
        "name": "Hvasser motell",
        "tourism": "motel",
        "website": "https://www.hvassermotell.no/"
      }
    },
    {
      "type": "Feature",
      "geometry": {
        "type": "Point",
        "coordinates": [
          10.4078032,
          59.264689
        ]
      },
      "properties": {
        "id": 448828007,
        "osm_type": "node",
        "name": "Quality Hotel Tønsberg",
        "tourism": "hotel",
        "check_date": "2024-05-09"
      }
    },
    {
      "type": "Feature",
      "geometry": {
        "type": "Point",
        "coordinates": [
          10.4044789,
          59.2680646
        ]
      },
      "properties": {
        "id": 448828213,
        "osm_type": "node",
        "name": "Hotell Klubben",
        "tourism": "hotel",
        "website": "https://www.hotelklubben.no"
      }
    },
    {
      "type": "Feature",
      "geometry": {
        "type": "Point",
        "coordinates": [
          10.417216,
          59.085289
        ]
      },
      "properties": {
        "id": 680624895,
        "osm_type": "node",
        "name": "Havna Tjøme hotel",
        "tourism": "hotel",
        "phone": "+47 33 30 30 00",
        "website": "https://havnatjome.no"
      }
    },
    {
      "type": "Feature",
      "geometry": {
        "type": "Point",
        "coordinates": [
          10.468361,
          59.238992
        ]
      },
      "properties": {
        "id": 685607033,
        "osm_type": "node",
        "name": "Hotel Borge",
        "tourism": "hotel"
      }
    },
    {
      "type": "Feature",
      "geometry": {
        "type": "Point",
        "coordinates": [
          10.485412,
          59.412837
        ]
      },
      "properties": {
        "id": 772339185,
        "osm_type": "node",
        "name": "Thon Hotel Horten",
        "tourism": "hotel"
      }
    },
    {
      "type": "Feature",
      "geometry": {
        "type": "Point",
        "coordinates": [
          10.0132356,
          59.1584204
        ]
      },
      "properties": {
        "id": 772645622,
        "osm_type": "node",
        "name": "Brathagen",
        "tourism": "guest_house"
      }
    },
    {
      "type": "Feature",
      "geometry": {
        "type": "Point",
        "coordinates": [
          10.0392005,
          58.9974961
        ]
      },
      "properties": {
        "id": 875796905,
        "osm_type": "node",
        "name": "Hotel Wassilioff",
        "tourism": "hotel",
        "website": "https://www.wassilioff.no/"
      }
    },
    {
      "type": "Feature",
      "geometry": {
        "type": "Point",
        "coordinates": [
          10.3341337,
          59.5207836
        ]
      },
      "properties": {
        "id": 1356401463,
        "osm_type": "node",
        "name": "Camp Killingen",
        "tourism": "chalet",
        "website": "https://ut.no/hytte/camp-killingen"
      }
    },
    {
      "type": "Feature",
      "geometry": {
        "type": "Point",
        "coordinates": [
          10.2568822,
          59.0841984
        ]
      },
      "properties": {
        "id": 1356457655,
        "osm_type": "node",
        "name": "Buerøya",
        "tourism": "chalet",
        "website": "https://ut.no/hytte/bueroeya"
      }
    },
    {
      "type": "Feature",
      "geometry": {
        "type": "Point",
        "coordinates": [
          10.27027,
          59.11675
        ]
      },
      "properties": {
        "id": 1356457874,
        "osm_type": "node",
        "name": "Gokstadholmen, Drengestua",
        "tourism": "chalet",
        "website": "https://ut.no/hytte/gokstadholmen-drengestua"
      }
    },
    {
      "type": "Feature",
      "geometry": {
        "type": "Point",
        "coordinates": [
          10.2708689,
          59.1163329
        ]
      },
      "properties": {
        "id": 1356457888,
        "osm_type": "node",
        "name": "Gokstadholmen, Hovedhytta",
        "tourism": "chalet",
        "website": "https://ut.no/hytte/gokstadholmen"
      }
    },
    {
      "type": "Feature",
      "geometry": {
        "type": "Point",
        "coordinates": [
          10.4618625,
          59.1213997
        ]
      },
      "properties": {
        "id": 1356458146,
        "osm_type": "node",
        "name": "Ildverket",
        "tourism": "chalet",
        "website": "https://ut.no/hytte/ildverket"
      }
    },
    {
      "type": "Feature",
      "geometry": {
        "type": "Point",
        "coordinates": [
          10.097319,
          59.0133403
        ]
      },
      "properties": {
        "id": 1356458171,
        "osm_type": "node",
        "name": "Jakthytta",
        "tourism": "chalet",
        "website": "https://ut.no/hytte/jakthytta"
      }
    },
    {
      "type": "Feature",
      "geometry": {
        "type": "Point",
        "coordinates": [
          10.5700749,
          59.2025979
        ]
      },
      "properties": {
        "id": 1356458299,
        "osm_type": "node",
        "name": "Kommandantboligen",
        "tourism": "chalet",
        "website": "https://ut.no/hytte/kommandantboligen"
      }
    },
    {
      "type": "Feature",
      "geometry": {
        "type": "Point",
        "coordinates": [
          10.4550705,
          59.4454734
        ]
      },
      "properties": {
        "id": 1356458508,
        "osm_type": "node",
        "name": "Løvøysund",
        "tourism": "chalet",
        "website": "https://ut.no/hytte/10848/lvysund"
      }
    },
    {
      "type": "Feature",
      "geometry": {
        "type": "Point",
        "coordinates": [
          10.54249,
          59.21543
        ]
      },
      "properties": {
        "id": 1356458820,
        "osm_type": "node",
        "name": "Rønningen, Mellom-Bolæren",
        "tourism": "chalet",
        "website": "https://ut.no/hytte/roenningen"
      }
    },
    {
      "type": "Feature",
      "geometry": {
        "type": "Point",
        "coordinates": [
          10.3607982,
          59.4553416
        ]
      },
      "properties": {
        "id": 1356458828,
        "osm_type": "node",
        "name": "Sandsletta",
        "tourism": "chalet",
        "website": "https://ut.no/hytte/sandsletta"
      }
    },
    {
      "type": "Feature",
      "geometry": {
        "type": "Point",
        "coordinates": [
          10.4533512,
          59.0821558
        ]
      },
      "properties": {
        "id": 1356458846,
        "osm_type": "node",
        "name": "Startbua",
        "tourism": "chalet",
        "website": "https://ut.no/hytte/sandesund"
      }
    },
    {
      "type": "Feature",
      "geometry": {
        "type": "Point",
        "coordinates": [
          10.3677,
          59.17326
        ]
      },
      "properties": {
        "id": 1356459151,
        "osm_type": "node",
        "name": "Søndre Tenvik",
        "tourism": "chalet",
        "website": "https://ut.no/hytte/soendre-tenvik"
      }
    },
    {
      "type": "Feature",
      "geometry": {
        "type": "Point",
        "coordinates": [
          10.43374,
          59.06701
        ]
      },
      "properties": {
        "id": 1356459180,
        "osm_type": "node",
        "name": "Tjønneberget",
        "tourism": "chalet",
        "website": "https://ut.no/kart/hytte/101301"
      }
    },
    {
      "type": "Feature",
      "geometry": {
        "type": "Point",
        "coordinates": [
          9.9758057,
          58.9858829
        ]
      },
      "properties": {
        "id": 1404491039,
        "osm_type": "node",
        "name": "Stretere Camping",
        "tourism": "caravan_site"
      }
    },
    {
      "type": "Feature",
      "geometry": {
        "type": "Point",
        "coordinates": [
          9.9697117,
          58.985905
        ]
      },
      "properties": {
        "id": 1404491139,
        "osm_type": "node",
        "name": "Kolbensrød Camping",
        "tourism": "caravan_site"
      }
    },
    {
      "type": "Feature",
      "geometry": {
        "type": "Point",
        "coordinates": [
          9.8729957,
          59.0593972
        ]
      },
      "properties": {
        "id": 1876313153,
        "osm_type": "node",
        "tourism": "camp_site"
      }
    },
    {
      "type": "Feature",
      "geometry": {
        "type": "Point",
        "coordinates": [
          10.4053511,
          59.2730117
        ]
      },
      "properties": {
        "id": 2147053504,
        "osm_type": "node",
        "name": "Tønsberg Vandrehjem",
        "tourism": "hostel"
      }
    },
    {
      "type": "Feature",
      "geometry": {
        "type": "Point",
        "coordinates": [
          10.2627964,
          59.0783724
        ]
      },
      "properties": {
        "id": 2175600268,
        "osm_type": "node",
        "tourism": "caravan_site"
      }
    },
    {
      "type": "Feature",
      "geometry": {
        "type": "Point",
        "coordinates": [
          9.973529,
          59.385389
        ]
      },
      "properties": {
        "id": 2519781489,
        "osm_type": "node",
        "name": "Gavelstad Gjestegård",
        "tourism": "hotel",
        "phone": "+47 33 15 59 59",
        "website": "https://gavelstad.no/"
      }
    },
    {
      "type": "Feature",
      "geometry": {
        "type": "Point",
        "coordinates": [
          10.407197,
          59.2687209
        ]
      },
      "properties": {
        "id": 2993955511,
        "osm_type": "node",
        "name": "Grand Apartments",
        "tourism": "apartment"
      }
    },
    {
      "type": "Feature",
      "geometry": {
        "type": "Point",
        "coordinates": [
          10.39102,
          59.265008
        ]
      },
      "properties": {
        "id": 3037457778,
        "osm_type": "node",
        "name": "Active Hotel",
        "tourism": "hotel",
        "phone": "33345910",
        "website": "https://www.activehotel.no/"
      }
    },
    {
      "type": "Feature",
      "geometry": {
        "type": "Point",
        "coordinates": [
          9.825442,
          59.299662
        ]
      },
      "properties": {
        "id": 3120273735,
        "osm_type": "node",
        "name": "Vindfjelltunet gjestegård",
        "tourism": "hotel"
      }
    },
    {
      "type": "Feature",
      "geometry": {
        "type": "Point",
        "coordinates": [
          9.8254981,
          59.3003732
        ]
      },
      "properties": {
        "id": 3167372245,
        "osm_type": "node",
        "tourism": "caravan_site"
      }
    },
    {
      "type": "Feature",
      "geometry": {
        "type": "Point",
        "coordinates": [
          9.8677843,
          58.9673354
        ]
      },
      "properties": {
        "id": 3296474761,
        "osm_type": "node",
        "name": "Nevlunghavn Gjestgiveri",
        "tourism": "hotel",
        "phone": "+47 33 18 81 50",
        "website": "https://nevlunghavn-gjestgiveri.no/"
      }
    },
    {
      "type": "Feature",
      "geometry": {
        "type": "Point",
        "coordinates": [
          10.0305654,
          58.9850196
        ]
      },
      "properties": {
        "id": 3313262261,
        "osm_type": "node",
        "name": "Solplassen camping",
        "tourism": "caravan_site"
      }
    },
    {
      "type": "Feature",
      "geometry": {
        "type": "Point",
        "coordinates": [
          9.960176,
          58.977577
        ]
      },
      "properties": {
        "id": 3663314237,
        "osm_type": "node",
        "name": "Anvikstranda Camping",
        "tourism": "camp_site",
        "phone": "+47 33 19 55 00",
        "website": "https://www.anvikstranda.no/"
      }
    },
    {
      "type": "Feature",
      "geometry": {
        "type": "Point",
        "coordinates": [
          9.966575,
          58.968443
        ]
      },
      "properties": {
        "id": 3663314567,
        "osm_type": "node",
        "name": "Donavall Camping",
        "tourism": "camp_site",
        "phone": "+47 33 12 78 80",
        "website": "https://www.donavall.no/"
      }
    },
    {
      "type": "Feature",
      "geometry": {
        "type": "Point",
        "coordinates": [
          10.491276,
          59.273048
        ]
      },
      "properties": {
        "id": 3663314984,
        "osm_type": "node",
        "name": "Furustrand camping",
        "tourism": "camp_site",
        "phone": "+47 33 35 70 00",
        "website": "https://furustrand.no/"
      }
    },
    {
      "type": "Feature",
      "geometry": {
        "type": "Point",
        "coordinates": [
          10.072612,
          59.021569
        ]
      },
      "properties": {
        "id": 3663315018,
        "osm_type": "node",
        "name": "Gon Camping",
        "tourism": "camp_site",
        "tents": "no",
        "phone": "+47 948 45 233",
        "website": "https://goncamping.no/"
      }
    },
    {
      "type": "Feature",
      "geometry": {
        "type": "Point",
        "coordinates": [
          10.221476,
          59.088316
        ]
      },
      "properties": {
        "id": 3663315023,
        "osm_type": "node",
        "name": "Granholmen Camping",
        "tourism": "camp_site",
        "website": "https://www.campinggranholmen.no"
      }
    },
    {
      "type": "Feature",
      "geometry": {
        "type": "Point",
        "coordinates": [
          9.994758,
          59.188742
        ]
      },
      "properties": {
        "id": 3663315326,
        "osm_type": "node",
        "name": "Holmfoss Hytteutleie Og Camping",
        "tourism": "camp_site",
        "phone": "+47 33 11 22 61;+47 456 01 064",
        "website": "https://www.holmfoss.no/"
      }
    },
    {
      "type": "Feature",
      "geometry": {
        "type": "Point",
        "coordinates": [
          9.960499,
          58.978704
        ]
      },
      "properties": {
        "id": 3663315391,
        "osm_type": "node",
        "name": "Kjærstranda Familiecamping",
        "tourism": "camp_site",
        "phone": "+47 33 19 57 30",
        "website": "https://www.kjarstranda.no/"
      }
    },
    {
      "type": "Feature",
      "geometry": {
        "type": "Point",
        "coordinates": [
          9.970368,
          58.985642
        ]
      },
      "properties": {
        "id": 3663315405,
        "osm_type": "node",
        "name": "Kolbensrød Camping",
        "tourism": "camp_site",
        "phone": "+47 917 86 210",
        "website": "https://www.kolbensrod.com/"
      }
    },
    {
      "type": "Feature",
      "geometry": {
        "type": "Point",
        "coordinates": [
          10.449992,
          59.08305
        ]
      },
      "properties": {
        "id": 3663315424,
        "osm_type": "node",
        "name": "Kruge Leirskole Og Hytteutleie",
        "tourism": "camp_site",
        "phone": "+47 33 39 30 10;+47 917 71 466",
        "website": "http://krugeleirskole.tjome.kommune.no"
      }
    },
    {
      "type": "Feature",
      "geometry": {
        "type": "Point",
        "coordinates": [
          10.262225,
          59.079083
        ]
      },
      "properties": {
        "id": 3663315549,
        "osm_type": "node",
        "name": "Langeby",
        "tourism": "camp_site",
        "phone": "+47 33 47 37 58",
        "website": "https://www.langeby.no/",
        "check_date": "2026-04-18"
      }
    },
    {
      "type": "Feature",
      "geometry": {
        "type": "Point",
        "coordinates": [
          9.965245,
          58.982211
        ]
      },
      "properties": {
        "id": 3663315597,
        "osm_type": "node",
        "name": "Lydhusstranda Camping",
        "tourism": "camp_site",
        "phone": "+47 33 14 02 20",
        "website": "https://www.lydhusstranda.no/"
      }
    },
    {
      "type": "Feature",
      "geometry": {
        "type": "Point",
        "coordinates": [
          10.439307,
          59.446711
        ]
      },
      "properties": {
        "id": 3663315610,
        "osm_type": "node",
        "name": "Løvøya Camping & Båthavn",
        "tourism": "camp_site",
        "phone": "+47 33 07 86 54",
        "website": "http://www.lovoya-camping.no"
      }
    },
    {
      "type": "Feature",
      "geometry": {
        "type": "Point",
        "coordinates": [
          10.393092,
          59.078527
        ]
      },
      "properties": {
        "id": 3663315964,
        "osm_type": "node",
        "name": "Mostranda Camping",
        "tourism": "camp_site",
        "phone": "+47 33 39 07 10",
        "website": "http://www.mostrandacamping.no"
      }
    },
    {
      "type": "Feature",
      "geometry": {
        "type": "Point",
        "coordinates": [
          9.857736,
          58.965917
        ]
      },
      "properties": {
        "id": 3663316024,
        "osm_type": "node",
        "name": "Oddane Sand Camping",
        "tourism": "camp_site",
        "tents": "yes",
        "phone": "+47 33 18 82 70",
        "website": "https://www.oddanesand.no/"
      }
    },
    {
      "type": "Feature",
      "geometry": {
        "type": "Point",
        "coordinates": [
          10.476359,
          59.397659
        ]
      },
      "properties": {
        "id": 3663316217,
        "osm_type": "node",
        "name": "Rørestrand Camping",
        "tourism": "camp_site",
        "phone": "+47 33 07 33 40",
        "website": "https://www.rorestrandcamping.no/"
      }
    },
    {
      "type": "Feature",
      "geometry": {
        "type": "Point",
        "coordinates": [
          10.260405,
          59.086336
        ]
      },
      "properties": {
        "id": 3663316383,
        "osm_type": "node",
        "name": "Sjøbakken Camping",
        "tourism": "camp_site",
        "phone": "+47 412 11 632",
        "website": "http://www.sjobakken.no/"
      }
    },
    {
      "type": "Feature",
      "geometry": {
        "type": "Point",
        "coordinates": [
          10.030108,
          58.984386
        ]
      },
      "properties": {
        "id": 3663316747,
        "osm_type": "node",
        "name": "Solplassen og Rakke Camping",
        "tourism": "camp_site",
        "phone": "+47 33 19 92 82",
        "website": "https://www.solplassen.no/"
      }
    },
    {
      "type": "Feature",
      "geometry": {
        "type": "Point",
        "coordinates": [
          9.961936,
          58.97638
        ]
      },
      "properties": {
        "id": 3663316785,
        "osm_type": "node",
        "name": "Stolpestad Camping",
        "tourism": "camp_site",
        "phone": "+47 33 19 57 45",
        "website": "https://www.stolpestad.no/"
      }
    },
    {
      "type": "Feature",
      "geometry": {
        "type": "Point",
        "coordinates": [
          9.975156,
          58.98559
        ]
      },
      "properties": {
        "id": 3663316813,
        "osm_type": "node",
        "name": "Stretere Camping AS",
        "tourism": "camp_site",
        "phone": "+47 33 19 56 01",
        "website": "https://www.stretere.no/"
      }
    },
    {
      "type": "Feature",
      "geometry": {
        "type": "Point",
        "coordinates": [
          10.381906,
          59.134382
        ]
      },
      "properties": {
        "id": 3663317135,
        "osm_type": "node",
        "name": "Svelvikstranda Camping",
        "tourism": "camp_site",
        "phone": "+47 971 49 248",
        "website": "http://www.svelvikstrandacamping.com"
      }
    },
    {
      "type": "Feature",
      "geometry": {
        "type": "Point",
        "coordinates": [
          9.8747065,
          59.0187906
        ]
      },
      "properties": {
        "id": 3663317189,
        "osm_type": "node",
        "name": "Torpevannet Feriepark",
        "tourism": "camp_site",
        "phone": "+47 940 94 176",
        "website": "https://www.torpevannet.no/"
      }
    },
    {
      "type": "Feature",
      "geometry": {
        "type": "Point",
        "coordinates": [
          9.825715,
          59.300121
        ]
      },
      "properties": {
        "id": 3663317780,
        "osm_type": "node",
        "name": "Vindfjelltunet Gjestegaard",
        "tourism": "camp_site",
        "phone": "+47 33 12 93 23",
        "website": "http://www.vindfjell.no"
      }
    },
    {
      "type": "Feature",
      "geometry": {
        "type": "Point",
        "coordinates": [
          10.259755,
          59.07129
        ]
      },
      "properties": {
        "id": 3663317803,
        "osm_type": "node",
        "name": "Vøra Camping og Badeplass",
        "tourism": "camp_site",
        "phone": "+47 33 47 37 70",
        "website": "http://www.xn--vracamping-0cb.no"
      }
    },
    {
      "type": "Feature",
      "geometry": {
        "type": "Point",
        "coordinates": [
          10.2555638,
          59.0686795
        ]
      },
      "properties": {
        "id": 4226129090,
        "osm_type": "node",
        "name": "Kværnstua",
        "tourism": "caravan_site"
      }
    },
    {
      "type": "Feature",
      "geometry": {
        "type": "Point",
        "coordinates": [
          10.3518017,
          59.2585504
        ]
      },
      "properties": {
        "id": 5645732025,
        "osm_type": "node",
        "name": "Gapahuken",
        "tourism": "camp_site",
        "tents": "yes"
      }
    },
    {
      "type": "Feature",
      "geometry": {
        "type": "Point",
        "coordinates": [
          10.3548329,
          59.2189386
        ]
      },
      "properties": {
        "id": 5648552380,
        "osm_type": "node",
        "tourism": "camp_site"
      }
    },
    {
      "type": "Feature",
      "geometry": {
        "type": "Point",
        "coordinates": [
          10.3532837,
          59.226572
        ]
      },
      "properties": {
        "id": 5648552381,
        "osm_type": "node",
        "tourism": "camp_site"
      }
    },
    {
      "type": "Feature",
      "geometry": {
        "type": "Point",
        "coordinates": [
          10.2510612,
          59.5239174
        ]
      },
      "properties": {
        "id": 5923816744,
        "osm_type": "node",
        "name": "Solberghytten",
        "tourism": "alpine_hut"
      }
    },
    {
      "type": "Feature",
      "geometry": {
        "type": "Point",
        "coordinates": [
          10.3330483,
          59.5230998
        ]
      },
      "properties": {
        "id": 6196190117,
        "osm_type": "node",
        "name": "Vesle Killingen",
        "tourism": "chalet"
      }
    },
    {
      "type": "Feature",
      "geometry": {
        "type": "Point",
        "coordinates": [
          10.490981,
          59.42575
        ]
      },
      "properties": {
        "id": 6323662101,
        "osm_type": "node",
        "name": "Gamlehorten Gjestegård",
        "tourism": "hotel",
        "website": "https://www.gamlehorten.no"
      }
    },
    {
      "type": "Feature",
      "geometry": {
        "type": "Point",
        "coordinates": [
          10.4633458,
          59.406873
        ]
      },
      "properties": {
        "id": 6507173185,
        "osm_type": "node",
        "tourism": "apartment"
      }
    },
    {
      "type": "Feature",
      "geometry": {
        "type": "Point",
        "coordinates": [
          10.2210617,
          59.124912
        ]
      },
      "properties": {
        "id": 6805574915,
        "osm_type": "node",
        "name": "Sandefjord bobilpark",
        "tourism": "caravan_site",
        "phone": "+47 46508825",
        "website": "https://www.visitnorway.no/listings/sandefjord-bobilpark/176533/"
      }
    },
    {
      "type": "Feature",
      "geometry": {
        "type": "Point",
        "coordinates": [
          10.4254782,
          59.3603917
        ]
      },
      "properties": {
        "id": 6805574916,
        "osm_type": "node",
        "name": "Dal Gjestegård",
        "tourism": "apartment",
        "check_date": "2025-10-04"
      }
    },
    {
      "type": "Feature",
      "geometry": {
        "type": "Point",
        "coordinates": [
          10.4878208,
          59.4219307
        ]
      },
      "properties": {
        "id": 6805574917,
        "osm_type": "node",
        "name": "Horten Apartment",
        "tourism": "apartment"
      }
    },
    {
      "type": "Feature",
      "geometry": {
        "type": "Point",
        "coordinates": [
          9.9760781,
          59.0339419
        ]
      },
      "properties": {
        "id": 6805574918,
        "osm_type": "node",
        "name": "Bakkane gård",
        "tourism": "apartment"
      }
    },
    {
      "type": "Feature",
      "geometry": {
        "type": "Point",
        "coordinates": [
          10.2290882,
          59.1301399
        ]
      },
      "properties": {
        "id": 6805574919,
        "osm_type": "node",
        "name": "Apartment Hotel Sandefjord",
        "tourism": "apartment"
      }
    },
    {
      "type": "Feature",
      "geometry": {
        "type": "Point",
        "coordinates": [
          10.0103031,
          58.9887299
        ]
      },
      "properties": {
        "id": 6805574920,
        "osm_type": "node",
        "name": "Jahren Gård og Feriested",
        "tourism": "apartment"
      }
    },
    {
      "type": "Feature",
      "geometry": {
        "type": "Point",
        "coordinates": [
          10.4641181,
          59.3996907
        ]
      },
      "properties": {
        "id": 6805574921,
        "osm_type": "node",
        "name": "Hotel Horten",
        "tourism": "hotel"
      }
    },
    {
      "type": "Feature",
      "geometry": {
        "type": "Point",
        "coordinates": [
          10.4699184,
          59.3499193
        ]
      },
      "properties": {
        "id": 6805574922,
        "osm_type": "node",
        "name": "Grand Hotel Åsgårdstrand",
        "tourism": "hotel"
      }
    },
    {
      "type": "Feature",
      "geometry": {
        "type": "Point",
        "coordinates": [
          10.4207765,
          59.1267405
        ]
      },
      "properties": {
        "id": 6844204470,
        "osm_type": "node",
        "name": "Engø Gård",
        "tourism": "hotel"
      }
    },
    {
      "type": "Feature",
      "geometry": {
        "type": "Point",
        "coordinates": [
          10.5990701,
          59.175736
        ]
      },
      "properties": {
        "id": 7159124345,
        "osm_type": "node",
        "name": "Fulehuk",
        "tourism": "chalet",
        "website": "https://www.oslofjorden.org/produkt/fulehuk/"
      }
    },
    {
      "type": "Feature",
      "geometry": {
        "type": "Point",
        "coordinates": [
          10.034813,
          59.048081
        ]
      },
      "properties": {
        "id": 7573113746,
        "osm_type": "node",
        "name": "Tollgaarden Gjestegaard",
        "tourism": "hotel",
        "website": "https://www.visitnorway.no/listings/tollgaarden-gjestegaard/215618/"
      }
    },
    {
      "type": "Feature",
      "geometry": {
        "type": "Point",
        "coordinates": [
          10.03121,
          59.055578
        ]
      },
      "properties": {
        "id": 7890287925,
        "osm_type": "node",
        "name": "Larvik Pensjonat",
        "tourism": "guest_house"
      }
    },
    {
      "type": "Feature",
      "geometry": {
        "type": "Point",
        "coordinates": [
          10.029501,
          59.051015
        ]
      },
      "properties": {
        "id": 8304780072,
        "osm_type": "node",
        "name": "Quality Hotel Grand Farris",
        "tourism": "hotel",
        "contact:phone": "+47 33 19 69 00"
      }
    },
    {
      "type": "Feature",
      "geometry": {
        "type": "Point",
        "coordinates": [
          10.32243,
          59.489569
        ]
      },
      "properties": {
        "id": 8414795917,
        "osm_type": "node",
        "name": "Hakan Bobilhavn",
        "tourism": "caravan_site",
        "opening_hours": "24/7"
      }
    },
    {
      "type": "Feature",
      "geometry": {
        "type": "Point",
        "coordinates": [
          9.908002,
          59.152872
        ]
      },
      "properties": {
        "id": 8416045117,
        "osm_type": "node",
        "name": "Roppestad",
        "tourism": "caravan_site"
      }
    },
    {
      "type": "Feature",
      "geometry": {
        "type": "Point",
        "coordinates": [
          10.312396,
          59.493416
        ]
      },
      "properties": {
        "id": 9751061037,
        "osm_type": "node",
        "name": "Holmestrand Fjordhotell",
        "tourism": "hotel",
        "phone": "+4733098100",
        "website": "https://holmestrandfjordhotell.no/"
      }
    },
    {
      "type": "Feature",
      "geometry": {
        "type": "Point",
        "coordinates": [
          10.4767175,
          59.3891406
        ]
      },
      "properties": {
        "id": 9833704334,
        "osm_type": "node",
        "name": "Langgrunn",
        "tourism": "chalet"
      }
    },
    {
      "type": "Feature",
      "geometry": {
        "type": "Point",
        "coordinates": [
          10.0149772,
          59.271885
        ]
      },
      "properties": {
        "id": 9833704341,
        "osm_type": "node",
        "name": "Heisetra",
        "tourism": "chalet"
      }
    },
    {
      "type": "Feature",
      "geometry": {
        "type": "Point",
        "coordinates": [
          10.4102186,
          59.2660707
        ]
      },
      "properties": {
        "id": 11054588605,
        "osm_type": "node",
        "tourism": "hotel"
      }
    },
    {
      "type": "Feature",
      "geometry": {
        "type": "Point",
        "coordinates": [
          10.4158709,
          59.2631219
        ]
      },
      "properties": {
        "id": 11098905435,
        "osm_type": "node",
        "name": "Gunnarsbø bobilparkering",
        "tourism": "caravan_site",
        "opening_hours": "24/7",
        "website": "https://www.tbgparkering.no/bobilparkering-i-tonsberg/"
      }
    },
    {
      "type": "Feature",
      "geometry": {
        "type": "Point",
        "coordinates": [
          10.4252759,
          59.2601145
        ]
      },
      "properties": {
        "id": 11161909161,
        "osm_type": "node",
        "name": "Bobilplass Stensarmen",
        "tourism": "caravan_site"
      }
    },
    {
      "type": "Feature",
      "geometry": {
        "type": "Point",
        "coordinates": [
          10.0605848,
          59.0501545
        ]
      },
      "properties": {
        "id": 11768777669,
        "osm_type": "node",
        "tourism": "caravan_site"
      }
    },
    {
      "type": "Feature",
      "geometry": {
        "type": "Point",
        "coordinates": [
          9.9916701,
          59.4263798
        ]
      },
      "properties": {
        "id": 11980826587,
        "osm_type": "node",
        "name": "Brufoss Camping and Fossekroa",
        "tourism": "camp_site",
        "phone": "+4796885704",
        "website": "brufosshytte.no"
      }
    },
    {
      "type": "Feature",
      "geometry": {
        "type": "Point",
        "coordinates": [
          10.3647085,
          59.2501264
        ]
      },
      "properties": {
        "id": 13016065297,
        "osm_type": "node",
        "tourism": "camp_site",
        "tents": "yes"
      }
    },
    {
      "type": "Feature",
      "geometry": {
        "type": "Point",
        "coordinates": [
          10.2405099,
          59.5565343
        ]
      },
      "properties": {
        "id": 51570650,
        "osm_type": "way",
        "name": "Holmsåsen Camping",
        "tourism": "camp_site"
      }
    },
    {
      "type": "Feature",
      "geometry": {
        "type": "Point",
        "coordinates": [
          10.2788898,
          59.5305339
        ]
      },
      "properties": {
        "id": 51787541,
        "osm_type": "way",
        "tourism": "caravan_site"
      }
    },
    {
      "type": "Feature",
      "geometry": {
        "type": "Point",
        "coordinates": [
          10.4625318,
          59.2246545
        ]
      },
      "properties": {
        "id": 54557570,
        "osm_type": "way",
        "name": "Nøtterøy Familiecamping Fjærholmen",
        "tourism": "camp_site",
        "tents": "yes",
        "phone": "+47 33 38 51 43;+47 906 48 919",
        "website": "https://www.fjaerholmen.no/"
      }
    },
    {
      "type": "Feature",
      "geometry": {
        "type": "Point",
        "coordinates": [
          10.4996025,
          59.2931542
        ]
      },
      "properties": {
        "id": 54563514,
        "osm_type": "way",
        "name": "Skallevold Camping",
        "tourism": "camp_site",
        "phone": "+47 992 57 776",
        "website": "https://www.skallevold-camping.no/"
      }
    },
    {
      "type": "Feature",
      "geometry": {
        "type": "Point",
        "coordinates": [
          10.3700919,
          59.2145599
        ]
      },
      "properties": {
        "id": 71171306,
        "osm_type": "way",
        "name": "Øra Camping",
        "tourism": "camp_site",
        "phone": "+47 33 38 33 03"
      }
    },
    {
      "type": "Feature",
      "geometry": {
        "type": "Point",
        "coordinates": [
          10.4917047,
          59.4224784
        ]
      },
      "properties": {
        "id": 103969310,
        "osm_type": "way",
        "name": "Sjømilitære samfund",
        "tourism": "hotel"
      }
    },
    {
      "type": "Feature",
      "geometry": {
        "type": "Point",
        "coordinates": [
          10.0334405,
          59.0490215
        ]
      },
      "properties": {
        "id": 108246743,
        "osm_type": "way",
        "name": "Larvik Bobilhavn",
        "tourism": "caravan_site"
      }
    },
    {
      "type": "Feature",
      "geometry": {
        "type": "Point",
        "coordinates": [
          9.8738202,
          58.9775806
        ]
      },
      "properties": {
        "id": 114925506,
        "osm_type": "way",
        "name": "Omrestranda Camping",
        "tourism": "camp_site",
        "phone": "+47 928 69 825"
      }
    },
    {
      "type": "Feature",
      "geometry": {
        "type": "Point",
        "coordinates": [
          9.973031,
          58.9856812
        ]
      },
      "properties": {
        "id": 126777810,
        "osm_type": "way",
        "tourism": "caravan_site"
      }
    },
    {
      "type": "Feature",
      "geometry": {
        "type": "Point",
        "coordinates": [
          9.9654634,
          58.9833546
        ]
      },
      "properties": {
        "id": 126777814,
        "osm_type": "way",
        "tourism": "caravan_site"
      }
    },
    {
      "type": "Feature",
      "geometry": {
        "type": "Point",
        "coordinates": [
          9.966359,
          58.9687406
        ]
      },
      "properties": {
        "id": 126777818,
        "osm_type": "way",
        "tourism": "caravan_site"
      }
    },
    {
      "type": "Feature",
      "geometry": {
        "type": "Point",
        "coordinates": [
          9.961298,
          58.9781492
        ]
      },
      "properties": {
        "id": 126777820,
        "osm_type": "way",
        "tourism": "caravan_site"
      }
    },
    {
      "type": "Feature",
      "geometry": {
        "type": "Point",
        "coordinates": [
          9.9277691,
          58.9744913
        ]
      },
      "properties": {
        "id": 127048236,
        "osm_type": "way",
        "name": "Trane Camping",
        "tourism": "camp_site",
        "phone": "+4747337600"
      }
    },
    {
      "type": "Feature",
      "geometry": {
        "type": "Point",
        "coordinates": [
          9.9272188,
          58.9791428
        ]
      },
      "properties": {
        "id": 127048243,
        "osm_type": "way",
        "tourism": "caravan_site"
      }
    },
    {
      "type": "Feature",
      "geometry": {
        "type": "Point",
        "coordinates": [
          9.9462937,
          58.9710925
        ]
      },
      "properties": {
        "id": 127048245,
        "osm_type": "way",
        "name": "Brunvall gård",
        "tourism": "camp_site",
        "phone": "+47 33 19 55 35;+47 997 21 735",
        "website": "https://www.brunvall.com/"
      }
    },
    {
      "type": "Feature",
      "geometry": {
        "type": "Point",
        "coordinates": [
          9.844792,
          58.9852261
        ]
      },
      "properties": {
        "id": 127064349,
        "osm_type": "way",
        "name": "Omlidstranda Camping",
        "tourism": "camp_site",
        "tents": "yes",
        "phone": "+47 33 18 86 00",
        "website": "https://www.omlidstranda.no/"
      }
    },
    {
      "type": "Feature",
      "geometry": {
        "type": "Point",
        "coordinates": [
          9.8541294,
          58.9992715
        ]
      },
      "properties": {
        "id": 127068466,
        "osm_type": "way",
        "name": "Blokkebukta camping",
        "tourism": "camp_site",
        "phone": "+47 33 18 89 75",
        "website": "http://www.blokkebukta-camping.no"
      }
    },
    {
      "type": "Feature",
      "geometry": {
        "type": "Point",
        "coordinates": [
          10.0020497,
          59.622039
        ]
      },
      "properties": {
        "id": 156233905,
        "osm_type": "way",
        "name": "Eikernveien Camping",
        "tourism": "camp_site",
        "phone": "+47 33 05 70 99",
        "website": "https://www.visiteidsfoss.no/aktorer/thorrud-camping/"
      }
    },
    {
      "type": "Feature",
      "geometry": {
        "type": "Point",
        "coordinates": [
          10.046057,
          59.1559537
        ]
      },
      "properties": {
        "id": 172532584,
        "osm_type": "way",
        "name": "MeløstrandaCamping",
        "tourism": "camp_site",
        "phone": "+47 33 11 10 25"
      }
    },
    {
      "type": "Feature",
      "geometry": {
        "type": "Point",
        "coordinates": [
          10.207632,
          59.178311
        ]
      },
      "properties": {
        "id": 176081421,
        "osm_type": "way",
        "name": "Torp Hotel",
        "tourism": "motel",
        "website": "http://www.sandefjordmotorhotel.no/"
      }
    },
    {
      "type": "Feature",
      "geometry": {
        "type": "Point",
        "coordinates": [
          10.404316,
          59.2673805
        ]
      },
      "properties": {
        "id": 199884069,
        "osm_type": "way",
        "name": "Thon Hotel Tønsberg Brygge",
        "tourism": "hotel",
        "website": "https://www.thonhotels.no/hoteller/norge/tonsberg/thon-hotel-tonsberg-brygge/"
      }
    },
    {
      "type": "Feature",
      "geometry": {
        "type": "Point",
        "coordinates": [
          10.2623568,
          59.0786674
        ]
      },
      "properties": {
        "id": 207356928,
        "osm_type": "way",
        "tourism": "caravan_site"
      }
    },
    {
      "type": "Feature",
      "geometry": {
        "type": "Point",
        "coordinates": [
          10.2601357,
          59.0710013
        ]
      },
      "properties": {
        "id": 207358042,
        "osm_type": "way",
        "tourism": "caravan_site"
      }
    },
    {
      "type": "Feature",
      "geometry": {
        "type": "Point",
        "coordinates": [
          10.22084,
          59.127529
        ]
      },
      "properties": {
        "id": 208048300,
        "osm_type": "way",
        "name": "Scandic Park Sandefjord",
        "tourism": "hotel",
        "phone": "+47 33 44 74 00",
        "website": "https://www.scandichotels.com/hotels/norway/sandefjord/scandic-park-sandefjord",
        "check_date": "2026-04-17"
      }
    },
    {
      "type": "Feature",
      "geometry": {
        "type": "Point",
        "coordinates": [
          10.2219685,
          59.1306485
        ]
      },
      "properties": {
        "id": 219077956,
        "osm_type": "way",
        "name": "Hotel Kong Carl",
        "tourism": "hotel"
      }
    },
    {
      "type": "Feature",
      "geometry": {
        "type": "Point",
        "coordinates": [
          10.22429,
          59.1330515
        ]
      },
      "properties": {
        "id": 219409889,
        "osm_type": "way",
        "name": "Clarion Collection Hotel Atlantic",
        "tourism": "hotel"
      }
    },
    {
      "type": "Feature",
      "geometry": {
        "type": "Point",
        "coordinates": [
          9.8566277,
          58.9661602
        ]
      },
      "properties": {
        "id": 323123009,
        "osm_type": "way",
        "name": "KNA Oddane Sand Camping",
        "tourism": "caravan_site",
        "tents": "yes",
        "phone": "+4733188270",
        "website": "https://oddanesand.no/"
      }
    },
    {
      "type": "Feature",
      "geometry": {
        "type": "Point",
        "coordinates": [
          10.4168347,
          59.2730111
        ]
      },
      "properties": {
        "id": 358376708,
        "osm_type": "way",
        "name": "Wilhelmsen House",
        "tourism": "apartment"
      }
    },
    {
      "type": "Feature",
      "geometry": {
        "type": "Point",
        "coordinates": [
          10.4067147,
          59.0612317
        ]
      },
      "properties": {
        "id": 359876954,
        "osm_type": "way",
        "tourism": "caravan_site",
        "opening_hours": "24/7"
      }
    },
    {
      "type": "Feature",
      "geometry": {
        "type": "Point",
        "coordinates": [
          10.3985401,
          59.2751954
        ]
      },
      "properties": {
        "id": 555006751,
        "osm_type": "way",
        "name": "Korten Bobilparkering",
        "tourism": "caravan_site",
        "opening_hours": "24/7"
      }
    },
    {
      "type": "Feature",
      "geometry": {
        "type": "Point",
        "coordinates": [
          10.4665339,
          59.3775163
        ]
      },
      "properties": {
        "id": 561884725,
        "osm_type": "way",
        "name": "Borre Familiecamping",
        "tourism": "camp_site",
        "opening_hours": "May-Aug",
        "tents": "yes",
        "phone": "+47 33 08 23 90",
        "website": "https://www.bfc.no/"
      }
    },
    {
      "type": "Feature",
      "geometry": {
        "type": "Point",
        "coordinates": [
          10.0143705,
          59.0547575
        ]
      },
      "properties": {
        "id": 583431731,
        "osm_type": "way",
        "name": "Trudvang Gjestegaard",
        "tourism": "hotel",
        "website": "https://trudvang.no/"
      }
    },
    {
      "type": "Feature",
      "geometry": {
        "type": "Point",
        "coordinates": [
          10.4872793,
          59.4136899
        ]
      },
      "properties": {
        "id": 583998524,
        "osm_type": "way",
        "name": "Horten Gjesthavn",
        "tourism": "caravan_site",
        "website": "https://www.hortenhavn.no/bobil/"
      }
    },
    {
      "type": "Feature",
      "geometry": {
        "type": "Point",
        "coordinates": [
          10.4919663,
          59.2723929
        ]
      },
      "properties": {
        "id": 612558985,
        "osm_type": "way",
        "tourism": "camp_site"
      }
    },
    {
      "type": "Feature",
      "geometry": {
        "type": "Point",
        "coordinates": [
          9.9949975,
          59.6305689
        ]
      },
      "properties": {
        "id": 613544037,
        "osm_type": "way",
        "name": "Thorrud Camping",
        "tourism": "camp_site",
        "phone": "+47 33 05 70 99"
      }
    },
    {
      "type": "Feature",
      "geometry": {
        "type": "Point",
        "coordinates": [
          9.9365061,
          58.9709749
        ]
      },
      "properties": {
        "id": 710376497,
        "osm_type": "way",
        "name": "Normandbo Gaard og Camping",
        "tourism": "camp_site",
        "phone": "+4733195544"
      }
    },
    {
      "type": "Feature",
      "geometry": {
        "type": "Point",
        "coordinates": [
          9.7988563,
          59.0071638
        ]
      },
      "properties": {
        "id": 712409791,
        "osm_type": "way",
        "name": "Arøyaskolen",
        "tourism": "chalet"
      }
    },
    {
      "type": "Feature",
      "geometry": {
        "type": "Point",
        "coordinates": [
          10.1130665,
          59.105929
        ]
      },
      "properties": {
        "id": 777251157,
        "osm_type": "way",
        "name": "Holms - Motell, Restaurant og Business Senter",
        "tourism": "motel",
        "phone": "+47 33 19 24 80;+47 97 06 04 61",
        "website": "https://holms.no/"
      }
    },
    {
      "type": "Feature",
      "geometry": {
        "type": "Point",
        "coordinates": [
          10.4145336,
          59.0870967
        ]
      },
      "properties": {
        "id": 857773725,
        "osm_type": "way",
        "name": "Havna Camping",
        "tourism": "caravan_site",
        "website": "https://havnatjome.no/camping/"
      }
    },
    {
      "type": "Feature",
      "geometry": {
        "type": "Point",
        "coordinates": [
          10.4923442,
          59.2717305
        ]
      },
      "properties": {
        "id": 1086074285,
        "osm_type": "way",
        "tourism": "chalet"
      }
    },
    {
      "type": "Feature",
      "geometry": {
        "type": "Point",
        "coordinates": [
          10.4923795,
          59.2716311
        ]
      },
      "properties": {
        "id": 1086074286,
        "osm_type": "way",
        "tourism": "chalet"
      }
    },
    {
      "type": "Feature",
      "geometry": {
        "type": "Point",
        "coordinates": [
          10.4924075,
          59.2715328
        ]
      },
      "properties": {
        "id": 1086074287,
        "osm_type": "way",
        "tourism": "chalet"
      }
    },
    {
      "type": "Feature",
      "geometry": {
        "type": "Point",
        "coordinates": [
          10.4922399,
          59.2714403
        ]
      },
      "properties": {
        "id": 1086074288,
        "osm_type": "way",
        "tourism": "chalet"
      }
    },
    {
      "type": "Feature",
      "geometry": {
        "type": "Point",
        "coordinates": [
          10.4925956,
          59.2714042
        ]
      },
      "properties": {
        "id": 1086074289,
        "osm_type": "way",
        "tourism": "chalet"
      }
    },
    {
      "type": "Feature",
      "geometry": {
        "type": "Point",
        "coordinates": [
          10.3599957,
          59.4565972
        ]
      },
      "properties": {
        "id": 1086355686,
        "osm_type": "way",
        "name": "Sand Bade- og Campingplass",
        "tourism": "camp_site",
        "phone": "+47 919 19 307",
        "website": "https://www.sandcamping.no/"
      }
    },
    {
      "type": "Feature",
      "geometry": {
        "type": "Point",
        "coordinates": [
          10.4083827,
          59.0656019
        ]
      },
      "properties": {
        "id": 1091574629,
        "osm_type": "way",
        "name": "Verdens Ende Camping",
        "tourism": "camp_site",
        "opening_hours": "Apr-Sep 10:00-22:00",
        "tents": "yes",
        "phone": "+47 33 39 10 10",
        "website": "http://www.verdensende.no"
      }
    },
    {
      "type": "Feature",
      "geometry": {
        "type": "Point",
        "coordinates": [
          10.0228655,
          58.9928508
        ]
      },
      "properties": {
        "id": 1203921219,
        "osm_type": "way",
        "name": "Stavern Bo & Fritid Bobilpark",
        "tourism": "caravan_site",
        "opening_hours": "week 1-27, 34-52",
        "phone": "+47 33 15 68 00",
        "website": "https://www.stavernbofritid.no/bobilpark"
      }
    },
    {
      "type": "Feature",
      "geometry": {
        "type": "Point",
        "coordinates": [
          10.3890572,
          59.2661929
        ]
      },
      "properties": {
        "id": 1204298443,
        "osm_type": "way",
        "name": "Bobil Parkering",
        "tourism": "caravan_site"
      }
    },
    {
      "type": "Feature",
      "geometry": {
        "type": "Point",
        "coordinates": [
          10.1770286,
          59.0242416
        ]
      },
      "properties": {
        "id": 1217423715,
        "osm_type": "way",
        "name": "Ula Camping og Hyttegrend",
        "tourism": "camp_site",
        "opening_hours": "May 1 - Sep 15",
        "tents": "yes",
        "phone": "+47 33 19 30 20",
        "contact:phone": "+47 458 02 002",
        "website": "https://sites.google.com/ula-camping.net/ulacamping/home"
      }
    },
    {
      "type": "Feature",
      "geometry": {
        "type": "Point",
        "coordinates": [
          10.2420167,
          59.0974808
        ]
      },
      "properties": {
        "id": 1217814875,
        "osm_type": "way",
        "name": "Asnes Camping",
        "tourism": "camp_site",
        "tents": "yes",
        "phone": "+47 33 47 37 70",
        "website": "https://www.asnescamping.no/"
      }
    },
    {
      "type": "Feature",
      "geometry": {
        "type": "Point",
        "coordinates": [
          10.3001079,
          59.5436378
        ]
      },
      "properties": {
        "id": 1420062107,
        "osm_type": "way",
        "tourism": "caravan_site"
      }
    },
    {
      "type": "Feature",
      "geometry": {
        "type": "Point",
        "coordinates": [
          10.2920004,
          59.6096575
        ]
      },
      "properties": {
        "id": 1420271188,
        "osm_type": "way",
        "tourism": "camp_site",
        "tents": "yes"
      }
    },
    {
      "type": "Feature",
      "geometry": {
        "type": "Point",
        "coordinates": [
          10.019985,
          59.0494625
        ]
      },
      "properties": {
        "id": 2899596,
        "osm_type": "relation",
        "name": "Farris Bad",
        "tourism": "hotel"
      }
    },
    {
      "type": "Feature",
      "geometry": {
        "type": "Point",
        "coordinates": [
          10.4767545,
          59.3976387
        ]
      },
      "properties": {
        "id": 8046628,
        "osm_type": "relation",
        "name": "Rørestrand Camping",
        "tourism": "camp_site"
      }
    },
    {
      "type": "Feature",
      "geometry": {
        "type": "Point",
        "coordinates": [
          9.9242487,
          58.9803777
        ]
      },
      "properties": {
        "id": 10067993,
        "osm_type": "relation",
        "name": "Guslandstranda Camping",
        "tourism": "camp_site",
        "phone": "+47 33 18 87 15"
      }
    },
    {
      "type": "Feature",
      "geometry": {
        "type": "Point",
        "coordinates": [
          10.0457663,
          59.0011273
        ]
      },
      "properties": {
        "id": 20394328,
        "osm_type": "relation",
        "name": "Solsiden",
        "tourism": "caravan_site",
        "website": "https://solsidenstavern.no/bobilpark/"
      }
    },
    {
      "type": "Feature",
      "geometry": {
        "type": "Point",
        "coordinates": [
          10.237594,
          59.5593908
        ]
      },
      "properties": {
        "id": 20425104,
        "osm_type": "relation",
        "name": "Holm Brygge",
        "tourism": "camp_site",
        "phone": "+47 99 70 80 68"
      }
    }
  ]
}