{
  "type": "FeatureCollection",
  "features": [
    {
      "type": "Feature",
      "geometry": {
        "type": "Point",
        "coordinates": [
          23.0543457,
          47.1852569
        ]
      },
      "properties": {
        "id": 914507005,
        "osm_type": "node",
        "name": "Hotel Griff",
        "tourism": "hotel"
      }
    },
    {
      "type": "Feature",
      "geometry": {
        "type": "Point",
        "coordinates": [
          23.0268261,
          47.2243712
        ]
      },
      "properties": {
        "id": 2391711297,
        "osm_type": "node",
        "name": "Hotel Transilvania",
        "tourism": "hotel",
        "phone": "+40 732 156 026",
        "website": "www.transilvaniahotel.ro"
      }
    },
    {
      "type": "Feature",
      "geometry": {
        "type": "Point",
        "coordinates": [
          23.2337037,
          47.2523096
        ]
      },
      "properties": {
        "id": 2554005249,
        "osm_type": "node",
        "name": "Pensiunea Eden",
        "tourism": "guest_house",
        "opening_hours": "Mo-Su 07:00-24:00",
        "phone": "+40 744 785 810",
        "website": "http://www.pensiunea-eden.ro"
      }
    },
    {
      "type": "Feature",
      "geometry": {
        "type": "Point",
        "coordinates": [
          23.2570454,
          47.2587267
        ]
      },
      "properties": {
        "id": 4250230790,
        "osm_type": "node",
        "name": "Hotel Alex",
        "tourism": "hotel"
      }
    },
    {
      "type": "Feature",
      "geometry": {
        "type": "Point",
        "coordinates": [
          23.0014264,
          47.1618833
        ]
      },
      "properties": {
        "id": 4332031295,
        "osm_type": "node",
        "name": "Aghireș",
        "tourism": "camp_site"
      }
    },
    {
      "type": "Feature",
      "geometry": {
        "type": "Point",
        "coordinates": [
          23.0506292,
          47.1756235
        ]
      },
      "properties": {
        "id": 4729230991,
        "osm_type": "node",
        "tourism": "chalet"
      }
    },
    {
      "type": "Feature",
      "geometry": {
        "type": "Point",
        "coordinates": [
          23.0566025,
          47.1993315
        ]
      },
      "properties": {
        "id": 4796590554,
        "osm_type": "node",
        "name": "Grand Hotel Severus",
        "tourism": "hotel"
      }
    },
    {
      "type": "Feature",
      "geometry": {
        "type": "Point",
        "coordinates": [
          23.0592398,
          47.1980528
        ]
      },
      "properties": {
        "id": 4796603106,
        "osm_type": "node",
        "name": "Pensiunea Ramona",
        "tourism": "guest_house",
        "phone": "+40 260 617 267"
      }
    },
    {
      "type": "Feature",
      "geometry": {
        "type": "Point",
        "coordinates": [
          23.0790131,
          47.1669628
        ]
      },
      "properties": {
        "id": 4875619829,
        "osm_type": "node",
        "name": "Pensiunea Brădet",
        "tourism": "guest_house"
      }
    },
    {
      "type": "Feature",
      "geometry": {
        "type": "Point",
        "coordinates": [
          23.2017684,
          47.0785093
        ]
      },
      "properties": {
        "id": 4875619832,
        "osm_type": "node",
        "name": "Hanul Sălăjean",
        "tourism": "guest_house"
      }
    },
    {
      "type": "Feature",
      "geometry": {
        "type": "Point",
        "coordinates": [
          22.8036977,
          47.2289397
        ]
      },
      "properties": {
        "id": 8549520880,
        "osm_type": "node",
        "name": "Pensiunea Silva",
        "tourism": "hotel",
        "phone": "+40744855470"
      }
    },
    {
      "type": "Feature",
      "geometry": {
        "type": "Point",
        "coordinates": [
          22.9818877,
          47.1350065
        ]
      },
      "properties": {
        "id": 8574437571,
        "osm_type": "node",
        "name": "Stefania's House",
        "tourism": "motel",
        "phone": "+40743222333"
      }
    },
    {
      "type": "Feature",
      "geometry": {
        "type": "Point",
        "coordinates": [
          22.7854221,
          47.2283014
        ]
      },
      "properties": {
        "id": 8579230112,
        "osm_type": "node",
        "name": "Cabana Brădet",
        "tourism": "motel",
        "phone": "+40260677600",
        "website": "http://cabana-bradet.ro/"
      }
    },
    {
      "type": "Feature",
      "geometry": {
        "type": "Point",
        "coordinates": [
          22.7410449,
          47.2120277
        ]
      },
      "properties": {
        "id": 8602268978,
        "osm_type": "node",
        "name": "Pensiunea Randra",
        "tourism": "motel",
        "phone": "+40756562914",
        "website": "http://pensiunearandra.ro/"
      }
    },
    {
      "type": "Feature",
      "geometry": {
        "type": "Point",
        "coordinates": [
          22.9921767,
          47.200742
        ]
      },
      "properties": {
        "id": 8605671653,
        "osm_type": "node",
        "name": "Pensiunea Havanna",
        "tourism": "motel",
        "phone": "+40771386554"
      }
    },
    {
      "type": "Feature",
      "geometry": {
        "type": "Point",
        "coordinates": [
          22.7206078,
          47.1650926
        ]
      },
      "properties": {
        "id": 8654562812,
        "osm_type": "node",
        "name": "Băile Boghiș",
        "tourism": "hotel"
      }
    },
    {
      "type": "Feature",
      "geometry": {
        "type": "Point",
        "coordinates": [
          23.4560787,
          47.2208099
        ]
      },
      "properties": {
        "id": 9014764136,
        "osm_type": "node",
        "name": "Moara din pădure",
        "tourism": "guest_house"
      }
    },
    {
      "type": "Feature",
      "geometry": {
        "type": "Point",
        "coordinates": [
          23.1047757,
          47.1460932
        ]
      },
      "properties": {
        "id": 10095338339,
        "osm_type": "node",
        "name": "Hotel Popasul Romanilor",
        "tourism": "hotel",
        "phone": "+40 749616767",
        "website": "http://www.popasul-romanilor.ro/index.php/en/"
      }
    },
    {
      "type": "Feature",
      "geometry": {
        "type": "Point",
        "coordinates": [
          23.0535867,
          47.1772936
        ]
      },
      "properties": {
        "id": 10134661809,
        "osm_type": "node",
        "name": "Hotel Boutique Aquarel",
        "tourism": "hotel",
        "phone": "0790002896",
        "website": "https://aquarel.ro/",
        "check_date": "2025-09-06"
      }
    },
    {
      "type": "Feature",
      "geometry": {
        "type": "Point",
        "coordinates": [
          23.6405827,
          47.2939885
        ]
      },
      "properties": {
        "id": 11065783605,
        "osm_type": "node",
        "name": "Casa campeanu",
        "tourism": "hotel",
        "website": "https://casacampeanu.ro/"
      }
    },
    {
      "type": "Feature",
      "geometry": {
        "type": "Point",
        "coordinates": [
          23.1514398,
          47.1871318
        ]
      },
      "properties": {
        "id": 11100173662,
        "osm_type": "node",
        "name": "Casa Romana",
        "tourism": "motel",
        "phone": "+40763395266"
      }
    },
    {
      "type": "Feature",
      "geometry": {
        "type": "Point",
        "coordinates": [
          23.0607518,
          47.1918834
        ]
      },
      "properties": {
        "id": 11569962969,
        "osm_type": "node",
        "name": "Bl. Gulliver",
        "tourism": "apartment"
      }
    },
    {
      "type": "Feature",
      "geometry": {
        "type": "Point",
        "coordinates": [
          22.8746433,
          47.1616953
        ]
      },
      "properties": {
        "id": 13120990419,
        "osm_type": "node",
        "name": "Perla Crasnei",
        "tourism": "motel"
      }
    },
    {
      "type": "Feature",
      "geometry": {
        "type": "Point",
        "coordinates": [
          22.8152433,
          47.2310343
        ]
      },
      "properties": {
        "id": 13136283942,
        "osm_type": "node",
        "name": "Motel Carina",
        "tourism": "motel",
        "phone": "+40741137209"
      }
    },
    {
      "type": "Feature",
      "geometry": {
        "type": "Point",
        "coordinates": [
          23.0270789,
          47.2243397
        ]
      },
      "properties": {
        "id": 13684104410,
        "osm_type": "node",
        "name": "Hotel Opal",
        "tourism": "hotel"
      }
    },
    {
      "type": "Feature",
      "geometry": {
        "type": "Point",
        "coordinates": [
          23.054373,
          47.180863
        ]
      },
      "properties": {
        "id": 13751815916,
        "osm_type": "node",
        "name": "Ramada by Wyndham Zalău",
        "tourism": "hotel",
        "website": "https://ramadazalau.com"
      }
    },
    {
      "type": "Feature",
      "geometry": {
        "type": "Point",
        "coordinates": [
          22.8350509,
          47.3882036
        ]
      },
      "properties": {
        "id": 98323933,
        "osm_type": "way",
        "name": "Pescăria Remeți",
        "tourism": "hotel"
      }
    },
    {
      "type": "Feature",
      "geometry": {
        "type": "Point",
        "coordinates": [
          22.7206502,
          47.1650926
        ]
      },
      "properties": {
        "id": 167365979,
        "osm_type": "way",
        "name": "Băile Boghiș",
        "tourism": "hotel"
      }
    },
    {
      "type": "Feature",
      "geometry": {
        "type": "Point",
        "coordinates": [
          23.0755426,
          47.1658749
        ]
      },
      "properties": {
        "id": 180137400,
        "osm_type": "way",
        "name": "Hotel Royal",
        "tourism": "hotel",
        "phone": "+40 260 606061",
        "website": "https://royalhotel.ro/"
      }
    },
    {
      "type": "Feature",
      "geometry": {
        "type": "Point",
        "coordinates": [
          23.0477607,
          47.1979282
        ]
      },
      "properties": {
        "id": 301224807,
        "osm_type": "way",
        "name": "Vegas",
        "tourism": "guest_house"
      }
    },
    {
      "type": "Feature",
      "geometry": {
        "type": "Point",
        "coordinates": [
          22.5270464,
          47.2157508
        ]
      },
      "properties": {
        "id": 384458197,
        "osm_type": "way",
        "name": "Canton Marca",
        "tourism": "alpine_hut"
      }
    },
    {
      "type": "Feature",
      "geometry": {
        "type": "Point",
        "coordinates": [
          23.1447149,
          46.8683416
        ]
      },
      "properties": {
        "id": 489050092,
        "osm_type": "way",
        "name": "Pensiunea Riszeg (Vila Szentimrei)",
        "tourism": "guest_house"
      }
    },
    {
      "type": "Feature",
      "geometry": {
        "type": "Point",
        "coordinates": [
          23.1445655,
          46.8683137
        ]
      },
      "properties": {
        "id": 489050095,
        "osm_type": "way",
        "name": "Pensiunea Riszeg (Vila Szentimrei)",
        "tourism": "guest_house"
      }
    },
    {
      "type": "Feature",
      "geometry": {
        "type": "Point",
        "coordinates": [
          23.1464385,
          46.8900367
        ]
      },
      "properties": {
        "id": 489417595,
        "osm_type": "way",
        "name": "Pensiunea Kék Iringó",
        "tourism": "guest_house"
      }
    },
    {
      "type": "Feature",
      "geometry": {
        "type": "Point",
        "coordinates": [
          23.0535956,
          47.1773144
        ]
      },
      "properties": {
        "id": 590207248,
        "osm_type": "way",
        "tourism": "hotel"
      }
    },
    {
      "type": "Feature",
      "geometry": {
        "type": "Point",
        "coordinates": [
          23.053098,
          47.1803012
        ]
      },
      "properties": {
        "id": 913429988,
        "osm_type": "way",
        "name": "Porolissum",
        "tourism": "hotel"
      }
    },
    {
      "type": "Feature",
      "geometry": {
        "type": "Point",
        "coordinates": [
          23.0593394,
          47.1980897
        ]
      },
      "properties": {
        "id": 931305702,
        "osm_type": "way",
        "tourism": "motel"
      }
    },
    {
      "type": "Feature",
      "geometry": {
        "type": "Point",
        "coordinates": [
          22.8574034,
          47.0319572
        ]
      },
      "properties": {
        "id": 1033721961,
        "osm_type": "way",
        "name": "Cabana FeeLing",
        "tourism": "chalet",
        "phone": "+40744349968",
        "website": "https://www.cabanafeeling.com/"
      }
    },
    {
      "type": "Feature",
      "geometry": {
        "type": "Point",
        "coordinates": [
          23.0618797,
          47.2363628
        ]
      },
      "properties": {
        "id": 1042565606,
        "osm_type": "way",
        "name": "Pensiunea Colina",
        "tourism": "motel",
        "phone": "+40763656129"
      }
    },
    {
      "type": "Feature",
      "geometry": {
        "type": "Point",
        "coordinates": [
          23.0543543,
          47.1852556
        ]
      },
      "properties": {
        "id": 1079739954,
        "osm_type": "way",
        "tourism": "motel"
      }
    },
    {
      "type": "Feature",
      "geometry": {
        "type": "Point",
        "coordinates": [
          23.2582413,
          47.0045666
        ]
      },
      "properties": {
        "id": 1097905394,
        "osm_type": "way",
        "name": "Pensiunea Agro Junior",
        "tourism": "motel",
        "phone": "0731359296",
        "website": "https://pensiuneagrojunior.ro"
      }
    },
    {
      "type": "Feature",
      "geometry": {
        "type": "Point",
        "coordinates": [
          22.6472441,
          47.3147034
        ]
      },
      "properties": {
        "id": 1129960134,
        "osm_type": "way",
        "name": "Pensiunea Kemsilvanium",
        "tourism": "hotel"
      }
    },
    {
      "type": "Feature",
      "geometry": {
        "type": "Point",
        "coordinates": [
          23.0543842,
          47.1808358
        ]
      },
      "properties": {
        "id": 1209007131,
        "osm_type": "way",
        "tourism": "hotel",
        "check_date": "2026-04-23"
      }
    },
    {
      "type": "Feature",
      "geometry": {
        "type": "Point",
        "coordinates": [
          22.9403489,
          46.9985094
        ]
      },
      "properties": {
        "id": 1384368378,
        "osm_type": "way",
        "tourism": "motel"
      }
    }
  ]
}