{
  "type": "FeatureCollection",
  "features": [
    {
      "type": "Feature",
      "geometry": {
        "type": "Point",
        "coordinates": [
          24.6213913,
          43.3764539
        ]
      },
      "properties": {
        "id": 1070637520,
        "osm_type": "node",
        "name": "Парк Хотел Кайлъка",
        "tourism": "hotel",
        "check_date": "2025-03-09"
      }
    },
    {
      "type": "Feature",
      "geometry": {
        "type": "Point",
        "coordinates": [
          24.5497238,
          43.3364907
        ]
      },
      "properties": {
        "id": 1168560395,
        "osm_type": "node",
        "name": "Капчука",
        "tourism": "alpine_hut"
      }
    },
    {
      "type": "Feature",
      "geometry": {
        "type": "Point",
        "coordinates": [
          24.0788587,
          43.4932764
        ]
      },
      "properties": {
        "id": 3252087199,
        "osm_type": "node",
        "tourism": "hotel"
      }
    },
    {
      "type": "Feature",
      "geometry": {
        "type": "Point",
        "coordinates": [
          24.8946952,
          43.7017022
        ]
      },
      "properties": {
        "id": 4300588106,
        "osm_type": "node",
        "name": "Gold",
        "tourism": "hotel",
        "phone": "+359 88 469 9948",
        "website": "https://hotelgoldnikopol.wordpress.com/"
      }
    },
    {
      "type": "Feature",
      "geometry": {
        "type": "Point",
        "coordinates": [
          24.0852779,
          43.2746693
        ]
      },
      "properties": {
        "id": 4359000492,
        "osm_type": "node",
        "tourism": "guest_house"
      }
    },
    {
      "type": "Feature",
      "geometry": {
        "type": "Point",
        "coordinates": [
          24.578411,
          43.446267
        ]
      },
      "properties": {
        "id": 4502114079,
        "osm_type": "node",
        "name": "Стаи за гости \"Симона\"",
        "tourism": "guest_house"
      }
    },
    {
      "type": "Feature",
      "geometry": {
        "type": "Point",
        "coordinates": [
          24.0837054,
          43.2759947
        ]
      },
      "properties": {
        "id": 4705268488,
        "osm_type": "node",
        "name": "Хотел Тачев",
        "tourism": "hotel"
      }
    },
    {
      "type": "Feature",
      "geometry": {
        "type": "Point",
        "coordinates": [
          24.0801983,
          43.28203
        ]
      },
      "properties": {
        "id": 4706499072,
        "osm_type": "node",
        "name": "хотел Таганрог",
        "tourism": "hotel",
        "phone": "+359 659 90013",
        "website": "https://taganrog.eu/"
      }
    },
    {
      "type": "Feature",
      "geometry": {
        "type": "Point",
        "coordinates": [
          24.6125681,
          43.4166634
        ]
      },
      "properties": {
        "id": 5186126423,
        "osm_type": "node",
        "name": "Плевен",
        "tourism": "hotel"
      }
    },
    {
      "type": "Feature",
      "geometry": {
        "type": "Point",
        "coordinates": [
          24.5332874,
          43.4647151
        ]
      },
      "properties": {
        "id": 10180682542,
        "osm_type": "node",
        "name": "Лидия",
        "tourism": "hostel"
      }
    },
    {
      "type": "Feature",
      "geometry": {
        "type": "Point",
        "coordinates": [
          24.0119026,
          43.3073942
        ]
      },
      "properties": {
        "id": 10180716059,
        "osm_type": "node",
        "name": "Луксия",
        "tourism": "guest_house"
      }
    },
    {
      "type": "Feature",
      "geometry": {
        "type": "Point",
        "coordinates": [
          24.5187441,
          43.4673454
        ]
      },
      "properties": {
        "id": 10180727831,
        "osm_type": "node",
        "name": "Централ",
        "tourism": "hostel"
      }
    },
    {
      "type": "Feature",
      "geometry": {
        "type": "Point",
        "coordinates": [
          24.6351664,
          43.3575786
        ]
      },
      "properties": {
        "id": 10180728914,
        "osm_type": "node",
        "name": "Кайлъка",
        "tourism": "hotel"
      }
    },
    {
      "type": "Feature",
      "geometry": {
        "type": "Point",
        "coordinates": [
          24.525815,
          43.4678773
        ]
      },
      "properties": {
        "id": 10180730141,
        "osm_type": "node",
        "tourism": "hostel"
      }
    },
    {
      "type": "Feature",
      "geometry": {
        "type": "Point",
        "coordinates": [
          24.0377593,
          43.2400377
        ]
      },
      "properties": {
        "id": 12163132092,
        "osm_type": "node",
        "name": "Къщи за гости Ресела",
        "tourism": "hotel",
        "phone": "+359884517788",
        "website": "https://resela.bg/"
      }
    },
    {
      "type": "Feature",
      "geometry": {
        "type": "Point",
        "coordinates": [
          24.6383192,
          43.3532174
        ]
      },
      "properties": {
        "id": 12224047851,
        "osm_type": "node",
        "name": "вила Кайлъка",
        "tourism": "hotel"
      }
    },
    {
      "type": "Feature",
      "geometry": {
        "type": "Point",
        "coordinates": [
          24.6385968,
          43.3524622
        ]
      },
      "properties": {
        "id": 12224047853,
        "osm_type": "node",
        "name": "вила Лозаро Винарски Институт",
        "tourism": "hotel"
      }
    },
    {
      "type": "Feature",
      "geometry": {
        "type": "Point",
        "coordinates": [
          24.6173025,
          43.4105039
        ]
      },
      "properties": {
        "id": 12345895538,
        "osm_type": "node",
        "name": "Panorama",
        "tourism": "hotel",
        "check_date": "2024-11-16"
      }
    },
    {
      "type": "Feature",
      "geometry": {
        "type": "Point",
        "coordinates": [
          24.6132619,
          43.4159439
        ]
      },
      "properties": {
        "id": 12646030494,
        "osm_type": "node",
        "name": "Ema Artistic House",
        "tourism": "guest_house",
        "phone": "+359 87 687 8811",
        "check_date": "2025-03-08"
      }
    },
    {
      "type": "Feature",
      "geometry": {
        "type": "Point",
        "coordinates": [
          24.6125422,
          43.4156025
        ]
      },
      "properties": {
        "id": 12646064400,
        "osm_type": "node",
        "tourism": "guest_house",
        "opening_hours": "24/7",
        "phone": "+359 88 393 3030",
        "check_date": "2025-03-08"
      }
    },
    {
      "type": "Feature",
      "geometry": {
        "type": "Point",
        "coordinates": [
          24.4049615,
          43.651536
        ]
      },
      "properties": {
        "id": 13266584861,
        "osm_type": "node",
        "name": "EuroVelo 6",
        "tourism": "hostel",
        "phone": "+359878522755"
      }
    },
    {
      "type": "Feature",
      "geometry": {
        "type": "Point",
        "coordinates": [
          24.6202466,
          43.4051917
        ]
      },
      "properties": {
        "id": 116760882,
        "osm_type": "way",
        "name": "Сити Хотел",
        "tourism": "hotel"
      }
    },
    {
      "type": "Feature",
      "geometry": {
        "type": "Point",
        "coordinates": [
          24.6256398,
          43.3872293
        ]
      },
      "properties": {
        "id": 116767774,
        "osm_type": "way",
        "name": "Туристически дом Кайлъка",
        "tourism": "hotel",
        "phone": "+359 87 875 8037",
        "check_date": "2022-12-04"
      }
    },
    {
      "type": "Feature",
      "geometry": {
        "type": "Point",
        "coordinates": [
          24.6182327,
          43.4104917
        ]
      },
      "properties": {
        "id": 117933486,
        "osm_type": "way",
        "name": "Ростов",
        "tourism": "hotel",
        "phone": "+359 87 844 0003",
        "check_date": "2022-12-03"
      }
    },
    {
      "type": "Feature",
      "geometry": {
        "type": "Point",
        "coordinates": [
          24.6290076,
          43.4121883
        ]
      },
      "properties": {
        "id": 117951009,
        "osm_type": "way",
        "name": "Хотел Балкан",
        "tourism": "hotel",
        "opening_hours": "24/7",
        "phone": "+359 64 803 700",
        "check_date": "2022-12-01"
      }
    },
    {
      "type": "Feature",
      "geometry": {
        "type": "Point",
        "coordinates": [
          24.6910629,
          43.4138926
        ]
      },
      "properties": {
        "id": 123162714,
        "osm_type": "way",
        "name": "Парк-мотел Гривица",
        "tourism": "motel"
      }
    },
    {
      "type": "Feature",
      "geometry": {
        "type": "Point",
        "coordinates": [
          24.078337,
          43.4901328
        ]
      },
      "properties": {
        "id": 496515517,
        "osm_type": "way",
        "name": "Хотел \"Яцин\"",
        "tourism": "hotel"
      }
    },
    {
      "type": "Feature",
      "geometry": {
        "type": "Point",
        "coordinates": [
          24.6909413,
          43.4148619
        ]
      },
      "properties": {
        "id": 500359523,
        "osm_type": "way",
        "name": "Къща за гости \"При езерото\"",
        "tourism": "guest_house"
      }
    },
    {
      "type": "Feature",
      "geometry": {
        "type": "Point",
        "coordinates": [
          25.1409376,
          43.3593102
        ]
      },
      "properties": {
        "id": 922850901,
        "osm_type": "way",
        "tourism": "hotel"
      }
    },
    {
      "type": "Feature",
      "geometry": {
        "type": "Point",
        "coordinates": [
          24.6420692,
          43.3532392
        ]
      },
      "properties": {
        "id": 969851547,
        "osm_type": "way",
        "name": "Орбита",
        "tourism": "hotel"
      }
    },
    {
      "type": "Feature",
      "geometry": {
        "type": "Point",
        "coordinates": [
          24.6518659,
          43.3446283
        ]
      },
      "properties": {
        "id": 969851557,
        "osm_type": "way",
        "name": "хижа Среброструй",
        "tourism": "alpine_hut"
      }
    },
    {
      "type": "Feature",
      "geometry": {
        "type": "Point",
        "coordinates": [
          24.626908,
          43.4091907
        ]
      },
      "properties": {
        "id": 1322476115,
        "osm_type": "way",
        "name": "Hotel Floral Хотел Флорал",
        "tourism": "hotel",
        "phone": "+359888442242",
        "website": "https://www.hotel-floral.com/"
      }
    }
  ]
}