{
  "type": "FeatureCollection",
  "features": [
    {
      "type": "Feature",
      "geometry": {
        "type": "Point",
        "coordinates": [
          22.3207335,
          44.1148886
        ]
      },
      "properties": {
        "id": 417705341,
        "osm_type": "node",
        "name": "Салаш",
        "tourism": "hotel"
      }
    },
    {
      "type": "Feature",
      "geometry": {
        "type": "Point",
        "coordinates": [
          22.2777556,
          43.9021358
        ]
      },
      "properties": {
        "id": 782443613,
        "osm_type": "node",
        "name": "Коњ",
        "tourism": "hotel"
      }
    },
    {
      "type": "Feature",
      "geometry": {
        "type": "Point",
        "coordinates": [
          22.2773771,
          43.9022485
        ]
      },
      "properties": {
        "id": 782443631,
        "osm_type": "node",
        "name": "Валентино",
        "tourism": "guest_house"
      }
    },
    {
      "type": "Feature",
      "geometry": {
        "type": "Point",
        "coordinates": [
          22.6164435,
          43.3743031
        ]
      },
      "properties": {
        "id": 2425367875,
        "osm_type": "node",
        "name": "Хотел Бабин зуб",
        "tourism": "hotel",
        "phone": "+381 (0)19 731 780",
        "website": "https://www.babinzub.org/smestaj/hotel-babin-zub/",
        "check_date": "2024-05-11"
      }
    },
    {
      "type": "Feature",
      "geometry": {
        "type": "Point",
        "coordinates": [
          22.2555994,
          43.570227
        ]
      },
      "properties": {
        "id": 3521975080,
        "osm_type": "node",
        "name": "Knjaževac Boarding School",
        "tourism": "hotel"
      }
    },
    {
      "type": "Feature",
      "geometry": {
        "type": "Point",
        "coordinates": [
          22.4419744,
          43.4090597
        ]
      },
      "properties": {
        "id": 4341597518,
        "osm_type": "node",
        "name": "Etno selo Srna",
        "tourism": "guest_house",
        "website": "https://etnoselosrna.rs/"
      }
    },
    {
      "type": "Feature",
      "geometry": {
        "type": "Point",
        "coordinates": [
          21.8699544,
          43.6442567
        ]
      },
      "properties": {
        "id": 5081291302,
        "osm_type": "node",
        "name": "Apartmani Maja Sokobanja",
        "tourism": "apartment",
        "phone": "+381 64 85 60 712",
        "website": "https://www.apartmanimaja.in.rs/"
      }
    },
    {
      "type": "Feature",
      "geometry": {
        "type": "Point",
        "coordinates": [
          21.8776707,
          43.642103
        ]
      },
      "properties": {
        "id": 5172870227,
        "osm_type": "node",
        "tourism": "guest_house",
        "phone": "+38163445274",
        "website": "https://www.apartmaninikodijevic.com/"
      }
    },
    {
      "type": "Feature",
      "geometry": {
        "type": "Point",
        "coordinates": [
          22.2803446,
          43.9024
        ]
      },
      "properties": {
        "id": 6125047768,
        "osm_type": "node",
        "name": "Vila F",
        "tourism": "motel"
      }
    },
    {
      "type": "Feature",
      "geometry": {
        "type": "Point",
        "coordinates": [
          21.9852918,
          43.6980535
        ]
      },
      "properties": {
        "id": 6336525315,
        "osm_type": "node",
        "name": "Sesalačka Pećina",
        "tourism": "camp_site"
      }
    },
    {
      "type": "Feature",
      "geometry": {
        "type": "Point",
        "coordinates": [
          21.868742,
          43.646322
        ]
      },
      "properties": {
        "id": 7602595037,
        "osm_type": "node",
        "tourism": "guest_house"
      }
    },
    {
      "type": "Feature",
      "geometry": {
        "type": "Point",
        "coordinates": [
          21.9322895,
          43.772322
        ]
      },
      "properties": {
        "id": 7976067838,
        "osm_type": "node",
        "name": "Апартмани Гмитровић",
        "tourism": "guest_house",
        "website": "https://www.facebook.com/apartmanigmitrovicrtanj/"
      }
    },
    {
      "type": "Feature",
      "geometry": {
        "type": "Point",
        "coordinates": [
          22.2541373,
          43.5579778
        ]
      },
      "properties": {
        "id": 8118037917,
        "osm_type": "node",
        "tourism": "guest_house"
      }
    },
    {
      "type": "Feature",
      "geometry": {
        "type": "Point",
        "coordinates": [
          21.9390348,
          43.7654818
        ]
      },
      "properties": {
        "id": 8713023317,
        "osm_type": "node",
        "name": "Lep pogled",
        "tourism": "apartment"
      }
    },
    {
      "type": "Feature",
      "geometry": {
        "type": "Point",
        "coordinates": [
          22.2698551,
          43.9062682
        ]
      },
      "properties": {
        "id": 9846857762,
        "osm_type": "node",
        "name": "Golub",
        "tourism": "hostel"
      }
    },
    {
      "type": "Feature",
      "geometry": {
        "type": "Point",
        "coordinates": [
          22.1691089,
          43.9227014
        ]
      },
      "properties": {
        "id": 9929724797,
        "osm_type": "node",
        "name": "Vila Smeštaj",
        "tourism": "guest_house",
        "phone": "063-7773933"
      }
    },
    {
      "type": "Feature",
      "geometry": {
        "type": "Point",
        "coordinates": [
          21.878647,
          43.6444611
        ]
      },
      "properties": {
        "id": 9935503023,
        "osm_type": "node",
        "name": "Sobe Mira",
        "tourism": "apartment",
        "check_date": "2025-03-28"
      }
    },
    {
      "type": "Feature",
      "geometry": {
        "type": "Point",
        "coordinates": [
          21.8838018,
          43.8130082
        ]
      },
      "properties": {
        "id": 10284705037,
        "osm_type": "node",
        "name": "Konak Ljubica Rtanj",
        "tourism": "motel"
      }
    },
    {
      "type": "Feature",
      "geometry": {
        "type": "Point",
        "coordinates": [
          22.5829361,
          43.4059043
        ]
      },
      "properties": {
        "id": 10595293598,
        "osm_type": "node",
        "name": "Sunce",
        "tourism": "apartment"
      }
    },
    {
      "type": "Feature",
      "geometry": {
        "type": "Point",
        "coordinates": [
          22.5791501,
          43.4052315
        ]
      },
      "properties": {
        "id": 10595323580,
        "osm_type": "node",
        "name": "Vila bor",
        "tourism": "guest_house"
      }
    },
    {
      "type": "Feature",
      "geometry": {
        "type": "Point",
        "coordinates": [
          22.5707532,
          43.4096916
        ]
      },
      "properties": {
        "id": 10595354915,
        "osm_type": "node",
        "name": "Vila mike",
        "tourism": "apartment"
      }
    },
    {
      "type": "Feature",
      "geometry": {
        "type": "Point",
        "coordinates": [
          22.2813765,
          43.9000935
        ]
      },
      "properties": {
        "id": 10821114077,
        "osm_type": "node",
        "name": "Villa Tamaris",
        "tourism": "apartment"
      }
    },
    {
      "type": "Feature",
      "geometry": {
        "type": "Point",
        "coordinates": [
          21.8740351,
          43.6436434
        ]
      },
      "properties": {
        "id": 11001649047,
        "osm_type": "node",
        "name": "Apartmani Sobe sa Kupatilima V. Mišljenivič",
        "tourism": "guest_house"
      }
    },
    {
      "type": "Feature",
      "geometry": {
        "type": "Point",
        "coordinates": [
          22.4753665,
          43.3960482
        ]
      },
      "properties": {
        "id": 11051441036,
        "osm_type": "node",
        "name": "Сеоска кућа",
        "tourism": "apartment",
        "phone": "065-5135055"
      }
    },
    {
      "type": "Feature",
      "geometry": {
        "type": "Point",
        "coordinates": [
          22.1691767,
          43.9233171
        ]
      },
      "properties": {
        "id": 11703840168,
        "osm_type": "node",
        "name": "Vila Viktor i Valentino",
        "tourism": "guest_house",
        "phone": "019-450475 * 553645"
      }
    },
    {
      "type": "Feature",
      "geometry": {
        "type": "Point",
        "coordinates": [
          21.9292886,
          43.7230621
        ]
      },
      "properties": {
        "id": 11901244893,
        "osm_type": "node",
        "name": "Камп Колиба",
        "tourism": "camp_site"
      }
    },
    {
      "type": "Feature",
      "geometry": {
        "type": "Point",
        "coordinates": [
          22.5816687,
          43.4055092
        ]
      },
      "properties": {
        "id": 11933323020,
        "osm_type": "node",
        "name": "STD Cvetković",
        "tourism": "guest_house"
      }
    },
    {
      "type": "Feature",
      "geometry": {
        "type": "Point",
        "coordinates": [
          22.5816917,
          43.4053338
        ]
      },
      "properties": {
        "id": 11933323021,
        "osm_type": "node",
        "name": "Vucković",
        "tourism": "guest_house"
      }
    },
    {
      "type": "Feature",
      "geometry": {
        "type": "Point",
        "coordinates": [
          21.8695401,
          43.6421256
        ]
      },
      "properties": {
        "id": 12109238402,
        "osm_type": "node",
        "name": "Петровић",
        "tourism": "apartment",
        "phone": "+381 62 394 292",
        "contact:phone": "+381 62 394 292"
      }
    },
    {
      "type": "Feature",
      "geometry": {
        "type": "Point",
        "coordinates": [
          21.8692985,
          43.6429114
        ]
      },
      "properties": {
        "id": 12109828444,
        "osm_type": "node",
        "name": "Галена",
        "tourism": "apartment"
      }
    },
    {
      "type": "Feature",
      "geometry": {
        "type": "Point",
        "coordinates": [
          22.4248033,
          43.4170165
        ]
      },
      "properties": {
        "id": 13121884002,
        "osm_type": "node",
        "name": "Студио Верице Ђорђевић",
        "tourism": "guest_house"
      }
    },
    {
      "type": "Feature",
      "geometry": {
        "type": "Point",
        "coordinates": [
          21.9571557,
          43.8372108
        ]
      },
      "properties": {
        "id": 13305543947,
        "osm_type": "node",
        "name": "Ртањска бајка",
        "tourism": "apartment"
      }
    },
    {
      "type": "Feature",
      "geometry": {
        "type": "Point",
        "coordinates": [
          21.956476,
          43.838702
        ]
      },
      "properties": {
        "id": 13305543949,
        "osm_type": "node",
        "name": "Етно село Станојевић",
        "tourism": "guest_house"
      }
    },
    {
      "type": "Feature",
      "geometry": {
        "type": "Point",
        "coordinates": [
          21.8716826,
          43.6472792
        ]
      },
      "properties": {
        "id": 256157698,
        "osm_type": "way",
        "name": "Здрављак",
        "tourism": "hotel"
      }
    },
    {
      "type": "Feature",
      "geometry": {
        "type": "Point",
        "coordinates": [
          21.8710562,
          43.6472941
        ]
      },
      "properties": {
        "id": 256157699,
        "osm_type": "way",
        "name": "Здрављак",
        "tourism": "hotel"
      }
    },
    {
      "type": "Feature",
      "geometry": {
        "type": "Point",
        "coordinates": [
          21.8836239,
          43.6428033
        ]
      },
      "properties": {
        "id": 256163304,
        "osm_type": "way",
        "name": "Моравица",
        "tourism": "hotel",
        "check_date": "2025-02-17"
      }
    },
    {
      "type": "Feature",
      "geometry": {
        "type": "Point",
        "coordinates": [
          21.87569,
          43.6439546
        ]
      },
      "properties": {
        "id": 256316461,
        "osm_type": "way",
        "name": "Турист",
        "tourism": "hotel"
      }
    },
    {
      "type": "Feature",
      "geometry": {
        "type": "Point",
        "coordinates": [
          22.2777382,
          43.903485
        ]
      },
      "properties": {
        "id": 500261049,
        "osm_type": "way",
        "name": "Хотел Србија ТИС",
        "tourism": "hotel",
        "phone": "+381 19 422333",
        "website": "https://srbijatis.co.rs/"
      }
    },
    {
      "type": "Feature",
      "geometry": {
        "type": "Point",
        "coordinates": [
          21.8847946,
          43.7556776
        ]
      },
      "properties": {
        "id": 500524780,
        "osm_type": "way",
        "name": "Томићева колиба",
        "tourism": "guest_house",
        "phone": "https://www.facebook.com/tomicevakoliba/",
        "website": "https://www.facebook.com/tomicevakoliba/"
      }
    },
    {
      "type": "Feature",
      "geometry": {
        "type": "Point",
        "coordinates": [
          22.2788004,
          43.9021809
        ]
      },
      "properties": {
        "id": 606158747,
        "osm_type": "way",
        "name": "Garni Hotel Hamburg",
        "tourism": "hotel",
        "phone": "+381 19 3100136",
        "website": "https://www.hotelhamburg.rs"
      }
    },
    {
      "type": "Feature",
      "geometry": {
        "type": "Point",
        "coordinates": [
          21.8825931,
          43.6412784
        ]
      },
      "properties": {
        "id": 610513976,
        "osm_type": "way",
        "name": "Бањица",
        "tourism": "hotel"
      }
    },
    {
      "type": "Feature",
      "geometry": {
        "type": "Point",
        "coordinates": [
          22.5831784,
          43.3632052
        ]
      },
      "properties": {
        "id": 723707532,
        "osm_type": "way",
        "name": "Хотел Стара планина",
        "tourism": "hotel",
        "website": "https://www.hotelstaraplanina.com/"
      }
    },
    {
      "type": "Feature",
      "geometry": {
        "type": "Point",
        "coordinates": [
          22.6162156,
          43.374412
        ]
      },
      "properties": {
        "id": 723820191,
        "osm_type": "way",
        "name": "Планинарски дом Бабин Зуб",
        "tourism": "alpine_hut",
        "phone": "+ 381 (0)19 732 543"
      }
    },
    {
      "type": "Feature",
      "geometry": {
        "type": "Point",
        "coordinates": [
          22.6164742,
          43.3742352
        ]
      },
      "properties": {
        "id": 723820192,
        "osm_type": "way",
        "tourism": "motel"
      }
    },
    {
      "type": "Feature",
      "geometry": {
        "type": "Point",
        "coordinates": [
          21.9312531,
          43.7727011
        ]
      },
      "properties": {
        "id": 741960909,
        "osm_type": "way",
        "name": "Радгост",
        "tourism": "guest_house",
        "phone": "+381 65 8511193"
      }
    },
    {
      "type": "Feature",
      "geometry": {
        "type": "Point",
        "coordinates": [
          21.9291804,
          43.7726717
        ]
      },
      "properties": {
        "id": 741960912,
        "osm_type": "way",
        "name": "Рамонда",
        "tourism": "hotel",
        "phone": "+381 30 215 5050",
        "website": "https://ramondahotel.com/",
        "check_date": "2022-10-23"
      }
    },
    {
      "type": "Feature",
      "geometry": {
        "type": "Point",
        "coordinates": [
          22.520224,
          43.4032717
        ]
      },
      "properties": {
        "id": 749053642,
        "osm_type": "way",
        "tourism": "hostel"
      }
    },
    {
      "type": "Feature",
      "geometry": {
        "type": "Point",
        "coordinates": [
          22.5198716,
          43.4031864
        ]
      },
      "properties": {
        "id": 749053643,
        "osm_type": "way",
        "tourism": "hostel"
      }
    },
    {
      "type": "Feature",
      "geometry": {
        "type": "Point",
        "coordinates": [
          21.8877144,
          43.810805
        ]
      },
      "properties": {
        "id": 837036768,
        "osm_type": "way",
        "name": "Ртањ Балашевић",
        "tourism": "hotel",
        "website": "https://www.balasevicrtanj.com/"
      }
    },
    {
      "type": "Feature",
      "geometry": {
        "type": "Point",
        "coordinates": [
          21.8820095,
          43.6444017
        ]
      },
      "properties": {
        "id": 855401372,
        "osm_type": "way",
        "name": "Сунце",
        "tourism": "hotel",
        "phone": "+381184151900",
        "website": "https://suncehotel.rs/"
      }
    },
    {
      "type": "Feature",
      "geometry": {
        "type": "Point",
        "coordinates": [
          22.2541486,
          43.5692356
        ]
      },
      "properties": {
        "id": 960131526,
        "osm_type": "way",
        "name": "Тимок",
        "tourism": "hotel",
        "phone": "+381 (0) 19 / 731 122"
      }
    },
    {
      "type": "Feature",
      "geometry": {
        "type": "Point",
        "coordinates": [
          21.9499894,
          43.9433066
        ]
      },
      "properties": {
        "id": 1082343860,
        "osm_type": "way",
        "tourism": "guest_house"
      }
    },
    {
      "type": "Feature",
      "geometry": {
        "type": "Point",
        "coordinates": [
          22.2606119,
          43.9108078
        ]
      },
      "properties": {
        "id": 1083535010,
        "osm_type": "way",
        "name": "Vila Beba",
        "tourism": "hotel",
        "phone": "+381 63 453899"
      }
    },
    {
      "type": "Feature",
      "geometry": {
        "type": "Point",
        "coordinates": [
          22.5733003,
          43.4084875
        ]
      },
      "properties": {
        "id": 1087552281,
        "osm_type": "way",
        "name": "Šum",
        "tourism": "hotel",
        "phone": "+38119766122",
        "website": "https://staraplaninasum.com"
      }
    },
    {
      "type": "Feature",
      "geometry": {
        "type": "Point",
        "coordinates": [
          22.4241305,
          43.408045
        ]
      },
      "properties": {
        "id": 1090657934,
        "osm_type": "way",
        "name": "Вила Богданович",
        "tourism": "guest_house",
        "phone": "+38119760302",
        "website": "https://vila-bogdanovic.rs/"
      }
    },
    {
      "type": "Feature",
      "geometry": {
        "type": "Point",
        "coordinates": [
          22.4240864,
          43.3879208
        ]
      },
      "properties": {
        "id": 1137879189,
        "osm_type": "way",
        "name": "Vesela kuća",
        "tourism": "apartment"
      }
    },
    {
      "type": "Feature",
      "geometry": {
        "type": "Point",
        "coordinates": [
          22.4242394,
          43.3876939
        ]
      },
      "properties": {
        "id": 1137879190,
        "osm_type": "way",
        "name": "Vesela kuća",
        "tourism": "apartment"
      }
    },
    {
      "type": "Feature",
      "geometry": {
        "type": "Point",
        "coordinates": [
          21.9503795,
          43.8305274
        ]
      },
      "properties": {
        "id": 1182056996,
        "osm_type": "way",
        "name": "Panorama",
        "tourism": "hostel"
      }
    },
    {
      "type": "Feature",
      "geometry": {
        "type": "Point",
        "coordinates": [
          21.9461593,
          43.7962846
        ]
      },
      "properties": {
        "id": 1182057077,
        "osm_type": "way",
        "name": "Ртањски двори",
        "tourism": "guest_house",
        "phone": "+381653002303"
      }
    },
    {
      "type": "Feature",
      "geometry": {
        "type": "Point",
        "coordinates": [
          21.9477959,
          43.7955705
        ]
      },
      "properties": {
        "id": 1182057087,
        "osm_type": "way",
        "name": "Greta Minh BB",
        "tourism": "guest_house"
      }
    },
    {
      "type": "Feature",
      "geometry": {
        "type": "Point",
        "coordinates": [
          22.2421725,
          43.5535736
        ]
      },
      "properties": {
        "id": 1188130665,
        "osm_type": "way",
        "name": "Barka",
        "tourism": "hotel"
      }
    },
    {
      "type": "Feature",
      "geometry": {
        "type": "Point",
        "coordinates": [
          21.9616293,
          43.8345714
        ]
      },
      "properties": {
        "id": 1450774881,
        "osm_type": "way",
        "name": "Apartmani LazaDora",
        "tourism": "guest_house",
        "phone": "+381 60 05 97 898"
      }
    }
  ]
}