{
  "type": "FeatureCollection",
  "features": [
    {
      "type": "Feature",
      "geometry": {
        "type": "Point",
        "coordinates": [
          22.8407278,
          43.0735949
        ]
      },
      "properties": {
        "id": 2276769087,
        "osm_type": "node",
        "tourism": "camp_site"
      }
    },
    {
      "type": "Feature",
      "geometry": {
        "type": "Point",
        "coordinates": [
          22.8430452,
          43.0722234
        ]
      },
      "properties": {
        "id": 2276769089,
        "osm_type": "node",
        "tourism": "camp_site"
      }
    },
    {
      "type": "Feature",
      "geometry": {
        "type": "Point",
        "coordinates": [
          22.8462853,
          43.0707186
        ]
      },
      "properties": {
        "id": 2276769090,
        "osm_type": "node",
        "tourism": "camp_site"
      }
    },
    {
      "type": "Feature",
      "geometry": {
        "type": "Point",
        "coordinates": [
          22.7689293,
          43.0129989
        ]
      },
      "properties": {
        "id": 2300875561,
        "osm_type": "node",
        "name": "Амфора",
        "tourism": "hotel"
      }
    },
    {
      "type": "Feature",
      "geometry": {
        "type": "Point",
        "coordinates": [
          22.5753304,
          43.1563499
        ]
      },
      "properties": {
        "id": 2407529887,
        "osm_type": "node",
        "name": "Turkiyem",
        "tourism": "hotel"
      }
    },
    {
      "type": "Feature",
      "geometry": {
        "type": "Point",
        "coordinates": [
          22.7771599,
          43.012268
        ]
      },
      "properties": {
        "id": 4318043021,
        "osm_type": "node",
        "name": "Happy",
        "tourism": "hotel",
        "phone": "+381-10-363333",
        "website": "https://HotelHappy.rs"
      }
    },
    {
      "type": "Feature",
      "geometry": {
        "type": "Point",
        "coordinates": [
          22.7718921,
          43.1731327
        ]
      },
      "properties": {
        "id": 4341597910,
        "osm_type": "node",
        "name": "Domaćinstvo Jovanović",
        "tourism": "guest_house"
      }
    },
    {
      "type": "Feature",
      "geometry": {
        "type": "Point",
        "coordinates": [
          22.58191,
          43.1596883
        ]
      },
      "properties": {
        "id": 4847607722,
        "osm_type": "node",
        "name": "Kale",
        "tourism": "hostel",
        "phone": "+381607486230",
        "website": "http://hostel.pirot.org"
      }
    },
    {
      "type": "Feature",
      "geometry": {
        "type": "Point",
        "coordinates": [
          22.3127475,
          43.2172701
        ]
      },
      "properties": {
        "id": 4910246621,
        "osm_type": "node",
        "name": "Hotel Festina",
        "tourism": "motel",
        "phone": "+381 18 853107",
        "website": "villafestina.com"
      }
    },
    {
      "type": "Feature",
      "geometry": {
        "type": "Point",
        "coordinates": [
          22.7200047,
          43.0576846
        ]
      },
      "properties": {
        "id": 5150134819,
        "osm_type": "node",
        "tourism": "guest_house"
      }
    },
    {
      "type": "Feature",
      "geometry": {
        "type": "Point",
        "coordinates": [
          22.2230049,
          43.2956579
        ]
      },
      "properties": {
        "id": 5174116799,
        "osm_type": "node",
        "name": "Planinarski dom (bivša škola)",
        "tourism": "guest_house"
      }
    },
    {
      "type": "Feature",
      "geometry": {
        "type": "Point",
        "coordinates": [
          22.4088889,
          43.1847429
        ]
      },
      "properties": {
        "id": 5623272638,
        "osm_type": "node",
        "name": "Natural Camp Area - No facilities available",
        "tourism": "camp_site"
      }
    },
    {
      "type": "Feature",
      "geometry": {
        "type": "Point",
        "coordinates": [
          22.5970572,
          42.9620646
        ]
      },
      "properties": {
        "id": 5791744554,
        "osm_type": "node",
        "name": "Локација бр 2",
        "tourism": "camp_site"
      }
    },
    {
      "type": "Feature",
      "geometry": {
        "type": "Point",
        "coordinates": [
          22.7082016,
          43.0481226
        ]
      },
      "properties": {
        "id": 6099168120,
        "osm_type": "node",
        "name": "Eco house villa Maria",
        "tourism": "guest_house",
        "phone": "+382 67 640 915"
      }
    },
    {
      "type": "Feature",
      "geometry": {
        "type": "Point",
        "coordinates": [
          22.6886029,
          43.1813368
        ]
      },
      "properties": {
        "id": 6389617463,
        "osm_type": "node",
        "name": "Planinarski dom ski staza",
        "tourism": "alpine_hut"
      }
    },
    {
      "type": "Feature",
      "geometry": {
        "type": "Point",
        "coordinates": [
          22.6427238,
          43.2516689
        ]
      },
      "properties": {
        "id": 7847343288,
        "osm_type": "node",
        "name": "Буљарице",
        "tourism": "camp_site"
      }
    },
    {
      "type": "Feature",
      "geometry": {
        "type": "Point",
        "coordinates": [
          22.9261374,
          43.1445698
        ]
      },
      "properties": {
        "id": 9503561943,
        "osm_type": "node",
        "name": "Planinarski dom „Senokos”",
        "tourism": "guest_house"
      }
    },
    {
      "type": "Feature",
      "geometry": {
        "type": "Point",
        "coordinates": [
          22.6583386,
          43.3628519
        ]
      },
      "properties": {
        "id": 10673915581,
        "osm_type": "node",
        "name": "Jaćimov konak",
        "tourism": "alpine_hut",
        "website": "https://selo.rs/de/o/jacimov-konak"
      }
    },
    {
      "type": "Feature",
      "geometry": {
        "type": "Point",
        "coordinates": [
          22.2473775,
          43.2714615
        ]
      },
      "properties": {
        "id": 10881251620,
        "osm_type": "node",
        "name": "Етно кућа Вуксановић",
        "tourism": "guest_house"
      }
    },
    {
      "type": "Feature",
      "geometry": {
        "type": "Point",
        "coordinates": [
          22.2456682,
          43.2701442
        ]
      },
      "properties": {
        "id": 11128186839,
        "osm_type": "node",
        "name": "Брвнара Рива",
        "tourism": "chalet"
      }
    },
    {
      "type": "Feature",
      "geometry": {
        "type": "Point",
        "coordinates": [
          22.6766467,
          43.3942572
        ]
      },
      "properties": {
        "id": 11134844775,
        "osm_type": "node",
        "tourism": "camp_site",
        "tents": "yes"
      }
    },
    {
      "type": "Feature",
      "geometry": {
        "type": "Point",
        "coordinates": [
          22.5901735,
          43.1638508
        ]
      },
      "properties": {
        "id": 11167376690,
        "osm_type": "node",
        "name": "Пансион Сања",
        "tourism": "apartment",
        "phone": "+381 60 3522931"
      }
    },
    {
      "type": "Feature",
      "geometry": {
        "type": "Point",
        "coordinates": [
          22.5970133,
          43.1549132
        ]
      },
      "properties": {
        "id": 11179396638,
        "osm_type": "node",
        "tourism": "apartment",
        "phone": "+381 64 0744194"
      }
    },
    {
      "type": "Feature",
      "geometry": {
        "type": "Point",
        "coordinates": [
          22.4127181,
          43.0654453
        ]
      },
      "properties": {
        "id": 12690381446,
        "osm_type": "node",
        "name": "Панорама",
        "tourism": "hostel"
      }
    },
    {
      "type": "Feature",
      "geometry": {
        "type": "Point",
        "coordinates": [
          22.4211954,
          43.2344984
        ]
      },
      "properties": {
        "id": 12797421912,
        "osm_type": "node",
        "name": "Етно село Стража",
        "tourism": "guest_house",
        "phone": "+381642361099",
        "website": "https://www.etnoselostraza.rs/"
      }
    },
    {
      "type": "Feature",
      "geometry": {
        "type": "Point",
        "coordinates": [
          22.7842421,
          43.3047467
        ]
      },
      "properties": {
        "id": 12829066388,
        "osm_type": "node",
        "tourism": "camp_site"
      }
    },
    {
      "type": "Feature",
      "geometry": {
        "type": "Point",
        "coordinates": [
          22.7976578,
          43.3314873
        ]
      },
      "properties": {
        "id": 12829142184,
        "osm_type": "node",
        "tourism": "camp_site"
      }
    },
    {
      "type": "Feature",
      "geometry": {
        "type": "Point",
        "coordinates": [
          22.5883961,
          43.1526941
        ]
      },
      "properties": {
        "id": 183923591,
        "osm_type": "way",
        "name": "Гали апартамани",
        "tourism": "hotel"
      }
    },
    {
      "type": "Feature",
      "geometry": {
        "type": "Point",
        "coordinates": [
          22.5848897,
          43.1567484
        ]
      },
      "properties": {
        "id": 183925116,
        "osm_type": "way",
        "name": "Ana Lux",
        "tourism": "hotel",
        "phone": "+381 10 500200",
        "website": "http://hotel-analux.rs/"
      }
    },
    {
      "type": "Feature",
      "geometry": {
        "type": "Point",
        "coordinates": [
          22.781176,
          43.2319118
        ]
      },
      "properties": {
        "id": 292639454,
        "osm_type": "way",
        "name": "Планинарски дом Дојкинци",
        "tourism": "alpine_hut",
        "contact:phone": "+381 60 345 78 93",
        "contact:website": "www.pdvidlic.com"
      }
    },
    {
      "type": "Feature",
      "geometry": {
        "type": "Point",
        "coordinates": [
          22.6889999,
          43.1802502
        ]
      },
      "properties": {
        "id": 293559377,
        "osm_type": "way",
        "name": "StarA",
        "tourism": "hotel",
        "phone": "+38110311212",
        "website": "http://www.tigar.com/tigar.php?str=51&lg=en"
      }
    },
    {
      "type": "Feature",
      "geometry": {
        "type": "Point",
        "coordinates": [
          22.7761935,
          43.015258
        ]
      },
      "properties": {
        "id": 358211748,
        "osm_type": "way",
        "name": "Hotel Sax Balkan",
        "tourism": "hotel"
      }
    },
    {
      "type": "Feature",
      "geometry": {
        "type": "Point",
        "coordinates": [
          22.7811254,
          43.012722
        ]
      },
      "properties": {
        "id": 486646471,
        "osm_type": "way",
        "name": "Saray",
        "tourism": "guest_house"
      }
    },
    {
      "type": "Feature",
      "geometry": {
        "type": "Point",
        "coordinates": [
          22.2886766,
          43.2268424
        ]
      },
      "properties": {
        "id": 486704219,
        "osm_type": "way",
        "name": "Stari Fijaker",
        "tourism": "guest_house"
      }
    },
    {
      "type": "Feature",
      "geometry": {
        "type": "Point",
        "coordinates": [
          22.2890171,
          43.2268373
        ]
      },
      "properties": {
        "id": 486704221,
        "osm_type": "way",
        "tourism": "guest_house"
      }
    },
    {
      "type": "Feature",
      "geometry": {
        "type": "Point",
        "coordinates": [
          22.5612702,
          43.1525571
        ]
      },
      "properties": {
        "id": 527854426,
        "osm_type": "way",
        "name": "Dijana",
        "tourism": "hotel",
        "phone": "+381 10 322250",
        "website": "https://hoteldijana.rs/"
      }
    },
    {
      "type": "Feature",
      "geometry": {
        "type": "Point",
        "coordinates": [
          22.5824261,
          43.1610836
        ]
      },
      "properties": {
        "id": 528930152,
        "osm_type": "way",
        "name": "Gazela",
        "tourism": "hotel"
      }
    },
    {
      "type": "Feature",
      "geometry": {
        "type": "Point",
        "coordinates": [
          22.6654819,
          42.9704654
        ]
      },
      "properties": {
        "id": 643233204,
        "osm_type": "way",
        "name": "Планинарски дом „Гребен”",
        "tourism": "alpine_hut",
        "website": "http://www.pdcaribrod.8m.com/"
      }
    },
    {
      "type": "Feature",
      "geometry": {
        "type": "Point",
        "coordinates": [
          22.3103395,
          43.217342
        ]
      },
      "properties": {
        "id": 649109142,
        "osm_type": "way",
        "name": "Garni Hotel Mala Moskva",
        "tourism": "hotel"
      }
    },
    {
      "type": "Feature",
      "geometry": {
        "type": "Point",
        "coordinates": [
          22.6814232,
          43.3398966
        ]
      },
      "properties": {
        "id": 723068200,
        "osm_type": "way",
        "name": "Етно центар Топли До",
        "tourism": "apartment",
        "phone": "+381648993158"
      }
    },
    {
      "type": "Feature",
      "geometry": {
        "type": "Point",
        "coordinates": [
          22.7409075,
          43.205972
        ]
      },
      "properties": {
        "id": 784631267,
        "osm_type": "way",
        "name": "Kuća Mitića",
        "tourism": "guest_house",
        "website": "https://smestaj-paklestica-18300.visitaserbia.com/"
      }
    },
    {
      "type": "Feature",
      "geometry": {
        "type": "Point",
        "coordinates": [
          22.737986,
          43.206203
        ]
      },
      "properties": {
        "id": 784631302,
        "osm_type": "way",
        "name": "Vesko tvrđava Zavoj",
        "tourism": "guest_house",
        "phone": "+381-65-8288127",
        "check_date": "2024-05-14"
      }
    },
    {
      "type": "Feature",
      "geometry": {
        "type": "Point",
        "coordinates": [
          22.6040752,
          42.9330478
        ]
      },
      "properties": {
        "id": 889270499,
        "osm_type": "way",
        "name": "Mir",
        "tourism": "hotel"
      }
    },
    {
      "type": "Feature",
      "geometry": {
        "type": "Point",
        "coordinates": [
          22.7697469,
          43.0133254
        ]
      },
      "properties": {
        "id": 982015080,
        "osm_type": "way",
        "name": "Amfora",
        "tourism": "hotel",
        "phone": "+381-10-362724",
        "check_date": "2024-05-17"
      }
    },
    {
      "type": "Feature",
      "geometry": {
        "type": "Point",
        "coordinates": [
          22.6074236,
          43.1330467
        ]
      },
      "properties": {
        "id": 1002146323,
        "osm_type": "way",
        "tourism": "guest_house"
      }
    },
    {
      "type": "Feature",
      "geometry": {
        "type": "Point",
        "coordinates": [
          22.607449,
          43.1336594
        ]
      },
      "properties": {
        "id": 1002146324,
        "osm_type": "way",
        "tourism": "guest_house"
      }
    },
    {
      "type": "Feature",
      "geometry": {
        "type": "Point",
        "coordinates": [
          22.6074062,
          43.1334245
        ]
      },
      "properties": {
        "id": 1002146325,
        "osm_type": "way",
        "tourism": "guest_house"
      }
    },
    {
      "type": "Feature",
      "geometry": {
        "type": "Point",
        "coordinates": [
          22.6065103,
          43.1326739
        ]
      },
      "properties": {
        "id": 1002146326,
        "osm_type": "way",
        "tourism": "guest_house"
      }
    },
    {
      "type": "Feature",
      "geometry": {
        "type": "Point",
        "coordinates": [
          22.6068389,
          43.1326993
        ]
      },
      "properties": {
        "id": 1002146327,
        "osm_type": "way",
        "tourism": "guest_house"
      }
    },
    {
      "type": "Feature",
      "geometry": {
        "type": "Point",
        "coordinates": [
          22.6072504,
          43.1328279
        ]
      },
      "properties": {
        "id": 1002146328,
        "osm_type": "way",
        "tourism": "guest_house"
      }
    },
    {
      "type": "Feature",
      "geometry": {
        "type": "Point",
        "coordinates": [
          22.7497694,
          43.0118078
        ]
      },
      "properties": {
        "id": 1108026203,
        "osm_type": "way",
        "name": "Преноћиште Белеш",
        "tourism": "apartment"
      }
    },
    {
      "type": "Feature",
      "geometry": {
        "type": "Point",
        "coordinates": [
          22.5940551,
          43.1606417
        ]
      },
      "properties": {
        "id": 1217137854,
        "osm_type": "way",
        "name": "Apart Hotel Zoe",
        "tourism": "hotel",
        "phone": "+381 63 484891"
      }
    },
    {
      "type": "Feature",
      "geometry": {
        "type": "Point",
        "coordinates": [
          22.5703051,
          43.2787162
        ]
      },
      "properties": {
        "id": 1289405548,
        "osm_type": "way",
        "tourism": "camp_site"
      }
    },
    {
      "type": "Feature",
      "geometry": {
        "type": "Point",
        "coordinates": [
          22.5510118,
          43.2633383
        ]
      },
      "properties": {
        "id": 1289405553,
        "osm_type": "way",
        "tourism": "camp_site"
      }
    },
    {
      "type": "Feature",
      "geometry": {
        "type": "Point",
        "coordinates": [
          22.628882,
          43.2672418
        ]
      },
      "properties": {
        "id": 1289675095,
        "osm_type": "way",
        "name": "Balkon Lux",
        "tourism": "guest_house"
      }
    },
    {
      "type": "Feature",
      "geometry": {
        "type": "Point",
        "coordinates": [
          22.6313787,
          43.2682302
        ]
      },
      "properties": {
        "id": 1289675099,
        "osm_type": "way",
        "name": "Vila Nemir",
        "tourism": "guest_house",
        "phone": "+381-61-6414353"
      }
    },
    {
      "type": "Feature",
      "geometry": {
        "type": "Point",
        "coordinates": [
          22.774896,
          43.1750709
        ]
      },
      "properties": {
        "id": 1290972687,
        "osm_type": "way",
        "tourism": "camp_site"
      }
    },
    {
      "type": "Feature",
      "geometry": {
        "type": "Point",
        "coordinates": [
          22.8466516,
          43.1455302
        ]
      },
      "properties": {
        "id": 1291807755,
        "osm_type": "way",
        "name": "Etno kuća Žarkov",
        "tourism": "guest_house"
      }
    },
    {
      "type": "Feature",
      "geometry": {
        "type": "Point",
        "coordinates": [
          22.8470997,
          43.1450307
        ]
      },
      "properties": {
        "id": 1291807757,
        "osm_type": "way",
        "name": "Klub Prijatelja",
        "tourism": "guest_house"
      }
    }
  ]
}