{
  "type": "FeatureCollection",
  "features": [
    {
      "type": "Feature",
      "geometry": {
        "type": "Point",
        "coordinates": [
          26.3630766,
          46.9298667
        ]
      },
      "properties": {
        "id": 282315880,
        "osm_type": "node",
        "name": "Central Plaza",
        "tourism": "hotel"
      }
    },
    {
      "type": "Feature",
      "geometry": {
        "type": "Point",
        "coordinates": [
          25.9543294,
          47.048924
        ]
      },
      "properties": {
        "id": 282415203,
        "osm_type": "node",
        "name": "Vila Ecotur",
        "tourism": "hotel"
      }
    },
    {
      "type": "Feature",
      "geometry": {
        "type": "Point",
        "coordinates": [
          26.351069,
          47.2276186
        ]
      },
      "properties": {
        "id": 297419788,
        "osm_type": "node",
        "name": "Oglinzi",
        "tourism": "hotel"
      }
    },
    {
      "type": "Feature",
      "geometry": {
        "type": "Point",
        "coordinates": [
          26.1119131,
          46.9400919
        ]
      },
      "properties": {
        "id": 297420419,
        "osm_type": "node",
        "name": "Pensiunea Pescăruș",
        "tourism": "guest_house",
        "website": "http://bicazlac.ro/hotels/hotel-pescarus/"
      }
    },
    {
      "type": "Feature",
      "geometry": {
        "type": "Point",
        "coordinates": [
          26.1120673,
          46.941013
        ]
      },
      "properties": {
        "id": 297420430,
        "osm_type": "node",
        "name": "Lebăda (plutitor)",
        "tourism": "hotel",
        "website": "http://bicazlac.ro/hotels/hotel-lebada/"
      }
    },
    {
      "type": "Feature",
      "geometry": {
        "type": "Point",
        "coordinates": [
          25.9888753,
          46.9541036
        ]
      },
      "properties": {
        "id": 304645284,
        "osm_type": "node",
        "name": "Izvoru Muntelui",
        "tourism": "guest_house"
      }
    },
    {
      "type": "Feature",
      "geometry": {
        "type": "Point",
        "coordinates": [
          26.6972086,
          47.0994071
        ]
      },
      "properties": {
        "id": 385070359,
        "osm_type": "node",
        "name": "Hanul Ancuței -",
        "tourism": "motel"
      }
    },
    {
      "type": "Feature",
      "geometry": {
        "type": "Point",
        "coordinates": [
          25.9275247,
          46.9977648
        ]
      },
      "properties": {
        "id": 389388575,
        "osm_type": "node",
        "name": "Cascada",
        "tourism": "hotel"
      }
    },
    {
      "type": "Feature",
      "geometry": {
        "type": "Point",
        "coordinates": [
          25.9889323,
          46.9541711
        ]
      },
      "properties": {
        "id": 439203422,
        "osm_type": "node",
        "name": "Cabana Izvoru Muntelui",
        "tourism": "alpine_hut"
      }
    },
    {
      "type": "Feature",
      "geometry": {
        "type": "Point",
        "coordinates": [
          26.3093849,
          47.1198927
        ]
      },
      "properties": {
        "id": 597294556,
        "osm_type": "node",
        "name": "Baza Tratament Bălțătești",
        "tourism": "hotel"
      }
    },
    {
      "type": "Feature",
      "geometry": {
        "type": "Point",
        "coordinates": [
          25.9241675,
          46.9985052
        ]
      },
      "properties": {
        "id": 660595779,
        "osm_type": "node",
        "name": "Bradul",
        "tourism": "hotel"
      }
    },
    {
      "type": "Feature",
      "geometry": {
        "type": "Point",
        "coordinates": [
          26.1127197,
          46.9383014
        ]
      },
      "properties": {
        "id": 799309349,
        "osm_type": "node",
        "name": "Cristina",
        "tourism": "motel"
      }
    },
    {
      "type": "Feature",
      "geometry": {
        "type": "Point",
        "coordinates": [
          26.345124,
          47.2115751
        ]
      },
      "properties": {
        "id": 836046266,
        "osm_type": "node",
        "name": "La Cetate",
        "tourism": "hotel",
        "phone": "+40 233 660 249"
      }
    },
    {
      "type": "Feature",
      "geometry": {
        "type": "Point",
        "coordinates": [
          25.987531,
          46.9542688
        ]
      },
      "properties": {
        "id": 868505561,
        "osm_type": "node",
        "name": "Izvoru Muntelui",
        "tourism": "camp_site"
      }
    },
    {
      "type": "Feature",
      "geometry": {
        "type": "Point",
        "coordinates": [
          26.8473114,
          47.0334892
        ]
      },
      "properties": {
        "id": 963152042,
        "osm_type": "node",
        "name": "Castelul Roșu m",
        "tourism": "hotel"
      }
    },
    {
      "type": "Feature",
      "geometry": {
        "type": "Point",
        "coordinates": [
          25.942656,
          46.9353531
        ]
      },
      "properties": {
        "id": 1003639484,
        "osm_type": "node",
        "name": "Canton Silvic",
        "tourism": "alpine_hut"
      }
    },
    {
      "type": "Feature",
      "geometry": {
        "type": "Point",
        "coordinates": [
          25.9674443,
          47.0389222
        ]
      },
      "properties": {
        "id": 1650347980,
        "osm_type": "node",
        "name": "Casa Karol",
        "tourism": "guest_house"
      }
    },
    {
      "type": "Feature",
      "geometry": {
        "type": "Point",
        "coordinates": [
          26.0724078,
          46.9899108
        ]
      },
      "properties": {
        "id": 1684002207,
        "osm_type": "node",
        "name": "Pensiunea Baicu",
        "tourism": "guest_house"
      }
    },
    {
      "type": "Feature",
      "geometry": {
        "type": "Point",
        "coordinates": [
          25.969408,
          47.0889334
        ]
      },
      "properties": {
        "id": 1758310074,
        "osm_type": "node",
        "name": "Pensiunea Teiul",
        "tourism": "guest_house"
      }
    },
    {
      "type": "Feature",
      "geometry": {
        "type": "Point",
        "coordinates": [
          26.3138374,
          46.9413943
        ]
      },
      "properties": {
        "id": 1813529246,
        "osm_type": "node",
        "name": "Alexia",
        "tourism": "guest_house",
        "phone": "+40731521755",
        "website": "http://www.pensiuneaalexia.ro/"
      }
    },
    {
      "type": "Feature",
      "geometry": {
        "type": "Point",
        "coordinates": [
          25.9925332,
          46.9536603
        ]
      },
      "properties": {
        "id": 1813538550,
        "osm_type": "node",
        "name": "Crușitu",
        "tourism": "guest_house"
      }
    },
    {
      "type": "Feature",
      "geometry": {
        "type": "Point",
        "coordinates": [
          25.9944495,
          46.9536967
        ]
      },
      "properties": {
        "id": 1813538553,
        "osm_type": "node",
        "name": "Bia Păpădia",
        "tourism": "guest_house"
      }
    },
    {
      "type": "Feature",
      "geometry": {
        "type": "Point",
        "coordinates": [
          25.9921267,
          46.9536967
        ]
      },
      "properties": {
        "id": 1813538555,
        "osm_type": "node",
        "name": "Diana",
        "tourism": "guest_house"
      }
    },
    {
      "type": "Feature",
      "geometry": {
        "type": "Point",
        "coordinates": [
          26.1086125,
          46.978445
        ]
      },
      "properties": {
        "id": 1814018329,
        "osm_type": "node",
        "name": "La Doichița -",
        "tourism": "camp_site"
      }
    },
    {
      "type": "Feature",
      "geometry": {
        "type": "Point",
        "coordinates": [
          26.0132761,
          47.1701987
        ]
      },
      "properties": {
        "id": 1815656970,
        "osm_type": "node",
        "name": "Camping Petru Vodă",
        "tourism": "camp_site"
      }
    },
    {
      "type": "Feature",
      "geometry": {
        "type": "Point",
        "coordinates": [
          26.0130937,
          47.1706181
        ]
      },
      "properties": {
        "id": 1815656971,
        "osm_type": "node",
        "name": "Pensiunea Petru Vodă",
        "tourism": "guest_house"
      }
    },
    {
      "type": "Feature",
      "geometry": {
        "type": "Point",
        "coordinates": [
          25.9214563,
          46.9946849
        ]
      },
      "properties": {
        "id": 1821781256,
        "osm_type": "node",
        "name": "Agnes",
        "tourism": "guest_house"
      }
    },
    {
      "type": "Feature",
      "geometry": {
        "type": "Point",
        "coordinates": [
          26.3629076,
          46.9292223
        ]
      },
      "properties": {
        "id": 1870135230,
        "osm_type": "node",
        "name": "Hotel Bulevard",
        "tourism": "hotel"
      }
    },
    {
      "type": "Feature",
      "geometry": {
        "type": "Point",
        "coordinates": [
          26.1964634,
          46.7306131
        ]
      },
      "properties": {
        "id": 1870225816,
        "osm_type": "node",
        "name": "Cabana Ardeluța (acces MApN)",
        "tourism": "chalet"
      }
    },
    {
      "type": "Feature",
      "geometry": {
        "type": "Point",
        "coordinates": [
          25.8103022,
          46.7963063
        ]
      },
      "properties": {
        "id": 1879464979,
        "osm_type": "node",
        "name": "Vila Veresko (grup)",
        "tourism": "guest_house"
      }
    },
    {
      "type": "Feature",
      "geometry": {
        "type": "Point",
        "coordinates": [
          26.4023835,
          46.9409947
        ]
      },
      "properties": {
        "id": 1914191548,
        "osm_type": "node",
        "name": "Cazare Class",
        "tourism": "guest_house"
      }
    },
    {
      "type": "Feature",
      "geometry": {
        "type": "Point",
        "coordinates": [
          26.413745,
          47.2173718
        ]
      },
      "properties": {
        "id": 1934939902,
        "osm_type": "node",
        "name": "Pensiunea La Struți",
        "tourism": "guest_house"
      }
    },
    {
      "type": "Feature",
      "geometry": {
        "type": "Point",
        "coordinates": [
          26.3661701,
          46.9325287
        ]
      },
      "properties": {
        "id": 1968174138,
        "osm_type": "node",
        "name": "Pensiunea Villador",
        "tourism": "guest_house"
      }
    },
    {
      "type": "Feature",
      "geometry": {
        "type": "Point",
        "coordinates": [
          26.3708172,
          46.9321736
        ]
      },
      "properties": {
        "id": 1968181361,
        "osm_type": "node",
        "name": "Grand Hotel Ceahlău",
        "tourism": "hotel",
        "website": "http://www.hotelceahlau.ro/"
      }
    },
    {
      "type": "Feature",
      "geometry": {
        "type": "Point",
        "coordinates": [
          26.3634057,
          46.9294884
        ]
      },
      "properties": {
        "id": 1968304318,
        "osm_type": "node",
        "name": "Elis",
        "tourism": "guest_house"
      }
    },
    {
      "type": "Feature",
      "geometry": {
        "type": "Point",
        "coordinates": [
          26.3236787,
          46.9404291
        ]
      },
      "properties": {
        "id": 1974994292,
        "osm_type": "node",
        "name": "Pensiunea Nora",
        "tourism": "guest_house"
      }
    },
    {
      "type": "Feature",
      "geometry": {
        "type": "Point",
        "coordinates": [
          26.3193132,
          46.9409104
        ]
      },
      "properties": {
        "id": 1974994307,
        "osm_type": "node",
        "name": "Hotel Belvedere",
        "tourism": "hotel"
      }
    },
    {
      "type": "Feature",
      "geometry": {
        "type": "Point",
        "coordinates": [
          26.8831726,
          46.8434027
        ]
      },
      "properties": {
        "id": 2295133063,
        "osm_type": "node",
        "name": "Pensiunea Mara",
        "tourism": "hotel"
      }
    },
    {
      "type": "Feature",
      "geometry": {
        "type": "Point",
        "coordinates": [
          26.4939965,
          46.9524234
        ]
      },
      "properties": {
        "id": 2323445698,
        "osm_type": "node",
        "name": "Motel Ana",
        "tourism": "motel"
      }
    },
    {
      "type": "Feature",
      "geometry": {
        "type": "Point",
        "coordinates": [
          26.4527893,
          46.9374786
        ]
      },
      "properties": {
        "id": 2323445699,
        "osm_type": "node",
        "name": "Pensiunea Elena",
        "tourism": "motel"
      }
    },
    {
      "type": "Feature",
      "geometry": {
        "type": "Point",
        "coordinates": [
          26.4014053,
          46.9397654
        ]
      },
      "properties": {
        "id": 2323445700,
        "osm_type": "node",
        "name": "Pensiunea Casa Moldoveană",
        "tourism": "motel"
      }
    },
    {
      "type": "Feature",
      "geometry": {
        "type": "Point",
        "coordinates": [
          26.4019624,
          46.8109874
        ]
      },
      "properties": {
        "id": 2327893762,
        "osm_type": "node",
        "name": "Baza de Tratament Negulești (closed)",
        "tourism": "hotel"
      }
    },
    {
      "type": "Feature",
      "geometry": {
        "type": "Point",
        "coordinates": [
          26.3174272,
          46.9292741
        ]
      },
      "properties": {
        "id": 2329186972,
        "osm_type": "node",
        "name": "Pensiunea La Maimuța",
        "tourism": "guest_house",
        "opening_hours": "Mo-Su 09:00-00:00",
        "phone": "+40233237414"
      }
    },
    {
      "type": "Feature",
      "geometry": {
        "type": "Point",
        "coordinates": [
          26.9144523,
          46.9539767
        ]
      },
      "properties": {
        "id": 2383002706,
        "osm_type": "node",
        "name": "Royal***",
        "tourism": "hotel"
      }
    },
    {
      "type": "Feature",
      "geometry": {
        "type": "Point",
        "coordinates": [
          25.9208306,
          46.9969174
        ]
      },
      "properties": {
        "id": 2662995028,
        "osm_type": "node",
        "tourism": "chalet"
      }
    },
    {
      "type": "Feature",
      "geometry": {
        "type": "Point",
        "coordinates": [
          25.9222736,
          46.9970528
        ]
      },
      "properties": {
        "id": 2662995037,
        "osm_type": "node",
        "tourism": "chalet"
      }
    },
    {
      "type": "Feature",
      "geometry": {
        "type": "Point",
        "coordinates": [
          25.9212624,
          46.9968845
        ]
      },
      "properties": {
        "id": 2662995046,
        "osm_type": "node",
        "tourism": "chalet"
      }
    },
    {
      "type": "Feature",
      "geometry": {
        "type": "Point",
        "coordinates": [
          25.9219839,
          46.9969321
        ]
      },
      "properties": {
        "id": 2662995061,
        "osm_type": "node",
        "tourism": "chalet"
      }
    },
    {
      "type": "Feature",
      "geometry": {
        "type": "Point",
        "coordinates": [
          25.9216487,
          46.9968972
        ]
      },
      "properties": {
        "id": 2662995071,
        "osm_type": "node",
        "tourism": "chalet"
      }
    },
    {
      "type": "Feature",
      "geometry": {
        "type": "Point",
        "coordinates": [
          25.9225365,
          46.9972613
        ]
      },
      "properties": {
        "id": 2662995105,
        "osm_type": "node",
        "tourism": "chalet"
      }
    },
    {
      "type": "Feature",
      "geometry": {
        "type": "Point",
        "coordinates": [
          25.9202726,
          46.995849
        ]
      },
      "properties": {
        "id": 2663018305,
        "osm_type": "node",
        "name": "Brândușa **",
        "tourism": "hotel"
      }
    },
    {
      "type": "Feature",
      "geometry": {
        "type": "Point",
        "coordinates": [
          25.921464,
          46.9982491
        ]
      },
      "properties": {
        "id": 2663035640,
        "osm_type": "node",
        "name": "Doina**",
        "tourism": "guest_house"
      }
    },
    {
      "type": "Feature",
      "geometry": {
        "type": "Point",
        "coordinates": [
          25.9224719,
          46.9994272
        ]
      },
      "properties": {
        "id": 2663093264,
        "osm_type": "node",
        "name": "Casa Bella **",
        "tourism": "guest_house"
      }
    },
    {
      "type": "Feature",
      "geometry": {
        "type": "Point",
        "coordinates": [
          25.9209578,
          46.9987912
        ]
      },
      "properties": {
        "id": 2663093289,
        "osm_type": "node",
        "name": "Alexa",
        "tourism": "guest_house"
      }
    },
    {
      "type": "Feature",
      "geometry": {
        "type": "Point",
        "coordinates": [
          26.4135733,
          46.9007352
        ]
      },
      "properties": {
        "id": 2676800186,
        "osm_type": "node",
        "name": "Pensiunea Cornelius",
        "tourism": "guest_house",
        "phone": "+40 233 211 511, +40 745 566 143",
        "website": "https://www.cornelius.ro/"
      }
    },
    {
      "type": "Feature",
      "geometry": {
        "type": "Point",
        "coordinates": [
          25.9144849,
          47.002578
        ]
      },
      "properties": {
        "id": 2680502687,
        "osm_type": "node",
        "name": "Vânătorul",
        "tourism": "guest_house",
        "opening_hours": "Mo-Su 08:00-23:00",
        "phone": "+40 233 256 502",
        "website": "http://www.pensiuneavanatorul.ro/"
      }
    },
    {
      "type": "Feature",
      "geometry": {
        "type": "Point",
        "coordinates": [
          25.9542498,
          47.0499759
        ]
      },
      "properties": {
        "id": 2686381873,
        "osm_type": "node",
        "name": "Senin p",
        "tourism": "guest_house"
      }
    },
    {
      "type": "Feature",
      "geometry": {
        "type": "Point",
        "coordinates": [
          25.9171633,
          46.9998886
        ]
      },
      "properties": {
        "id": 2749405622,
        "osm_type": "node",
        "name": "Căsuțe",
        "tourism": "chalet"
      }
    },
    {
      "type": "Feature",
      "geometry": {
        "type": "Point",
        "coordinates": [
          26.2891812,
          46.9619291
        ]
      },
      "properties": {
        "id": 3598214947,
        "osm_type": "node",
        "name": "Pensiunea Farmecul Pădurii",
        "tourism": "guest_house",
        "phone": "+40726830185"
      }
    },
    {
      "type": "Feature",
      "geometry": {
        "type": "Point",
        "coordinates": [
          26.3641646,
          46.932589
        ]
      },
      "properties": {
        "id": 3602267048,
        "osm_type": "node",
        "name": "Pensiunea Verde",
        "tourism": "guest_house",
        "phone": "+40742 226 487"
      }
    },
    {
      "type": "Feature",
      "geometry": {
        "type": "Point",
        "coordinates": [
          26.2674505,
          47.1742742
        ]
      },
      "properties": {
        "id": 3705484985,
        "osm_type": "node",
        "name": "Pensiunea Casa Dintre Pini",
        "tourism": "guest_house"
      }
    },
    {
      "type": "Feature",
      "geometry": {
        "type": "Point",
        "coordinates": [
          26.0003413,
          47.128191
        ]
      },
      "properties": {
        "id": 3710890894,
        "osm_type": "node",
        "name": "Pensiunea Paradiso",
        "tourism": "guest_house",
        "phone": "+40751743456"
      }
    },
    {
      "type": "Feature",
      "geometry": {
        "type": "Point",
        "coordinates": [
          26.2902222,
          46.9556493
        ]
      },
      "properties": {
        "id": 3714000457,
        "osm_type": "node",
        "name": "Pensiunea Daria",
        "tourism": "guest_house",
        "phone": "+40725211055"
      }
    },
    {
      "type": "Feature",
      "geometry": {
        "type": "Point",
        "coordinates": [
          26.3075965,
          46.9433523
        ]
      },
      "properties": {
        "id": 3714019028,
        "osm_type": "node",
        "name": "Pensiunea Ianis",
        "tourism": "guest_house",
        "phone": "+40744581883",
        "website": "https://www.pensiunea-ianis.ro/"
      }
    },
    {
      "type": "Feature",
      "geometry": {
        "type": "Point",
        "coordinates": [
          26.2968898,
          47.1453123
        ]
      },
      "properties": {
        "id": 3719739642,
        "osm_type": "node",
        "name": "Pensiunea Codrin",
        "tourism": "guest_house",
        "phone": "0741922711"
      }
    },
    {
      "type": "Feature",
      "geometry": {
        "type": "Point",
        "coordinates": [
          26.3027384,
          47.1426567
        ]
      },
      "properties": {
        "id": 3719739643,
        "osm_type": "node",
        "name": "Pensiunea Daria",
        "tourism": "guest_house"
      }
    },
    {
      "type": "Feature",
      "geometry": {
        "type": "Point",
        "coordinates": [
          26.2083929,
          47.2264036
        ]
      },
      "properties": {
        "id": 3728243916,
        "osm_type": "node",
        "name": "Pensiunea Secu",
        "tourism": "guest_house"
      }
    },
    {
      "type": "Feature",
      "geometry": {
        "type": "Point",
        "coordinates": [
          26.2138241,
          47.2187883
        ]
      },
      "properties": {
        "id": 3728246139,
        "osm_type": "node",
        "name": "Cabana Secu",
        "tourism": "hostel"
      }
    },
    {
      "type": "Feature",
      "geometry": {
        "type": "Point",
        "coordinates": [
          26.3096548,
          47.1731123
        ]
      },
      "properties": {
        "id": 3728258616,
        "osm_type": "node",
        "name": "Pensiunea Agapia",
        "tourism": "guest_house",
        "phone": "+40746790742"
      }
    },
    {
      "type": "Feature",
      "geometry": {
        "type": "Point",
        "coordinates": [
          25.9247815,
          47.0008005
        ]
      },
      "properties": {
        "id": 4219544098,
        "osm_type": "node",
        "name": "Alpin",
        "tourism": "hotel",
        "phone": "0723589715"
      }
    },
    {
      "type": "Feature",
      "geometry": {
        "type": "Point",
        "coordinates": [
          25.9513573,
          47.0386735
        ]
      },
      "properties": {
        "id": 4219635590,
        "osm_type": "node",
        "name": "Total",
        "tourism": "hotel",
        "phone": "0233258110"
      }
    },
    {
      "type": "Feature",
      "geometry": {
        "type": "Point",
        "coordinates": [
          26.2173408,
          46.931366
        ]
      },
      "properties": {
        "id": 4247231294,
        "osm_type": "node",
        "name": "Castelul de Smarald",
        "tourism": "guest_house",
        "opening_hours": "24/7",
        "phone": "0753477627",
        "website": "https://www.casteluldesmarald.ro/"
      }
    },
    {
      "type": "Feature",
      "geometry": {
        "type": "Point",
        "coordinates": [
          26.3962776,
          47.2099212
        ]
      },
      "properties": {
        "id": 4271439783,
        "osm_type": "node",
        "name": "Pensiunea Aristocratis",
        "tourism": "hotel",
        "phone": "0233791986",
        "website": "http://cazaretarguneamt.ro/"
      }
    },
    {
      "type": "Feature",
      "geometry": {
        "type": "Point",
        "coordinates": [
          25.9237662,
          47.0011042
        ]
      },
      "properties": {
        "id": 4304991990,
        "osm_type": "node",
        "name": "Pensiunea Maria",
        "tourism": "guest_house"
      }
    },
    {
      "type": "Feature",
      "geometry": {
        "type": "Point",
        "coordinates": [
          25.9248187,
          46.9986522
        ]
      },
      "properties": {
        "id": 4317238294,
        "osm_type": "node",
        "name": "Lupul Cenusiu",
        "tourism": "chalet"
      }
    },
    {
      "type": "Feature",
      "geometry": {
        "type": "Point",
        "coordinates": [
          26.350943,
          46.9277815
        ]
      },
      "properties": {
        "id": 4334241111,
        "osm_type": "node",
        "name": "Strand . strada Schitul",
        "tourism": "camp_site"
      }
    },
    {
      "type": "Feature",
      "geometry": {
        "type": "Point",
        "coordinates": [
          26.091759,
          46.9380478
        ]
      },
      "properties": {
        "id": 4334330323,
        "osm_type": "node",
        "name": "Pensiunea Aurora",
        "tourism": "motel",
        "phone": "0721 705 754"
      }
    },
    {
      "type": "Feature",
      "geometry": {
        "type": "Point",
        "coordinates": [
          26.0060274,
          46.9534423
        ]
      },
      "properties": {
        "id": 4334336847,
        "osm_type": "node",
        "name": "Pensiunea Ralu",
        "tourism": "motel"
      }
    },
    {
      "type": "Feature",
      "geometry": {
        "type": "Point",
        "coordinates": [
          25.9081384,
          47.006746
        ]
      },
      "properties": {
        "id": 4465027389,
        "osm_type": "node",
        "name": "Pensiunea Casa Irina",
        "tourism": "guest_house"
      }
    },
    {
      "type": "Feature",
      "geometry": {
        "type": "Point",
        "coordinates": [
          26.2022915,
          47.2254105
        ]
      },
      "properties": {
        "id": 4562403262,
        "osm_type": "node",
        "name": "Pensiunea Maria",
        "tourism": "guest_house"
      }
    },
    {
      "type": "Feature",
      "geometry": {
        "type": "Point",
        "coordinates": [
          26.1243891,
          47.2298251
        ]
      },
      "properties": {
        "id": 4562403275,
        "osm_type": "node",
        "name": "Pensiunea Stânca",
        "tourism": "guest_house"
      }
    },
    {
      "type": "Feature",
      "geometry": {
        "type": "Point",
        "coordinates": [
          26.3821091,
          46.9987669
        ]
      },
      "properties": {
        "id": 4659811891,
        "osm_type": "node",
        "name": "Beatriz",
        "tourism": "guest_house"
      }
    },
    {
      "type": "Feature",
      "geometry": {
        "type": "Point",
        "coordinates": [
          25.7548821,
          47.209371
        ]
      },
      "properties": {
        "id": 4679054004,
        "osm_type": "node",
        "name": "Rozmarin",
        "tourism": "guest_house"
      }
    },
    {
      "type": "Feature",
      "geometry": {
        "type": "Point",
        "coordinates": [
          25.8385731,
          47.1565204
        ]
      },
      "properties": {
        "id": 4679054120,
        "osm_type": "node",
        "name": "Orizont",
        "tourism": "hotel",
        "website": "https://www.pensiuneaorizontfarcasa.ro/"
      }
    },
    {
      "type": "Feature",
      "geometry": {
        "type": "Point",
        "coordinates": [
          26.2286044,
          47.243466
        ]
      },
      "properties": {
        "id": 4903751471,
        "osm_type": "node",
        "name": "Pensiunea Perla Neamtului",
        "tourism": "hotel",
        "phone": "+40.233.251.511"
      }
    },
    {
      "type": "Feature",
      "geometry": {
        "type": "Point",
        "coordinates": [
          26.2627212,
          47.2318747
        ]
      },
      "properties": {
        "id": 4904215756,
        "osm_type": "node",
        "name": "Pensiunea Branistea",
        "tourism": "hotel"
      }
    },
    {
      "type": "Feature",
      "geometry": {
        "type": "Point",
        "coordinates": [
          26.0667964,
          47.0327217
        ]
      },
      "properties": {
        "id": 4938876621,
        "osm_type": "node",
        "name": "Casa Balan",
        "tourism": "hostel"
      }
    },
    {
      "type": "Feature",
      "geometry": {
        "type": "Point",
        "coordinates": [
          25.9300286,
          46.8556754
        ]
      },
      "properties": {
        "id": 5032221721,
        "osm_type": "node",
        "name": "Pensiunea Saon",
        "tourism": "guest_house"
      }
    },
    {
      "type": "Feature",
      "geometry": {
        "type": "Point",
        "coordinates": [
          25.9200956,
          47.0551602
        ]
      },
      "properties": {
        "id": 5773577153,
        "osm_type": "node",
        "name": "Casa Matei",
        "tourism": "hostel"
      }
    },
    {
      "type": "Feature",
      "geometry": {
        "type": "Point",
        "coordinates": [
          26.3310735,
          47.1810137
        ]
      },
      "properties": {
        "id": 5834897285,
        "osm_type": "node",
        "name": "Hotel Eden",
        "tourism": "guest_house"
      }
    },
    {
      "type": "Feature",
      "geometry": {
        "type": "Point",
        "coordinates": [
          26.1186127,
          46.9389647
        ]
      },
      "properties": {
        "id": 5893977186,
        "osm_type": "node",
        "name": "Ancora",
        "tourism": "hotel"
      }
    },
    {
      "type": "Feature",
      "geometry": {
        "type": "Point",
        "coordinates": [
          26.24787,
          46.9269323
        ]
      },
      "properties": {
        "id": 6640324186,
        "osm_type": "node",
        "name": "Pensiunea MAGNOLIA",
        "tourism": "guest_house"
      }
    },
    {
      "type": "Feature",
      "geometry": {
        "type": "Point",
        "coordinates": [
          26.1131263,
          46.93953
        ]
      },
      "properties": {
        "id": 6718210734,
        "osm_type": "node",
        "tourism": "camp_site",
        "website": "http://bicazlac.ro"
      }
    },
    {
      "type": "Feature",
      "geometry": {
        "type": "Point",
        "coordinates": [
          26.3708366,
          47.2200764
        ]
      },
      "properties": {
        "id": 6916584426,
        "osm_type": "node",
        "name": "Pensiune Restaurant Belvedere",
        "tourism": "hotel",
        "contact:website": "https://www.pensiuneabelvedere.ro/"
      }
    },
    {
      "type": "Feature",
      "geometry": {
        "type": "Point",
        "coordinates": [
          26.3264632,
          47.1747642
        ]
      },
      "properties": {
        "id": 7274613385,
        "osm_type": "node",
        "name": "Pensiunea Dumbrava Minunată",
        "tourism": "guest_house"
      }
    },
    {
      "type": "Feature",
      "geometry": {
        "type": "Point",
        "coordinates": [
          26.3911104,
          46.9149443
        ]
      },
      "properties": {
        "id": 7485297533,
        "osm_type": "node",
        "name": "Pensiunea Aris",
        "tourism": "motel"
      }
    },
    {
      "type": "Feature",
      "geometry": {
        "type": "Point",
        "coordinates": [
          25.9174132,
          46.998459
        ]
      },
      "properties": {
        "id": 8358914241,
        "osm_type": "node",
        "name": "Camping La Andrei",
        "tourism": "camp_site"
      }
    },
    {
      "type": "Feature",
      "geometry": {
        "type": "Point",
        "coordinates": [
          26.3117997,
          46.9418674
        ]
      },
      "properties": {
        "id": 8497697791,
        "osm_type": "node",
        "name": "Hotel OSCAR",
        "tourism": "hotel"
      }
    },
    {
      "type": "Feature",
      "geometry": {
        "type": "Point",
        "coordinates": [
          26.3166924,
          46.9416978
        ]
      },
      "properties": {
        "id": 8499216258,
        "osm_type": "node",
        "tourism": "motel"
      }
    },
    {
      "type": "Feature",
      "geometry": {
        "type": "Point",
        "coordinates": [
          26.3198022,
          46.9417331
        ]
      },
      "properties": {
        "id": 8499508005,
        "osm_type": "node",
        "name": "Pensiunea Ambiance",
        "tourism": "guest_house"
      }
    },
    {
      "type": "Feature",
      "geometry": {
        "type": "Point",
        "coordinates": [
          26.3207851,
          46.9413598
        ]
      },
      "properties": {
        "id": 8499508014,
        "osm_type": "node",
        "name": "Pensiunea Moldova",
        "tourism": "guest_house"
      }
    },
    {
      "type": "Feature",
      "geometry": {
        "type": "Point",
        "coordinates": [
          26.3204304,
          46.9410279
        ]
      },
      "properties": {
        "id": 8499773102,
        "osm_type": "node",
        "name": "Pensiunea Bradu",
        "tourism": "guest_house"
      }
    },
    {
      "type": "Feature",
      "geometry": {
        "type": "Point",
        "coordinates": [
          26.319763,
          46.9408022
        ]
      },
      "properties": {
        "id": 8499788432,
        "osm_type": "node",
        "name": "Pensiunea Ayan",
        "tourism": "guest_house"
      }
    },
    {
      "type": "Feature",
      "geometry": {
        "type": "Point",
        "coordinates": [
          26.3176995,
          46.9412282
        ]
      },
      "properties": {
        "id": 8499788502,
        "osm_type": "node",
        "name": "Pensiunea Belmonte",
        "tourism": "guest_house"
      }
    },
    {
      "type": "Feature",
      "geometry": {
        "type": "Point",
        "coordinates": [
          26.3160993,
          46.9417684
        ]
      },
      "properties": {
        "id": 8503971715,
        "osm_type": "node",
        "name": "Agropensiunea Ozon",
        "tourism": "guest_house",
        "phone": "+40761115280",
        "website": "http://www.agropensiunea-ozon.com/"
      }
    },
    {
      "type": "Feature",
      "geometry": {
        "type": "Point",
        "coordinates": [
          26.3921888,
          46.9262602
        ]
      },
      "properties": {
        "id": 8528222024,
        "osm_type": "node",
        "name": "Pensiunea Alessia",
        "tourism": "guest_house"
      }
    },
    {
      "type": "Feature",
      "geometry": {
        "type": "Point",
        "coordinates": [
          26.3936524,
          46.9296075
        ]
      },
      "properties": {
        "id": 8603427571,
        "osm_type": "node",
        "name": "Motel ARIS",
        "tourism": "motel"
      }
    },
    {
      "type": "Feature",
      "geometry": {
        "type": "Point",
        "coordinates": [
          26.9174641,
          46.9207976
        ]
      },
      "properties": {
        "id": 8631134799,
        "osm_type": "node",
        "name": "Phoenix",
        "tourism": "hostel"
      }
    },
    {
      "type": "Feature",
      "geometry": {
        "type": "Point",
        "coordinates": [
          26.3730175,
          47.2042785
        ]
      },
      "properties": {
        "id": 8649875959,
        "osm_type": "node",
        "name": "Hotel Babilon",
        "tourism": "hotel"
      }
    },
    {
      "type": "Feature",
      "geometry": {
        "type": "Point",
        "coordinates": [
          26.315584,
          46.9407267
        ]
      },
      "properties": {
        "id": 8651649761,
        "osm_type": "node",
        "name": "Pensiunea Franceska",
        "tourism": "guest_house"
      }
    },
    {
      "type": "Feature",
      "geometry": {
        "type": "Point",
        "coordinates": [
          26.4708887,
          46.9689063
        ]
      },
      "properties": {
        "id": 8739612590,
        "osm_type": "node",
        "name": "Casa 3 Blide",
        "tourism": "guest_house"
      }
    },
    {
      "type": "Feature",
      "geometry": {
        "type": "Point",
        "coordinates": [
          26.3213228,
          46.9406883
        ]
      },
      "properties": {
        "id": 8773055529,
        "osm_type": "node",
        "name": "Ponsiunea Ștefan",
        "tourism": "guest_house"
      }
    },
    {
      "type": "Feature",
      "geometry": {
        "type": "Point",
        "coordinates": [
          25.9840299,
          46.7696402
        ]
      },
      "properties": {
        "id": 9105266617,
        "osm_type": "node",
        "name": "Stână",
        "tourism": "alpine_hut"
      }
    },
    {
      "type": "Feature",
      "geometry": {
        "type": "Point",
        "coordinates": [
          25.991848,
          46.7591297
        ]
      },
      "properties": {
        "id": 9105266817,
        "osm_type": "node",
        "name": "Stână",
        "tourism": "alpine_hut"
      }
    },
    {
      "type": "Feature",
      "geometry": {
        "type": "Point",
        "coordinates": [
          26.4503007,
          46.8722342
        ]
      },
      "properties": {
        "id": 9207989823,
        "osm_type": "node",
        "name": "Pensiunea Rustic",
        "tourism": "guest_house"
      }
    },
    {
      "type": "Feature",
      "geometry": {
        "type": "Point",
        "coordinates": [
          26.4600068,
          46.866168
        ]
      },
      "properties": {
        "id": 9209596757,
        "osm_type": "node",
        "name": "Pensiunea Casa Drumeţului",
        "tourism": "guest_house"
      }
    },
    {
      "type": "Feature",
      "geometry": {
        "type": "Point",
        "coordinates": [
          26.3893754,
          46.9213166
        ]
      },
      "properties": {
        "id": 9241183371,
        "osm_type": "node",
        "name": "Pensiunea Torent",
        "tourism": "guest_house"
      }
    },
    {
      "type": "Feature",
      "geometry": {
        "type": "Point",
        "coordinates": [
          26.4267128,
          46.8908498
        ]
      },
      "properties": {
        "id": 9294321491,
        "osm_type": "node",
        "name": "Pensinea Byblos",
        "tourism": "guest_house",
        "phone": "+40749056056",
        "website": "http://www.pensiuneabyblos.ro/"
      }
    },
    {
      "type": "Feature",
      "geometry": {
        "type": "Point",
        "coordinates": [
          26.2687169,
          47.0063539
        ]
      },
      "properties": {
        "id": 9622999813,
        "osm_type": "node",
        "name": "Casa Suzanne",
        "tourism": "guest_house"
      }
    },
    {
      "type": "Feature",
      "geometry": {
        "type": "Point",
        "coordinates": [
          26.2693026,
          47.0066471
        ]
      },
      "properties": {
        "id": 9623016718,
        "osm_type": "node",
        "name": "Casa Casiana Colț de Rai",
        "tourism": "guest_house"
      }
    },
    {
      "type": "Feature",
      "geometry": {
        "type": "Point",
        "coordinates": [
          26.4829385,
          46.8523237
        ]
      },
      "properties": {
        "id": 9740572999,
        "osm_type": "node",
        "name": "Hanul Strâmbeanu",
        "tourism": "guest_house"
      }
    },
    {
      "type": "Feature",
      "geometry": {
        "type": "Point",
        "coordinates": [
          26.4296725,
          46.8879761
        ]
      },
      "properties": {
        "id": 9860385389,
        "osm_type": "node",
        "name": "Pensiunea Classic",
        "tourism": "guest_house"
      }
    },
    {
      "type": "Feature",
      "geometry": {
        "type": "Point",
        "coordinates": [
          26.43111,
          46.8872954
        ]
      },
      "properties": {
        "id": 9860389119,
        "osm_type": "node",
        "name": "Pensiunea Candy",
        "tourism": "guest_house"
      }
    },
    {
      "type": "Feature",
      "geometry": {
        "type": "Point",
        "coordinates": [
          26.3081356,
          47.1188954
        ]
      },
      "properties": {
        "id": 9866131623,
        "osm_type": "node",
        "name": "Hotel Ozana",
        "tourism": "hotel"
      }
    },
    {
      "type": "Feature",
      "geometry": {
        "type": "Point",
        "coordinates": [
          26.3088987,
          47.1184136
        ]
      },
      "properties": {
        "id": 9866131624,
        "osm_type": "node",
        "name": "Hotel Topolița",
        "tourism": "hotel"
      }
    },
    {
      "type": "Feature",
      "geometry": {
        "type": "Point",
        "coordinates": [
          26.3076989,
          47.118507
        ]
      },
      "properties": {
        "id": 9906981417,
        "osm_type": "node",
        "name": "Hotel Narcisa",
        "tourism": "hotel"
      }
    },
    {
      "type": "Feature",
      "geometry": {
        "type": "Point",
        "coordinates": [
          25.8919245,
          46.8419519
        ]
      },
      "properties": {
        "id": 10767832391,
        "osm_type": "node",
        "name": "Pensiunea Aurelia",
        "tourism": "hotel"
      }
    },
    {
      "type": "Feature",
      "geometry": {
        "type": "Point",
        "coordinates": [
          26.3233803,
          47.1678823
        ]
      },
      "properties": {
        "id": 10845755526,
        "osm_type": "node",
        "name": "Pensiunea Agapia Eleonora",
        "tourism": "guest_house"
      }
    },
    {
      "type": "Feature",
      "geometry": {
        "type": "Point",
        "coordinates": [
          26.1322863,
          47.2798043
        ]
      },
      "properties": {
        "id": 10901146276,
        "osm_type": "node",
        "tourism": "hostel"
      }
    },
    {
      "type": "Feature",
      "geometry": {
        "type": "Point",
        "coordinates": [
          26.3238158,
          47.0121285
        ]
      },
      "properties": {
        "id": 10939030484,
        "osm_type": "node",
        "name": "Pensiunea Almaș",
        "tourism": "guest_house",
        "phone": "+40722236307"
      }
    },
    {
      "type": "Feature",
      "geometry": {
        "type": "Point",
        "coordinates": [
          26.3261491,
          46.9133469
        ]
      },
      "properties": {
        "id": 10946724748,
        "osm_type": "node",
        "name": "Pensiunea Rina",
        "tourism": "guest_house"
      }
    },
    {
      "type": "Feature",
      "geometry": {
        "type": "Point",
        "coordinates": [
          25.9155309,
          47.0117142
        ]
      },
      "properties": {
        "id": 11107449906,
        "osm_type": "node",
        "tourism": "guest_house"
      }
    },
    {
      "type": "Feature",
      "geometry": {
        "type": "Point",
        "coordinates": [
          25.9112477,
          47.0140229
        ]
      },
      "properties": {
        "id": 11107480405,
        "osm_type": "node",
        "tourism": "guest_house"
      }
    },
    {
      "type": "Feature",
      "geometry": {
        "type": "Point",
        "coordinates": [
          25.9155274,
          47.0115694
        ]
      },
      "properties": {
        "id": 11107484005,
        "osm_type": "node",
        "tourism": "guest_house"
      }
    },
    {
      "type": "Feature",
      "geometry": {
        "type": "Point",
        "coordinates": [
          26.3532001,
          46.9359654
        ]
      },
      "properties": {
        "id": 11132360217,
        "osm_type": "node",
        "name": "Apartment ASR",
        "tourism": "apartment"
      }
    },
    {
      "type": "Feature",
      "geometry": {
        "type": "Point",
        "coordinates": [
          26.3835606,
          46.9367569
        ]
      },
      "properties": {
        "id": 11158316705,
        "osm_type": "node",
        "tourism": "apartment"
      }
    },
    {
      "type": "Feature",
      "geometry": {
        "type": "Point",
        "coordinates": [
          26.3836925,
          46.9371217
        ]
      },
      "properties": {
        "id": 11158316706,
        "osm_type": "node",
        "tourism": "apartment"
      }
    },
    {
      "type": "Feature",
      "geometry": {
        "type": "Point",
        "coordinates": [
          26.3836842,
          46.9368932
        ]
      },
      "properties": {
        "id": 11158316805,
        "osm_type": "node",
        "tourism": "apartment"
      }
    },
    {
      "type": "Feature",
      "geometry": {
        "type": "Point",
        "coordinates": [
          26.3835794,
          46.9369789
        ]
      },
      "properties": {
        "id": 11158316905,
        "osm_type": "node",
        "tourism": "apartment"
      }
    },
    {
      "type": "Feature",
      "geometry": {
        "type": "Point",
        "coordinates": [
          26.261723,
          47.2381283
        ]
      },
      "properties": {
        "id": 11378122113,
        "osm_type": "node",
        "name": "Casa Dintre Brazi",
        "tourism": "chalet"
      }
    },
    {
      "type": "Feature",
      "geometry": {
        "type": "Point",
        "coordinates": [
          26.036319,
          47.0604788
        ]
      },
      "properties": {
        "id": 11422404809,
        "osm_type": "node",
        "name": "Pensiunea Hangu",
        "tourism": "guest_house"
      }
    },
    {
      "type": "Feature",
      "geometry": {
        "type": "Point",
        "coordinates": [
          25.8492121,
          46.8227218
        ]
      },
      "properties": {
        "id": 11944336957,
        "osm_type": "node",
        "name": "Pensiunea Cheile Șugăului",
        "tourism": "guest_house"
      }
    },
    {
      "type": "Feature",
      "geometry": {
        "type": "Point",
        "coordinates": [
          25.8365424,
          46.7643423
        ]
      },
      "properties": {
        "id": 11957784140,
        "osm_type": "node",
        "name": "Cabanu lui Ion",
        "tourism": "guest_house"
      }
    },
    {
      "type": "Feature",
      "geometry": {
        "type": "Point",
        "coordinates": [
          25.8304999,
          46.783129
        ]
      },
      "properties": {
        "id": 11957784141,
        "osm_type": "node",
        "name": "Casa Iris",
        "tourism": "guest_house",
        "phone": "+40745799924"
      }
    },
    {
      "type": "Feature",
      "geometry": {
        "type": "Point",
        "coordinates": [
          25.833616,
          46.7820385
        ]
      },
      "properties": {
        "id": 11957784142,
        "osm_type": "node",
        "name": "Casa Chindea",
        "tourism": "guest_house",
        "phone": "+40740472144"
      }
    },
    {
      "type": "Feature",
      "geometry": {
        "type": "Point",
        "coordinates": [
          25.8242524,
          46.785934
        ]
      },
      "properties": {
        "id": 11957784143,
        "osm_type": "node",
        "name": "Pensiunea Hășmaș",
        "tourism": "guest_house",
        "phone": "+40735515918"
      }
    },
    {
      "type": "Feature",
      "geometry": {
        "type": "Point",
        "coordinates": [
          25.8110991,
          46.7966627
        ]
      },
      "properties": {
        "id": 11957784144,
        "osm_type": "node",
        "name": "Casa Codrilor",
        "tourism": "guest_house"
      }
    },
    {
      "type": "Feature",
      "geometry": {
        "type": "Point",
        "coordinates": [
          26.321009,
          47.0128099
        ]
      },
      "properties": {
        "id": 12108263405,
        "osm_type": "node",
        "name": "Pensiunea Agroturistica Molidu",
        "tourism": "apartment"
      }
    },
    {
      "type": "Feature",
      "geometry": {
        "type": "Point",
        "coordinates": [
          26.4394153,
          46.881249
        ]
      },
      "properties": {
        "id": 12218162438,
        "osm_type": "node",
        "name": "Casa Edelweiss",
        "tourism": "guest_house"
      }
    },
    {
      "type": "Feature",
      "geometry": {
        "type": "Point",
        "coordinates": [
          26.3876282,
          46.8082032
        ]
      },
      "properties": {
        "id": 12564795003,
        "osm_type": "node",
        "name": "Cabana Negulești",
        "tourism": "guest_house",
        "website": "https://www.facebook.com/cabana.negulesti1/?locale=ro_RO"
      }
    },
    {
      "type": "Feature",
      "geometry": {
        "type": "Point",
        "coordinates": [
          25.9372479,
          46.7940901
        ]
      },
      "properties": {
        "id": 12581428786,
        "osm_type": "node",
        "name": "Pensiunea Vânătorul",
        "tourism": "guest_house"
      }
    },
    {
      "type": "Feature",
      "geometry": {
        "type": "Point",
        "coordinates": [
          25.9459575,
          46.7956602
        ]
      },
      "properties": {
        "id": 12581428787,
        "osm_type": "node",
        "name": "Cabana Tribal",
        "tourism": "apartment"
      }
    },
    {
      "type": "Feature",
      "geometry": {
        "type": "Point",
        "coordinates": [
          26.1282424,
          46.9517839
        ]
      },
      "properties": {
        "id": 12819296901,
        "osm_type": "node",
        "name": "Cabana din deal",
        "tourism": "chalet",
        "website": "https://www.turistinfo.ro/bicaz/cazare-bicaz/cabana_din_deal-c125367.html"
      }
    },
    {
      "type": "Feature",
      "geometry": {
        "type": "Point",
        "coordinates": [
          25.9484751,
          46.9651807
        ]
      },
      "properties": {
        "id": 12827734302,
        "osm_type": "node",
        "name": "Cabana Dochia",
        "tourism": "alpine_hut"
      }
    },
    {
      "type": "Feature",
      "geometry": {
        "type": "Point",
        "coordinates": [
          26.1916772,
          47.0256264
        ]
      },
      "properties": {
        "id": 13030843557,
        "osm_type": "node",
        "name": "Pensiunea Bursucărie",
        "tourism": "guest_house"
      }
    },
    {
      "type": "Feature",
      "geometry": {
        "type": "Point",
        "coordinates": [
          26.3976991,
          47.1710438
        ]
      },
      "properties": {
        "id": 13124456202,
        "osm_type": "node",
        "tourism": "camp_site"
      }
    },
    {
      "type": "Feature",
      "geometry": {
        "type": "Point",
        "coordinates": [
          25.938144,
          47.056466
        ]
      },
      "properties": {
        "id": 13136625716,
        "osm_type": "node",
        "name": "Relax Camping",
        "tourism": "camp_site",
        "tents": "yes"
      }
    },
    {
      "type": "Feature",
      "geometry": {
        "type": "Point",
        "coordinates": [
          26.073622,
          46.9018807
        ]
      },
      "properties": {
        "id": 13391257077,
        "osm_type": "node",
        "name": "Piatra Corbului",
        "tourism": "guest_house"
      }
    },
    {
      "type": "Feature",
      "geometry": {
        "type": "Point",
        "coordinates": [
          26.1209238,
          46.8086157
        ]
      },
      "properties": {
        "id": 13412730074,
        "osm_type": "node",
        "name": "Cabana de vânătoare",
        "tourism": "alpine_hut"
      }
    },
    {
      "type": "Feature",
      "geometry": {
        "type": "Point",
        "coordinates": [
          26.0782163,
          46.8393196
        ]
      },
      "properties": {
        "id": 13421242147,
        "osm_type": "node",
        "name": "Cabana de vanatoare",
        "tourism": "alpine_hut"
      }
    },
    {
      "type": "Feature",
      "geometry": {
        "type": "Point",
        "coordinates": [
          26.1376186,
          46.8381555
        ]
      },
      "properties": {
        "id": 13426166815,
        "osm_type": "node",
        "name": "Vila Panta Radului",
        "tourism": "guest_house"
      }
    },
    {
      "type": "Feature",
      "geometry": {
        "type": "Point",
        "coordinates": [
          26.136464,
          46.8332551
        ]
      },
      "properties": {
        "id": 13426166816,
        "osm_type": "node",
        "name": "Holiday Village Tarcau",
        "tourism": "guest_house"
      }
    },
    {
      "type": "Feature",
      "geometry": {
        "type": "Point",
        "coordinates": [
          26.1151418,
          46.7445747
        ]
      },
      "properties": {
        "id": 13430141558,
        "osm_type": "node",
        "name": "Cabana de vânătoare Măieruș",
        "tourism": "alpine_hut"
      }
    },
    {
      "type": "Feature",
      "geometry": {
        "type": "Point",
        "coordinates": [
          26.3455232,
          47.2117616
        ]
      },
      "properties": {
        "id": 50072610,
        "osm_type": "way",
        "name": "Casa Arcașului",
        "tourism": "hotel"
      }
    },
    {
      "type": "Feature",
      "geometry": {
        "type": "Point",
        "coordinates": [
          26.6975118,
          47.0989281
        ]
      },
      "properties": {
        "id": 69908264,
        "osm_type": "way",
        "name": "Hanul Răzeșilor",
        "tourism": "motel"
      }
    },
    {
      "type": "Feature",
      "geometry": {
        "type": "Point",
        "coordinates": [
          25.9485477,
          46.9651322
        ]
      },
      "properties": {
        "id": 170367658,
        "osm_type": "way",
        "name": "Cabana Dochia",
        "tourism": "alpine_hut",
        "contact:phone": "+40 722 235 503",
        "website": "https://cabana-dochia.ro/"
      }
    },
    {
      "type": "Feature",
      "geometry": {
        "type": "Point",
        "coordinates": [
          25.9100563,
          47.0040631
        ]
      },
      "properties": {
        "id": 171092099,
        "osm_type": "way",
        "name": "Ursulețul",
        "tourism": "camp_site"
      }
    },
    {
      "type": "Feature",
      "geometry": {
        "type": "Point",
        "coordinates": [
          25.9475227,
          46.9989794
        ]
      },
      "properties": {
        "id": 171417272,
        "osm_type": "way",
        "name": "Cabana Fântânele",
        "tourism": "alpine_hut",
        "contact:phone": "+4 0730 603 803",
        "website": "https://cabanafantanele.ro/",
        "check_date": "12/7/2019"
      }
    },
    {
      "type": "Feature",
      "geometry": {
        "type": "Point",
        "coordinates": [
          25.8072215,
          46.7961805
        ]
      },
      "properties": {
        "id": 177525620,
        "osm_type": "way",
        "name": "Iașu'",
        "tourism": "guest_house"
      }
    },
    {
      "type": "Feature",
      "geometry": {
        "type": "Point",
        "coordinates": [
          26.1911901,
          46.9230452
        ]
      },
      "properties": {
        "id": 186886918,
        "osm_type": "way",
        "name": "Balad'or",
        "tourism": "guest_house"
      }
    },
    {
      "type": "Feature",
      "geometry": {
        "type": "Point",
        "coordinates": [
          25.9794349,
          46.9692135
        ]
      },
      "properties": {
        "id": 241630356,
        "osm_type": "way",
        "name": "Cabana Falon",
        "tourism": "chalet"
      }
    },
    {
      "type": "Feature",
      "geometry": {
        "type": "Point",
        "coordinates": [
          25.9108626,
          47.0029636
        ]
      },
      "properties": {
        "id": 262991780,
        "osm_type": "way",
        "name": "Leon",
        "tourism": "camp_site"
      }
    },
    {
      "type": "Feature",
      "geometry": {
        "type": "Point",
        "coordinates": [
          25.9224792,
          46.998237
        ]
      },
      "properties": {
        "id": 269804721,
        "osm_type": "way",
        "name": "Casa Pelerinul",
        "tourism": "hotel"
      }
    },
    {
      "type": "Feature",
      "geometry": {
        "type": "Point",
        "coordinates": [
          25.9248763,
          46.9977333
        ]
      },
      "properties": {
        "id": 269804730,
        "osm_type": "way",
        "name": "Hotel Bistrița",
        "tourism": "hotel"
      }
    },
    {
      "type": "Feature",
      "geometry": {
        "type": "Point",
        "coordinates": [
          26.3691648,
          46.9242209
        ]
      },
      "properties": {
        "id": 284793384,
        "osm_type": "way",
        "name": "Hotel Chimina",
        "tourism": "hotel",
        "phone": "0746137426",
        "website": "http://www.hotel-chimina.com/"
      }
    },
    {
      "type": "Feature",
      "geometry": {
        "type": "Point",
        "coordinates": [
          26.3608541,
          46.9278194
        ]
      },
      "properties": {
        "id": 284793408,
        "osm_type": "way",
        "name": "Pensiunea Lido",
        "tourism": "hotel"
      }
    },
    {
      "type": "Feature",
      "geometry": {
        "type": "Point",
        "coordinates": [
          25.9194312,
          46.998351
        ]
      },
      "properties": {
        "id": 286224276,
        "osm_type": "way",
        "name": "Vila Cristina 2",
        "tourism": "chalet"
      }
    },
    {
      "type": "Feature",
      "geometry": {
        "type": "Point",
        "coordinates": [
          25.9159834,
          46.9993163
        ]
      },
      "properties": {
        "id": 286224326,
        "osm_type": "way",
        "name": "Pensiunea Antia",
        "tourism": "guest_house",
        "website": "https://www.antiadurau.ro/"
      }
    },
    {
      "type": "Feature",
      "geometry": {
        "type": "Point",
        "coordinates": [
          25.9211563,
          46.9964513
        ]
      },
      "properties": {
        "id": 286224527,
        "osm_type": "way",
        "name": "Pensiune Rapsodia",
        "tourism": "guest_house",
        "phone": "+40745570757"
      }
    },
    {
      "type": "Feature",
      "geometry": {
        "type": "Point",
        "coordinates": [
          25.9483499,
          46.9753244
        ]
      },
      "properties": {
        "id": 290725701,
        "osm_type": "way",
        "name": "Stația Meteo Toaca",
        "tourism": "alpine_hut"
      }
    },
    {
      "type": "Feature",
      "geometry": {
        "type": "Point",
        "coordinates": [
          25.9493609,
          46.9618747
        ]
      },
      "properties": {
        "id": 290728868,
        "osm_type": "way",
        "name": "Campare Piatra Lată",
        "tourism": "camp_site",
        "tents": "yes"
      }
    },
    {
      "type": "Feature",
      "geometry": {
        "type": "Point",
        "coordinates": [
          26.2779167,
          47.142852
        ]
      },
      "properties": {
        "id": 354511037,
        "osm_type": "way",
        "name": "Pensiunea Văratec",
        "tourism": "guest_house",
        "phone": "+40233245113"
      }
    },
    {
      "type": "Feature",
      "geometry": {
        "type": "Point",
        "coordinates": [
          26.3372029,
          47.2048365
        ]
      },
      "properties": {
        "id": 367597705,
        "osm_type": "way",
        "name": "Hanul Urșilor",
        "tourism": "motel"
      }
    },
    {
      "type": "Feature",
      "geometry": {
        "type": "Point",
        "coordinates": [
          26.2832946,
          47.2196774
        ]
      },
      "properties": {
        "id": 367597706,
        "osm_type": "way",
        "name": "Pensiunea Edera",
        "tourism": "guest_house",
        "check_date": "2025-09-01"
      }
    },
    {
      "type": "Feature",
      "geometry": {
        "type": "Point",
        "coordinates": [
          26.000036,
          47.1282312
        ]
      },
      "properties": {
        "id": 370379187,
        "osm_type": "way",
        "tourism": "caravan_site"
      }
    },
    {
      "type": "Feature",
      "geometry": {
        "type": "Point",
        "coordinates": [
          26.0002381,
          47.1282666
        ]
      },
      "properties": {
        "id": 371250152,
        "osm_type": "way",
        "name": "Pensiunea Paradiso",
        "tourism": "hotel",
        "phone": "+40751753456"
      }
    },
    {
      "type": "Feature",
      "geometry": {
        "type": "Point",
        "coordinates": [
          26.1123608,
          46.9592428
        ]
      },
      "properties": {
        "id": 376575681,
        "osm_type": "way",
        "name": "Hostel Potoci",
        "tourism": "hostel"
      }
    },
    {
      "type": "Feature",
      "geometry": {
        "type": "Point",
        "coordinates": [
          26.3088732,
          46.942618
        ]
      },
      "properties": {
        "id": 378787918,
        "osm_type": "way",
        "name": "Pensiunea Roua",
        "tourism": "motel"
      }
    },
    {
      "type": "Feature",
      "geometry": {
        "type": "Point",
        "coordinates": [
          26.0875204,
          47.2291417
        ]
      },
      "properties": {
        "id": 460615638,
        "osm_type": "way",
        "name": "Casa Afetelor",
        "tourism": "guest_house"
      }
    },
    {
      "type": "Feature",
      "geometry": {
        "type": "Point",
        "coordinates": [
          25.8638249,
          47.1459185
        ]
      },
      "properties": {
        "id": 473871326,
        "osm_type": "way",
        "name": "Orient",
        "tourism": "hotel",
        "website": "pensiunea-orient.ro"
      }
    },
    {
      "type": "Feature",
      "geometry": {
        "type": "Point",
        "coordinates": [
          26.3620215,
          46.9741296
        ]
      },
      "properties": {
        "id": 668608274,
        "osm_type": "way",
        "name": "Pensiunea Bălan",
        "tourism": "guest_house"
      }
    },
    {
      "type": "Feature",
      "geometry": {
        "type": "Point",
        "coordinates": [
          25.9441769,
          46.9660638
        ]
      },
      "properties": {
        "id": 676673999,
        "osm_type": "way",
        "tourism": "alpine_hut"
      }
    },
    {
      "type": "Feature",
      "geometry": {
        "type": "Point",
        "coordinates": [
          25.9978326,
          46.8822799
        ]
      },
      "properties": {
        "id": 681491493,
        "osm_type": "way",
        "name": "Pensiunea Alexandra",
        "tourism": "guest_house"
      }
    },
    {
      "type": "Feature",
      "geometry": {
        "type": "Point",
        "coordinates": [
          25.8496683,
          46.825652
        ]
      },
      "properties": {
        "id": 681494446,
        "osm_type": "way",
        "name": "Cabana Ecolog",
        "tourism": "alpine_hut"
      }
    },
    {
      "type": "Feature",
      "geometry": {
        "type": "Point",
        "coordinates": [
          26.4472368,
          46.8753024
        ]
      },
      "properties": {
        "id": 721865984,
        "osm_type": "way",
        "name": "Motel Balcost",
        "tourism": "motel"
      }
    },
    {
      "type": "Feature",
      "geometry": {
        "type": "Point",
        "coordinates": [
          26.2480914,
          46.9309688
        ]
      },
      "properties": {
        "id": 727691876,
        "osm_type": "way",
        "name": "Casa Ardeleanului",
        "tourism": "hotel",
        "phone": "+40754797052"
      }
    },
    {
      "type": "Feature",
      "geometry": {
        "type": "Point",
        "coordinates": [
          26.1996278,
          46.9817388
        ]
      },
      "properties": {
        "id": 777229895,
        "osm_type": "way",
        "name": "Cabana Silvică",
        "tourism": "alpine_hut"
      }
    },
    {
      "type": "Feature",
      "geometry": {
        "type": "Point",
        "coordinates": [
          26.2954459,
          46.9288945
        ]
      },
      "properties": {
        "id": 777437169,
        "osm_type": "way",
        "name": "Pensiunea Lory",
        "tourism": "guest_house"
      }
    },
    {
      "type": "Feature",
      "geometry": {
        "type": "Point",
        "coordinates": [
          26.2949233,
          46.9288947
        ]
      },
      "properties": {
        "id": 777437171,
        "osm_type": "way",
        "tourism": "guest_house"
      }
    },
    {
      "type": "Feature",
      "geometry": {
        "type": "Point",
        "coordinates": [
          26.2515448,
          47.0154389
        ]
      },
      "properties": {
        "id": 848452768,
        "osm_type": "way",
        "name": "Camere de închiriat Aioane",
        "tourism": "guest_house"
      }
    },
    {
      "type": "Feature",
      "geometry": {
        "type": "Point",
        "coordinates": [
          26.3237423,
          47.0123868
        ]
      },
      "properties": {
        "id": 894193123,
        "osm_type": "way",
        "name": "Pensiunea Almaș",
        "tourism": "guest_house"
      }
    },
    {
      "type": "Feature",
      "geometry": {
        "type": "Point",
        "coordinates": [
          26.2001875,
          46.7172519
        ]
      },
      "properties": {
        "id": 895295175,
        "osm_type": "way",
        "name": "Cabana Gosman",
        "tourism": "alpine_hut"
      }
    },
    {
      "type": "Feature",
      "geometry": {
        "type": "Point",
        "coordinates": [
          26.1260877,
          46.793773
        ]
      },
      "properties": {
        "id": 895307999,
        "osm_type": "way",
        "name": "Casa de vânătoare Teiuș",
        "tourism": "alpine_hut"
      }
    },
    {
      "type": "Feature",
      "geometry": {
        "type": "Point",
        "coordinates": [
          26.1914801,
          47.0258257
        ]
      },
      "properties": {
        "id": 937336997,
        "osm_type": "way",
        "name": "Pensiunea Bursucărie",
        "tourism": "alpine_hut"
      }
    },
    {
      "type": "Feature",
      "geometry": {
        "type": "Point",
        "coordinates": [
          26.170432,
          46.9872744
        ]
      },
      "properties": {
        "id": 939906992,
        "osm_type": "way",
        "name": "Cabana Silvică",
        "tourism": "alpine_hut"
      }
    },
    {
      "type": "Feature",
      "geometry": {
        "type": "Point",
        "coordinates": [
          26.1927003,
          46.916029
        ]
      },
      "properties": {
        "id": 974985453,
        "osm_type": "way",
        "name": "Pensiunea Onțanca",
        "tourism": "guest_house"
      }
    },
    {
      "type": "Feature",
      "geometry": {
        "type": "Point",
        "coordinates": [
          26.0433562,
          46.8087132
        ]
      },
      "properties": {
        "id": 1014242313,
        "osm_type": "way",
        "name": "Cabana Cujbelor",
        "tourism": "alpine_hut"
      }
    },
    {
      "type": "Feature",
      "geometry": {
        "type": "Point",
        "coordinates": [
          26.345726,
          47.0271053
        ]
      },
      "properties": {
        "id": 1016858150,
        "osm_type": "way",
        "name": "Activ Parc Hostel",
        "tourism": "hostel"
      }
    },
    {
      "type": "Feature",
      "geometry": {
        "type": "Point",
        "coordinates": [
          26.2978566,
          47.2341655
        ]
      },
      "properties": {
        "id": 1022356724,
        "osm_type": "way",
        "name": "Cabana Lunca",
        "tourism": "guest_house",
        "phone": "+40749453123",
        "website": "https://cabanalunca.ro/"
      }
    },
    {
      "type": "Feature",
      "geometry": {
        "type": "Point",
        "coordinates": [
          26.3479569,
          46.8050401
        ]
      },
      "properties": {
        "id": 1024289864,
        "osm_type": "way",
        "name": "Cabana Pietrosul",
        "tourism": "chalet"
      }
    },
    {
      "type": "Feature",
      "geometry": {
        "type": "Point",
        "coordinates": [
          26.370098,
          46.7221038
        ]
      },
      "properties": {
        "id": 1030973734,
        "osm_type": "way",
        "name": "Cabana de vânătoare",
        "tourism": "alpine_hut"
      }
    },
    {
      "type": "Feature",
      "geometry": {
        "type": "Point",
        "coordinates": [
          26.267426,
          46.7083217
        ]
      },
      "properties": {
        "id": 1030973737,
        "osm_type": "way",
        "name": "Cabana vânătoare",
        "tourism": "alpine_hut"
      }
    },
    {
      "type": "Feature",
      "geometry": {
        "type": "Point",
        "coordinates": [
          26.1330853,
          47.1366796
        ]
      },
      "properties": {
        "id": 1033923645,
        "osm_type": "way",
        "tourism": "alpine_hut"
      }
    },
    {
      "type": "Feature",
      "geometry": {
        "type": "Point",
        "coordinates": [
          26.3093926,
          46.9051305
        ]
      },
      "properties": {
        "id": 1037395587,
        "osm_type": "way",
        "tourism": "alpine_hut"
      }
    },
    {
      "type": "Feature",
      "geometry": {
        "type": "Point",
        "coordinates": [
          25.7486713,
          47.1589944
        ]
      },
      "properties": {
        "id": 1074616342,
        "osm_type": "way",
        "name": "Cabana Căprioara",
        "tourism": "alpine_hut"
      }
    },
    {
      "type": "Feature",
      "geometry": {
        "type": "Point",
        "coordinates": [
          25.7528486,
          47.1623158
        ]
      },
      "properties": {
        "id": 1074616344,
        "osm_type": "way",
        "name": "Pensiunea Popasul Vânătorului",
        "tourism": "alpine_hut"
      }
    },
    {
      "type": "Feature",
      "geometry": {
        "type": "Point",
        "coordinates": [
          25.7471363,
          47.1574399
        ]
      },
      "properties": {
        "id": 1074626436,
        "osm_type": "way",
        "name": "Cabana Steghioara",
        "tourism": "alpine_hut"
      }
    },
    {
      "type": "Feature",
      "geometry": {
        "type": "Point",
        "coordinates": [
          25.921495,
          46.996411
        ]
      },
      "properties": {
        "id": 1076486608,
        "osm_type": "way",
        "name": "Pensiunea Georgiana",
        "tourism": "guest_house",
        "phone": "+40733515681",
        "website": "https://pensiunea-georgiana.ro/"
      }
    },
    {
      "type": "Feature",
      "geometry": {
        "type": "Point",
        "coordinates": [
          26.3869608,
          47.2087085
        ]
      },
      "properties": {
        "id": 1082422272,
        "osm_type": "way",
        "name": "Pensiunea Voiajorul",
        "tourism": "guest_house",
        "phone": "+40 749 116 687"
      }
    },
    {
      "type": "Feature",
      "geometry": {
        "type": "Point",
        "coordinates": [
          26.3742717,
          47.2112018
        ]
      },
      "properties": {
        "id": 1161172544,
        "osm_type": "way",
        "name": "Pensiunea Bella",
        "tourism": "hotel"
      }
    },
    {
      "type": "Feature",
      "geometry": {
        "type": "Point",
        "coordinates": [
          26.1914864,
          47.2774381
        ]
      },
      "properties": {
        "id": 1173209819,
        "osm_type": "way",
        "name": "Tabăra Nemțișor",
        "tourism": "camp_site"
      }
    },
    {
      "type": "Feature",
      "geometry": {
        "type": "Point",
        "coordinates": [
          26.9771377,
          46.9299901
        ]
      },
      "properties": {
        "id": 1324839374,
        "osm_type": "way",
        "name": "Hanul Mărioarei",
        "tourism": "hotel"
      }
    },
    {
      "type": "Feature",
      "geometry": {
        "type": "Point",
        "coordinates": [
          26.3688514,
          47.2141914
        ]
      },
      "properties": {
        "id": 1328823333,
        "osm_type": "way",
        "tourism": "motel"
      }
    },
    {
      "type": "Feature",
      "geometry": {
        "type": "Point",
        "coordinates": [
          26.3443931,
          47.2118731
        ]
      },
      "properties": {
        "id": 1333226618,
        "osm_type": "way",
        "name": "Hotel Eden",
        "tourism": "hotel"
      }
    },
    {
      "type": "Feature",
      "geometry": {
        "type": "Point",
        "coordinates": [
          26.3689529,
          47.2044443
        ]
      },
      "properties": {
        "id": 1333508196,
        "osm_type": "way",
        "name": "Pensiunea Casablanca",
        "tourism": "guest_house"
      }
    },
    {
      "type": "Feature",
      "geometry": {
        "type": "Point",
        "coordinates": [
          25.8349976,
          46.900984
        ]
      },
      "properties": {
        "id": 1362534070,
        "osm_type": "way",
        "name": "Cabana Valea Stânii",
        "tourism": "guest_house"
      }
    },
    {
      "type": "Feature",
      "geometry": {
        "type": "Point",
        "coordinates": [
          26.0264076,
          47.045692
        ]
      },
      "properties": {
        "id": 1424224396,
        "osm_type": "way",
        "name": "Gradinile Romane",
        "tourism": "hotel",
        "phone": "0752804617",
        "website": "https://gradinileromane.ro/"
      }
    },
    {
      "type": "Feature",
      "geometry": {
        "type": "Point",
        "coordinates": [
          26.1022597,
          46.9915892
        ]
      },
      "properties": {
        "id": 1426884155,
        "osm_type": "way",
        "name": "La Bunica",
        "tourism": "guest_house",
        "phone": "+40751070587"
      }
    },
    {
      "type": "Feature",
      "geometry": {
        "type": "Point",
        "coordinates": [
          26.0861373,
          47.0101547
        ]
      },
      "properties": {
        "id": 1426886312,
        "osm_type": "way",
        "name": "Pensiunea Ioana",
        "tourism": "hotel"
      }
    },
    {
      "type": "Feature",
      "geometry": {
        "type": "Point",
        "coordinates": [
          26.3514541,
          47.2308511
        ]
      },
      "properties": {
        "id": 1459041060,
        "osm_type": "way",
        "tourism": "guest_house"
      }
    },
    {
      "type": "Feature",
      "geometry": {
        "type": "Point",
        "coordinates": [
          26.3468598,
          47.2323368
        ]
      },
      "properties": {
        "id": 1459041062,
        "osm_type": "way",
        "tourism": "guest_house"
      }
    },
    {
      "type": "Feature",
      "geometry": {
        "type": "Point",
        "coordinates": [
          26.3462353,
          47.2337809
        ]
      },
      "properties": {
        "id": 1459063786,
        "osm_type": "way",
        "tourism": "guest_house"
      }
    },
    {
      "type": "Feature",
      "geometry": {
        "type": "Point",
        "coordinates": [
          26.0522331,
          47.0444918
        ]
      },
      "properties": {
        "id": 1460252422,
        "osm_type": "way",
        "name": "Pensiunea Sara pe deal",
        "tourism": "guest_house"
      }
    },
    {
      "type": "Feature",
      "geometry": {
        "type": "Point",
        "coordinates": [
          26.3562452,
          47.2629627
        ]
      },
      "properties": {
        "id": 1460467837,
        "osm_type": "way",
        "tourism": "guest_house"
      }
    },
    {
      "type": "Feature",
      "geometry": {
        "type": "Point",
        "coordinates": [
          26.5212169,
          47.180903
        ]
      },
      "properties": {
        "id": 1463073990,
        "osm_type": "way",
        "name": "Moara Veche",
        "tourism": "guest_house"
      }
    },
    {
      "type": "Feature",
      "geometry": {
        "type": "Point",
        "coordinates": [
          26.0686694,
          47.0206197
        ]
      },
      "properties": {
        "id": 1479871339,
        "osm_type": "way",
        "name": "Pensiunea Lostrita",
        "tourism": "guest_house",
        "phone": "+40774481401",
        "website": "https://pensiunealostrita.ro/"
      }
    },
    {
      "type": "Feature",
      "geometry": {
        "type": "Point",
        "coordinates": [
          26.3966884,
          47.1709877
        ]
      },
      "properties": {
        "id": 1503383660,
        "osm_type": "way",
        "tourism": "camp_site"
      }
    }
  ]
}